{
  "id": 2048358201,
  "type": "Feature",
  "properties": {
    "geom:area": 0,
    "geom:bbox": "-122.365920,36.722610,-121.878770,37.614590",
    "geom:latitude": 37.236162805584144,
    "geom:longitude": -122.08611588659282,
    "src:alt_label": "swim-approach",
    "src:geom": "swim",
    "swim:elevations": [
      5441,
      4850,
      4767,
      4499,
      4134,
      3896,
      3644,
      3381,
      3340,
      3322,
      3285,
      2944,
      2769,
      2595,
      2373,
      2213,
      2135,
      1924,
      1768,
      1526,
      1523,
      1482,
      1330,
      1220,
      1033,
      948,
      763,
      641,
      455,
      416,
      268,
      187,
      34,
      600
    ],
    "swim:geom": "approach",
    "swim:timestamps": [
      1789648770,
      1789648828,
      1789648836,
      1789648863,
      1789648900,
      1789648927,
      1789648950,
      1789648981,
      1789649037,
      1789649047,
      1789649070,
      1789649126,
      1789649155,
      1789649180,
      1789649215,
      1789649240,
      1789649252,
      1789649283,
      1789649315,
      1789649365,
      1789649373,
      1789649404,
      1789649437,
      1789649460,
      1789649517,
      1789649551,
      1789649591,
      1789649618,
      1789649664,
      1789649676,
      1789649712,
      1789649739,
      1789649773,
      1789649792
    ],
    "wof:geomhash": "40aeb18dc1a275bf7231508d82ca68ad",
    "wof:id": 2048358201,
    "wof:repo": "sfomuseum-data-flights-2026-09"
  },
  "bbox": [
    -122.36592,
    36.72261,
    -121.87877,
    37.61459
  ],
  "geometry": {"type":"LineString","coordinates":[[-121.87877,36.72261],[-121.91619,36.82041],[-121.91986,36.83348],[-121.93238,36.87823],[-121.94956,36.94002],[-121.96501,36.98248],[-121.97884,37.01758],[-121.99759,37.06574],[-122.02698,37.14157],[-122.03329,37.15239],[-122.05837,37.17055],[-122.11714,37.20992],[-122.13976,37.23652],[-122.15907,37.25914],[-122.18659,37.2909],[-122.20091,37.31553],[-122.19797,37.32778],[-122.17494,37.35646],[-122.14389,37.38119],[-122.09672,37.42126],[-122.08955,37.42723],[-122.06668,37.45002],[-122.07164,37.47948],[-122.08574,37.49572],[-122.14094,37.52029],[-122.17357,37.53393],[-122.21049,37.54956],[-122.234,37.55946],[-122.27059,37.57479],[-122.27949,37.5786],[-122.307,37.59028],[-122.32734,37.59862],[-122.35333,37.60962],[-122.36592,37.61459]]}
}
