{
  "id": 2048353843,
  "type": "Feature",
  "properties": {
    "geom:area": 0,
    "geom:bbox": "-122.542020,36.732650,-121.313200,37.657890",
    "geom:latitude": 37.2039115192404,
    "geom:longitude": -122.00429441686362,
    "src:alt_label": "swim-takeoff",
    "src:geom": "swim",
    "swim:elevations": [
      350,
      578,
      690,
      1189,
      1454,
      1668,
      2105,
      2415,
      2963,
      3140,
      3306,
      3524,
      3757,
      4383,
      4712,
      5149,
      5255,
      5718,
      5782,
      5917,
      6054,
      6452,
      6659,
      7049,
      7329,
      7501,
      7530,
      7666,
      7910,
      8171,
      8404,
      8707,
      8826
    ],
    "swim:geom": "takeoff",
    "swim:timestamps": [
      1789592400,
      1789592440,
      1789592464,
      1789592515,
      1789592545,
      1789592560,
      1789592591,
      1789592615,
      1789592660,
      1789592679,
      1789592713,
      1789592740,
      1789592764,
      1789592812,
      1789592840,
      1789592875,
      1789592884,
      1789592934,
      1789592940,
      1789592958,
      1789592972,
      1789593015,
      1789593037,
      1789593077,
      1789593110,
      1789593130,
      1789593134,
      1789593156,
      1789593185,
      1789593220,
      1789593246,
      1789593274,
      1789593310
    ],
    "wof:geomhash": "1f0e331229eb04ae7e67c807e3735e4e",
    "wof:id": 2048353843,
    "wof:repo": "sfomuseum-data-flights-2026-09"
  },
  "bbox": [
    -122.54202,
    36.73265,
    -121.3132,
    37.65789
  ],
  "geometry": {"type":"LineString","coordinates":[[-122.40705,37.6317],[-122.44554,37.64723],[-122.4726,37.65789],[-122.53717,37.65451],[-122.54202,37.61909],[-122.53249,37.60113],[-122.51246,37.56402],[-122.49695,37.5346],[-122.46166,37.48394],[-122.43789,37.46716],[-122.38899,37.43591],[-122.34686,37.40869],[-122.30906,37.38397],[-122.23037,37.3329],[-122.18515,37.30348],[-122.12717,37.26573],[-122.11211,37.25592],[-122.02531,37.19953],[-122.01481,37.19265],[-121.98408,37.1727],[-121.95826,37.15591],[-121.87913,37.10453],[-121.83936,37.07859],[-121.76397,37.02927],[-121.70197,36.9886],[-121.66369,36.96337],[-121.65747,36.95927],[-121.61382,36.93064],[-121.55831,36.89384],[-121.48863,36.84832],[-121.43711,36.81472],[-121.38183,36.77889],[-121.3132,36.73265]]}
}
