{
  "id": 2048347941,
  "type": "Feature",
  "properties": {
    "geom:area": 0,
    "geom:bbox": "-122.545120,36.725100,-121.451930,37.668830",
    "geom:latitude": 37.23200442051224,
    "geom:longitude": -122.05258418857767,
    "src:alt_label": "swim-takeoff",
    "src:geom": "swim",
    "swim:elevations": [
      183,
      487,
      963,
      1190,
      1370,
      1465,
      1623,
      2280,
      3009,
      3256,
      3386,
      4054,
      4140,
      4385,
      4578,
      5078,
      5632,
      5911,
      6183,
      6723,
      6951,
      7264,
      7703,
      7793,
      8066,
      8401,
      8721,
      8931,
      9107,
      9305,
      9494
    ],
    "swim:geom": "takeoff",
    "swim:timestamps": [
      1789503146,
      1789503171,
      1789503206,
      1789503228,
      1789503247,
      1789503256,
      1789503270,
      1789503313,
      1789503358,
      1789503381,
      1789503400,
      1789503449,
      1789503455,
      1789503473,
      1789503487,
      1789503525,
      1789503564,
      1789503585,
      1789503606,
      1789503651,
      1789503672,
      1789503700,
      1789503745,
      1789503757,
      1789503790,
      1789503829,
      1789503866,
      1789503895,
      1789503915,
      1789503945,
      1789503977
    ],
    "wof:geomhash": "71058d48be1c1dc7176f69fc2c5e0ee5",
    "wof:id": 2048347941,
    "wof:repo": "sfomuseum-data-flights-2026-09"
  },
  "bbox": [
    -122.54512,
    36.7251,
    -121.45193,
    37.66883
  ],
  "geometry": {"type":"LineString","coordinates":[[-122.39036,37.62539],[-122.4106,37.63415],[-122.4427,37.64775],[-122.46372,37.65694],[-122.48555,37.66639],[-122.49778,37.66883],[-122.51746,37.66665],[-122.54512,37.62166],[-122.49735,37.57567],[-122.4675,37.55261],[-122.44114,37.53205],[-122.36943,37.47617],[-122.36039,37.46907],[-122.33227,37.44693],[-122.30973,37.42931],[-122.24994,37.38205],[-122.18716,37.33303],[-122.15206,37.30555],[-122.11653,37.2778],[-122.04085,37.21734],[-122.00508,37.18911],[-121.95634,37.15062],[-121.87672,37.0866],[-121.85714,37.06915],[-121.79938,37.02015],[-121.7277,36.95919],[-121.66091,36.90207],[-121.60644,36.85784],[-121.56927,36.82607],[-121.51383,36.77749],[-121.45193,36.7251]]}
}
