{
  "id": 2048260789,
  "type": "Feature",
  "properties": {
    "date:inception_lower": "2026-09-05",
    "date:inception_upper": "2026-09-05",
    "edtf:cessation": "",
    "edtf:inception": "2026-09-05",
    "flysfo:actual_timestamp": -1,
    "flysfo:airline": "NZ",
    "flysfo:base_airline": "",
    "flysfo:base_flight_number": "9361",
    "flysfo:date": "2026-09-05",
    "flysfo:estimated_timestamp": 1788623280,
    "flysfo:event": "D",
    "flysfo:flight_number": "NZ9361",
    "flysfo:gate": "D6",
    "flysfo:journey": "SFO-PHL",
    "flysfo:scheduled_timestamp": 1788623400,
    "flysfo:timestamp": 1788623400,
    "geom:area": 0,
    "geom:bbox": "-122.370943,37.617990,-75.247885,39.880952",
    "geom:latitude": 38.749471,
    "geom:longitude": -98.809414,
    "iata:airline": "NZ",
    "iata:base_airline": "",
    "icao:airline": "ANZ",
    "icao:base_airline": "ANZ",
    "lbl:latitude": 37.616838,
    "lbl:longitude": -122.380969,
    "sfomuseum:airline_id": 1159283697,
    "sfomuseum:arrival_id": 102529403,
    "sfomuseum:base_flight_id": "20260905-D-ANZ-9361",
    "sfomuseum:departure_id": 102527513,
    "sfomuseum:flight_id": "20260905-D-ANZ-9361",
    "sfomuseum:flight_number": [
      "ANZ9361",
      "NZ9361"
    ],
    "sfomuseum:placetype": "flight",
    "src:geom": "flysfo",
    "wof:belongsto": [
      1947304067,
      102527513,
      1947304595,
      102191575,
      85633793,
      102087579,
      85922583,
      554784711,
      85688637,
      1947304621,
      1947304591,
      102085387
    ],
    "wof:country": "US",
    "wof:created": 1788711033,
    "wof:geomhash": "262283982e32a09ea653beb1776c6fc7",
    "wof:hierarchy": [
      {
        "building_id": 1947304067,
        "campus_id": 102527513,
        "concourse_id": 1947304595,
        "continent_id": 102191575,
        "country_id": 85633793,
        "county_id": 102087579,
        "custom_id": 2048260789,
        "flight_id": 2048260789,
        "locality_id": 85922583,
        "postalcode_id": 554784711,
        "region_id": 85688637,
        "venue_id": 1947304621,
        "wing_id": 1947304591
      },
      {
        "building_id": 1947304067,
        "campus_id": 102527513,
        "concourse_id": 1947304595,
        "continent_id": 102191575,
        "country_id": 85633793,
        "county_id": 102085387,
        "custom_id": 2048260789,
        "flight_id": 2048260789,
        "region_id": 85688637,
        "venue_id": 1947304621,
        "wing_id": 1947304591
      }
    ],
    "wof:id": 2048260789,
    "wof:involves": [
      102529403,
      102527513,
      1159283697,
      1947304621,
      1159283697
    ],
    "wof:lastmodified": 1788711033,
    "wof:name": "NZ9361 (SFO-PHL)",
    "wof:parent_id": 1947304621,
    "wof:placetype": "custom",
    "wof:placetype_alt": [
      "flight"
    ],
    "wof:repo": "sfomuseum-data-flights-2026-09",
    "wof:superseded_by": [],
    "wof:supersedes": []
  },
  "bbox": [
    -122.370943,
    37.61799,
    -75.247885,
    39.880952
  ],
  "geometry": {"type":"MultiPoint","coordinates":[[-122.370943,37.61799],[-75.247885,39.880952]]}
}
