{
  "id": 2048405513,
  "type": "Feature",
  "properties": {
    "geom:area": 0,
    "geom:bbox": "-122.592950,36.719530,-121.450520,37.669030",
    "geom:latitude": 37.21332192249552,
    "geom:longitude": -122.102614258238,
    "src:alt_label": "swim-takeoff",
    "src:geom": "swim",
    "swim:elevations": [
      348,
      560,
      908,
      1400,
      1687,
      1948,
      2490,
      3062,
      3344,
      3964,
      4350,
      4663,
      5233,
      5561,
      6179,
      6567,
      6768,
      7535,
      7784,
      8186,
      8492,
      8858,
      9035,
      9312,
      9822,
      10094,
      10187,
      10339,
      10706,
      11078,
      11142
    ],
    "swim:geom": "takeoff",
    "swim:timestamps": [
      1790061591,
      1790061618,
      1790061659,
      1790061689,
      1790061715,
      1790061733,
      1790061765,
      1790061800,
      1790061827,
      1790061864,
      1790061890,
      1790061908,
      1790061945,
      1790061967,
      1790062008,
      1790062035,
      1790062050,
      1790062106,
      1790062127,
      1790062162,
      1790062190,
      1790062224,
      1790062246,
      1790062272,
      1790062311,
      1790062338,
      1790062351,
      1790062370,
      1790062399,
      1790062436,
      1790062441
    ],
    "wof:geomhash": "cc3d4d0f1d1f185f8a2b4e141e90a3fc",
    "wof:id": 2048405513,
    "wof:repo": "sfomuseum-data-flights-2026-09"
  },
  "bbox": [
    -122.59295,
    36.71953,
    -121.45052,
    37.66903
  ],
  "geometry": {"type":"LineString","coordinates":[[-122.39701,37.6282],[-122.41989,37.63838],[-122.46556,37.65805],[-122.50441,37.66903],[-122.54044,37.65419],[-122.55466,37.6334],[-122.57546,37.59498],[-122.59295,37.55039],[-122.56927,37.51805],[-122.51437,37.484],[-122.47538,37.4569],[-122.44802,37.43724],[-122.38934,37.39502],[-122.35324,37.36918],[-122.28397,37.31984],[-122.23587,37.28546],[-122.20922,37.26637],[-122.10934,37.19484],[-122.06921,37.166],[-122.00483,37.11946],[-121.94927,37.07943],[-121.88302,37.03155],[-121.83883,37.00007],[-121.78551,36.96235],[-121.70791,36.90703],[-121.65372,36.86821],[-121.62804,36.84951],[-121.59128,36.8229],[-121.53241,36.77955],[-121.46023,36.72692],[-121.45052,36.71953]]}
}
