{
  "id": 2048458433,
  "type": "Feature",
  "properties": {
    "geom:area": 0,
    "geom:bbox": "-122.794900,37.531660,-122.102500,38.492560",
    "geom:latitude": 37.87077163082975,
    "geom:longitude": -122.5004992954262,
    "src:alt_label": "swim-approach",
    "src:geom": "swim",
    "swim:elevations": [
      7054,
      6898,
      6554,
      6293,
      6017,
      5794,
      5503,
      5428,
      5150,
      4880,
      4675,
      4376,
      4143,
      3912,
      3807,
      3725,
      3489,
      3352,
      3353,
      3353,
      3288,
      3113,
      3083,
      2655,
      2390,
      2265,
      1877,
      1612,
      1476,
      1176,
      1066,
      912,
      801,
      586,
      497,
      477,
      303,
      215,
      89,
      0,
      0
    ],
    "swim:geom": "approach",
    "swim:timestamps": [
      1790605914,
      1790605930,
      1790605967,
      1790605996,
      1790606025,
      1790606049,
      1790606080,
      1790606088,
      1790606117,
      1790606152,
      1790606176,
      1790606209,
      1790606240,
      1790606273,
      1790606284,
      1790606296,
      1790606333,
      1790606360,
      1790606393,
      1790606396,
      1790606421,
      1790606457,
      1790606461,
      1790606518,
      1790606546,
      1790606560,
      1790606604,
      1790606634,
      1790606648,
      1790606692,
      1790606716,
      1790606745,
      1790606780,
      1790606813,
      1790606831,
      1790606837,
      1790606878,
      1790606892,
      1790606933,
      1790606956,
      1790606960
    ],
    "wof:geomhash": "e8bbb021a3864737dc8fb50709dbc1e3",
    "wof:id": 2048458433,
    "wof:repo": "sfomuseum-data-flights-2026-09"
  },
  "bbox": [
    -122.7949,
    37.53166,
    -122.1025,
    38.49256
  ],
  "geometry": {"type":"LineString","coordinates":[[-122.7949,38.49256],[-122.79123,38.45824],[-122.78345,38.38191],[-122.77769,38.32382],[-122.77185,38.26575],[-122.76509,38.21794],[-122.74852,38.16038],[-122.74411,38.14508],[-122.72834,38.0905],[-122.70996,38.02662],[-122.69776,37.98455],[-122.68058,37.92501],[-122.64889,37.87717],[-122.60237,37.83306],[-122.58745,37.81887],[-122.57092,37.80319],[-122.52168,37.75666],[-122.48668,37.72436],[-122.43114,37.70057],[-122.42651,37.69887],[-122.39112,37.68593],[-122.33995,37.66797],[-122.33447,37.66605],[-122.2591,37.63936],[-122.22248,37.62654],[-122.20499,37.62042],[-122.14834,37.60033],[-122.11203,37.58482],[-122.1025,37.57159],[-122.12716,37.53166],[-122.15505,37.53195],[-122.17806,37.54967],[-122.20893,37.56655],[-122.24213,37.57666],[-122.26054,37.58298],[-122.26654,37.58495],[-122.30465,37.59565],[-122.3166,37.59904],[-122.34392,37.60812],[-122.35808,37.61375],[-122.36033,37.61444]]}
}
