{
  "id": 2048466869,
  "type": "Feature",
  "properties": {
    "geom:area": 0,
    "geom:bbox": "-157.866667,21.150000,-122.150556,37.620833",
    "geom:latitude": 28.843652086589465,
    "geom:longitude": -139.64471880965883,
    "src:alt_label": "swim-path",
    "src:geom": "swim",
    "swim:altitudes": [
      "024C",
      "044C",
      "068C",
      "091C",
      "111C",
      "119C",
      "128C",
      "147C",
      "160C",
      "174C",
      "183C",
      "194C",
      "206C",
      "216C",
      "222C",
      "230C",
      "237C",
      "243C",
      "250C",
      "257C",
      "261C",
      "266C",
      "272C",
      "277C",
      "286C",
      "293C",
      "301C",
      "310C",
      "323C",
      "330",
      "330",
      "330",
      "330",
      "330",
      "330",
      "330",
      "330",
      "330",
      "330",
      "330",
      "330",
      "330",
      "330",
      "330",
      "330",
      "330",
      "330C",
      "330C",
      "330C",
      "330C",
      "330C",
      "330C",
      "330C",
      "330",
      "330",
      "330",
      "330",
      "330",
      "330",
      "330",
      "330",
      "330",
      "330",
      "330",
      "330",
      "330",
      "330",
      "330",
      "330",
      "330",
      "330",
      "330",
      "330",
      "330",
      "329",
      "300",
      "275C",
      "271",
      "251C",
      "246",
      "227C",
      "222",
      "204C",
      "200",
      "175",
      "159",
      "155",
      "131",
      "110",
      "107",
      "100",
      "099C",
      "099",
      "097",
      "091",
      "084",
      "072",
      "071",
      "060",
      "060",
      "058",
      "058",
      "047",
      "047",
      "030",
      "030",
      "027",
      "022",
      "021",
      "016",
      "014",
      "007",
      "005",
      "100"
    ],
    "swim:geom": "path",
    "swim:speeds": [
      220,
      250,
      270,
      290,
      310,
      360,
      400,
      400,
      410,
      420,
      430,
      440,
      440,
      450,
      460,
      470,
      470,
      480,
      490,
      490,
      500,
      500,
      510,
      510,
      510,
      510,
      500,
      500,
      500,
      500,
      500,
      500,
      500,
      500,
      500,
      500,
      500,
      500,
      500,
      490,
      490,
      490,
      490,
      500,
      490,
      490,
      482,
      482,
      483,
      483,
      479,
      467,
      466,
      490,
      478,
      480,
      479,
      480,
      478,
      480,
      478,
      470,
      477,
      470,
      476,
      470,
      476,
      480,
      477,
      477,
      478,
      480,
      479,
      490,
      480,
      473,
      470,
      474,
      470,
      465,
      450,
      446,
      440,
      428,
      411,
      394,
      398,
      398,
      385,
      389,
      355,
      359,
      333,
      332,
      283,
      254,
      236,
      239,
      224,
      229,
      221,
      224,
      222,
      222,
      218,
      187,
      186,
      180,
      180,
      181,
      180,
      159,
      162,
      133
    ],
    "swim:timestamps": [
      1790728011,
      1790728071,
      1790728131,
      1790728191,
      1790728251,
      1790728312,
      1790728371,
      1790728432,
      1790728492,
      1790728552,
      1790728612,
      1790728673,
      1790728733,
      1790728793,
      1790728853,
      1790728913,
      1790728973,
      1790729034,
      1790729094,
      1790729154,
      1790729214,
      1790729274,
      1790729335,
      1790729394,
      1790729455,
      1790729515,
      1790729575,
      1790729635,
      1790729756,
      1790729816,
      1790729876,
      1790729937,
      1790729997,
      1790730057,
      1790730117,
      1790730177,
      1790730237,
      1790730297,
      1790730358,
      1790730417,
      1790730478,
      1790730538,
      1790730598,
      1790730658,
      1790730719,
      1790730762,
      1790742446,
      1790742506,
      1790742566,
      1790742626,
      1790742686,
      1790742746,
      1790742806,
      1790742849,
      1790742866,
      1790742909,
      1790742926,
      1790742969,
      1790742986,
      1790743029,
      1790743046,
      1790743089,
      1790743106,
      1790743149,
      1790743166,
      1790743210,
      1790743226,
      1790743269,
      1790743286,
      1790743346,
      1790743406,
      1790743450,
      1790743466,
      1790743510,
      1790743526,
      1790743587,
      1790743630,
      1790743647,
      1790743690,
      1790743707,
      1790743750,
      1790743767,
      1790743810,
      1790743827,
      1790743887,
      1790743925,
      1790743947,
      1790744007,
      1790744050,
      1790744067,
      1790744105,
      1790744127,
      1790744165,
      1790744187,
      1790744237,
      1790744307,
      1790744357,
      1790744367,
      1790744417,
      1790744427,
      1790744477,
      1790744487,
      1790744537,
      1790744547,
      1790744607,
      1790744651,
      1790744667,
      1790744711,
      1790744727,
      1790744771,
      1790744787,
      1790744831,
      1790744847,
      1790744907
    ],
    "wof:geomhash": "f9b75ebcfd17cbacfad2dab73c77baa6",
    "wof:id": 2048466869,
    "wof:repo": "sfomuseum-data-flights-2026-09"
  },
  "bbox": [
    -157.86666666666667,
    21.15,
    -122.15055555555556,
    37.62083333333334
  ],
  "geometry": {"type":"LineString","coordinates":[[-157.86666666666667,21.25],[-157.83333333333334,21.2],[-157.76666666666668,21.15],[-157.68333333333334,21.15],[-157.6,21.166666666666668],[-157.5,21.183333333333334],[-157.38333333333333,21.2],[-157.26666666666668,21.216666666666665],[-157.13333333333333,21.233333333333334],[-157.01666666666668,21.25],[-156.88333333333333,21.266666666666666],[-156.75,21.3],[-156.63333333333333,21.316666666666666],[-156.5,21.35],[-156.36666666666667,21.383333333333333],[-156.23333333333332,21.416666666666668],[-156.1,21.45],[-155.95,21.466666666666665],[-155.81666666666666,21.5],[-155.66666666666666,21.533333333333335],[-155.53333333333333,21.566666666666666],[-155.38333333333333,21.6],[-155.23333333333332,21.633333333333333],[-155.08333333333334,21.666666666666668],[-154.93333333333334,21.7],[-154.78333333333333,21.733333333333334],[-154.63333333333333,21.766666666666666],[-154.5,21.8],[-154.2,21.85],[-154.06666666666666,21.883333333333333],[-153.91666666666666,21.916666666666668],[-153.76666666666668,21.95],[-153.61666666666667,21.983333333333334],[-153.48333333333332,22.016666666666666],[-153.33333333333334,22.05],[-153.18333333333334,22.066666666666666],[-153.03333333333333,22.1],[-152.9,22.133333333333333],[-152.75,22.166666666666668],[-152.6,22.183333333333334],[-152.45,22.216666666666665],[-152.31666666666666,22.25],[-152.16666666666666,22.283333333333335],[-152.05,22.3],[-151.88333333333333,22.333333333333332],[-151.83333333333334,22.366666666666667],[-126.50722222222223,35.532222222222224],[-126.36555555555555,35.60111111111111],[-126.22416666666666,35.66916666666666],[-126.08,35.73638888888889],[-125.94472222222223,35.806666666666665],[-125.9063888888889,35.93083333333333],[-125.87583333333333,36.05472222222222],[-125.76666666666667,36.11666666666667],[-125.74027777777778,36.12916666666667],[-125.61666666666666,36.166666666666664],[-125.59416666666667,36.19138888888889],[-125.48333333333333,36.233333333333334],[-125.45027777777779,36.2525],[-125.33333333333333,36.3],[-125.30472222222222,36.31361111111111],[-125.18333333333334,36.35],[-125.16055555555556,36.37416666666667],[-125.05,36.416666666666664],[-125.01305555555555,36.43527777777778],[-124.9,36.483333333333334],[-124.86888888888888,36.49527777777778],[-124.75,36.55],[-124.72055555555556,36.556666666666665],[-124.57472222222222,36.61611111111111],[-124.42666666666668,36.67666666666666],[-124.3,36.71666666666667],[-124.28027777777778,36.73638888888889],[-124.15,36.766666666666666],[-124.13083333333333,36.79694444444444],[-123.98444444444445,36.85583333333334],[-123.86666666666666,36.88333333333333],[-123.83888888888889,36.91416666666667],[-123.71666666666667,36.95],[-123.69416666666667,36.971944444444446],[-123.58333333333333,37],[-123.55444444444444,37.02777777777778],[-123.45,37.06666666666667],[-123.42083333333333,37.08083333333334],[-123.2936111111111,37.130833333333335],[-123.2,37.166666666666664],[-123.17,37.17944444444444],[-123.03861111111111,37.21638888888889],[-122.91666666666667,37.25],[-122.90972222222223,37.24666666666667],[-122.81666666666666,37.266666666666666],[-122.78916666666666,37.275],[-122.7,37.3],[-122.67305555555556,37.300555555555555],[-122.56666666666666,37.31666666666667],[-122.48805555555556,37.345],[-122.4,37.36666666666667],[-122.40805555555556,37.36333333333334],[-122.33333333333333,37.38333333333333],[-122.33083333333333,37.38111111111111],[-122.25,37.4],[-122.25722222222223,37.39805555555556],[-122.18333333333334,37.43333333333333],[-122.19055555555556,37.426944444444445],[-122.15055555555556,37.49055555555556],[-122.16666666666667,37.53333333333333],[-122.17611111111111,37.53916666666667],[-122.2,37.56666666666667],[-122.2213888888889,37.56944444444445],[-122.26666666666667,37.583333333333336],[-122.27972222222222,37.58833333333334],[-122.31666666666666,37.6],[-122.33222222222221,37.60388888888889],[-122.37444444444444,37.62083333333334]]}
}
