{
  "id": 2048435373,
  "type": "Feature",
  "properties": {
    "geom:area": 0,
    "geom:bbox": "-119.224722,27.877222,-81.316667,35.927500",
    "geom:latitude": 31.292291591408226,
    "geom:longitude": -100.33022031726867,
    "src:alt_label": "swim-path",
    "src:geom": "swim",
    "swim:altitudes": [
      "330C",
      "330C",
      "330C",
      "330C",
      "330C",
      "330C",
      "330C",
      "330C",
      "330C",
      "330C",
      "330C",
      "330C",
      "330C",
      "330C",
      "330C",
      "330C",
      "330C",
      "330C",
      "330C",
      "330C",
      "330C",
      "330C",
      "330C",
      "330C",
      "330C",
      "330C",
      "330C",
      "330C",
      "330C",
      "330C",
      "330C",
      "330C",
      "330C",
      "330C",
      "330C",
      "330C",
      "330C",
      "330C",
      "330C",
      "330C",
      "330C",
      "330C",
      "330C",
      "330C",
      "330C",
      "330C",
      "330C",
      "330C",
      "330C",
      "330C",
      "330C",
      "330C",
      "330C",
      "330C",
      "330C",
      "330C",
      "330C",
      "330C",
      "330C",
      "330C",
      "330C",
      "330C",
      "330C",
      "330C",
      "330C",
      "330C",
      "330C",
      "330C",
      "330C",
      "330C",
      "330C",
      "330C",
      "330C",
      "330C",
      "330C",
      "330C",
      "330C",
      "330C",
      "330C",
      "330C",
      "330C",
      "330C",
      "330C",
      "330C",
      "330C",
      "330C",
      "330C",
      "330C",
      "330C",
      "330C",
      "330C",
      "330C",
      "330C",
      "330C",
      "330C",
      "330C",
      "330C",
      "330C",
      "330C",
      "330C",
      "330C",
      "330C",
      "330C",
      "330C",
      "330C",
      "330C",
      "330C",
      "330C",
      "330C",
      "330C",
      "330C",
      "330C",
      "330C",
      "330C",
      "330C",
      "330C",
      "330C",
      "330C",
      "330C",
      "330C",
      "330C",
      "330C",
      "330C",
      "330C",
      "330C",
      "330C",
      "330C",
      "330C",
      "330C",
      "330C",
      "330C",
      "330C",
      "330C",
      "330C",
      "330C",
      "330C",
      "330C",
      "330C",
      "330C",
      "330C",
      "330C",
      "330C",
      "330C",
      "330C",
      "330C",
      "330C",
      "330C",
      "330C",
      "330C",
      "330C",
      "330C",
      "330C",
      "330C",
      "330C",
      "330C",
      "330C",
      "330C",
      "330C",
      "330C",
      "330C",
      "330C",
      "330C",
      "330C",
      "330C",
      "330C",
      "330C",
      "330C",
      "330C",
      "330C",
      "330C",
      "330C",
      "330C",
      "330C",
      "330C",
      "330C",
      "330C",
      "330C",
      "330C",
      "330C",
      "330C",
      "330C",
      "330C",
      "330C",
      "330C",
      "330C",
      "330C",
      "330C",
      "327",
      "324",
      "316",
      "315",
      "309C",
      "310C",
      "310C",
      "310C",
      "310C",
      "310C",
      "310C",
      "310C",
      "310C",
      "310C",
      "310C",
      "310C",
      "310C",
      "310C",
      "310C",
      "310C",
      "310C",
      "310C",
      "310C",
      "310C",
      "310C",
      "310C",
      "310C",
      "310C",
      "310C",
      "310C",
      "310C",
      "310C",
      "310C",
      "310C",
      "310C",
      "310C",
      "310C",
      "310C",
      "310C",
      "310C",
      "310C",
      "310C",
      "310C",
      "310C",
      "310C",
      "310C",
      "310C",
      "310C",
      "310C",
      "310C",
      "310C",
      "310C",
      "310C",
      "310C",
      "310C",
      "310C",
      "310C",
      "310C",
      "310C",
      "310C",
      "310C",
      "310C",
      "310C",
      "310C",
      "310C",
      "310C",
      "310C",
      "310C",
      "310C",
      "310C",
      "310C",
      "310C",
      "310C",
      "310C",
      "310C",
      "310C",
      "310C",
      "310C",
      "310C",
      "310C",
      "310C",
      "310C",
      "310C",
      "310C",
      "310C",
      "310C",
      "310C",
      "310C",
      "310C",
      "310C",
      "310C",
      "310C",
      "310C",
      "310C",
      "310C",
      "310C",
      "310C",
      "310C",
      "310C",
      "310C",
      "310C",
      "310C",
      "310C",
      "310C",
      "310C",
      "310C",
      "310C",
      "310C",
      "310C",
      "310C",
      "310C",
      "310C",
      "310C",
      "310C",
      "310C",
      "310C",
      "310C",
      "310C",
      "310C",
      "310C",
      "310C",
      "310C",
      "310C",
      "310C",
      "310C",
      "310C",
      "310C",
      "310C",
      "310C",
      "310C",
      "310C",
      "310C",
      "310C",
      "310C",
      "310C",
      "310C",
      "310C",
      "310C",
      "310C",
      "310C",
      "310",
      "310",
      "310",
      "310",
      "310",
      "310",
      "310",
      "310",
      "310",
      "310",
      "310",
      "310",
      "310",
      "309",
      "292",
      "288",
      "269",
      "264",
      "260",
      "260",
      "260",
      "260",
      "260",
      "260",
      "252",
      "247",
      "225",
      "206",
      "202",
      "200",
      "184",
      "180",
      "166",
      "162",
      "147",
      "141",
      "137",
      "126",
      "119",
      "109",
      "107",
      "100",
      "093",
      "085",
      "083",
      "077",
      "066",
      "061",
      "053",
      "050",
      "041",
      "038",
      "033",
      "032",
      "031",
      "030",
      "029",
      "027",
      "022",
      "019",
      "017",
      "013",
      "009",
      "006",
      "001"
    ],
    "swim:geom": "path",
    "swim:speeds": [
      493,
      484,
      482,
      481,
      481,
      482,
      481,
      481,
      480,
      479,
      479,
      478,
      478,
      478,
      479,
      481,
      483,
      486,
      488,
      489,
      490,
      490,
      490,
      492,
      491,
      492,
      492,
      492,
      493,
      492,
      492,
      491,
      491,
      491,
      496,
      497,
      497,
      498,
      498,
      498,
      499,
      499,
      499,
      500,
      501,
      502,
      502,
      504,
      504,
      506,
      506,
      507,
      508,
      509,
      509,
      510,
      510,
      510,
      510,
      509,
      503,
      508,
      504,
      506,
      503,
      500,
      500,
      500,
      499,
      498,
      498,
      499,
      500,
      501,
      502,
      503,
      503,
      504,
      505,
      506,
      507,
      507,
      506,
      506,
      506,
      506,
      506,
      506,
      507,
      507,
      507,
      507,
      506,
      506,
      506,
      506,
      507,
      507,
      507,
      507,
      507,
      506,
      507,
      506,
      506,
      506,
      505,
      506,
      506,
      506,
      506,
      506,
      507,
      506,
      507,
      506,
      508,
      508,
      509,
      506,
      510,
      507,
      510,
      510,
      511,
      509,
      512,
      510,
      513,
      514,
      515,
      513,
      516,
      515,
      517,
      517,
      517,
      517,
      517,
      517,
      517,
      517,
      516,
      516,
      515,
      515,
      514,
      514,
      514,
      513,
      514,
      514,
      514,
      514,
      514,
      514,
      514,
      513,
      514,
      513,
      513,
      512,
      512,
      510,
      510,
      510,
      510,
      511,
      511,
      512,
      512,
      513,
      513,
      514,
      514,
      514,
      514,
      514,
      514,
      513,
      511,
      508,
      508,
      507,
      507,
      507,
      508,
      508,
      508,
      508,
      509,
      512,
      513,
      514,
      514,
      514,
      514,
      513,
      511,
      509,
      507,
      505,
      505,
      505,
      506,
      506,
      507,
      507,
      506,
      504,
      502,
      501,
      500,
      500,
      500,
      500,
      500,
      500,
      500,
      500,
      500,
      500,
      499,
      497,
      495,
      495,
      495,
      496,
      496,
      496,
      496,
      495,
      494,
      494,
      504,
      494,
      504,
      494,
      498,
      495,
      498,
      496,
      498,
      497,
      498,
      497,
      498,
      497,
      498,
      497,
      498,
      497,
      498,
      496,
      498,
      495,
      496,
      493,
      494,
      491,
      494,
      490,
      490,
      489,
      490,
      489,
      490,
      490,
      491,
      491,
      492,
      492,
      493,
      493,
      494,
      494,
      495,
      495,
      495,
      495,
      496,
      496,
      496,
      496,
      495,
      495,
      494,
      493,
      492,
      491,
      490,
      489,
      488,
      488,
      488,
      488,
      488,
      489,
      489,
      490,
      487,
      491,
      491,
      491,
      492,
      491,
      492,
      490,
      491,
      489,
      490,
      488,
      489,
      488,
      488,
      487,
      488,
      487,
      487,
      488,
      488,
      488,
      488,
      489,
      489,
      489,
      489,
      489,
      489,
      488,
      488,
      487,
      487,
      486,
      486,
      485,
      485,
      485,
      485,
      485,
      485,
      484,
      481,
      470,
      467,
      454,
      454,
      452,
      452,
      451,
      451,
      449,
      448,
      442,
      436,
      434,
      403,
      389,
      388,
      380,
      379,
      370,
      326,
      329,
      324,
      322,
      316,
      313,
      292,
      291,
      278,
      283,
      281,
      271,
      258,
      233,
      222,
      201,
      198,
      181,
      185,
      185,
      186,
      185,
      185,
      180,
      183,
      180,
      151,
      148,
      143,
      146
    ],
    "swim:timestamps": [
      1790409863,
      1790410043,
      1790410103,
      1790410163,
      1790410223,
      1790410286,
      1790410343,
      1790410466,
      1790410527,
      1790410708,
      1790410766,
      1790410826,
      1790410888,
      1790410946,
      1790411006,
      1790411068,
      1790411127,
      1790411188,
      1790411248,
      1790411307,
      1790411368,
      1790411428,
      1790411488,
      1790411511,
      1790411547,
      1790411573,
      1790411609,
      1790411633,
      1790411669,
      1790411691,
      1790411726,
      1790411752,
      1790411787,
      1790411813,
      1790411848,
      1790411885,
      1790411906,
      1790411946,
      1790411967,
      1790412003,
      1790412029,
      1790412063,
      1790412086,
      1790412126,
      1790412146,
      1790412183,
      1790412206,
      1790412246,
      1790412268,
      1790412303,
      1790412329,
      1790412366,
      1790412386,
      1790412426,
      1790412448,
      1790412483,
      1790412509,
      1790412545,
      1790412567,
      1790412604,
      1790412626,
      1790412664,
      1790412688,
      1790412724,
      1790412784,
      1790412845,
      1790412904,
      1790412965,
      1790413026,
      1790413084,
      1790413146,
      1790413204,
      1790413264,
      1790413324,
      1790413385,
      1790413445,
      1790413504,
      1790413564,
      1790413624,
      1790413686,
      1790413744,
      1790413804,
      1790413866,
      1790413924,
      1790413984,
      1790414046,
      1790414106,
      1790414224,
      1790414284,
      1790414346,
      1790414406,
      1790414464,
      1790414526,
      1790414586,
      1790414646,
      1790414704,
      1790414764,
      1790414827,
      1790414884,
      1790414945,
      1790415006,
      1790415053,
      1790415065,
      1790415113,
      1790415124,
      1790415173,
      1790415183,
      1790415233,
      1790415246,
      1790415305,
      1790415353,
      1790415365,
      1790415413,
      1790415426,
      1790415473,
      1790415483,
      1790415533,
      1790415544,
      1790415594,
      1790415604,
      1790415654,
      1790415664,
      1790415714,
      1790415724,
      1790415774,
      1790415786,
      1790415834,
      1790415844,
      1790415894,
      1790415904,
      1790415954,
      1790415964,
      1790416014,
      1790416026,
      1790416074,
      1790416086,
      1790416134,
      1790416144,
      1790416194,
      1790416204,
      1790416254,
      1790416264,
      1790416314,
      1790416326,
      1790416374,
      1790416385,
      1790416434,
      1790416445,
      1790416494,
      1790416505,
      1790416565,
      1790416614,
      1790416624,
      1790416674,
      1790416686,
      1790416734,
      1790416746,
      1790416794,
      1790416807,
      1790416854,
      1790416866,
      1790416914,
      1790416926,
      1790416974,
      1790416987,
      1790417034,
      1790417046,
      1790417094,
      1790417107,
      1790417154,
      1790417165,
      1790417214,
      1790417225,
      1790417274,
      1790417285,
      1790417334,
      1790417345,
      1790417394,
      1790417406,
      1790417454,
      1790417466,
      1790417514,
      1790417527,
      1790417574,
      1790417587,
      1790417634,
      1790417647,
      1790417694,
      1790417707,
      1790417754,
      1790417765,
      1790417814,
      1790417825,
      1790417874,
      1790417885,
      1790417945,
      1790418066,
      1790418126,
      1790418186,
      1790418246,
      1790418306,
      1790418366,
      1790418426,
      1790418486,
      1790418546,
      1790418606,
      1790418666,
      1790418726,
      1790418786,
      1790418847,
      1790418907,
      1790418967,
      1790419087,
      1790419146,
      1790419207,
      1790419267,
      1790419327,
      1790419386,
      1790419447,
      1790419507,
      1790419567,
      1790419627,
      1790419688,
      1790419745,
      1790419806,
      1790419866,
      1790419926,
      1790419986,
      1790420047,
      1790420107,
      1790420167,
      1790420227,
      1790420287,
      1790420348,
      1790420381,
      1790420408,
      1790420441,
      1790420468,
      1790420501,
      1790420528,
      1790420561,
      1790420588,
      1790420621,
      1790420648,
      1790420681,
      1790420708,
      1790420741,
      1790420768,
      1790420801,
      1790420828,
      1790420861,
      1790420888,
      1790420921,
      1790420948,
      1790420981,
      1790421008,
      1790421041,
      1790421068,
      1790421101,
      1790421128,
      1790421162,
      1790421189,
      1790421234,
      1790421249,
      1790421294,
      1790421309,
      1790421354,
      1790421369,
      1790421414,
      1790421429,
      1790421474,
      1790421489,
      1790421534,
      1790421549,
      1790421594,
      1790421610,
      1790421654,
      1790421667,
      1790421714,
      1790421727,
      1790421774,
      1790421787,
      1790421834,
      1790421847,
      1790421895,
      1790421907,
      1790421955,
      1790421967,
      1790422015,
      1790422028,
      1790422075,
      1790422088,
      1790422135,
      1790422148,
      1790422195,
      1790422255,
      1790422270,
      1790422315,
      1790422327,
      1790422375,
      1790422387,
      1790422435,
      1790422447,
      1790422495,
      1790422507,
      1790422555,
      1790422567,
      1790422616,
      1790422627,
      1790422676,
      1790422687,
      1790422736,
      1790422747,
      1790422796,
      1790422807,
      1790422856,
      1790422867,
      1790422916,
      1790422927,
      1790422976,
      1790422987,
      1790423036,
      1790423047,
      1790423096,
      1790423107,
      1790423156,
      1790423168,
      1790423216,
      1790423228,
      1790423276,
      1790423288,
      1790423337,
      1790423348,
      1790423397,
      1790423408,
      1790423457,
      1790423468,
      1790423517,
      1790423528,
      1790423577,
      1790423588,
      1790423637,
      1790423648,
      1790423697,
      1790423708,
      1790423757,
      1790423768,
      1790423817,
      1790423828,
      1790423877,
      1790423889,
      1790423937,
      1790423949,
      1790424009,
      1790424057,
      1790424069,
      1790424118,
      1790424178,
      1790424189,
      1790424238,
      1790424249,
      1790424298,
      1790424349,
      1790424369,
      1790424418,
      1790424429,
      1790424470,
      1790424489,
      1790424523,
      1790424549,
      1790424583,
      1790424598,
      1790424610,
      1790424644,
      1790424670,
      1790424709,
      1790424730,
      1790424778,
      1790424790,
      1790424824,
      1790424839,
      1790424850,
      1790424884,
      1790424899,
      1790424910,
      1790424938,
      1790424959,
      1790424970,
      1790424998,
      1790425030,
      1790425058,
      1790425090
    ],
    "wof:geomhash": "056e14c2514b836224b417baf7bb8ee2",
    "wof:id": 2048435373,
    "wof:repo": "sfomuseum-data-flights-2026-09"
  },
  "bbox": [
    -119.22472222222223,
    27.877222222222223,
    -81.31666666666666,
    35.927499999999995
  ],
  "geometry": {"type":"LineString","coordinates":[[-119.22472222222223,35.927499999999995],[-118.79805555555555,35.717222222222226],[-118.65916666666668,35.64805555555556],[-118.51888888888888,35.57805555555556],[-118.37805555555555,35.507777777777775],[-118.21861111111112,35.427499999999995],[-118.09916666666666,35.367222222222225],[-117.80166666666666,35.21611111111111],[-117.66250000000001,35.144999999999996],[-117.26638888888888,34.94083333333333],[-117.12888888888888,34.86944444444445],[-116.99277777777777,34.79861111111111],[-116.85666666666665,34.727222222222224],[-116.72,34.65555555555555],[-116.58333333333333,34.58361111111111],[-116.44777777777779,34.51166666666666],[-116.30944444444444,34.43833333333333],[-116.17083333333333,34.364444444444445],[-116.03194444444445,34.29],[-115.8938888888889,34.215833333333336],[-115.76138888888889,34.14416666666666],[-115.62444444444444,34.07],[-115.48611111111111,33.995],[-115.42111111111112,33.959722222222226],[-115.34694444444445,33.91888888888889],[-115.28277777777778,33.88472222222222],[-115.20833333333334,33.84277777777778],[-115.14750000000001,33.809444444444445],[-115.07277777777777,33.76833333333333],[-115.01,33.73361111111111],[-114.9363888888889,33.69305555555555],[-114.87305555555555,33.658055555555556],[-114.79944444444445,33.61805555555556],[-114.73194444444445,33.59388888888889],[-114.64222222222223,33.57777777777778],[-114.53666666666666,33.56083333333333],[-114.47777777777777,33.55138888888889],[-114.37277777777777,33.53444444444444],[-114.31444444444445,33.525],[-114.20972222222223,33.50833333333333],[-114.15055555555556,33.49861111111111],[-114.04472222222222,33.48166666666667],[-113.9888888888889,33.472500000000004],[-113.8825,33.45527777777778],[-113.82444444444444,33.44555555555555],[-113.71722222222222,33.42777777777778],[-113.66083333333334,33.41861111111111],[-113.55361111111111,33.40083333333333],[-113.49361111111111,33.39083333333333],[-113.38666666666667,33.37277777777778],[-113.32972222222222,33.363055555555555],[-113.21861111111112,33.344166666666666],[-113.15111111111112,33.33277777777778],[-113.05305555555556,33.316111111111105],[-112.98472222222222,33.30444444444444],[-112.88583333333334,33.28722222222222],[-112.81805555555555,33.275555555555556],[-112.72,33.25861111111111],[-112.65333333333334,33.246944444444445],[-112.56583333333333,33.23166666666667],[-112.48916666666666,33.219722222222224],[-112.40361111111112,33.20305555555556],[-112.3386111111111,33.19166666666666],[-112.24138888888889,33.174166666666665],[-112.07916666666667,33.14527777777778],[-111.91972222222223,33.11638888888889],[-111.76027777777777,33.08722222222222],[-111.59833333333333,33.05777777777777],[-111.43944444444445,33.02833333333333],[-111.24777777777778,32.9925],[-111.08694444444444,32.962500000000006],[-110.92583333333334,32.93194444444444],[-110.76361111111112,32.901111111111106],[-110.60249999999999,32.87],[-110.44083333333333,32.83888888888889],[-110.28055555555555,32.8075],[-110.11888888888888,32.77583333333333],[-109.95694444444445,32.743611111111115],[-109.79666666666667,32.711666666666666],[-109.63361111111112,32.678888888888885],[-109.47111111111111,32.646388888888886],[-109.31138888888889,32.61388888888889],[-109.15194444444445,32.58111111111111],[-108.99194444444444,32.547777777777775],[-108.8325,32.515],[-108.66944444444445,32.480555555555554],[-108.51027777777777,32.44694444444444],[-108.17722222222223,32.37638888888889],[-108.01638888888888,32.34166666666667],[-107.85555555555555,32.30694444444444],[-107.69416666666667,32.27166666666667],[-107.53416666666666,32.236666666666665],[-107.37222222222222,32.200833333333335],[-107.21805555555555,32.166666666666664],[-107.05888888888889,32.13111111111111],[-106.90111111111112,32.095555555555556],[-106.7425,32.059444444444445],[-106.58388888888888,32.02333333333333],[-106.4113888888889,31.983888888888888],[-106.26,31.953888888888887],[-106.09444444444443,31.949166666666667],[-105.9775,31.946944444444444],[-105.92750000000001,31.94611111111111],[-105.81444444444445,31.944166666666668],[-105.765,31.943055555555556],[-105.65,31.940833333333334],[-105.61999999999999,31.942222222222224],[-105.48416666666667,31.9375],[-105.42861111111111,31.934166666666666],[-105.26416666666667,31.918055555555558],[-105.15694444444445,31.9075],[-105.09888888888888,31.901944444444442],[-104.9925,31.891388888888887],[-104.96194444444444,31.891666666666666],[-104.82527777777777,31.875],[-104.7975,31.874444444444446],[-104.66055555555556,31.858055555555556],[-104.60333333333332,31.852500000000003],[-104.49694444444445,31.841666666666665],[-104.46777777777778,31.83861111111111],[-104.29916666666666,31.82111111111111],[-104.3025,31.82111111111111],[-104.16611111111112,31.807222222222222],[-104.10555555555555,31.800833333333333],[-104,31.789444444444445],[-103.97111111111111,31.788611111111113],[-103.83444444444444,31.771944444444443],[-103.80499999999999,31.770833333333332],[-103.66888888888889,31.753888888888888],[-103.63722222222223,31.75027777777778],[-103.50111111111111,31.735277777777778],[-103.47083333333333,31.733888888888888],[-103.33388888888888,31.716666666666665],[-103.30361111111111,31.714166666666667],[-103.16416666666667,31.6975],[-103.13083333333333,31.69388888888889],[-102.99888888888889,31.678611111111113],[-102.96222222222222,31.674444444444447],[-102.83,31.659444444444443],[-102.7961111111111,31.655277777777776],[-102.66444444444446,31.640277777777776],[-102.62944444444443,31.63611111111111],[-102.49555555555555,31.62],[-102.46000000000001,31.615833333333335],[-102.32888888888888,31.60027777777778],[-102.29222222222222,31.59583333333333],[-102.16083333333334,31.579722222222223],[-102.12666666666667,31.575833333333332],[-101.99472222222222,31.559444444444445],[-101.95722222222223,31.554722222222225],[-101.79194444444444,31.534166666666668],[-101.66111111111111,31.517777777777777],[-101.6261111111111,31.513333333333332],[-101.49527777777777,31.496944444444445],[-101.46055555555556,31.4925],[-101.33,31.47583333333333],[-101.295,31.47138888888889],[-101.16388888888889,31.454444444444444],[-101.13027777777778,31.45],[-100.99972222222222,31.43305555555556],[-100.98277777777778,31.430833333333336],[-100.83416666666666,31.411388888888887],[-100.81833333333333,31.409166666666664],[-100.67333333333333,31.389722222222222],[-100.65416666666667,31.38722222222222],[-100.5213888888889,31.369444444444444],[-100.49,31.365000000000002],[-100.35722222222222,31.34722222222222],[-100.32666666666667,31.343055555555555],[-100.19250000000001,31.32472222222222],[-100.15944444444445,31.32],[-100.02722222222222,31.301666666666666],[-99.99472222222222,31.297222222222224],[-99.86027777777777,31.278333333333332],[-99.82916666666667,31.274166666666666],[-99.69527777777778,31.255277777777778],[-99.66416666666667,31.250833333333333],[-99.53222222222222,31.231944444444444],[-99.49972222222222,31.22722222222222],[-99.36638888888888,31.208055555555553],[-99.33666666666666,31.203611111111112],[-99.20666666666666,31.184722222222224],[-99.1763888888889,31.18027777777778],[-99.04472222222222,31.16111111111111],[-99.00666666666666,31.155555555555555],[-98.88277777777778,31.13722222222222],[-98.84444444444443,31.13138888888889],[-98.72055555555556,31.113055555555558],[-98.68222222222222,31.107222222222223],[-98.5525,31.087777777777777],[-98.52166666666666,31.083333333333332],[-98.38805555555557,31.063055555555557],[-98.35805555555555,31.058333333333334],[-98.2238888888889,31.03777777777778],[-98.19333333333334,31.033055555555556],[-98.03027777777778,31.00777777777778],[-97.70222222222222,30.95722222222222],[-97.53888888888889,30.932222222222222],[-97.38027777777778,30.907777777777778],[-97.22694444444444,30.883888888888887],[-97.03972222222222,30.854444444444447],[-96.87833333333333,30.828888888888887],[-96.71944444444445,30.803611111111113],[-96.56083333333333,30.77777777777778],[-96.40055555555556,30.751666666666665],[-96.2375,30.72472222222222],[-96.07833333333333,30.698611111111113],[-95.94444444444444,30.67638888888889],[-95.7625,30.645833333333332],[-95.60277777777777,30.61861111111111],[-95.44500000000001,30.591666666666665],[-95.31,30.56861111111111],[-94.9961111111111,30.51388888888889],[-94.81,30.481111111111108],[-94.65194444444445,30.453055555555554],[-94.49361111111111,30.425],[-94.365,30.401666666666664],[-94.20777777777778,30.373333333333335],[-94.05138888888888,30.345],[-93.8938888888889,30.315833333333334],[-93.70666666666666,30.28111111111111],[-93.55555555555556,30.253055555555555],[-93.40194444444445,30.224166666666665],[-93.24777777777778,30.195],[-93.0925,30.165555555555553],[-92.93916666666667,30.13611111111111],[-92.7825,30.105833333333333],[-92.62944444444443,30.07638888888889],[-92.47277777777778,30.045555555555556],[-92.31805555555555,30.01527777777778],[-92.16333333333334,29.984444444444446],[-92.00833333333334,29.953611111111112],[-91.85638888888889,29.923055555555557],[-91.70277777777778,29.891944444444444],[-91.62694444444443,29.86777777777778],[-91.55,29.861111111111114],[-91.47277777777778,29.836666666666666],[-91.39694444444446,29.829722222222223],[-91.32027777777778,29.807222222222222],[-91.24194444444444,29.797777777777778],[-91.16555555555556,29.775],[-91.08833333333332,29.766111111111112],[-91.01083333333334,29.744444444444447],[-90.93527777777778,29.734166666666667],[-90.8586111111111,29.714444444444442],[-90.78277777777778,29.701944444444443],[-90.70444444444445,29.68138888888889],[-90.62638888888888,29.66916666666667],[-90.55111111111111,29.649722222222223],[-90.47277777777778,29.636388888888888],[-90.39722222222223,29.6175],[-90.32055555555556,29.60388888888889],[-90.24222222222222,29.58277777777778],[-90.16694444444445,29.570833333333333],[-90.09083333333332,29.55138888888889],[-90.01555555555555,29.538333333333334],[-89.94027777777778,29.520555555555553],[-89.865,29.505277777777778],[-89.78916666666666,29.48611111111111],[-89.71416666666667,29.472499999999997],[-89.6375,29.453611111111112],[-89.56472222222222,29.439722222222223],[-89.45944444444444,29.41472222222222],[-89.41583333333334,29.406666666666666],[-89.30888888888889,29.381666666666668],[-89.26638888888888,29.37361111111111],[-89.12916666666666,29.342777777777776],[-89.11388888888888,29.339444444444442],[-88.97833333333334,29.30888888888889],[-88.96333333333334,29.30527777777778],[-88.82638888888889,29.274444444444445],[-88.8111111111111,29.27111111111111],[-88.6738888888889,29.239722222222223],[-88.65944444444445,29.23638888888889],[-88.52388888888889,29.205277777777777],[-88.50611111111111,29.20111111111111],[-88.37249999999999,29.170555555555556],[-88.35416666666666,29.16638888888889],[-88.22,29.135277777777777],[-88.20222222222222,29.13111111111111],[-88.06833333333333,29.1],[-88.0325,29.091666666666665],[-87.91555555555556,29.06416666666667],[-87.87972222222221,29.055833333333332],[-87.76361111111112,29.028333333333332],[-87.72944444444444,29.02027777777778],[-87.61444444444444,28.993055555555557],[-87.57972222222222,28.985],[-87.46027777777778,28.956666666666667],[-87.43027777777779,28.949444444444445],[-87.31333333333333,28.92138888888889],[-87.28166666666667,28.913888888888888],[-87.16277777777778,28.885277777777777],[-87.13333333333334,28.878055555555555],[-87.01555555555555,28.849444444444444],[-86.86666666666666,28.813333333333333],[-86.83611111111111,28.80611111111111],[-86.71722222222222,28.776944444444442],[-86.68666666666667,28.769444444444442],[-86.56833333333333,28.740277777777777],[-86.55305555555556,28.7375],[-86.41777777777779,28.703055555555554],[-86.40277777777779,28.700555555555553],[-86.27055555555556,28.66638888888889],[-86.2538888888889,28.66222222222222],[-86.12055555555555,28.629166666666666],[-86.1061111111111,28.625],[-85.9725,28.592222222222222],[-85.95805555555556,28.58861111111111],[-85.82555555555555,28.55527777777778],[-85.795,28.547500000000003],[-85.67750000000001,28.517777777777777],[-85.66555555555556,28.514722222222222],[-85.53138888888888,28.480555555555554],[-85.51444444444445,28.47611111111111],[-85.385,28.443055555555556],[-85.36666666666666,28.438333333333333],[-85.23694444444445,28.404999999999998],[-85.2213888888889,28.40111111111111],[-85.09083333333332,28.36722222222222],[-85.07305555555556,28.36277777777778],[-84.94166666666668,28.328611111111112],[-84.92611111111111,28.324444444444445],[-84.79416666666667,28.290000000000003],[-84.77888888888889,28.28611111111111],[-84.64694444444446,28.25138888888889],[-84.63138888888888,28.247500000000002],[-84.5,28.212777777777777],[-84.48333333333333,28.20861111111111],[-84.36777777777777,28.17777777777778],[-84.31138888888889,28.163055555555555],[-84.19388888888889,28.131666666666668],[-84.165,28.12388888888889],[-84.04916666666666,28.092777777777776],[-84.0213888888889,28.085277777777776],[-83.90416666666667,28.05388888888889],[-83.87555555555555,28.04638888888889],[-83.75944444444444,28.015],[-83.72944444444444,28.006944444444443],[-83.61166666666666,27.975277777777777],[-83.58305555555555,27.96722222222222],[-83.46666666666667,27.935277777777777],[-83.44027777777778,27.928055555555556],[-83.32666666666667,27.896944444444443],[-83.29861111111111,27.889722222222222],[-83.18611111111112,27.880555555555556],[-83.15722222222223,27.880555555555556],[-83.04666666666667,27.880555555555556],[-83.0175,27.880555555555556],[-82.90472222222223,27.880833333333335],[-82.87555555555555,27.880833333333335],[-82.76361111111112,27.880555555555556],[-82.73611111111111,27.880555555555556],[-82.59777777777778,27.879722222222224],[-82.4875,27.87777777777778],[-82.4625,27.877222222222223],[-82.36138888888888,27.896666666666665],[-82.24944444444445,27.941111111111113],[-82.22805555555556,27.949722222222224],[-82.14027777777778,27.985277777777778],[-82.11833333333333,27.99388888888889],[-82.03277777777778,28.028055555555554],[-81.95,28.066666666666666],[-81.93527777777778,28.066944444444445],[-81.8625,28.0975],[-81.83055555555555,28.1125],[-81.76666666666667,28.116666666666667],[-81.73583333333333,28.120833333333334],[-81.68333333333334,28.116666666666667],[-81.64472222222223,28.109722222222224],[-81.6,28.1],[-81.58777777777777,28.103055555555557],[-81.55777777777777,28.104166666666668],[-81.51666666666667,28.116666666666667],[-81.48083333333334,28.135833333333334],[-81.43333333333334,28.15],[-81.41472222222222,28.162499999999998],[-81.36833333333333,28.18111111111111],[-81.3586111111111,28.186944444444446],[-81.33333333333333,28.216666666666665],[-81.335,28.22222222222222],[-81.32944444444443,28.231111111111108],[-81.31666666666666,28.266666666666666],[-81.32055555555556,28.27138888888889],[-81.32055555555556,28.281666666666666],[-81.31666666666666,28.3],[-81.32083333333333,28.322222222222223],[-81.32111111111111,28.331666666666667],[-81.31666666666666,28.35],[-81.32138888888889,28.37361111111111],[-81.31666666666666,28.4],[-81.32194444444444,28.41444444444444]]}
}
