{
  "id": 2048290755,
  "type": "Feature",
  "properties": {
    "geom:area": 0,
    "geom:bbox": "-122.968750,37.323330,-122.126720,38.469070",
    "geom:latitude": 37.78882423256472,
    "geom:longitude": -122.49794884126958,
    "src:alt_label": "swim-approach",
    "src:geom": "swim",
    "swim:elevations": [
      7152,
      6996,
      6811,
      6481,
      6282,
      6065,
      5751,
      5669,
      5347,
      5211,
      4903,
      4703,
      4482,
      4220,
      4016,
      3743,
      3485,
      3384,
      3353,
      3353,
      3353,
      3353,
      3353,
      3097,
      2996,
      2774,
      2752,
      2574,
      2376,
      2226,
      1895,
      1668,
      1553,
      1445,
      1340,
      1249,
      1141,
      995,
      914,
      814,
      715,
      554,
      440,
      380,
      229,
      46
    ],
    "swim:geom": "approach",
    "swim:timestamps": [
      1788954596,
      1788954619,
      1788954644,
      1788954678,
      1788954704,
      1788954732,
      1788954776,
      1788954784,
      1788954829,
      1788954845,
      1788954888,
      1788954915,
      1788954945,
      1788954981,
      1788955003,
      1788955037,
      1788955073,
      1788955086,
      1788955131,
      1788955196,
      1788955206,
      1788955257,
      1788955266,
      1788955309,
      1788955327,
      1788955375,
      1788955392,
      1788955425,
      1788955494,
      1788955521,
      1788955553,
      1788955584,
      1788955603,
      1788955638,
      1788955673,
      1788955707,
      1788955731,
      1788955756,
      1788955786,
      1788955826,
      1788955849,
      1788955881,
      1788955910,
      1788955927,
      1788955964,
      1788956000
    ],
    "wof:geomhash": "3f0143ec83b953cdc4a67914d8f03aa3",
    "wof:id": 2048290755,
    "wof:repo": "sfomuseum-data-flights-2026-09"
  },
  "bbox": [
    -122.96875,
    37.32333,
    -122.12672,
    38.46907
  ],
  "geometry": {"type":"LineString","coordinates":[[-122.96875,38.46907],[-122.93984,38.43416],[-122.91098,38.39913],[-122.86964,38.34883],[-122.83959,38.31228],[-122.8064,38.27205],[-122.76296,38.20683],[-122.75837,38.19365],[-122.73755,38.12233],[-122.73022,38.09662],[-122.71084,38.02948],[-122.6988,37.98782],[-122.68591,37.94356],[-122.66207,37.89057],[-122.63567,37.864],[-122.59301,37.82366],[-122.54898,37.78233],[-122.53262,37.76689],[-122.48229,37.71936],[-122.41746,37.65828],[-122.40828,37.64965],[-122.36349,37.60058],[-122.35774,37.59155],[-122.32968,37.54545],[-122.31854,37.52684],[-122.29288,37.47455],[-122.2935,37.45511],[-122.29638,37.41618],[-122.29184,37.3371],[-122.25837,37.32333],[-122.21775,37.33848],[-122.18682,37.36313],[-122.17586,37.38256],[-122.15709,37.41797],[-122.14086,37.44926],[-122.12672,37.47672],[-122.12874,37.49526],[-122.14416,37.51163],[-122.16319,37.53026],[-122.1983,37.54655],[-122.2189,37.5553],[-122.24785,37.56754],[-122.27198,37.5777],[-122.286,37.58352],[-122.31534,37.59595],[-122.34297,37.60764]]}
}
