{
  "id": 2048346667,
  "type": "Feature",
  "properties": {
    "geom:area": 0,
    "geom:bbox": "-122.401340,37.624580,-121.428290,38.519100",
    "geom:latitude": 38.057087686745966,
    "geom:longitude": -121.91303073015584,
    "src:alt_label": "swim-takeoff",
    "src:geom": "swim",
    "swim:elevations": [
      244,
      477,
      987,
      1051,
      1371,
      1623,
      1803,
      2350,
      2634,
      3003,
      3378,
      3772,
      4170,
      4587,
      5076,
      5138,
      5794,
      6337,
      6528,
      6810,
      7208,
      7488,
      7946,
      8157,
      8441,
      8707,
      8749
    ],
    "swim:geom": "takeoff",
    "swim:timestamps": [
      1789497554,
      1789497577,
      1789497624,
      1789497634,
      1789497669,
      1789497688,
      1789497702,
      1789497741,
      1789497765,
      1789497788,
      1789497813,
      1789497856,
      1789497889,
      1789497921,
      1789497957,
      1789497961,
      1789498006,
      1789498047,
      1789498062,
      1789498086,
      1789498120,
      1789498146,
      1789498191,
      1789498214,
      1789498254,
      1789498289,
      1789498295
    ],
    "wof:geomhash": "0769d65310206b00a0292064e3060eb7",
    "wof:id": 2048346667,
    "wof:repo": "sfomuseum-data-flights-2026-09"
  },
  "bbox": [
    -122.40134,
    37.62458,
    -121.42829,
    38.5191
  ],
  "geometry": {"type":"LineString","coordinates":[[-122.38747,37.62458],[-122.40134,37.63692],[-122.36308,37.66289],[-122.35104,37.66503],[-122.30238,37.68185],[-122.27595,37.69291],[-122.257,37.7008],[-122.20398,37.73007],[-122.1795,37.75652],[-122.15652,37.78258],[-122.1316,37.81013],[-122.08374,37.86242],[-122.04437,37.90494],[-122.00411,37.94929],[-121.95725,38.00106],[-121.95189,38.00705],[-121.89204,38.07292],[-121.83512,38.13544],[-121.81472,38.15774],[-121.78065,38.19487],[-121.73114,38.24887],[-121.69243,38.29097],[-121.62386,38.36524],[-121.58954,38.40287],[-121.51866,38.46342],[-121.44219,38.51032],[-121.42829,38.5191]]}
}
