{
  "id": 2048335733,
  "type": "Feature",
  "properties": {
    "geom:area": 0,
    "geom:bbox": "-122.360280,36.729310,-121.884250,37.612640",
    "geom:latitude": 37.21570149020337,
    "geom:longitude": -122.07185879385874,
    "src:alt_label": "swim-approach",
    "src:geom": "swim",
    "swim:elevations": [
      4788,
      4583,
      4299,
      4177,
      3856,
      3802,
      3457,
      3414,
      3035,
      2857,
      2651,
      2591,
      2532,
      2364,
      2281,
      2210,
      2115,
      2058,
      1858,
      1736,
      1541,
      1395,
      1168,
      1153,
      982,
      778,
      696,
      616,
      422,
      325,
      218,
      86,
      66
    ],
    "swim:geom": "approach",
    "swim:timestamps": [
      1789406034,
      1789406059,
      1789406090,
      1789406105,
      1789406151,
      1789406163,
      1789406218,
      1789406225,
      1789406277,
      1789406300,
      1789406334,
      1789406360,
      1789406396,
      1789406420,
      1789406457,
      1789406475,
      1789406488,
      1789406500,
      1789406531,
      1789406560,
      1789406594,
      1789406620,
      1789406668,
      1789406672,
      1789406700,
      1789406753,
      1789406773,
      1789406796,
      1789406844,
      1789406872,
      1789406902,
      1789406938,
      1789406961
    ],
    "wof:geomhash": "b87c63c2f1663cf708ac3cb1555ece91",
    "wof:id": 2048335733,
    "wof:repo": "sfomuseum-data-flights-2026-09"
  },
  "bbox": [
    -122.36028,
    36.72931,
    -121.88425,
    37.61264
  ],
  "geometry": {"type":"LineString","coordinates":[[-121.88425,36.72931],[-121.90047,36.76685],[-121.91473,36.81665],[-121.92173,36.84151],[-121.94222,36.91468],[-121.94701,36.93213],[-121.97519,37.00946],[-121.97896,37.01923],[-122.00658,37.08963],[-122.01827,37.11976],[-122.03553,37.16389],[-122.04782,37.19562],[-122.0629,37.23386],[-122.07236,37.25774],[-122.08724,37.29482],[-122.09423,37.31247],[-122.09939,37.32598],[-122.10412,37.33812],[-122.11618,37.36871],[-122.12623,37.39755],[-122.1368,37.42842],[-122.14524,37.45225],[-122.15901,37.49371],[-122.15988,37.49627],[-122.1671,37.51729],[-122.20072,37.54529],[-122.21733,37.55243],[-122.23625,37.56043],[-122.27418,37.57634],[-122.29534,37.58519],[-122.31837,37.59494],[-122.34403,37.60566],[-122.36028,37.61264]]}
}
