{
  "id": 2048452451,
  "type": "Feature",
  "properties": {
    "geom:area": 0,
    "geom:bbox": "-122.559030,36.778070,-122.396920,37.669380",
    "geom:latitude": 37.21625159672605,
    "geom:longitude": -122.50660433647894,
    "src:alt_label": "swim-takeoff",
    "src:geom": "swim",
    "swim:elevations": [
      1415,
      1556,
      2814,
      2950,
      3295,
      3974,
      4128,
      4863,
      5360,
      5773,
      7430,
      7613,
      7779,
      7979,
      8312,
      8871,
      9184
    ],
    "swim:geom": "takeoff",
    "swim:timestamps": [
      1790532116,
      1790532129,
      1790532205,
      1790532214,
      1790532243,
      1790532291,
      1790532300,
      1790532347,
      1790532375,
      1790532400,
      1790532506,
      1790532519,
      1790532534,
      1790532551,
      1790532584,
      1790532657,
      1790532696
    ],
    "wof:geomhash": "8fe6ec34932d7bd992dcf33400e577ea",
    "wof:id": 2048452451,
    "wof:repo": "sfomuseum-data-flights-2026-09"
  },
  "bbox": [
    -122.55903,
    36.77807,
    -122.39692,
    37.66938
  ],
  "geometry": {"type":"LineString","coordinates":[[-122.50726,37.66938],[-122.52589,37.66473],[-122.52571,37.57831],[-122.51954,37.5675],[-122.49816,37.53031],[-122.48044,37.46003],[-122.48319,37.44504],[-122.49666,37.37132],[-122.50536,37.32483],[-122.51278,37.28399],[-122.54575,37.10531],[-122.54962,37.08431],[-122.55446,37.05887],[-122.55903,37.02962],[-122.53853,36.97146],[-122.44783,36.84828],[-122.39692,36.77807]]}
}
