{
  "id": 2048310741,
  "type": "Feature",
  "properties": {
    "geom:area": 0,
    "geom:bbox": "-122.402240,37.625190,-121.245640,38.181780",
    "geom:latitude": 37.99291495744369,
    "geom:longitude": -121.87466040881417,
    "src:alt_label": "swim-takeoff",
    "src:geom": "swim",
    "swim:elevations": [
      183,
      535,
      603,
      934,
      1466,
      1860,
      2272,
      2687,
      3054,
      3263,
      3340,
      3511,
      4063,
      4118,
      4584,
      4749,
      4953,
      5337,
      5431,
      5795,
      5981,
      6204,
      6290,
      6544,
      6578
    ],
    "swim:geom": "takeoff",
    "swim:timestamps": [
      1789112776,
      1789112812,
      1789112821,
      1789112868,
      1789112905,
      1789112932,
      1789112964,
      1789112997,
      1789113024,
      1789113054,
      1789113070,
      1789113099,
      1789113147,
      1789113153,
      1789113200,
      1789113216,
      1789113240,
      1789113294,
      1789113308,
      1789113346,
      1789113375,
      1789113406,
      1789113423,
      1789113476,
      1789113481
    ],
    "wof:geomhash": "1a8f9afb6b3a9a1e1bf6a82afbe34a5b",
    "wof:id": 2048310741,
    "wof:repo": "sfomuseum-data-flights-2026-09"
  },
  "bbox": [
    -122.40224,
    37.62519,
    -121.24564,
    38.18178
  ],
  "geometry": {"type":"LineString","coordinates":[[-122.39036,37.62519],[-122.40224,37.64929],[-122.39541,37.65589],[-122.33249,37.67635],[-122.2824,37.70065],[-122.25607,37.72974],[-122.22601,37.76337],[-122.19378,37.80006],[-122.1673,37.8297],[-122.13579,37.86508],[-122.1163,37.88671],[-122.08135,37.92525],[-122.0196,37.99457],[-122.01213,38.00294],[-121.94932,38.07312],[-121.92207,38.09302],[-121.8684,38.10745],[-121.73627,38.12342],[-121.70311,38.12748],[-121.60533,38.13926],[-121.53281,38.14798],[-121.44992,38.15787],[-121.4066,38.16299],[-121.25942,38.1802],[-121.24564,38.18178]]}
}
