{
  "id": 2048235821,
  "type": "Feature",
  "properties": {
    "geom:area": 0,
    "geom:bbox": "-122.401410,37.626860,-121.256750,37.963620",
    "geom:latitude": 37.8317652391819,
    "geom:longitude": -121.84996672751724,
    "src:alt_label": "swim-takeoff",
    "src:geom": "swim",
    "swim:elevations": [
      152,
      412,
      578,
      832,
      1206,
      1506,
      1567,
      2170,
      2419,
      2855,
      3062,
      3338,
      3468,
      3869,
      4340,
      4463,
      4750,
      4982,
      5192,
      5410,
      5660,
      5837
    ],
    "swim:geom": "takeoff",
    "swim:timestamps": [
      1788354375,
      1788354405,
      1788354429,
      1788354462,
      1788354501,
      1788354538,
      1788354546,
      1788354595,
      1788354614,
      1788354649,
      1788354669,
      1788354713,
      1788354736,
      1788354781,
      1788354833,
      1788354849,
      1788354882,
      1788354913,
      1788354939,
      1788354970,
      1788355013,
      1788355037
    ],
    "wof:geomhash": "93697073e35b3fe7db350b73c79a3ecd",
    "wof:id": 2048235821,
    "wof:repo": "sfomuseum-data-flights-2026-09"
  },
  "bbox": [
    -122.40141,
    37.62686,
    -121.25675,
    37.96362
  ],
  "geometry": {"type":"LineString","coordinates":[[-122.38803,37.62686],[-122.40141,37.64423],[-122.38661,37.66018],[-122.35186,37.67159],[-122.30446,37.68703],[-122.2535,37.70435],[-122.24269,37.70801],[-122.17207,37.73987],[-122.14427,37.75429],[-122.09242,37.78114],[-122.06235,37.79664],[-121.98963,37.82828],[-121.94269,37.83771],[-121.84715,37.85551],[-121.73333,37.87663],[-121.69787,37.88314],[-121.62386,37.89683],[-121.5527,37.90986],[-121.49158,37.92103],[-121.42082,37.93392],[-121.31493,37.9531],[-121.25675,37.96362]]}
}
