{
  "id": 2048471077,
  "type": "Feature",
  "properties": {
    "geom:area": 0,
    "geom:bbox": "-122.366667,30.005556,-95.345833,38.518889",
    "geom:latitude": 36.050358615036785,
    "geom:longitude": -108.04217935146636,
    "src:alt_label": "swim-path",
    "src:geom": "swim",
    "swim:altitudes": [
      "005",
      "037",
      "056",
      "090",
      "117",
      "136",
      "163",
      "186",
      "205",
      "232",
      "259",
      "280",
      "298",
      "316",
      "342",
      "363",
      "374",
      "380",
      "391",
      "397",
      "401",
      "402",
      "406",
      "410C",
      "410C",
      "410C",
      "410C",
      "410C",
      "410C",
      "410C",
      "410C",
      "410C",
      "410C",
      "410C",
      "410C",
      "410C",
      "410C",
      "410C",
      "410C",
      "409C",
      "410C",
      "410C",
      "410C",
      "410C",
      "410C",
      "410C",
      "410C",
      "410C",
      "410C",
      "410C",
      "410C",
      "410C",
      "410C",
      "410C",
      "410C",
      "410C",
      "410C",
      "410C",
      "410C",
      "410C",
      "410C",
      "410C",
      "410C",
      "410C",
      "410C",
      "410C",
      "410C",
      "410C",
      "410C",
      "410C",
      "410C",
      "410C",
      "410C",
      "410C",
      "410C",
      "410C",
      "410C",
      "410C",
      "410C",
      "410C",
      "410C",
      "410C",
      "410C",
      "410C",
      "410C",
      "410C",
      "410C",
      "410C",
      "410C",
      "410C",
      "410C",
      "410C",
      "410C",
      "410C",
      "410C",
      "410C",
      "410C",
      "410C",
      "410C",
      "410C",
      "410C",
      "410C",
      "410C",
      "410C",
      "410C",
      "410C",
      "410C",
      "410C",
      "410C",
      "410C",
      "410C",
      "410C",
      "410C",
      "410C",
      "410C",
      "410C",
      "410C",
      "410C",
      "410C",
      "410C",
      "410C",
      "410C",
      "410C",
      "410C",
      "410C",
      "410C",
      "410C",
      "410C",
      "410C",
      "410C",
      "410C",
      "410C",
      "410C",
      "410C",
      "410C",
      "410C",
      "410C",
      "410C",
      "410C",
      "410C",
      "410C",
      "410C",
      "410C",
      "410C",
      "410C",
      "410C",
      "410C",
      "410C",
      "410C",
      "410C",
      "410C",
      "410C",
      "410C",
      "410C",
      "410C",
      "410C",
      "410C",
      "410C",
      "410C",
      "410C",
      "410C",
      "410C",
      "410C",
      "410C",
      "410C",
      "410C",
      "410C",
      "410C",
      "410C",
      "410C",
      "410C",
      "410C",
      "410C",
      "410C",
      "410C",
      "410C",
      "410C",
      "410C",
      "410C",
      "410C",
      "410C",
      "410C",
      "410C",
      "410C",
      "410C",
      "410C",
      "410C",
      "410C",
      "410C",
      "410C",
      "410C",
      "410C",
      "410C",
      "410C",
      "410C",
      "410C",
      "410C",
      "410C",
      "410C",
      "410C",
      "410C",
      "410C",
      "410C",
      "410C",
      "410C",
      "410C",
      "410C",
      "410C",
      "410C",
      "410C",
      "410C",
      "410C",
      "410C",
      "410C",
      "410C",
      "410C",
      "410C",
      "410C",
      "410C",
      "410C",
      "410C",
      "410C",
      "410C",
      "410C",
      "410C",
      "410C",
      "410C",
      "410C",
      "410C",
      "410",
      "402",
      "387",
      "376",
      "366",
      "354",
      "350",
      "332",
      "330",
      "318",
      "294",
      "268",
      "241",
      "215",
      "195",
      "176",
      "162",
      "141",
      "138",
      "124",
      "122",
      "108",
      "105",
      "102",
      "100",
      "090",
      "088",
      "081",
      "076",
      "065",
      "061",
      "060",
      "056",
      "053",
      "051",
      "044",
      "040",
      "040",
      "040",
      "038",
      "032",
      "030",
      "030",
      "030",
      "030",
      "030",
      "030",
      "027",
      "022",
      "018",
      "013",
      "010",
      "006",
      "003",
      "001"
    ],
    "swim:geom": "path",
    "swim:speeds": [
      167,
      158,
      234,
      276,
      313,
      374,
      391,
      421,
      428,
      447,
      458,
      468,
      480,
      489,
      489,
      480,
      480,
      477,
      478,
      465,
      462,
      465,
      464,
      481,
      481,
      482,
      480,
      482,
      480,
      481,
      481,
      482,
      480,
      481,
      480,
      481,
      480,
      480,
      479,
      476,
      476,
      475,
      475,
      475,
      475,
      475,
      475,
      474,
      472,
      472,
      473,
      473,
      474,
      478,
      478,
      478,
      478,
      480,
      479,
      481,
      481,
      484,
      487,
      488,
      488,
      487,
      486,
      486,
      488,
      490,
      491,
      492,
      492,
      492,
      491,
      489,
      489,
      488,
      488,
      488,
      492,
      488,
      491,
      490,
      493,
      493,
      494,
      495,
      495,
      495,
      496,
      499,
      501,
      502,
      503,
      503,
      503,
      503,
      503,
      503,
      503,
      505,
      507,
      509,
      510,
      511,
      512,
      513,
      513,
      513,
      513,
      514,
      516,
      517,
      517,
      519,
      519,
      523,
      523,
      524,
      525,
      526,
      528,
      531,
      532,
      533,
      535,
      536,
      538,
      537,
      538,
      537,
      538,
      537,
      537,
      537,
      537,
      538,
      538,
      541,
      541,
      542,
      541,
      542,
      541,
      542,
      541,
      540,
      540,
      539,
      539,
      538,
      538,
      539,
      541,
      542,
      543,
      545,
      546,
      548,
      549,
      551,
      553,
      555,
      557,
      560,
      562,
      563,
      565,
      566,
      569,
      569,
      570,
      571,
      572,
      573,
      573,
      572,
      571,
      568,
      565,
      563,
      559,
      558,
      556,
      553,
      552,
      552,
      551,
      548,
      543,
      543,
      541,
      540,
      540,
      540,
      539,
      539,
      540,
      540,
      540,
      541,
      541,
      542,
      542,
      543,
      544,
      545,
      548,
      548,
      550,
      552,
      553,
      554,
      555,
      556,
      557,
      557,
      556,
      555,
      555,
      554,
      534,
      532,
      526,
      528,
      523,
      519,
      515,
      510,
      511,
      517,
      516,
      513,
      512,
      507,
      490,
      487,
      474,
      458,
      431,
      413,
      403,
      400,
      389,
      377,
      361,
      354,
      345,
      337,
      336,
      330,
      313,
      290,
      281,
      276,
      278,
      272,
      275,
      253,
      231,
      227,
      226,
      225,
      225,
      221,
      220,
      216,
      218,
      217,
      215,
      190,
      193,
      190,
      191,
      192,
      195,
      192,
      169,
      146,
      133,
      136,
      133,
      135
    ],
    "swim:timestamps": [
      1790712613,
      1790712667,
      1790712733,
      1790712793,
      1790712853,
      1790712913,
      1790712973,
      1790713033,
      1790713093,
      1790713153,
      1790713213,
      1790713273,
      1790713334,
      1790713394,
      1790713454,
      1790713514,
      1790713566,
      1790713574,
      1790713626,
      1790713634,
      1790713686,
      1790713694,
      1790713746,
      1790713814,
      1790713874,
      1790713927,
      1790713934,
      1790713987,
      1790713994,
      1790714047,
      1790714055,
      1790714107,
      1790714115,
      1790714167,
      1790714187,
      1790714227,
      1790714247,
      1790714287,
      1790714307,
      1790714347,
      1790714367,
      1790714407,
      1790714427,
      1790714467,
      1790714487,
      1790714547,
      1790714588,
      1790714607,
      1790714648,
      1790714667,
      1790714728,
      1790714768,
      1790714788,
      1790714828,
      1790714848,
      1790714888,
      1790714908,
      1790714948,
      1790714968,
      1790715008,
      1790715028,
      1790715068,
      1790715088,
      1790715128,
      1790715188,
      1790715249,
      1790715369,
      1790715429,
      1790715489,
      1790715549,
      1790715609,
      1790715669,
      1790715729,
      1790715789,
      1790715849,
      1790715909,
      1790715969,
      1790716030,
      1790716090,
      1790716150,
      1790716191,
      1790716210,
      1790716251,
      1790716270,
      1790716311,
      1790716330,
      1790716371,
      1790716390,
      1790716431,
      1790716450,
      1790716491,
      1790716510,
      1790716551,
      1790716570,
      1790716612,
      1790716630,
      1790716672,
      1790716690,
      1790716732,
      1790716792,
      1790716811,
      1790716852,
      1790716871,
      1790716912,
      1790716931,
      1790716972,
      1790716991,
      1790717032,
      1790717051,
      1790717092,
      1790717111,
      1790717152,
      1790717171,
      1790717212,
      1790717231,
      1790717272,
      1790717291,
      1790717333,
      1790717351,
      1790717393,
      1790717453,
      1790717513,
      1790717573,
      1790717633,
      1790717693,
      1790717753,
      1790717765,
      1790717813,
      1790717825,
      1790717873,
      1790717885,
      1790717933,
      1790717945,
      1790717993,
      1790718005,
      1790718054,
      1790718065,
      1790718114,
      1790718126,
      1790718174,
      1790718186,
      1790718234,
      1790718246,
      1790718294,
      1790718306,
      1790718354,
      1790718366,
      1790718414,
      1790718426,
      1790718474,
      1790718486,
      1790718534,
      1790718546,
      1790718606,
      1790718654,
      1790718666,
      1790718727,
      1790718787,
      1790718847,
      1790718907,
      1790718967,
      1790719027,
      1790719087,
      1790719147,
      1790719267,
      1790719328,
      1790719388,
      1790719448,
      1790719508,
      1790719568,
      1790719597,
      1790719628,
      1790719657,
      1790719688,
      1790719717,
      1790719748,
      1790719778,
      1790719808,
      1790719838,
      1790719868,
      1790719898,
      1790719928,
      1790719958,
      1790719989,
      1790720018,
      1790720049,
      1790720078,
      1790720109,
      1790720138,
      1790720169,
      1790720198,
      1790720229,
      1790720258,
      1790720289,
      1790720318,
      1790720349,
      1790720378,
      1790720409,
      1790720438,
      1790720469,
      1790720499,
      1790720529,
      1790720559,
      1790720590,
      1790720619,
      1790720650,
      1790720679,
      1790720710,
      1790720739,
      1790720770,
      1790720799,
      1790720859,
      1790720919,
      1790720979,
      1790721039,
      1790721099,
      1790721159,
      1790721220,
      1790721280,
      1790721340,
      1790721400,
      1790721460,
      1790721520,
      1790721567,
      1790721580,
      1790721627,
      1790721640,
      1790721687,
      1790721760,
      1790721807,
      1790721867,
      1790721927,
      1790722001,
      1790722048,
      1790722121,
      1790722168,
      1790722228,
      1790722241,
      1790722288,
      1790722361,
      1790722421,
      1790722481,
      1790722541,
      1790722601,
      1790722661,
      1790722709,
      1790722782,
      1790722790,
      1790722842,
      1790722850,
      1790722902,
      1790722910,
      1790722949,
      1790722970,
      1790723022,
      1790723033,
      1790723069,
      1790723093,
      1790723142,
      1790723189,
      1790723213,
      1790723249,
      1790723262,
      1790723274,
      1790723310,
      1790723334,
      1790723370,
      1790723394,
      1790723430,
      1790723454,
      1790723490,
      1790723514,
      1790723550,
      1790723574,
      1790723610,
      1790723634,
      1790723697,
      1790723730,
      1790723757,
      1790723790,
      1790723817,
      1790723850,
      1790723883,
      1790723910
    ],
    "wof:geomhash": "801ff3b0cb9450d53b67cabc7eaab4d0",
    "wof:id": 2048471077,
    "wof:repo": "sfomuseum-data-flights-2026-09"
  },
  "bbox": [
    -122.36666666666666,
    30.005555555555556,
    -95.34583333333333,
    38.51888888888889
  ],
  "geometry": {"type":"LineString","coordinates":[[-122.36666666666666,37.63333333333333],[-122.33333333333333,37.65],[-122.27777777777777,37.68527777777778],[-122.19805555555556,37.72694444444445],[-122.10916666666667,37.76583333333333],[-121.98527777777778,37.79333333333333],[-121.85416666666666,37.822500000000005],[-121.71527777777779,37.85444444444445],[-121.6,37.880833333333335],[-121.42166666666667,37.92027777777778],[-121.23694444444445,37.96138888888889],[-121.07944444444443,37.99444444444445],[-120.91611111111112,38.019999999999996],[-120.7475,38.045833333333334],[-120.57777777777777,38.07166666666667],[-120.41194444444444,38.09666666666667],[-120.29555555555555,38.112500000000004],[-120.24722222222222,38.12111111111111],[-120.1325,38.13611111111111],[-120.08694444444444,38.144999999999996],[-119.97555555555556,38.160555555555554],[-119.92666666666668,38.16833333333333],[-119.81222222222222,38.1825],[-119.59638888888888,38.215833333333336],[-119.42805555555556,38.239444444444445],[-119.31194444444444,38.25416666666667],[-119.27944444444444,38.26027777777778],[-119.14611111111111,38.27777777777778],[-119.11222222222221,38.28361111111111],[-118.97944444444444,38.301111111111105],[-118.94333333333334,38.30694444444444],[-118.77916666666667,38.32833333333333],[-118.77694444444444,38.32944444444445],[-118.61277777777777,38.35027777777778],[-118.61361111111111,38.35138888888889],[-118.44777777777779,38.373333333333335],[-118.41166666666668,38.378055555555555],[-118.29694444444445,38.393055555555556],[-118.24861111111112,38.39944444444444],[-118.13083333333333,38.414722222222224],[-118.06388888888888,38.42361111111111],[-117.96444444444445,38.43611111111111],[-117.89500000000001,38.44499999999999],[-117.79805555555555,38.45722222222223],[-117.72777777777777,38.465833333333336],[-117.55972222222222,38.48694444444445],[-117.46138888888889,38.49916666666667],[-117.39472222222223,38.5075],[-117.29472222222222,38.51777777777777],[-117.22444444444444,38.51888888888889],[-117.05499999999999,38.51361111111111],[-116.95416666666667,38.510555555555555],[-116.91888888888889,38.50972222222222],[-116.78555555555555,38.50527777777778],[-116.74888888888889,38.50416666666667],[-116.615,38.499722222222225],[-116.57833333333333,38.498333333333335],[-116.44222222222223,38.493611111111115],[-116.40527777777778,38.492222222222225],[-116.27083333333333,38.487500000000004],[-116.23611111111111,38.486111111111114],[-116.09805555555555,38.48111111111111],[-116.06194444444444,38.47972222222222],[-115.92444444444445,38.47416666666667],[-115.75111111111111,38.467222222222226],[-115.57888888888888,38.459722222222226],[-115.23,38.44444444444444],[-115.05777777777777,38.43666666666666],[-114.885,38.42833333333333],[-114.71194444444444,38.419444444444444],[-114.53861111111111,38.41083333333333],[-114.36361111111111,38.400555555555556],[-114.19416666666667,38.3675],[-114.0286111111111,38.328611111111115],[-113.86194444444443,38.288888888888884],[-113.69722222222222,38.24944444444444],[-113.53333333333333,38.21027777777778],[-113.36861111111111,38.17027777777778],[-113.2038888888889,38.13027777777778],[-113.03972222222222,38.08972222222222],[-112.95027777777779,38.06777777777778],[-112.87388888888889,38.04888888888889],[-112.78555555555555,38.026944444444446],[-112.70944444444444,38.007777777777775],[-112.62138888888889,37.98583333333333],[-112.54333333333334,37.96638888888889],[-112.45555555555556,37.94416666666666],[-112.37638888888888,37.924166666666665],[-112.28833333333333,37.901944444444446],[-112.21083333333334,37.882222222222225],[-112.12305555555555,37.859722222222224],[-112.0436111111111,37.839444444444446],[-111.95416666666667,37.81666666666667],[-111.88611111111112,37.80166666666666],[-111.78416666666666,37.77916666666667],[-111.71722222222222,37.76416666666667],[-111.61472222222221,37.740833333333335],[-111.54666666666667,37.72527777777778],[-111.44638888888889,37.70194444444445],[-111.28027777777778,37.663333333333334],[-111.21083333333334,37.64694444444444],[-111.10805555555555,37.62305555555555],[-111.03999999999999,37.606944444444444],[-110.93555555555555,37.58222222222223],[-110.86666666666666,37.566111111111105],[-110.76611111111112,37.54222222222222],[-110.69638888888889,37.525555555555556],[-110.5975,37.50194444444445],[-110.52277777777778,37.48388888888889],[-110.4225,37.46],[-110.35166666666666,37.44277777777778],[-110.21722222222222,37.41],[-110.18166666666667,37.40138888888889],[-110.05166666666666,37.36972222222222],[-110.00861111111111,37.35916666666667],[-109.87944444444443,37.3275],[-109.83527777777778,37.31638888888889],[-109.7025,37.28361111111111],[-109.66000000000001,37.27305555555555],[-109.5286111111111,37.24027777777778],[-109.35222222222221,37.19583333333333],[-109.17888888888889,37.15222222222222],[-109.00222222222222,37.10722222222223],[-108.82388888888889,37.061388888888885],[-108.64777777777779,37.01611111111111],[-108.47194444444445,36.97027777777778],[-108.47194444444445,36.97027777777778],[-108.2936111111111,36.92361111111111],[-108.2936111111111,36.92361111111111],[-108.11472222222221,36.87638888888889],[-108.11472222222221,36.87638888888889],[-107.93861111111111,36.82972222222222],[-107.9388888888889,36.82972222222222],[-107.76055555555556,36.78194444444444],[-107.76027777777777,36.78194444444444],[-107.58305555555555,36.73416666666667],[-107.58583333333333,36.735],[-107.40722222222223,36.686388888888885],[-107.40833333333335,36.68666666666666],[-107.22944444444444,36.63805555555555],[-107.22944444444444,36.63805555555555],[-107.04972222222221,36.58861111111111],[-107.04944444444445,36.58861111111111],[-106.87333333333332,36.54],[-106.8736111111111,36.54],[-106.69666666666667,36.490833333333335],[-106.69805555555556,36.49111111111111],[-106.52111111111111,36.44166666666666],[-106.52111111111111,36.44166666666666],[-106.35416666666666,36.394444444444446],[-106.32666666666667,36.38666666666666],[-106.1763888888889,36.34388888888889],[-106.14888888888889,36.336111111111116],[-105.96972222222223,36.28583333333333],[-105.8261111111111,36.251666666666665],[-105.785,36.2425],[-105.61527777777778,36.20388888888889],[-105.44083333333333,36.163888888888884],[-105.25666666666666,36.12138888888889],[-105.0761111111111,36.07916666666667],[-104.89444444444445,36.03666666666666],[-104.71194444444444,35.993611111111115],[-104.53027777777778,35.95027777777778],[-104.34444444444443,35.90555555555555],[-103.97611111111111,35.81638888888889],[-103.79277777777777,35.771388888888886],[-103.60583333333332,35.72527777777778],[-103.42166666666667,35.67944444444444],[-103.23722222222223,35.63333333333333],[-103.05055555555555,35.586111111111116],[-102.9625,35.56388888888888],[-102.86277777777777,35.53861111111111],[-102.77833333333334,35.51694444444444],[-102.67750000000001,35.49111111111111],[-102.59083333333332,35.46888888888889],[-102.51583333333333,35.44944444444444],[-102.4038888888889,35.42055555555555],[-102.32888888888888,35.401111111111106],[-102.22194444444445,35.37305555555555],[-102.14722222222223,35.35333333333333],[-102.03861111111111,35.325],[-101.9413888888889,35.29944444444444],[-101.8586111111111,35.277499999999996],[-101.7611111111111,35.251666666666665],[-101.68444444444445,35.23111111111111],[-101.57944444444443,35.20277777777778],[-101.48388888888888,35.177499999999995],[-101.43083333333334,35.16305555555555],[-101.315,35.11055555555556],[-101.25472222222223,35.07472222222223],[-101.17083333333333,35.02055555555555],[-101.11277777777777,34.981388888888894],[-101.02916666666667,34.924166666666665],[-100.97111111111111,34.884166666666665],[-100.88916666666667,34.827222222222225],[-100.8325,34.78777777777778],[-100.75083333333333,34.73083333333334],[-100.69416666666667,34.691111111111105],[-100.61166666666666,34.63305555555556],[-100.55499999999999,34.59305555555556],[-100.47277777777778,34.535],[-100.41694444444445,34.495555555555555],[-100.35027777777778,34.44833333333333],[-100.27777777777777,34.39694444444444],[-100.21194444444444,34.35027777777778],[-100.13972222222223,34.29888888888889],[-100.05805555555555,34.24055555555556],[-100.01666666666667,34.21083333333333],[-99.91861111111112,34.14083333333333],[-99.875,34.109722222222224],[-99.77777777777777,34.03972222222222],[-99.65333333333334,33.95],[-99.51472222222222,33.849722222222226],[-99.37305555555555,33.746944444444445],[-99.23388888888888,33.64555555555555],[-99.09388888888888,33.54277777777778],[-98.95555555555556,33.44138888888889],[-98.815,33.337500000000006],[-98.67861111111111,33.236666666666665],[-98.54055555555556,33.13388888888889],[-98.40472222222223,33.0325],[-98.26888888888888,32.93083333333333],[-98.1375,32.831944444444446],[-98.02416666666666,32.74777777777778],[-98.01,32.73555555555556],[-97.89805555555556,32.64888888888889],[-97.88583333333334,32.6375],[-97.77555555555556,32.549166666666665],[-97.6413888888889,32.44083333333333],[-97.53361111111111,32.35388888888889],[-97.41055555555556,32.255],[-97.28861111111111,32.155833333333334],[-97.13138888888888,32.028055555555554],[-97.04444444444444,31.956944444444442],[-96.89972222222222,31.83833333333333],[-96.80527777777777,31.760555555555555],[-96.68916666666667,31.665],[-96.66527777777779,31.645],[-96.57722222222222,31.572222222222223],[-96.47027777777778,31.4475],[-96.40305555555557,31.338055555555556],[-96.34055555555555,31.235277777777778],[-96.28,31.13611111111111],[-96.22055555555556,31.03805555555556],[-96.16027777777778,30.942222222222224],[-96.11305555555555,30.87],[-96.04416666666667,30.7625],[-96.035,30.749166666666667],[-95.99027777777778,30.678333333333335],[-95.98166666666667,30.665],[-95.93861111111111,30.59722222222222],[-95.93027777777779,30.58277777777778],[-95.90055555555556,30.5375],[-95.88083333333333,30.50722222222222],[-95.86611111111111,30.445555555555554],[-95.86555555555555,30.43027777777778],[-95.85972222222222,30.388333333333332],[-95.85722222222222,30.35611111111111],[-95.84944444444444,30.294722222222223],[-95.8436111111111,30.240833333333335],[-95.84055555555555,30.21],[-95.83722222222222,30.17777777777778],[-95.83555555555554,30.162499999999998],[-95.83555555555554,30.148611111111112],[-95.83138888888888,30.115000000000002],[-95.83055555555555,30.08722222222222],[-95.82638888888889,30.054722222222225],[-95.82305555555556,30.02583333333333],[-95.8,30.00638888888889],[-95.76527777777778,30.00583333333333],[-95.73055555555555,30.00611111111111],[-95.7,30.00638888888889],[-95.66972222222223,30.006666666666668],[-95.63972222222223,30.0075],[-95.6086111111111,30.006944444444443],[-95.57944444444443,30.00611111111111],[-95.51666666666667,30.006944444444443],[-95.48527777777778,30.006944444444443],[-95.4588888888889,30.00583333333333],[-95.43277777777779,30.006944444444443],[-95.41305555555556,30.00583333333333],[-95.39111111111112,30.006666666666668],[-95.36472222222221,30.005555555555556],[-95.34583333333333,30.00722222222222]]}
}
