{
  "id": 2048241211,
  "type": "Feature",
  "properties": {
    "geom:area": 0,
    "geom:bbox": "-122.359500,36.721750,-121.878450,37.612290",
    "geom:latitude": 37.23660073551832,
    "geom:longitude": -122.09189249841553,
    "src:alt_label": "swim-approach",
    "src:geom": "swim",
    "swim:elevations": [
      5397,
      5002,
      4762,
      4568,
      4299,
      4161,
      3855,
      3662,
      3572,
      3173,
      3047,
      2963,
      2924,
      2725,
      2451,
      2439,
      2313,
      2167,
      1968,
      1830,
      1652,
      1522,
      1403,
      1264,
      1249,
      1018,
      945,
      945,
      926,
      880,
      761,
      603,
      494,
      394,
      274,
      182,
      15
    ],
    "swim:geom": "approach",
    "swim:timestamps": [
      1788463295,
      1788463347,
      1788463377,
      1788463401,
      1788463435,
      1788463455,
      1788463495,
      1788463520,
      1788463530,
      1788463587,
      1788463603,
      1788463635,
      1788463659,
      1788463695,
      1788463737,
      1788463748,
      1788463768,
      1788463783,
      1788463806,
      1788463832,
      1788463886,
      1788463914,
      1788463940,
      1788463975,
      1788463982,
      1788464038,
      1788464061,
      1788464090,
      1788464108,
      1788464119,
      1788464146,
      1788464179,
      1788464203,
      1788464227,
      1788464261,
      1788464280,
      1788464328
    ],
    "wof:geomhash": "376d7b50672ce24cfa37eacc76939402",
    "wof:id": 2048241211,
    "wof:repo": "sfomuseum-data-flights-2026-09"
  },
  "bbox": [
    -122.3595,
    36.72175,
    -121.87845,
    37.61229
  ],
  "geometry": {"type":"LineString","coordinates":[[-121.87845,36.72175],[-121.90902,36.79456],[-121.92121,36.8384],[-121.93108,36.87361],[-121.94468,36.92261],[-121.9526,36.95004],[-121.97315,37.00366],[-121.98655,37.03781],[-121.9916,37.05063],[-122.02088,37.12568],[-122.03051,37.14665],[-122.06197,37.17964],[-122.08528,37.20158],[-122.11801,37.23258],[-122.15603,37.2681],[-122.16537,37.27683],[-122.1838,37.29378],[-122.19732,37.30622],[-122.21573,37.32765],[-122.22143,37.35674],[-122.18343,37.4074],[-122.15728,37.42959],[-122.13116,37.44855],[-122.09535,37.47029],[-122.08936,37.47482],[-122.10114,37.51365],[-122.12697,37.51506],[-122.15515,37.52617],[-122.17148,37.53322],[-122.18189,37.5375],[-122.20775,37.54845],[-122.23985,37.56184],[-122.26175,37.5712],[-122.28187,37.57966],[-122.30846,37.59076],[-122.32313,37.59699],[-122.3595,37.61229]]}
}
