{
  "id": 2048284205,
  "type": "Feature",
  "properties": {
    "geom:area": 0,
    "geom:bbox": "-122.358810,36.733480,-121.886630,37.609970",
    "geom:latitude": 37.2187294466018,
    "geom:longitude": -122.1314037955009,
    "src:alt_label": "swim-approach",
    "src:geom": "swim",
    "swim:elevations": [
      5294,
      5073,
      4732,
      4520,
      4378,
      4212,
      4137,
      3958,
      3637,
      3583,
      3312,
      3088,
      2930,
      2730,
      2710,
      2488,
      2305,
      1860,
      1829,
      1829,
      1703,
      1565,
      1451,
      1312,
      1199,
      1053,
      884,
      757,
      621,
      534,
      384,
      246,
      150,
      176,
      340
    ],
    "swim:geom": "approach",
    "swim:timestamps": [
      1788902064,
      1788902085,
      1788902119,
      1788902142,
      1788902164,
      1788902184,
      1788902200,
      1788902226,
      1788902271,
      1788902284,
      1788902325,
      1788902365,
      1788902396,
      1788902428,
      1788902431,
      1788902464,
      1788902490,
      1788902548,
      1788902566,
      1788902585,
      1788902620,
      1788902659,
      1788902695,
      1788902719,
      1788902744,
      1788902768,
      1788902798,
      1788902835,
      1788902865,
      1788902889,
      1788902926,
      1788902960,
      1788902987,
      1788903028,
      1788903031
    ],
    "wof:geomhash": "9bd630931f46d607b6a02a097bdea228",
    "wof:id": 2048284205,
    "wof:repo": "sfomuseum-data-flights-2026-09"
  },
  "bbox": [
    -122.35881,
    36.73348,
    -121.88663,
    37.60997
  ],
  "geometry": {"type":"LineString","coordinates":[[-121.88663,36.73348],[-121.90042,36.76424],[-121.91491,36.81579],[-121.92444,36.84999],[-121.93669,36.88094],[-121.95874,36.90532],[-121.97596,36.92338],[-122.00455,36.95333],[-122.05382,37.00506],[-122.06759,37.01939],[-122.1109,37.0653],[-122.1526,37.11029],[-122.1848,37.14504],[-122.21028,37.18261],[-122.21177,37.18641],[-122.22744,37.22772],[-122.24025,37.26154],[-122.26373,37.3356],[-122.25327,37.35734],[-122.2312,37.37124],[-122.18892,37.3903],[-122.14889,37.41804],[-122.11975,37.44448],[-122.11064,37.46492],[-122.12515,37.48561],[-122.14259,37.50299],[-122.16418,37.52468],[-122.19856,37.54438],[-122.22851,37.55721],[-122.25098,37.5666],[-122.28273,37.57992],[-122.30998,37.59141],[-122.33017,37.59987],[-122.35881,37.60997],[-122.35862,37.60801]]}
}
