{
  "id": 2048292305,
  "type": "Feature",
  "properties": {
    "date:cessation_lower": "2026-09-09",
    "date:cessation_upper": "2026-09-09",
    "date:inception_lower": "1970-01-01",
    "date:inception_upper": "1970-01-01",
    "edtf:cessation": "2026-09-09T16:58:25-07:00",
    "edtf:inception": "1970-01-01T00:00:00Z",
    "flysfo:actual_timestamp": -1,
    "flysfo:airline": "UA",
    "flysfo:date": "2026-09-09",
    "flysfo:estimated_timestamp": -1,
    "flysfo:event": "A",
    "flysfo:flight_number": "UA1144",
    "flysfo:gate": "",
    "flysfo:journey": "ORD-SFO",
    "flysfo:scheduled_timestamp": 1788938280,
    "flysfo:timestamp": 1788938280,
    "geom:area": 0,
    "geom:bbox": "-122.370943,37.617990,-87.894364,41.983038",
    "geom:latitude": 39.800514,
    "geom:longitude": -105.1326535,
    "iata:airline": "UA",
    "icao:aircraft": "B39M",
    "icao:airline": "UAL",
    "lbl:latitude": 37.61799,
    "lbl:longitude": -122.370943,
    "sfomuseum:aircraft_id": 1528104577,
    "sfomuseum:airline_id": 1159285413,
    "sfomuseum:arrival_id": 102527513,
    "sfomuseum:departure_id": 102533631,
    "sfomuseum:flight_id": "20260909-A-UAL-1144",
    "sfomuseum:flight_number": [
      "UAL1144",
      "UA1144"
    ],
    "sfomuseum:placetype": "flight",
    "src:geom": "flysfo",
    "src:geom_alt": [
      "swim-approach"
    ],
    "swim:tail_number": "N37553",
    "wof:belongsto": [],
    "wof:country": "US",
    "wof:created": 1789056460,
    "wof:geomhash": "81d390dcf2582f737869c573200abb8f",
    "wof:hierarchy": [
      {
        "custom_id": 2048292305,
        "flight_id": 2048292305
      }
    ],
    "wof:id": 2048292305,
    "wof:involves": [
      102533631,
      1159285413,
      1528104577,
      102527513
    ],
    "wof:lastmodified": 1789057074,
    "wof:name": "UA1144 (ORD-SFO)",
    "wof:parent_id": -1,
    "wof:placetype": "custom",
    "wof:placetype_alt": [
      "flight"
    ],
    "wof:repo": "sfomuseum-data-flights-2026-09",
    "wof:superseded_by": [],
    "wof:supersedes": []
  },
  "bbox": [
    -122.370943,
    37.61799,
    -87.894364,
    41.983038
  ],
  "geometry": {"type":"MultiPoint","coordinates":[[-87.894364,41.983038],[-122.370943,37.61799]]}
}
