{
  "id": 2048439639,
  "type": "Feature",
  "properties": {
    "geom:area": 0,
    "geom:bbox": "-159.283333,22.000000,-122.120833,37.601667",
    "geom:latitude": 29.51690242912122,
    "geom:longitude": -140.44172394942927,
    "src:alt_label": "swim-path",
    "src:geom": "swim",
    "swim:altitudes": [
      "033C",
      "061C",
      "087C",
      "112C",
      "126C",
      "146C",
      "157C",
      "174C",
      "187C",
      "201C",
      "212C",
      "236C",
      "245C",
      "249C",
      "256C",
      "264C",
      "274C",
      "287C",
      "297C",
      "308C",
      "323C",
      "340C",
      "342C",
      "350C",
      "370",
      "370",
      "370",
      "370",
      "370",
      "370",
      "370",
      "370",
      "370",
      "370",
      "370",
      "370",
      "370",
      "370",
      "370",
      "370",
      "370",
      "370",
      "370",
      "370",
      "370",
      "370",
      "370",
      "370",
      "370",
      "390C",
      "390C",
      "390C",
      "390C",
      "390C",
      "390C",
      "390",
      "390C",
      "390",
      "390",
      "390",
      "390",
      "390",
      "390",
      "390",
      "390",
      "390",
      "390",
      "390",
      "390",
      "390",
      "390",
      "390",
      "390",
      "390",
      "390",
      "384C",
      "379",
      "364C",
      "351",
      "332C",
      "317",
      "298C",
      "281",
      "266C",
      "255",
      "241C",
      "231",
      "215C",
      "205",
      "179",
      "159",
      "148",
      "126",
      "116",
      "100",
      "100",
      "100",
      "100",
      "096",
      "093",
      "087",
      "085",
      "081",
      "080",
      "080",
      "080",
      "073",
      "067",
      "056",
      "054",
      "034",
      "030",
      "030",
      "025",
      "021",
      "016",
      "013",
      "009",
      "006"
    ],
    "swim:geom": "path",
    "swim:speeds": [
      180,
      220,
      250,
      270,
      320,
      340,
      380,
      390,
      410,
      420,
      430,
      430,
      430,
      460,
      470,
      490,
      490,
      480,
      480,
      480,
      480,
      460,
      480,
      490,
      470,
      470,
      480,
      480,
      480,
      490,
      490,
      490,
      480,
      480,
      480,
      480,
      480,
      480,
      480,
      480,
      480,
      470,
      490,
      480,
      480,
      480,
      480,
      480,
      480,
      496,
      495,
      495,
      494,
      494,
      494,
      500,
      494,
      490,
      494,
      490,
      494,
      500,
      494,
      500,
      494,
      500,
      495,
      500,
      495,
      500,
      495,
      500,
      495,
      490,
      495,
      490,
      486,
      480,
      485,
      490,
      499,
      500,
      504,
      510,
      494,
      490,
      471,
      470,
      453,
      435,
      413,
      411,
      393,
      390,
      370,
      372,
      327,
      315,
      307,
      310,
      307,
      309,
      306,
      307,
      286,
      283,
      276,
      279,
      263,
      267,
      248,
      219,
      194,
      178,
      180,
      155,
      142,
      131,
      134
    ],
    "swim:timestamps": [
      1790412912,
      1790412972,
      1790413032,
      1790413092,
      1790413152,
      1790413212,
      1790413272,
      1790413332,
      1790413392,
      1790413452,
      1790413512,
      1790413572,
      1790413633,
      1790413692,
      1790413752,
      1790413813,
      1790413873,
      1790413933,
      1790413993,
      1790414053,
      1790414113,
      1790414173,
      1790414233,
      1790414293,
      1790414353,
      1790414414,
      1790414474,
      1790414534,
      1790414594,
      1790414654,
      1790414714,
      1790414774,
      1790414834,
      1790414895,
      1790414954,
      1790415014,
      1790415074,
      1790415135,
      1790415195,
      1790415255,
      1790415315,
      1790415375,
      1790415435,
      1790415495,
      1790415555,
      1790415615,
      1790415675,
      1790415736,
      1790415784,
      1790427653,
      1790427713,
      1790427773,
      1790427833,
      1790427893,
      1790427953,
      1790427987,
      1790428013,
      1790428048,
      1790428073,
      1790428107,
      1790428133,
      1790428168,
      1790428193,
      1790428227,
      1790428253,
      1790428288,
      1790428313,
      1790428348,
      1790428373,
      1790428408,
      1790428433,
      1790428468,
      1790428493,
      1790428528,
      1790428553,
      1790428588,
      1790428613,
      1790428648,
      1790428673,
      1790428708,
      1790428733,
      1790428768,
      1790428793,
      1790428828,
      1790428853,
      1790428888,
      1790428913,
      1790428949,
      1790428973,
      1790429033,
      1790429067,
      1790429093,
      1790429127,
      1790429153,
      1790429187,
      1790429213,
      1790429248,
      1790429274,
      1790429307,
      1790429334,
      1790429374,
      1790429394,
      1790429427,
      1790429454,
      1790429487,
      1790429514,
      1790429541,
      1790429574,
      1790429619,
      1790429634,
      1790429694,
      1790429722,
      1790429754,
      1790429782,
      1790429814,
      1790429842,
      1790429874,
      1790429902,
      1790429934
    ],
    "wof:geomhash": "77be2925b67909784de3ee6ed53cee28",
    "wof:id": 2048439639,
    "wof:repo": "sfomuseum-data-flights-2026-09"
  },
  "bbox": [
    -159.28333333333333,
    22,
    -122.12083333333332,
    37.60166666666667
  ],
  "geometry": {"type":"LineString","coordinates":[[-159.28333333333333,22],[-159.21666666666667,22.016666666666666],[-159.15,22.033333333333335],[-159.06666666666666,22.05],[-158.98333333333332,22.066666666666666],[-158.88333333333333,22.1],[-158.76666666666668,22.116666666666667],[-158.66666666666666,22.15],[-158.55,22.166666666666668],[-158.41666666666666,22.216666666666665],[-158.3,22.25],[-158.18333333333334,22.3],[-158.05,22.333333333333332],[-157.93333333333334,22.366666666666667],[-157.8,22.416666666666668],[-157.65,22.466666666666665],[-157.51666666666668,22.5],[-157.38333333333333,22.55],[-157.25,22.6],[-157.1,22.633333333333333],[-156.96666666666667,22.683333333333334],[-156.83333333333334,22.716666666666665],[-156.7,22.766666666666666],[-156.56666666666666,22.816666666666666],[-156.43333333333334,22.85],[-156.28333333333333,22.9],[-156.15,22.933333333333334],[-156.01666666666668,22.983333333333334],[-155.88333333333333,23.016666666666666],[-155.73333333333332,23.066666666666666],[-155.6,23.1],[-155.46666666666667,23.15],[-155.31666666666666,23.183333333333334],[-155.18333333333334,23.233333333333334],[-155.05,23.283333333333335],[-154.91666666666666,23.316666666666666],[-154.76666666666668,23.35],[-154.63333333333333,23.4],[-154.5,23.433333333333334],[-154.36666666666667,23.483333333333334],[-154.21666666666667,23.516666666666666],[-154.1,23.55],[-153.95,23.6],[-153.81666666666666,23.633333333333333],[-153.68333333333334,23.683333333333334],[-153.53333333333333,23.716666666666665],[-153.38333333333333,23.766666666666666],[-153.25,23.816666666666666],[-153.15,23.866666666666667],[-126.52361111111111,35.572500000000005],[-126.365,35.618611111111115],[-126.2075,35.663888888888884],[-126.05749999999999,35.72416666666667],[-125.91277777777778,35.79666666666667],[-125.76888888888888,35.868611111111115],[-125.7,35.916666666666664],[-125.62583333333333,35.94],[-125.55,35.983333333333334],[-125.48027777777779,36.01222222222222],[-125.4,36.05],[-125.33611111111111,36.083333333333336],[-125.26666666666667,36.11666666666667],[-125.19222222222223,36.154444444444444],[-125.1,36.18333333333333],[-125.04694444444445,36.225],[-124.95,36.25],[-124.90083333333334,36.296388888888885],[-124.8,36.31666666666667],[-124.7538888888889,36.367777777777775],[-124.65,36.38333333333333],[-124.6086111111111,36.43805555555555],[-124.51666666666667,36.46666666666667],[-124.4625,36.50833333333333],[-124.36666666666666,36.53333333333333],[-124.31527777777778,36.57888888888889],[-124.21666666666667,36.6],[-124.17027777777778,36.64805555555556],[-124.08333333333333,36.68333333333333],[-124.02555555555556,36.71638888888889],[-123.93333333333334,36.75],[-123.87583333333333,36.786944444444444],[-123.78333333333333,36.81666666666667],[-123.72472222222223,36.858333333333334],[-123.63333333333334,36.88333333333333],[-123.5761111111111,36.92805555555555],[-123.48333333333333,36.95],[-123.43444444444445,36.99388888888889],[-123.35,37.016666666666666],[-123.29888888888888,37.05694444444444],[-123.1675,37.117777777777775],[-123.08333333333333,37.15],[-123.04416666666667,37.17472222222222],[-122.96666666666667,37.21666666666667],[-122.92583333333334,37.22888888888889],[-122.85,37.266666666666666],[-122.80749999999999,37.27027777777778],[-122.73333333333333,37.28333333333333],[-122.69583333333334,37.29666666666667],[-122.63333333333334,37.31666666666667],[-122.59388888888888,37.32027777777778],[-122.51666666666667,37.333333333333336],[-122.49194444444444,37.344166666666666],[-122.41666666666667,37.36666666666667],[-122.38944444444445,37.367777777777775],[-122.31666666666666,37.38333333333333],[-122.29194444444444,37.39],[-122.23333333333333,37.4],[-122.2,37.41083333333333],[-122.13333333333334,37.43333333333333],[-122.12333333333332,37.448055555555555],[-122.12083333333332,37.50944444444445],[-122.16666666666667,37.53333333333333],[-122.18527777777778,37.54111111111111],[-122.21666666666667,37.55],[-122.24055555555556,37.56444444444444],[-122.26666666666667,37.583333333333336],[-122.2875,37.58416666666667],[-122.31666666666666,37.6],[-122.32888888888888,37.60166666666667]]}
}
