{
  "id": 2048288425,
  "type": "Feature",
  "properties": {
    "geom:area": 0,
    "geom:bbox": "-122.404110,37.628060,-121.248230,37.959390",
    "geom:latitude": 37.817745412019406,
    "geom:longitude": -121.84470193915035,
    "src:alt_label": "swim-takeoff",
    "src:geom": "swim",
    "swim:elevations": [
      122,
      305,
      875,
      1143,
      1279,
      1805,
      1999,
      2406,
      2596,
      3135,
      3491,
      3507,
      3652,
      4002,
      4288,
      4342,
      4624,
      4939,
      5071,
      5457,
      5647,
      5982,
      6246,
      6519,
      6689
    ],
    "swim:geom": "takeoff",
    "swim:timestamps": [
      1788865519,
      1788865532,
      1788865583,
      1788865615,
      1788865636,
      1788865678,
      1788865697,
      1788865726,
      1788865743,
      1788865786,
      1788865821,
      1788865825,
      1788865846,
      1788865878,
      1788865906,
      1788865913,
      1788865937,
      1788865966,
      1788865992,
      1788866036,
      1788866060,
      1788866098,
      1788866124,
      1788866155,
      1788866173
    ],
    "wof:geomhash": "51e95e46871f2589f5c7eea6b1e847eb",
    "wof:id": 2048288425,
    "wof:repo": "sfomuseum-data-flights-2026-09"
  },
  "bbox": [
    -122.40411,
    37.62806,
    -121.24823,
    37.95939
  ],
  "geometry": {"type":"LineString","coordinates":[[-122.39158,37.62806],[-122.40411,37.63361],[-122.38781,37.66449],[-122.35259,37.67384],[-122.32658,37.68224],[-122.2676,37.70138],[-122.23971,37.70971],[-122.19459,37.72698],[-122.17171,37.73912],[-122.10355,37.76804],[-122.04222,37.78127],[-122.03355,37.78317],[-121.9933,37.79239],[-121.92865,37.80703],[-121.87167,37.82005],[-121.85824,37.82314],[-121.80611,37.83498],[-121.74422,37.84899],[-121.6856,37.86213],[-121.58374,37.88494],[-121.52681,37.89767],[-121.43503,37.91805],[-121.37046,37.9324],[-121.29363,37.94935],[-121.24823,37.95939]]}
}
