{
  "id": 2048417061,
  "type": "Feature",
  "properties": {
    "date:cessation_lower": "1970-01-01",
    "date:cessation_upper": "1970-01-01",
    "date:inception_lower": "2026-09-23",
    "date:inception_upper": "2026-09-23",
    "edtf:cessation": "1970-01-01T00:00:00Z",
    "edtf:inception": "2026-09-23T16:50:57-07:00",
    "flysfo:actual_timestamp": -1,
    "flysfo:airline": "UA",
    "flysfo:date": "2026-09-23",
    "flysfo:estimated_timestamp": 1790231220,
    "flysfo:event": "D",
    "flysfo:flight_number": "UA2312",
    "flysfo:gate": "G8",
    "flysfo:journey": "SFO-SJO",
    "flysfo:scheduled_timestamp": 1790231700,
    "flysfo:timestamp": 1790231700,
    "geom:area": 0,
    "geom:bbox": "-122.370943,9.993860,-84.208801,37.617990",
    "geom:latitude": 23.805925,
    "geom:longitude": -103.289872,
    "iata:airline": "UA",
    "icao:aircraft": "B38M",
    "icao:airline": "UAL",
    "lbl:latitude": 37.61836,
    "lbl:longitude": -122.393229,
    "sfomuseum:aircraft_id": 1528104575,
    "sfomuseum:airline_id": 1159285413,
    "sfomuseum:arrival_id": 102537555,
    "sfomuseum:departure_id": 102527513,
    "sfomuseum:flight_id": "20260923-D-UAL-2312",
    "sfomuseum:flight_number": [
      "UAL2312",
      "UA2312"
    ],
    "sfomuseum:placetype": "flight",
    "src:geom": "flysfo",
    "src:geom_alt": [
      "swim-path",
      "swim-takeoff"
    ],
    "swim:tail_number": "N37371",
    "wof:belongsto": [
      1947304067,
      102527513,
      1947304129,
      102191575,
      85633793,
      102087579,
      85922583,
      554784711,
      85688637,
      1947304133,
      1947304069,
      102085387
    ],
    "wof:country": "US",
    "wof:created": 1790266597,
    "wof:geomhash": "05151bbebc72a691ecf3d87519f35adc",
    "wof:hierarchy": [
      {
        "building_id": 1947304067,
        "campus_id": 102527513,
        "concourse_id": 1947304129,
        "continent_id": 102191575,
        "country_id": 85633793,
        "county_id": 102087579,
        "custom_id": 2048417061,
        "flight_id": 2048417061,
        "locality_id": 85922583,
        "postalcode_id": 554784711,
        "region_id": 85688637,
        "venue_id": 1947304133,
        "wing_id": 1947304069
      },
      {
        "building_id": 1947304067,
        "campus_id": 102527513,
        "concourse_id": 1947304129,
        "continent_id": 102191575,
        "country_id": 85633793,
        "county_id": 102085387,
        "custom_id": 2048417061,
        "flight_id": 2048417061,
        "region_id": 85688637,
        "venue_id": 1947304133,
        "wing_id": 1947304069
      }
    ],
    "wof:id": 2048417061,
    "wof:involves": [
      1528104575,
      102537555,
      102527513,
      1159285413,
      1947304133
    ],
    "wof:lastmodified": 1790266828,
    "wof:name": "UA2312 (SFO-SJO)",
    "wof:parent_id": 1947304133,
    "wof:placetype": "custom",
    "wof:placetype_alt": [
      "flight"
    ],
    "wof:repo": "sfomuseum-data-flights-2026-09",
    "wof:superseded_by": [],
    "wof:supersedes": []
  },
  "bbox": [
    -122.370943,
    9.99386,
    -84.208801,
    37.61799
  ],
  "geometry": {"type":"MultiPoint","coordinates":[[-122.370943,37.61799],[-84.208801,9.99386]]}
}
