{
  "id": 2048435179,
  "type": "Feature",
  "properties": {
    "geom:area": 0,
    "geom:bbox": "-122.548750,36.727740,-121.449330,37.667920",
    "geom:latitude": 37.212363288742495,
    "geom:longitude": -122.07140904174885,
    "src:alt_label": "swim-takeoff",
    "src:geom": "swim",
    "swim:elevations": [
      374,
      815,
      1335,
      1452,
      1885,
      2307,
      2586,
      3070,
      3351,
      3531,
      4014,
      4106,
      4440,
      4962,
      5200,
      5598,
      5804,
      5959,
      6284,
      6655,
      7043,
      7377,
      7501,
      7695,
      7917,
      8095,
      8138
    ],
    "swim:geom": "takeoff",
    "swim:timestamps": [
      1790374820,
      1790374855,
      1790374904,
      1790374910,
      1790374943,
      1790374973,
      1790374994,
      1790375027,
      1790375057,
      1790375075,
      1790375122,
      1790375139,
      1790375181,
      1790375235,
      1790375256,
      1790375299,
      1790375323,
      1790375341,
      1790375373,
      1790375418,
      1790375464,
      1790375517,
      1790375535,
      1790375566,
      1790375605,
      1790375635,
      1790375644
    ],
    "wof:geomhash": "78de56f4345fe5463db29e6f39f0044e",
    "wof:id": 2048435179,
    "wof:repo": "sfomuseum-data-flights-2026-09"
  },
  "bbox": [
    -122.54875,
    36.72774,
    -121.44933,
    37.66792
  ],
  "geometry": {"type":"LineString","coordinates":[[-122.4015,37.63007],[-122.43098,37.64315],[-122.48463,37.66545],[-122.49322,37.66792],[-122.5357,37.65779],[-122.54875,37.62454],[-122.5374,37.59996],[-122.51362,37.55974],[-122.49137,37.52207],[-122.47636,37.49766],[-122.41404,37.44242],[-122.38751,37.42356],[-122.31632,37.37373],[-122.22272,37.30481],[-122.18584,37.27737],[-122.1113,37.22187],[-122.06761,37.18951],[-122.03498,37.16528],[-121.97568,37.12124],[-121.89367,37.06023],[-121.80734,36.99573],[-121.70593,36.91968],[-121.67002,36.89271],[-121.60917,36.84731],[-121.52882,36.78801],[-121.46782,36.74176],[-121.44933,36.72774]]}
}
