{
  "id": 2048355325,
  "type": "Feature",
  "properties": {
    "geom:area": 0,
    "geom:bbox": "-122.595520,37.223140,-121.270920,37.672110",
    "geom:latitude": 37.417982276549374,
    "geom:longitude": -122.03806766498998,
    "src:alt_label": "swim-takeoff",
    "src:geom": "swim",
    "swim:elevations": [
      471,
      609,
      949,
      1341,
      1778,
      2140,
      3002,
      3461,
      4008,
      4355,
      4878,
      4940,
      5564,
      5751,
      5791,
      5791,
      5791,
      5791,
      5854,
      6150,
      6396,
      6404,
      6401,
      6401,
      6401,
      6401,
      6401,
      6401,
      6548,
      6866
    ],
    "swim:geom": "takeoff",
    "swim:timestamps": [
      1789560118,
      1789560137,
      1789560174,
      1789560198,
      1789560234,
      1789560256,
      1789560311,
      1789560343,
      1789560379,
      1789560395,
      1789560443,
      1789560456,
      1789560507,
      1789560526,
      1789560544,
      1789560595,
      1789560627,
      1789560657,
      1789560679,
      1789560711,
      1789560741,
      1789560746,
      1789560778,
      1789560795,
      1789560811,
      1789560857,
      1789560879,
      1789560907,
      1789560930,
      1789560960
    ],
    "wof:geomhash": "38c68169776a1520b3452d4da80aa373",
    "wof:id": 2048355325,
    "wof:repo": "sfomuseum-data-flights-2026-09"
  },
  "bbox": [
    -122.59552,
    37.22314,
    -121.27092,
    37.67211
  ],
  "geometry": {"type":"LineString","coordinates":[[-122.40148,37.63072],[-122.41668,37.63722],[-122.45361,37.65277],[-122.48114,37.66443],[-122.52906,37.67211],[-122.55487,37.65597],[-122.59552,37.59349],[-122.58791,37.55016],[-122.55038,37.50827],[-122.52008,37.50041],[-122.42691,37.48006],[-122.40103,37.47423],[-122.28858,37.44973],[-122.248,37.441],[-122.20785,37.43226],[-122.09537,37.40755],[-122.02384,37.3917],[-121.95678,37.377],[-121.90838,37.36635],[-121.8381,37.35067],[-121.76901,37.33528],[-121.75721,37.33265],[-121.68566,37.31665],[-121.64518,37.30765],[-121.60825,37.29934],[-121.50424,37.27597],[-121.45459,37.26488],[-121.39089,37.25043],[-121.33903,37.23869],[-121.27092,37.22314]]}
}
