{
  "id": 2048382525,
  "type": "Feature",
  "properties": {
    "geom:area": 0,
    "geom:bbox": "-122.403680,37.632680,-121.258230,38.162470",
    "geom:latitude": 37.9908786012161,
    "geom:longitude": -121.94214262403784,
    "src:alt_label": "swim-takeoff",
    "src:geom": "swim",
    "swim:elevations": [
      289,
      547,
      993,
      1215,
      1305,
      1865,
      2336,
      2674,
      3049,
      3246,
      3307,
      3767,
      3854,
      4011,
      4231,
      4690,
      5082,
      5184,
      5416,
      5823,
      6102,
      6194,
      6533,
      6632,
      6934,
      7268,
      7433,
      7817,
      7891
    ],
    "swim:geom": "takeoff",
    "swim:timestamps": [
      1789860108,
      1789860132,
      1789860171,
      1789860207,
      1789860216,
      1789860264,
      1789860297,
      1789860325,
      1789860357,
      1789860381,
      1789860390,
      1789860432,
      1789860441,
      1789860459,
      1789860480,
      1789860527,
      1789860568,
      1789860580,
      1789860604,
      1789860650,
      1789860686,
      1789860698,
      1789860737,
      1789860752,
      1789860788,
      1789860833,
      1789860851,
      1789860897,
      1789860914
    ],
    "wof:geomhash": "2fc12f6cf9442664cabafa6734a1c090",
    "wof:id": 2048382525,
    "wof:repo": "sfomuseum-data-flights-2026-09"
  },
  "bbox": [
    -122.40368,
    37.63268,
    -121.25823,
    38.16247
  ],
  "geometry": {"type":"LineString","coordinates":[[-122.40323,37.63268],[-122.40368,37.6523],[-122.37613,37.68026],[-122.34947,37.71169],[-122.34314,37.72099],[-122.35429,37.77877],[-122.37371,37.81788],[-122.38695,37.85232],[-122.3856,37.89626],[-122.37234,37.92811],[-122.36137,37.93784],[-122.28887,37.95934],[-122.27243,37.96287],[-122.23891,37.97],[-122.19876,37.97812],[-122.10717,37.99659],[-122.0251,38.01287],[-122.00065,38.0177],[-121.95114,38.02751],[-121.85523,38.04673],[-121.77791,38.06198],[-121.75187,38.06716],[-121.66601,38.08404],[-121.63302,38.09049],[-121.5521,38.10635],[-121.44922,38.12641],[-121.40759,38.13451],[-121.29918,38.15489],[-121.25823,38.16247]]}
}
