{
  "id": 2048239643,
  "type": "Feature",
  "properties": {
    "geom:area": 0,
    "geom:bbox": "-122.358820,37.449530,-121.257670,37.611900",
    "geom:latitude": 37.53559752491007,
    "geom:longitude": -121.81249185530905,
    "src:alt_label": "swim-approach",
    "src:geom": "swim",
    "swim:elevations": [
      5375,
      5342,
      5323,
      5207,
      4970,
      4946,
      4888,
      4760,
      3405,
      3207,
      3163,
      3043,
      2800,
      2542,
      2521,
      2163,
      2134,
      2134,
      1892,
      1829,
      1811,
      1662,
      1562,
      1462,
      1309,
      1064,
      974,
      855,
      711,
      609,
      456,
      366,
      271,
      153,
      125,
      1
    ],
    "swim:geom": "approach",
    "swim:timestamps": [
      1788456596,
      1788456600,
      1788456603,
      1788456616,
      1788456644,
      1788456648,
      1788456657,
      1788456670,
      1788456852,
      1788456928,
      1788456939,
      1788456981,
      1788457025,
      1788457063,
      1788457066,
      1788457107,
      1788457136,
      1788457155,
      1788457198,
      1788457216,
      1788457244,
      1788457268,
      1788457287,
      1788457301,
      1788457326,
      1788457366,
      1788457383,
      1788457435,
      1788457466,
      1788457489,
      1788457526,
      1788457556,
      1788457584,
      1788457618,
      1788457624,
      1788457657
    ],
    "wof:geomhash": "bc91a4d2e83e5352dc36e2e827c269ed",
    "wof:id": 2048239643,
    "wof:repo": "sfomuseum-data-flights-2026-09"
  },
  "bbox": [
    -122.35882,
    37.44953,
    -121.25767,
    37.6119
  ],
  "geometry": {"type":"LineString","coordinates":[[-121.25767,37.59339],[-121.26371,37.59257],[-121.26823,37.59195],[-121.2869,37.58958],[-121.33078,37.58498],[-121.33581,37.58435],[-121.34917,37.58274],[-121.36882,37.58039],[-121.63529,37.54901],[-121.73361,37.59257],[-121.74788,37.59238],[-121.77455,37.55877],[-121.76306,37.51044],[-121.77685,37.47345],[-121.77841,37.47081],[-121.82179,37.45572],[-121.86122,37.45404],[-121.88564,37.45286],[-121.94033,37.45007],[-121.96309,37.44953],[-121.99905,37.46031],[-122.02508,37.47116],[-122.04503,37.47968],[-122.05981,37.48591],[-122.08528,37.49671],[-122.12584,37.51379],[-122.14291,37.52104],[-122.1911,37.54138],[-122.21909,37.55313],[-122.23862,37.56139],[-122.26933,37.57437],[-122.28976,37.5829],[-122.30888,37.59092],[-122.33161,37.60052],[-122.33631,37.60247],[-122.35882,37.6119]]}
}
