{
  "id": 2048468941,
  "type": "Feature",
  "properties": {
    "geom:area": 0,
    "geom:bbox": "-122.364140,37.631920,-121.246940,38.124060",
    "geom:latitude": 37.894017408378076,
    "geom:longitude": -121.81314279216225,
    "src:alt_label": "swim-takeoff",
    "src:geom": "swim",
    "swim:elevations": [
      183,
      515,
      749,
      908,
      1333,
      1891,
      2395,
      2573,
      3202,
      3241,
      3419,
      3793,
      4065,
      4258,
      4658,
      4732,
      5039,
      5346,
      5641,
      5744,
      6077,
      6218,
      6453,
      6814
    ],
    "swim:geom": "takeoff",
    "swim:timestamps": [
      1790668421,
      1790668457,
      1790668486,
      1790668507,
      1790668542,
      1790668581,
      1790668614,
      1790668627,
      1790668675,
      1790668684,
      1790668722,
      1790668768,
      1790668793,
      1790668810,
      1790668845,
      1790668853,
      1790668883,
      1790668916,
      1790668947,
      1790668961,
      1790669003,
      1790669022,
      1790669051,
      1790669092
    ],
    "wof:geomhash": "b124dd16e04c7c973ea81e5c06c0b48d",
    "wof:id": 2048468941,
    "wof:repo": "sfomuseum-data-flights-2026-09"
  },
  "bbox": [
    -122.36414,
    37.63192,
    -121.24694,
    38.12406
  ],
  "geometry": {"type":"LineString","coordinates":[[-122.36414,37.63192],[-122.33663,37.65092],[-122.30716,37.66758],[-122.28347,37.68089],[-122.24053,37.70428],[-122.18888,37.73075],[-122.14419,37.75389],[-122.12763,37.76262],[-122.06374,37.79566],[-122.05085,37.80228],[-121.99151,37.83148],[-121.90745,37.8648],[-121.85962,37.88367],[-121.82619,37.89685],[-121.75788,37.92386],[-121.74364,37.92952],[-121.6851,37.95269],[-121.61799,37.97899],[-121.55625,38.00331],[-121.52793,38.01444],[-121.44136,38.0484],[-121.40036,38.06449],[-121.33784,38.08882],[-121.24694,38.12406]]}
}
