{
  "id": 2048241133,
  "type": "Feature",
  "properties": {
    "geom:area": 0,
    "geom:bbox": "-123.352870,37.032610,-122.125040,37.610420",
    "geom:latitude": 37.308415286685815,
    "geom:longitude": -122.64235112817184,
    "src:alt_label": "swim-approach",
    "src:geom": "swim",
    "swim:elevations": [
      5841,
      5592,
      5334,
      4871,
      4591,
      4210,
      3784,
      3365,
      3268,
      3048,
      3048,
      3024,
      2951,
      2843,
      2741,
      2704,
      2493,
      2313,
      2098,
      2041,
      1890,
      1829,
      1829,
      1593,
      1477,
      1380,
      1220,
      1219,
      1219,
      1216,
      966,
      831,
      635,
      540,
      489,
      301,
      201,
      116,
      28
    ],
    "swim:geom": "approach",
    "swim:timestamps": [
      1788445059,
      1788445077,
      1788445097,
      1788445136,
      1788445159,
      1788445191,
      1788445225,
      1788445258,
      1788445265,
      1788445313,
      1788445330,
      1788445367,
      1788445395,
      1788445436,
      1788445462,
      1788445480,
      1788445517,
      1788445547,
      1788445586,
      1788445595,
      1788445623,
      1788445672,
      1788445697,
      1788445731,
      1788445748,
      1788445762,
      1788445795,
      1788445810,
      1788445835,
      1788445870,
      1788445918,
      1788445938,
      1788445976,
      1788446003,
      1788446010,
      1788446061,
      1788446086,
      1788446116,
      1788446136
    ],
    "wof:geomhash": "21eec2ac4414780426d144f322dc4b4f",
    "wof:id": 2048241133,
    "wof:repo": "sfomuseum-data-flights-2026-09"
  },
  "bbox": [
    -123.35287,
    37.03261,
    -122.12504,
    37.61042
  ],
  "geometry": {"type":"LineString","coordinates":[[-123.35287,37.03261],[-123.31156,37.05174],[-123.26711,37.07235],[-123.18057,37.11218],[-123.12946,37.13553],[-123.06202,37.16675],[-122.99135,37.19915],[-122.92216,37.23082],[-122.9088,37.23698],[-122.81072,37.26974],[-122.77603,37.27787],[-122.70056,37.29552],[-122.64799,37.30841],[-122.57765,37.30239],[-122.53867,37.29623],[-122.51132,37.29182],[-122.45879,37.28344],[-122.41749,37.29444],[-122.38387,37.33043],[-122.37665,37.33874],[-122.35396,37.3646],[-122.30225,37.39731],[-122.26863,37.40039],[-122.22306,37.40484],[-122.19991,37.40725],[-122.18057,37.40921],[-122.14539,37.42666],[-122.13728,37.44145],[-122.12504,37.4662],[-122.14143,37.49959],[-122.17542,37.53446],[-122.19587,37.54357],[-122.23177,37.55846],[-122.25423,37.56794],[-122.26044,37.57057],[-122.29994,37.5871],[-122.31812,37.5948],[-122.3404,37.60418],[-122.35534,37.61042]]}
}
