{
  "id": 2048305377,
  "type": "Feature",
  "properties": {
    "geom:area": 0,
    "geom:bbox": "-122.402910,37.628170,-121.351040,37.946500",
    "geom:latitude": 37.820857659553795,
    "geom:longitude": -121.89703787348502,
    "src:alt_label": "swim-takeoff",
    "src:geom": "swim",
    "swim:elevations": [
      183,
      386,
      662,
      987,
      1358,
      1658,
      1965,
      2419,
      2900,
      3229,
      3377,
      3579,
      4212,
      4387,
      4743,
      5372,
      5651,
      5681,
      6273,
      6390,
      6401,
      6401
    ],
    "swim:geom": "takeoff",
    "swim:timestamps": [
      1789039945,
      1789039960,
      1789039990,
      1789040013,
      1789040057,
      1789040091,
      1789040112,
      1789040143,
      1789040179,
      1789040211,
      1789040236,
      1789040253,
      1789040302,
      1789040316,
      1789040344,
      1789040398,
      1789040427,
      1789040430,
      1789040487,
      1789040500,
      1789040531,
      1789040550
    ],
    "wof:geomhash": "f5a5cdcc8ae9542f12702d7f2dcf38d9",
    "wof:id": 2048305377,
    "wof:repo": "sfomuseum-data-flights-2026-09"
  },
  "bbox": [
    -122.40291,
    37.62817,
    -121.35104,
    37.9465
  ],
  "geometry": {"type":"LineString","coordinates":[[-122.39175,37.62817],[-122.40291,37.63584],[-122.39364,37.65789],[-122.36869,37.66664],[-122.31712,37.68375],[-122.2687,37.69995],[-122.23673,37.71024],[-122.19111,37.72945],[-122.13857,37.75677],[-122.09117,37.78145],[-122.0488,37.80318],[-122.01912,37.81736],[-121.9181,37.84207],[-121.88841,37.84759],[-121.82889,37.85872],[-121.70962,37.8809],[-121.64383,37.89291],[-121.6369,37.89417],[-121.5021,37.91886],[-121.47117,37.92448],[-121.39586,37.93832],[-121.35104,37.9465]]}
}
