{
  "id": 2048392621,
  "type": "Feature",
  "properties": {
    "geom:area": 0,
    "geom:bbox": "-122.350860,37.491590,-121.269570,37.610990",
    "geom:latitude": 37.54541453519303,
    "geom:longitude": -121.81485058425422,
    "src:alt_label": "swim-approach",
    "src:geom": "swim",
    "swim:elevations": [
      4538,
      4261,
      4026,
      3756,
      3597,
      3534,
      3304,
      2880,
      2684,
      2608,
      2476,
      2168,
      2078,
      1908,
      1854,
      1799,
      1313,
      1049,
      914,
      766,
      565,
      549,
      492,
      359,
      242,
      61,
      49
    ],
    "swim:geom": "approach",
    "swim:timestamps": [
      1790003545,
      1790003574,
      1790003601,
      1790003635,
      1790003659,
      1790003683,
      1790003713,
      1790003755,
      1790003784,
      1790003795,
      1790003820,
      1790003877,
      1790003907,
      1790003935,
      1790003941,
      1790003970,
      1790004019,
      1790004052,
      1790004083,
      1790004114,
      1790004145,
      1790004169,
      1790004188,
      1790004223,
      1790004248,
      1790004297,
      1790004301
    ],
    "wof:geomhash": "5e5185871b6d1158b87165206bae50b5",
    "wof:id": 2048392621,
    "wof:repo": "sfomuseum-data-flights-2026-09"
  },
  "bbox": [
    -122.35086,
    37.49159,
    -121.26957,
    37.61099
  ],
  "geometry": {"type":"LineString","coordinates":[[-121.26957,37.59179],[-121.32971,37.58474],[-121.38486,37.57861],[-121.45275,37.5707],[-121.50099,37.56503],[-121.54624,37.55987],[-121.60021,37.55357],[-121.67256,37.53917],[-121.7194,37.52809],[-121.73703,37.52391],[-121.77483,37.51492],[-121.85769,37.49496],[-121.90151,37.49159],[-121.94521,37.49277],[-121.95532,37.49303],[-121.99882,37.49849],[-122.07009,37.5213],[-122.11747,37.5367],[-122.15984,37.55038],[-122.19656,37.56242],[-122.23001,37.57308],[-122.25113,37.57992],[-122.2654,37.58458],[-122.2924,37.59259],[-122.31144,37.59813],[-122.34868,37.61016],[-122.35086,37.61099]]}
}
