{
  "id": 2048371149,
  "type": "Feature",
  "properties": {
    "geom:area": 0,
    "geom:bbox": "-122.402610,37.624860,-121.261460,37.955200",
    "geom:latitude": 37.81286931104446,
    "geom:longitude": -121.85098895779615,
    "src:alt_label": "swim-takeoff",
    "src:geom": "swim",
    "swim:elevations": [
      122,
      463,
      490,
      641,
      764,
      992,
      1109,
      1481,
      1904,
      2082,
      2482,
      2674,
      2965,
      3173,
      3263,
      3381,
      3497,
      3627,
      3782,
      4014,
      4264,
      4426,
      4626,
      4752,
      4987
    ],
    "swim:geom": "takeoff",
    "swim:timestamps": [
      1789735258,
      1789735287,
      1789735293,
      1789735345,
      1789735372,
      1789735399,
      1789735411,
      1789735448,
      1789735493,
      1789735509,
      1789735547,
      1789735568,
      1789735599,
      1789735629,
      1789735657,
      1789735701,
      1789735734,
      1789735757,
      1789735781,
      1789735815,
      1789735849,
      1789735874,
      1789735906,
      1789735927,
      1789735962
    ],
    "wof:geomhash": "e869c2bc357431f87fe8c6df26ca1b80",
    "wof:id": 2048371149,
    "wof:repo": "sfomuseum-data-flights-2026-09"
  },
  "bbox": [
    -122.40261,
    37.62486,
    -121.26146,
    37.9552
  ],
  "geometry": {"type":"LineString","coordinates":[[-122.38403,37.62486],[-122.40234,37.64086],[-122.40261,37.64537],[-122.35699,37.67058],[-122.32211,37.68185],[-122.28563,37.69388],[-122.26912,37.69942],[-122.21828,37.71649],[-122.16033,37.7456],[-122.13625,37.75322],[-122.07685,37.76709],[-122.04443,37.77458],[-121.99609,37.78592],[-121.94953,37.79678],[-121.90253,37.80782],[-121.82196,37.82655],[-121.75477,37.84214],[-121.70655,37.85335],[-121.65713,37.86465],[-121.58324,37.88169],[-121.51037,37.89846],[-121.45719,37.91068],[-121.38642,37.92681],[-121.33906,37.93762],[-121.26146,37.9552]]}
}
