{
  "id": 2048236701,
  "type": "Feature",
  "properties": {
    "date:inception_lower": "2026-09-02",
    "date:inception_upper": "2026-09-02",
    "edtf:cessation": "",
    "edtf:inception": "2026-09-02",
    "flysfo:actual_timestamp": -1,
    "flysfo:airline": "UA",
    "flysfo:date": "2026-09-02",
    "flysfo:estimated_timestamp": 1788353520,
    "flysfo:event": "D",
    "flysfo:flight_number": "UA3921",
    "flysfo:gate": "F16",
    "flysfo:journey": "SFO-SEA",
    "flysfo:scheduled_timestamp": 1788354000,
    "flysfo:timestamp": 1788354000,
    "geom:area": 0,
    "geom:bbox": "-122.370943,37.617990,-122.304268,47.441823",
    "geom:latitude": 42.529906499999996,
    "geom:longitude": -122.3376055,
    "iata:airline": "UA",
    "icao:airline": "UAL",
    "lbl:latitude": 37.620533,
    "lbl:longitude": -122.389374,
    "sfomuseum:airline_id": 1159285413,
    "sfomuseum:arrival_id": 102533269,
    "sfomuseum:departure_id": 102527513,
    "sfomuseum:flight_id": "20260902-D-UAL-3921",
    "sfomuseum:flight_number": [
      "UAL3921",
      "UA3921"
    ],
    "sfomuseum:placetype": "flight",
    "src:geom": "flysfo",
    "wof:belongsto": [
      1947304067,
      102527513,
      1947304451,
      102191575,
      85633793,
      102087579,
      85922583,
      554784711,
      85688637,
      1947304457,
      1947304447,
      102085387
    ],
    "wof:country": "US",
    "wof:created": 1788452156,
    "wof:geomhash": "4036ee3c983703867dbe0486453848b1",
    "wof:hierarchy": [
      {
        "building_id": 1947304067,
        "campus_id": 102527513,
        "concourse_id": 1947304451,
        "continent_id": 102191575,
        "country_id": 85633793,
        "county_id": 102087579,
        "custom_id": 2048236701,
        "flight_id": 2048236701,
        "locality_id": 85922583,
        "postalcode_id": 554784711,
        "region_id": 85688637,
        "venue_id": 1947304457,
        "wing_id": 1947304447
      },
      {
        "building_id": 1947304067,
        "campus_id": 102527513,
        "concourse_id": 1947304451,
        "continent_id": 102191575,
        "country_id": 85633793,
        "county_id": 102085387,
        "custom_id": 2048236701,
        "flight_id": 2048236701,
        "region_id": 85688637,
        "venue_id": 1947304457,
        "wing_id": 1947304447
      }
    ],
    "wof:id": 2048236701,
    "wof:involves": [
      102533269,
      102527513,
      1159285413,
      1947304457
    ],
    "wof:lastmodified": 1788452156,
    "wof:name": "UA3921 (SFO-SEA)",
    "wof:parent_id": 1947304457,
    "wof:placetype": "custom",
    "wof:placetype_alt": [
      "flight"
    ],
    "wof:repo": "sfomuseum-data-flights-2026-09",
    "wof:superseded_by": [],
    "wof:supersedes": []
  },
  "bbox": [
    -122.370943,
    37.61799,
    -122.304268,
    47.441823
  ],
  "geometry": {"type":"MultiPoint","coordinates":[[-122.370943,37.61799],[-122.304268,47.441823]]}
}
