{
  "id": 2048326367,
  "type": "Feature",
  "properties": {
    "geom:area": 0,
    "geom:bbox": "-122.346360,37.491210,-121.253350,37.609040",
    "geom:latitude": 37.54585567707008,
    "geom:longitude": -121.80449233080482,
    "src:alt_label": "swim-approach",
    "src:geom": "swim",
    "swim:elevations": [
      5030,
      4569,
      3864,
      3594,
      3348,
      3260,
      3148,
      3039,
      2694,
      2622,
      2460,
      2264,
      2103,
      2040,
      1970,
      1865,
      1730,
      1461,
      1279,
      1147,
      1042,
      802,
      688,
      601,
      471,
      254,
      140,
      73
    ],
    "swim:geom": "approach",
    "swim:timestamps": [
      1789344987,
      1789345027,
      1789345088,
      1789345112,
      1789345133,
      1789345148,
      1789345181,
      1789345202,
      1789345254,
      1789345265,
      1789345283,
      1789345313,
      1789345340,
      1789345355,
      1789345370,
      1789345397,
      1789345421,
      1789345465,
      1789345492,
      1789345519,
      1789345534,
      1789345583,
      1789345604,
      1789345622,
      1789345652,
      1789345701,
      1789345730,
      1789345744
    ],
    "wof:geomhash": "399d14e352ffc43e3738864e413065e1",
    "wof:id": 2048326367,
    "wof:repo": "sfomuseum-data-flights-2026-09"
  },
  "bbox": [
    -122.34636,
    37.49121,
    -121.25335,
    37.60904
  ],
  "geometry": {"type":"LineString","coordinates":[[-121.25335,37.59396],[-121.33391,37.58466],[-121.45856,37.57023],[-121.50683,37.56466],[-121.54952,37.55959],[-121.57954,37.55608],[-121.63943,37.54722],[-121.67439,37.53882],[-121.7571,37.5192],[-121.77335,37.51536],[-121.80105,37.50874],[-121.84677,37.49763],[-121.888,37.49121],[-121.91103,37.49181],[-121.93381,37.49241],[-121.97518,37.49358],[-122.00852,37.50132],[-122.06454,37.51945],[-122.10013,37.5311],[-122.13339,37.54192],[-122.15132,37.54772],[-122.20438,37.56483],[-122.22531,37.57149],[-122.24242,37.5771],[-122.27006,37.58584],[-122.31158,37.59792],[-122.33497,37.60514],[-122.34636,37.60904]]}
}
