{
  "id": 2048410327,
  "type": "Feature",
  "properties": {
    "geom:area": 0,
    "geom:bbox": "-123.506720,37.017500,-122.156300,37.610900",
    "geom:latitude": 37.299543945139,
    "geom:longitude": -122.73729567113922,
    "src:alt_label": "swim-approach",
    "src:geom": "swim",
    "swim:elevations": [
      5534,
      5334,
      5024,
      4719,
      4517,
      4120,
      3918,
      3731,
      3535,
      3256,
      3186,
      3053,
      3048,
      3048,
      3048,
      3048,
      3048,
      3035,
      2841,
      2717,
      2645,
      2591,
      2511,
      2346,
      2199,
      2105,
      1972,
      1772,
      1649,
      1408,
      1042,
      851,
      791,
      566,
      489,
      426,
      270,
      119,
      16
    ],
    "swim:geom": "approach",
    "swim:timestamps": [
      1790167366,
      1790167389,
      1790167427,
      1790167461,
      1790167486,
      1790167533,
      1790167585,
      1790167607,
      1790167635,
      1790167670,
      1790167681,
      1790167713,
      1790167768,
      1790167784,
      1790167802,
      1790167825,
      1790167842,
      1790167860,
      1790167911,
      1790167946,
      1790167963,
      1790167972,
      1790167991,
      1790168023,
      1790168052,
      1790168073,
      1790168104,
      1790168139,
      1790168163,
      1790168206,
      1790168247,
      1790168268,
      1790168289,
      1790168337,
      1790168357,
      1790168375,
      1790168416,
      1790168451,
      1790168478
    ],
    "wof:geomhash": "e9e54c81ded6646e24d7c003a4b78314",
    "wof:id": 2048410327,
    "wof:repo": "sfomuseum-data-flights-2026-09"
  },
  "bbox": [
    -123.50672,
    37.0175,
    -122.1563,
    37.6109
  ],
  "geometry": {"type":"LineString","coordinates":[[-123.50672,37.0175],[-123.46192,37.03806],[-123.38837,37.07275],[-123.32471,37.10316],[-123.27919,37.12486],[-123.19468,37.16496],[-123.1059,37.20033],[-123.06469,37.21008],[-123.01526,37.22179],[-122.95303,37.23642],[-122.93418,37.24104],[-122.87839,37.25399],[-122.78819,37.2753],[-122.76193,37.28143],[-122.73267,37.2882],[-122.69647,37.2966],[-122.66898,37.30296],[-122.63864,37.31002],[-122.55777,37.32885],[-122.50235,37.34162],[-122.47541,37.34786],[-122.46044,37.3513],[-122.43137,37.35805],[-122.38182,37.36936],[-122.33753,37.37956],[-122.30482,37.38709],[-122.26003,37.39737],[-122.20771,37.40974],[-122.17493,37.42104],[-122.1563,37.46641],[-122.17178,37.50832],[-122.18017,37.52888],[-122.19747,37.54354],[-122.24386,37.56354],[-122.26052,37.57054],[-122.27572,37.57697],[-122.3079,37.59049],[-122.33602,37.60236],[-122.35648,37.6109]]}
}
