{
  "id": 2048357509,
  "type": "Feature",
  "properties": {
    "geom:area": 0,
    "geom:bbox": "-122.359620,37.491990,-121.242490,37.614560",
    "geom:latitude": 37.54717633988097,
    "geom:longitude": -121.80603181649225,
    "src:alt_label": "swim-approach",
    "src:geom": "swim",
    "swim:elevations": [
      4983,
      4642,
      4473,
      4166,
      4110,
      3830,
      3551,
      3351,
      3271,
      3096,
      2859,
      2608,
      2430,
      2235,
      2160,
      2040,
      1884,
      1830,
      1796,
      1500,
      1223,
      1061,
      990,
      914,
      703,
      557,
      550,
      511,
      424,
      349,
      251,
      153,
      0
    ],
    "swim:geom": "approach",
    "swim:timestamps": [
      1789677494,
      1789677532,
      1789677550,
      1789677595,
      1789677605,
      1789677633,
      1789677661,
      1789677705,
      1789677726,
      1789677751,
      1789677792,
      1789677824,
      1789677867,
      1789677897,
      1789677910,
      1789677942,
      1789677984,
      1789678011,
      1789678027,
      1789678063,
      1789678096,
      1789678128,
      1789678143,
      1789678191,
      1789678227,
      1789678249,
      1789678261,
      1789678278,
      1789678303,
      1789678332,
      1789678359,
      1789678384,
      1789678426
    ],
    "wof:geomhash": "ca3c7b9ffb9d1902a82f5f1a3edb040e",
    "wof:id": 2048357509,
    "wof:repo": "sfomuseum-data-flights-2026-09"
  },
  "bbox": [
    -122.35962,
    37.49199,
    -121.24249,
    37.61456
  ],
  "geometry": {"type":"LineString","coordinates":[[-121.24249,37.5956],[-121.30812,37.58747],[-121.3388,37.58417],[-121.4142,37.57528],[-121.42887,37.57353],[-121.4722,37.56856],[-121.51583,37.56361],[-121.58501,37.55546],[-121.61675,37.5517],[-121.6545,37.54368],[-121.71293,37.52976],[-121.75517,37.51964],[-121.81312,37.50577],[-121.85369,37.49613],[-121.87022,37.49232],[-121.91246,37.49199],[-121.96122,37.49323],[-121.99135,37.49611],[-122.00817,37.50138],[-122.0452,37.51318],[-122.07973,37.52461],[-122.11328,37.53534],[-122.12868,37.5404],[-122.17753,37.55621],[-122.21451,37.5682],[-122.23579,37.575],[-122.24617,37.57832],[-122.26025,37.58278],[-122.27754,37.58771],[-122.29635,37.59326],[-122.31421,37.59885],[-122.33102,37.60372],[-122.35962,37.61456]]}
}
