{
  "id": 2048447879,
  "type": "Feature",
  "properties": {
    "geom:area": 0,
    "geom:bbox": "-122.478570,36.720010,-122.077810,37.620200",
    "geom:latitude": 37.34806289131009,
    "geom:longitude": -122.20952864054583,
    "src:alt_label": "swim-approach",
    "src:geom": "swim",
    "swim:elevations": [
      4303,
      4171,
      4086,
      3869,
      3616,
      3513,
      3352,
      3353,
      3267,
      3230,
      3107,
      3038,
      2912,
      2685,
      2545,
      2499,
      2487,
      2438,
      2438,
      2257,
      2024,
      1975,
      1829,
      1829,
      1613,
      1599,
      1548,
      1426,
      1371,
      1319,
      1096,
      1021,
      667,
      596,
      480,
      348,
      224,
      122,
      254,
      693,
      1003,
      1033,
      1525,
      1524,
      1524,
      1524,
      1524,
      1524,
      1524,
      1524,
      1524,
      1524,
      1524,
      1459,
      1350,
      1209,
      1037,
      971,
      835,
      791,
      581,
      511,
      302,
      291,
      98
    ],
    "swim:geom": "approach",
    "swim:timestamps": [
      1790512274,
      1790512293,
      1790512306,
      1790512336,
      1790512375,
      1790512390,
      1790512434,
      1790512438,
      1790512483,
      1790512491,
      1790512510,
      1790512531,
      1790512559,
      1790512588,
      1790512603,
      1790512611,
      1790512615,
      1790512648,
      1790512665,
      1790512696,
      1790512737,
      1790512747,
      1790512793,
      1790512804,
      1790512857,
      1790512860,
      1790512876,
      1790512913,
      1790512928,
      1790512943,
      1790512978,
      1790512987,
      1790513038,
      1790513051,
      1790513073,
      1790513109,
      1790513140,
      1790513181,
      1790513194,
      1790513230,
      1790513279,
      1790513283,
      1790513335,
      1790513347,
      1790513391,
      1790513413,
      1790513452,
      1790513488,
      1790513492,
      1790513515,
      1790513533,
      1790513567,
      1790513597,
      1790513626,
      1790513647,
      1790513674,
      1790513709,
      1790513727,
      1790513758,
      1790513767,
      1790513814,
      1790513829,
      1790513878,
      1790513883,
      1790513935
    ],
    "wof:geomhash": "5038c68c211e324fda588c03436c23fb",
    "wof:id": 2048447879,
    "wof:repo": "sfomuseum-data-flights-2026-09"
  },
  "bbox": [
    -122.47857,
    36.72001,
    -122.07781,
    37.6202
  ],
  "geometry": {"type":"LineString","coordinates":[[-122.10196,36.72001],[-122.11462,36.74559],[-122.12008,36.76507],[-122.1325,36.80829],[-122.14927,36.86369],[-122.15613,36.88535],[-122.13423,36.93865],[-122.12815,36.94058],[-122.07785,36.97111],[-122.07781,36.97986],[-122.07969,37.00248],[-122.08194,37.02769],[-122.08449,37.05933],[-122.08742,37.09368],[-122.08917,37.11159],[-122.09016,37.12113],[-122.09064,37.12591],[-122.0948,37.1647],[-122.09702,37.18506],[-122.10119,37.22291],[-122.10597,37.27149],[-122.10733,37.28356],[-122.11383,37.33658],[-122.11529,37.34909],[-122.13078,37.41042],[-122.13199,37.41393],[-122.13786,37.43113],[-122.15227,37.47267],[-122.15789,37.48901],[-122.16327,37.50431],[-122.17851,37.53532],[-122.18656,37.5393],[-122.23304,37.55917],[-122.24545,37.56417],[-122.26427,37.57224],[-122.29298,37.58428],[-122.31779,37.59464],[-122.34971,37.60809],[-122.35955,37.61207],[-122.39335,37.61841],[-122.45076,37.62007],[-122.45622,37.6202],[-122.47857,37.57851],[-122.46463,37.56901],[-122.40607,37.54802],[-122.37649,37.53763],[-122.3262,37.51972],[-122.28274,37.50017],[-122.27854,37.49791],[-122.25173,37.48361],[-122.23159,37.47306],[-122.19294,37.45273],[-122.15759,37.43864],[-122.12941,37.45384],[-122.12098,37.47225],[-122.13293,37.49262],[-122.15522,37.51772],[-122.16686,37.52935],[-122.19438,37.54282],[-122.20307,37.54648],[-122.24718,37.56496],[-122.2614,37.57091],[-122.30006,37.58722],[-122.30365,37.58874],[-122.34253,37.60513]]}
}
