{
  "id": 2048453463,
  "type": "Feature",
  "properties": {
    "geom:area": 0,
    "geom:bbox": "-123.476010,37.627580,-122.395080,37.730790",
    "geom:latitude": 37.69789994402345,
    "geom:longitude": -122.93129501830653,
    "src:alt_label": "swim-takeoff",
    "src:geom": "swim",
    "swim:elevations": [
      213,
      573,
      702,
      1073,
      1124,
      1314,
      1338,
      1699,
      2009,
      2221,
      2602,
      2790,
      3212,
      3293,
      3484,
      3467,
      3847,
      3991,
      4564,
      4663,
      5082,
      5229,
      5541
    ],
    "swim:geom": "takeoff",
    "swim:timestamps": [
      1790507476,
      1790507505,
      1790507527,
      1790507578,
      1790507590,
      1790507625,
      1790507629,
      1790507668,
      1790507696,
      1790507715,
      1790507748,
      1790507764,
      1790507807,
      1790507836,
      1790507877,
      1790507897,
      1790507926,
      1790507940,
      1790507997,
      1790508007,
      1790508048,
      1790508066,
      1790508101
    ],
    "wof:geomhash": "b627dc11597456a86e24637750e7cf3f",
    "wof:id": 2048453463,
    "wof:repo": "sfomuseum-data-flights-2026-09"
  },
  "bbox": [
    -123.47601,
    37.62758,
    -122.39508,
    37.73079
  ],
  "geometry": {"type":"LineString","coordinates":[[-122.39508,37.62758],[-122.42136,37.63912],[-122.44137,37.6477],[-122.49139,37.6695],[-122.5042,37.67423],[-122.55282,37.67806],[-122.55877,37.67839],[-122.61794,37.68199],[-122.66206,37.68459],[-122.69278,37.68647],[-122.74565,37.68954],[-122.7716,37.69116],[-122.84262,37.69548],[-122.89294,37.69837],[-122.97214,37.703],[-123.01549,37.70498],[-123.07923,37.70922],[-123.10932,37.71094],[-123.2379,37.71789],[-123.26068,37.71915],[-123.35349,37.72426],[-123.39573,37.72658],[-123.47601,37.73079]]}
}
