{
  "id": 2048463635,
  "type": "Feature",
  "properties": {
    "geom:area": 0,
    "geom:bbox": "-122.328611,32.766667,-97.050000,38.402500",
    "geom:latitude": 36.01099134336392,
    "geom:longitude": -109.60414447730243,
    "src:alt_label": "swim-path",
    "src:geom": "swim",
    "swim:altitudes": [
      "009",
      "029",
      "036",
      "042",
      "047",
      "057",
      "069",
      "081",
      "093",
      "112",
      "124",
      "134",
      "161",
      "176",
      "189",
      "202",
      "212",
      "221",
      "231",
      "240",
      "249",
      "256",
      "265",
      "275",
      "287",
      "297",
      "300C",
      "300C",
      "300C",
      "301C",
      "301C",
      "300C",
      "300C",
      "300",
      "302",
      "306",
      "307",
      "312",
      "313",
      "323",
      "326",
      "334",
      "336",
      "340C",
      "340C",
      "340C",
      "340C",
      "340C",
      "340C",
      "340C",
      "340C",
      "340C",
      "340C",
      "340C",
      "340C",
      "340C",
      "340C",
      "340C",
      "340C",
      "341C",
      "341C",
      "341C",
      "341C",
      "340C",
      "340C",
      "340C",
      "340C",
      "340C",
      "340C",
      "340C",
      "340C",
      "340C",
      "340C",
      "340C",
      "340C",
      "340C",
      "340C",
      "340C",
      "340C",
      "340C",
      "340C",
      "340C",
      "340C",
      "340C",
      "340C",
      "340C",
      "340C",
      "340C",
      "340C",
      "340C",
      "340C",
      "340C",
      "340C",
      "340C",
      "340C",
      "340C",
      "340C",
      "340C",
      "340C",
      "340C",
      "340C",
      "340C",
      "340C",
      "340C",
      "340C",
      "340C",
      "340C",
      "340C",
      "340C",
      "340C",
      "340C",
      "340C",
      "339C",
      "340C",
      "340C",
      "340C",
      "340C",
      "340C",
      "339C",
      "340C",
      "339C",
      "340C",
      "340C",
      "340C",
      "341C",
      "340C",
      "340C",
      "340C",
      "340C",
      "340C",
      "339C",
      "340C",
      "340C",
      "340C",
      "340C",
      "340C",
      "339C",
      "340C",
      "340C",
      "340C",
      "340C",
      "340C",
      "340C",
      "340C",
      "340C",
      "340C",
      "340C",
      "340C",
      "340C",
      "340C",
      "340C",
      "340C",
      "340C",
      "340",
      "340",
      "344",
      "346",
      "355",
      "357",
      "360C",
      "360C",
      "360C",
      "360C",
      "360C",
      "360C",
      "361C",
      "360C",
      "360C",
      "360C",
      "360C",
      "360C",
      "361C",
      "361C",
      "360C",
      "360C",
      "360C",
      "360C",
      "360C",
      "360C",
      "361C",
      "360C",
      "360C",
      "360C",
      "360C",
      "360C",
      "360C",
      "360C",
      "360C",
      "360C",
      "360C",
      "360C",
      "360C",
      "360C",
      "360C",
      "360C",
      "360C",
      "360C",
      "360C",
      "360C",
      "360C",
      "360C",
      "360C",
      "360C",
      "360C",
      "360C",
      "360C",
      "360C",
      "360C",
      "360C",
      "361C",
      "361C",
      "360C",
      "360C",
      "360C",
      "360C",
      "361C",
      "360C",
      "360C",
      "361C",
      "360C",
      "360C",
      "360C",
      "360C",
      "359C",
      "360C",
      "360C",
      "360C",
      "360C",
      "360C",
      "360C",
      "361C",
      "360C",
      "360C",
      "360C",
      "360C",
      "360C",
      "360C",
      "360C",
      "360C",
      "361C",
      "361C",
      "360C",
      "360C",
      "360C",
      "360C",
      "360C",
      "360C",
      "360C",
      "360C",
      "360C",
      "360C",
      "360C",
      "360C",
      "360C",
      "360C",
      "360C",
      "360",
      "360",
      "360",
      "350",
      "324",
      "300",
      "284",
      "280",
      "268",
      "257",
      "249",
      "242",
      "231",
      "223",
      "212",
      "201",
      "190",
      "182",
      "169",
      "158",
      "148",
      "140",
      "129",
      "119",
      "113",
      "110",
      "106",
      "103",
      "099",
      "093",
      "088",
      "082",
      "075",
      "070",
      "063",
      "060",
      "054",
      "046",
      "042",
      "037",
      "030",
      "029",
      "025",
      "020",
      "017",
      "013",
      "009",
      "005"
    ],
    "swim:geom": "path",
    "swim:speeds": [
      175,
      169,
      183,
      203,
      236,
      272,
      273,
      278,
      283,
      299,
      340,
      375,
      407,
      412,
      421,
      427,
      434,
      441,
      444,
      450,
      453,
      459,
      460,
      461,
      453,
      449,
      445,
      442,
      441,
      442,
      444,
      445,
      446,
      445,
      445,
      443,
      443,
      444,
      444,
      439,
      432,
      419,
      416,
      409,
      408,
      407,
      407,
      406,
      406,
      405,
      405,
      404,
      404,
      402,
      402,
      403,
      403,
      404,
      405,
      406,
      407,
      408,
      408,
      408,
      408,
      407,
      407,
      418,
      418,
      421,
      421,
      424,
      421,
      416,
      415,
      415,
      414,
      412,
      412,
      412,
      412,
      413,
      414,
      416,
      418,
      418,
      418,
      418,
      418,
      418,
      419,
      421,
      422,
      429,
      431,
      437,
      440,
      443,
      448,
      453,
      456,
      459,
      459,
      456,
      455,
      455,
      454,
      452,
      452,
      447,
      443,
      441,
      439,
      440,
      439,
      440,
      440,
      440,
      439,
      440,
      440,
      442,
      441,
      444,
      446,
      446,
      448,
      447,
      447,
      445,
      445,
      443,
      443,
      442,
      442,
      441,
      441,
      441,
      442,
      442,
      443,
      443,
      443,
      443,
      443,
      444,
      444,
      445,
      445,
      449,
      450,
      457,
      458,
      463,
      465,
      468,
      468,
      467,
      461,
      457,
      457,
      456,
      456,
      458,
      460,
      461,
      459,
      457,
      459,
      455,
      455,
      455,
      456,
      456,
      456,
      459,
      458,
      467,
      466,
      471,
      475,
      475,
      477,
      477,
      478,
      480,
      481,
      482,
      482,
      482,
      483,
      483,
      483,
      484,
      484,
      482,
      475,
      474,
      470,
      467,
      468,
      468,
      468,
      465,
      465,
      464,
      464,
      464,
      465,
      471,
      471,
      467,
      465,
      463,
      461,
      463,
      465,
      465,
      466,
      466,
      458,
      458,
      452,
      449,
      447,
      448,
      467,
      474,
      473,
      471,
      471,
      472,
      474,
      474,
      474,
      473,
      473,
      472,
      471,
      470,
      470,
      465,
      465,
      462,
      461,
      458,
      457,
      455,
      455,
      459,
      461,
      464,
      463,
      452,
      451,
      457,
      458,
      459,
      459,
      458,
      459,
      466,
      464,
      458,
      450,
      452,
      428,
      419,
      404,
      401,
      388,
      392,
      383,
      381,
      365,
      370,
      363,
      362,
      351,
      354,
      335,
      323,
      297,
      289,
      266,
      270,
      261,
      262,
      236,
      238,
      235,
      236,
      240,
      238,
      217,
      209,
      200,
      188,
      176,
      178,
      165,
      163,
      144,
      147
    ],
    "swim:timestamps": [
      1790725905,
      1790725960,
      1790725990,
      1790726020,
      1790726050,
      1790726079,
      1790726110,
      1790726134,
      1790726170,
      1790726230,
      1790726291,
      1790726351,
      1790726471,
      1790726531,
      1790726591,
      1790726651,
      1790726711,
      1790726771,
      1790726831,
      1790726891,
      1790726951,
      1790727012,
      1790727072,
      1790727132,
      1790727192,
      1790727252,
      1790727312,
      1790727372,
      1790727389,
      1790727432,
      1790727449,
      1790727492,
      1790727509,
      1790727552,
      1790727569,
      1790727612,
      1790727629,
      1790727672,
      1790727690,
      1790727733,
      1790727750,
      1790727793,
      1790727810,
      1790727853,
      1790727870,
      1790727913,
      1790727930,
      1790727973,
      1790727990,
      1790728033,
      1790728050,
      1790728093,
      1790728110,
      1790728153,
      1790728170,
      1790728213,
      1790728230,
      1790728273,
      1790728290,
      1790728333,
      1790728351,
      1790728394,
      1790728411,
      1790728454,
      1790728471,
      1790728514,
      1790728531,
      1790728574,
      1790728591,
      1790728634,
      1790728651,
      1790728694,
      1790728711,
      1790728754,
      1790728771,
      1790728814,
      1790728831,
      1790728874,
      1790728891,
      1790728934,
      1790728951,
      1790728994,
      1790729012,
      1790729054,
      1790729072,
      1790729115,
      1790729132,
      1790729175,
      1790729192,
      1790729235,
      1790729252,
      1790729295,
      1790729312,
      1790729355,
      1790729372,
      1790729415,
      1790729432,
      1790729475,
      1790729492,
      1790729535,
      1790729552,
      1790729595,
      1790729613,
      1790729655,
      1790729673,
      1790729715,
      1790729733,
      1790729775,
      1790729793,
      1790729853,
      1790729913,
      1790729973,
      1790729986,
      1790730033,
      1790730046,
      1790730093,
      1790730106,
      1790730153,
      1790730166,
      1790730213,
      1790730226,
      1790730274,
      1790730286,
      1790730334,
      1790730394,
      1790730407,
      1790730467,
      1790730514,
      1790730527,
      1790730574,
      1790730587,
      1790730634,
      1790730647,
      1790730694,
      1790730707,
      1790730754,
      1790730767,
      1790730814,
      1790730827,
      1790730874,
      1790730887,
      1790730935,
      1790730947,
      1790730995,
      1790731007,
      1790731055,
      1790731068,
      1790731115,
      1790731128,
      1790731175,
      1790731188,
      1790731236,
      1790731248,
      1790731296,
      1790731308,
      1790731356,
      1790731368,
      1790731416,
      1790731428,
      1790731476,
      1790731488,
      1790731536,
      1790731548,
      1790731608,
      1790731668,
      1790731728,
      1790731795,
      1790731849,
      1790731855,
      1790731909,
      1790731915,
      1790731969,
      1790732029,
      1790732097,
      1790732155,
      1790732209,
      1790732218,
      1790732269,
      1790732275,
      1790732335,
      1790732389,
      1790732398,
      1790732449,
      1790732456,
      1790732516,
      1790732576,
      1790732636,
      1790732666,
      1790732686,
      1790732696,
      1790732726,
      1790732746,
      1790732756,
      1790732786,
      1790732807,
      1790732816,
      1790732846,
      1790732876,
      1790732936,
      1790732987,
      1790732996,
      1790733047,
      1790733056,
      1790733107,
      1790733116,
      1790733167,
      1790733176,
      1790733227,
      1790733237,
      1790733287,
      1790733297,
      1790733347,
      1790733357,
      1790733407,
      1790733477,
      1790733537,
      1790733588,
      1790733597,
      1790733648,
      1790733657,
      1790733717,
      1790733777,
      1790733837,
      1790733893,
      1790733953,
      1790734013,
      1790734073,
      1790734133,
      1790734193,
      1790734253,
      1790734313,
      1790734373,
      1790734434,
      1790734494,
      1790734554,
      1790734614,
      1790734674,
      1790734734,
      1790734794,
      1790734854,
      1790734871,
      1790734914,
      1790734931,
      1790734974,
      1790734991,
      1790735034,
      1790735051,
      1790735094,
      1790735111,
      1790735154,
      1790735171,
      1790735214,
      1790735275,
      1790735335,
      1790735395,
      1790735455,
      1790735515,
      1790735575,
      1790735635,
      1790735695,
      1790735755,
      1790735815,
      1790735856,
      1790735875,
      1790735904,
      1790735935,
      1790735964,
      1790735995,
      1790736024,
      1790736055,
      1790736084,
      1790736116,
      1790736144,
      1790736176,
      1790736204,
      1790736236,
      1790736264,
      1790736296,
      1790736324,
      1790736356,
      1790736384,
      1790736416,
      1790736444,
      1790736476,
      1790736504,
      1790736536,
      1790736564,
      1790736596,
      1790736624,
      1790736656,
      1790736684,
      1790736716,
      1790736744,
      1790736776,
      1790736804,
      1790736836,
      1790736864,
      1790736896,
      1790736924,
      1790736956,
      1790736984,
      1790737016,
      1790737044,
      1790737077
    ],
    "wof:geomhash": "e537f006bd0cc239903fc67f7ce84e41",
    "wof:id": 2048463635,
    "wof:repo": "sfomuseum-data-flights-2026-09"
  },
  "bbox": [
    -122.3286111111111,
    32.766666666666666,
    -97.05,
    38.402499999999996
  ],
  "geometry": {"type":"LineString","coordinates":[[-97.05,32.88333333333333],[-97.05,32.85],[-97.06555555555555,32.82],[-97.06666666666666,32.8],[-97.09666666666666,32.77361111111111],[-97.15,32.766666666666666],[-97.185,32.76833333333333],[-97.23333333333333,32.766666666666666],[-97.27694444444444,32.78055555555555],[-97.36999999999999,32.80277777777778],[-97.47638888888889,32.82833333333333],[-97.59333333333333,32.85638888888889],[-97.84944444444444,32.92805555555555],[-97.97833333333334,32.97],[-98.10777777777777,33.01222222222222],[-98.24194444444444,33.05555555555555],[-98.3761111111111,33.099444444444444],[-98.49416666666667,33.1375],[-98.63222222222221,33.18222222222222],[-98.77111111111111,33.22666666666667],[-98.91388888888889,33.2725],[-99.05666666666666,33.31777777777778],[-99.19944444444445,33.363055555555555],[-99.34388888888888,33.40861111111111],[-99.48416666666667,33.45277777777778],[-99.625,33.49305555555556],[-99.76527777777778,33.532222222222224],[-99.90277777777779,33.57],[-99.95805555555556,33.584722222222226],[-100.06555555555555,33.615],[-100.10083333333333,33.624722222222225],[-100.20583333333333,33.65416666666667],[-100.23972222222223,33.66611111111111],[-100.3475,33.68388888888889],[-100.38444444444445,33.6825],[-100.4961111111111,33.67861111111111],[-100.53138888888888,33.67722222222222],[-100.64305555555556,33.67305555555555],[-100.68027777777779,33.67166666666667],[-100.78916666666666,33.66722222222222],[-100.82444444444444,33.66583333333333],[-100.92972222222222,33.661944444444444],[-100.96388888888889,33.660555555555554],[-101.065,33.656388888888884],[-101.09861111111111,33.65472222222222],[-101.19861111111112,33.65083333333333],[-101.235,33.649166666666666],[-101.33305555555555,33.644999999999996],[-101.36861111111111,33.64333333333333],[-101.46944444444445,33.638888888888886],[-101.50416666666666,33.63722222222222],[-101.60416666666666,33.632777777777775],[-101.63722222222223,33.63111111111111],[-101.73666666666666,33.626666666666665],[-101.76972222222223,33.625],[-101.87055555555555,33.62027777777778],[-101.90333333333334,33.618611111111115],[-102.00555555555556,33.61361111111111],[-102.03861111111111,33.61222222222222],[-102.14055555555557,33.606944444444444],[-102.17444444444445,33.60527777777778],[-102.27527777777777,33.60027777777778],[-102.30833333333334,33.59861111111111],[-102.41000000000001,33.593333333333334],[-102.43694444444445,33.591944444444444],[-102.54166666666667,33.586111111111116],[-102.57166666666666,33.58638888888889],[-102.67194444444445,33.61694444444444],[-102.69666666666667,33.628055555555555],[-102.79638888888888,33.671388888888885],[-102.82388888888889,33.683055555555555],[-102.92166666666667,33.72555555555556],[-102.94777777777779,33.73694444444445],[-103.04305555555555,33.778888888888886],[-103.06972222222223,33.78972222222222],[-103.16805555555555,33.82472222222223],[-103.19555555555556,33.83388888888889],[-103.29388888888889,33.86805555555556],[-103.32083333333333,33.87777777777778],[-103.41777777777779,33.91638888888889],[-103.46305555555556,33.93444444444444],[-103.54277777777777,33.96555555555556],[-103.58833333333332,33.983333333333334],[-103.67027777777778,34.01555555555556],[-103.71722222222222,34.03388888888889],[-103.79694444444445,34.065555555555555],[-103.84305555555555,34.08388888888889],[-103.92083333333333,34.11527777777778],[-103.96805555555555,34.13472222222222],[-104.04722222222222,34.168055555555554],[-104.095,34.18805555555555],[-104.16888888888889,34.21944444444445],[-104.2213888888889,34.2425],[-104.29888888888888,34.277499999999996],[-104.35083333333333,34.300555555555555],[-104.42777777777778,34.335],[-104.48166666666667,34.35888888888889],[-104.55916666666667,34.393055555555556],[-104.61527777777778,34.41777777777777],[-104.69111111111111,34.45138888888889],[-104.72305555555556,34.46527777777778],[-104.82972222222222,34.51222222222222],[-104.8611111111111,34.52583333333333],[-104.96388888888889,34.57083333333334],[-104.99555555555555,34.584722222222226],[-105.1,34.63055555555555],[-105.13111111111111,34.64388888888889],[-105.23305555555555,34.68833333333333],[-105.26416666666667,34.70166666666667],[-105.39861111111112,34.76],[-105.53,34.81638888888889],[-105.67555555555556,34.87888888888889],[-105.70694444444445,34.89222222222222],[-105.81166666666667,34.93694444444444],[-105.84222222222222,34.95],[-105.94500000000001,34.993611111111115],[-105.97694444444444,35.0075],[-106.08083333333333,35.05138888888889],[-106.11222222222221,35.06444444444444],[-106.20666666666666,35.10444444444445],[-106.23805555555556,35.11694444444444],[-106.3425,35.16166666666666],[-106.37416666666665,35.17527777777777],[-106.48,35.219166666666666],[-106.61638888888888,35.27611111111111],[-106.65166666666667,35.290277777777774],[-106.78,35.34388888888889],[-106.88611111111112,35.38777777777778],[-106.91416666666667,35.39944444444444],[-107.02,35.44305555555555],[-107.0461111111111,35.45388888888889],[-107.155,35.49861111111111],[-107.17916666666667,35.50861111111111],[-107.28916666666666,35.55333333333333],[-107.31222222222222,35.562777777777775],[-107.42472222222223,35.60861111111111],[-107.44555555555556,35.61694444444444],[-107.55888888888889,35.66277777777778],[-107.58472222222221,35.67333333333333],[-107.69416666666667,35.717222222222226],[-107.72222222222223,35.72888888888889],[-107.82944444444443,35.77194444444444],[-107.85749999999999,35.783055555555556],[-107.96638888888889,35.82666666666667],[-107.9925,35.83694444444445],[-108.10249999999999,35.880833333333335],[-108.12888888888888,35.89138888888889],[-108.23944444444444,35.93527777777778],[-108.26777777777778,35.94638888888888],[-108.37833333333333,35.99027777777778],[-108.40666666666667,36.00138888888889],[-108.51888888888888,36.04555555555555],[-108.54833333333333,36.05722222222222],[-108.65722222222223,36.099722222222226],[-108.69,36.112500000000004],[-108.80333333333333,36.156666666666666],[-108.83138888888888,36.1675],[-108.94250000000001,36.21083333333333],[-108.97055555555556,36.22166666666667],[-109.08111111111111,36.26416666666667],[-109.11083333333333,36.27583333333333],[-109.22361111111111,36.31916666666667],[-109.25138888888888,36.32972222222222],[-109.39361111111111,36.384166666666665],[-109.56611111111111,36.45],[-109.71111111111111,36.50527777777778],[-109.85166666666666,36.55722222222222],[-109.99416666666667,36.611666666666665],[-109.99388888888889,36.611666666666665],[-110.13805555555557,36.66555555555556],[-110.13527777777779,36.665],[-110.28027777777778,36.718333333333334],[-110.4225,36.771388888888886],[-110.56694444444445,36.82472222222223],[-110.70833333333334,36.87638888888889],[-110.85555555555555,36.930277777777775],[-110.85444444444444,36.92972222222222],[-111.00333333333333,36.98388888888889],[-111.00055555555555,36.98305555555556],[-111.15055555555556,37.0375],[-111.30527777777777,37.09305555555556],[-111.30277777777778,37.092222222222226],[-111.45722222222223,37.147777777777776],[-111.45444444444445,37.14666666666667],[-111.60722222222222,37.20111111111111],[-111.76194444444444,37.255833333333335],[-111.91166666666668,37.30888888888889],[-112.00888888888889,37.34305555555556],[-112.03944444444444,37.35388888888889],[-112.06777777777778,37.36361111111111],[-112.16277777777778,37.39694444444444],[-112.19305555555556,37.4075],[-112.22416666666666,37.41861111111111],[-112.31444444444445,37.45944444444445],[-112.34166666666667,37.47277777777778],[-112.36833333333333,37.48638888888889],[-112.45361111111112,37.529444444444444],[-112.50666666666666,37.556666666666665],[-112.6525,37.614444444444445],[-112.77111111111111,37.652499999999996],[-112.79805555555555,37.66138888888889],[-112.94583333333334,37.70861111111111],[-112.97500000000001,37.717777777777776],[-113.09555555555555,37.75611111111111],[-113.12444444444444,37.76555555555556],[-113.24638888888889,37.803888888888885],[-113.27416666666666,37.812777777777775],[-113.39722222222223,37.85138888888889],[-113.42583333333334,37.86027777777778],[-113.55194444444444,37.9],[-113.58027777777778,37.90861111111111],[-113.70444444444445,37.947222222222216],[-113.73305555555555,37.95611111111111],[-113.85638888888889,37.99444444444445],[-114.035,38.04944444444444],[-114.18805555555556,38.095555555555556],[-114.31305555555555,38.1325],[-114.3436111111111,38.14138888888889],[-114.46888888888888,38.17611111111111],[-114.49777777777778,38.18388888888889],[-114.64805555555556,38.22694444444445],[-114.80277777777778,38.26888888888889],[-114.95361111111112,38.30611111111111],[-115.08611111111111,38.33833333333334],[-115.23805555555556,38.37277777777778],[-115.39277777777778,38.402499999999996],[-115.55916666666667,38.394444444444446],[-115.72722222222222,38.382777777777775],[-115.89194444444445,38.36888888888889],[-116.05694444444444,38.35583333333334],[-116.22555555555556,38.342222222222226],[-116.38916666666667,38.32083333333334],[-116.55138888888888,38.284166666666664],[-116.71166666666667,38.24805555555556],[-116.8711111111111,38.211666666666666],[-117.03305555555555,38.17444444444444],[-117.2025,38.13527777777778],[-117.36222222222221,38.098333333333336],[-117.52777777777777,38.05972222222222],[-117.685,38.02305555555555],[-117.6825,38.02388888888889],[-117.84388888888888,37.995555555555555],[-117.87583333333333,37.992222222222225],[-118.005,37.978611111111114],[-118.03388888888888,37.97555555555556],[-118.13222222222221,37.965],[-118.19416666666667,37.958333333333336],[-118.29027777777777,37.948055555555555],[-118.35083333333333,37.94138888888889],[-118.44972222222222,37.93055555555555],[-118.51138888888889,37.92361111111111],[-118.61166666666666,37.9125],[-118.7713888888889,37.89472222222222],[-118.92944444444444,37.876666666666665],[-119.09833333333333,37.8575],[-119.25694444444444,37.83888888888889],[-119.41666666666667,37.82],[-119.57666666666667,37.801111111111105],[-119.73694444444445,37.781666666666666],[-119.89527777777778,37.7625],[-120.05611111111111,37.74277777777778],[-120.21638888888889,37.72277777777778],[-120.33333333333333,37.7],[-120.37722222222222,37.7025],[-120.46666666666667,37.7],[-120.53166666666667,37.68416666666666],[-120.61666666666666,37.666666666666664],[-120.68138888888889,37.666666666666664],[-120.76666666666667,37.65],[-120.82027777777778,37.65],[-120.9,37.63333333333333],[-120.95527777777778,37.63388888888889],[-121.03333333333333,37.61666666666667],[-121.08916666666666,37.61611111111111],[-121.15,37.6],[-121.21638888888889,37.59916666666667],[-121.28333333333333,37.583333333333336],[-121.34055555555555,37.583333333333336],[-121.41666666666667,37.583333333333336],[-121.46333333333334,37.56944444444445],[-121.53333333333333,37.56666666666667],[-121.57777777777777,37.55611111111111],[-121.63333333333334,37.55],[-121.67833333333334,37.5375],[-121.73333333333333,37.516666666666666],[-121.75638888888889,37.50138888888889],[-121.78333333333333,37.46666666666667],[-121.80972222222222,37.44222222222222],[-121.85,37.45],[-121.88472222222222,37.46055555555556],[-121.93333333333334,37.483333333333334],[-121.95972222222223,37.48583333333333],[-122,37.5],[-122.0375,37.510555555555555],[-122.08333333333333,37.516666666666666],[-122.10694444444444,37.533055555555556],[-122.15,37.55],[-122.17027777777778,37.55361111111111],[-122.2,37.56666666666667],[-122.22694444444444,37.57194444444445],[-122.25,37.583333333333336],[-122.28111111111112,37.58888888888889],[-122.3,37.6],[-122.3286111111111,37.60277777777778]]}
}
