{
  "id": 2048364077,
  "type": "Feature",
  "properties": {
    "geom:area": 0,
    "geom:bbox": "-122.397240,37.624420,-121.444690,38.508900",
    "geom:latitude": 38.06474142408298,
    "geom:longitude": -121.92841593532437,
    "src:alt_label": "swim-takeoff",
    "src:geom": "swim",
    "swim:elevations": [
      152,
      433,
      941,
      1040,
      1375,
      1638,
      1993,
      2376,
      2568,
      3203,
      3273,
      3446,
      3631,
      3723,
      4073,
      4192,
      4537,
      4736,
      4796,
      5128,
      5520,
      5659,
      5888,
      6072,
      6184,
      6318,
      6517
    ],
    "swim:geom": "takeoff",
    "swim:timestamps": [
      1789672882,
      1789672904,
      1789672947,
      1789672955,
      1789672995,
      1789673038,
      1789673065,
      1789673091,
      1789673104,
      1789673158,
      1789673173,
      1789673208,
      1789673245,
      1789673265,
      1789673306,
      1789673322,
      1789673361,
      1789673394,
      1789673401,
      1789673436,
      1789673485,
      1789673504,
      1789673537,
      1789673566,
      1789673583,
      1789673597,
      1789673611
    ],
    "wof:geomhash": "108d9471bde7202ee1fc9fc8281c7579",
    "wof:id": 2048364077,
    "wof:repo": "sfomuseum-data-flights-2026-09"
  },
  "bbox": [
    -122.39724,
    37.62442,
    -121.44469,
    38.5089
  ],
  "geometry": {"type":"LineString","coordinates":[[-122.38272,37.62442],[-122.39724,37.6344],[-122.37647,37.65897],[-122.36966,37.66141],[-122.32991,37.6749],[-122.28419,37.70266],[-122.25747,37.72882],[-122.2326,37.7542],[-122.21969,37.76755],[-122.16495,37.82353],[-122.14923,37.83936],[-122.10736,37.88268],[-122.05877,37.93265],[-122.03113,37.96081],[-121.97129,38.02159],[-121.94713,38.0461],[-121.88626,38.10768],[-121.83437,38.16017],[-121.8235,38.17109],[-121.76652,38.22839],[-121.68531,38.30998],[-121.65383,38.34162],[-121.59856,38.39712],[-121.54436,38.4468],[-121.5086,38.4699],[-121.476,38.4896],[-121.44469,38.5089]]}
}
