{
  "id": 2048374471,
  "type": "Feature",
  "properties": {
    "geom:area": 0,
    "geom:bbox": "-122.396670,37.624840,-122.233190,38.467300",
    "geom:latitude": 38.03000304612357,
    "geom:longitude": -122.2850159566833,
    "src:alt_label": "swim-takeoff",
    "src:geom": "swim",
    "swim:elevations": [
      272,
      532,
      678,
      1031,
      1395,
      1831,
      2399,
      2892,
      3198,
      3615,
      3985,
      4050,
      4386,
      4962,
      5379,
      5413,
      5787,
      6129,
      6456,
      6732,
      7096,
      7216
    ],
    "swim:geom": "takeoff",
    "swim:timestamps": [
      1789751211,
      1789751233,
      1789751251,
      1789751283,
      1789751325,
      1789751357,
      1789751389,
      1789751421,
      1789751447,
      1789751486,
      1789751517,
      1789751521,
      1789751556,
      1789751604,
      1789751638,
      1789751643,
      1789751682,
      1789751715,
      1789751742,
      1789751771,
      1789751813,
      1789751825
    ],
    "wof:geomhash": "2a3934dca3a0e6295632acef596f014e",
    "wof:id": 2048374471,
    "wof:repo": "sfomuseum-data-flights-2026-09"
  },
  "bbox": [
    -122.39667,
    37.62484,
    -122.23319,
    38.4673
  ],
  "geometry": {"type":"LineString","coordinates":[[-122.38935,37.62484],[-122.39667,37.63706],[-122.38814,37.64801],[-122.35959,37.65908],[-122.33131,37.68703],[-122.32464,37.72132],[-122.32,37.75767],[-122.31405,37.79646],[-122.30903,37.82977],[-122.30099,37.8846],[-122.29424,37.93052],[-122.29322,37.93755],[-122.285,37.993],[-122.27304,38.07298],[-122.2644,38.13078],[-122.26331,38.13823],[-122.25299,38.20719],[-122.24435,38.26517],[-122.23692,38.31496],[-122.23319,38.36775],[-122.2411,38.44477],[-122.24335,38.4673]]}
}
