{
  "id": 2048382913,
  "type": "Feature",
  "properties": {
    "geom:area": 0,
    "geom:bbox": "-122.545380,36.730240,-121.260740,37.664620",
    "geom:latitude": 37.24094088150823,
    "geom:longitude": -121.96027600597131,
    "src:alt_label": "swim-takeoff",
    "src:geom": "swim",
    "swim:elevations": [
      192,
      503,
      924,
      1135,
      1445,
      1602,
      1907,
      2341,
      2817,
      3202,
      3397,
      3459,
      4001,
      4249,
      4592,
      4947,
      5039,
      5452,
      5690,
      5876,
      6122,
      6313,
      6647,
      6910,
      7105,
      7298,
      7524,
      7711,
      7909,
      7997,
      8266,
      8434,
      8571
    ],
    "swim:geom": "takeoff",
    "swim:timestamps": [
      1789802386,
      1789802412,
      1789802449,
      1789802474,
      1789802518,
      1789802531,
      1789802557,
      1789802592,
      1789802634,
      1789802662,
      1789802698,
      1789802704,
      1789802756,
      1789802779,
      1789802813,
      1789802848,
      1789802857,
      1789802907,
      1789802933,
      1789802956,
      1789802988,
      1789803010,
      1789803054,
      1789803086,
      1789803113,
      1789803141,
      1789803174,
      1789803203,
      1789803234,
      1789803251,
      1789803292,
      1789803322,
      1789803344
    ],
    "wof:geomhash": "b615c0c44c4288dac5080b02a66be1ea",
    "wof:id": 2048382913,
    "wof:repo": "sfomuseum-data-flights-2026-09"
  },
  "bbox": [
    -122.54538,
    36.73024,
    -121.26074,
    37.66462
  ],
  "geometry": {"type":"LineString","coordinates":[[-122.39691,37.62799],[-122.42102,37.63876],[-122.45641,37.65395],[-122.48103,37.66462],[-122.53623,37.6563],[-122.54538,37.64269],[-122.53969,37.60989],[-122.51639,37.56785],[-122.47589,37.5219],[-122.43148,37.50422],[-122.3706,37.48208],[-122.35983,37.47826],[-122.26432,37.44402],[-122.22147,37.42902],[-122.1571,37.40602],[-122.09994,37.36913],[-122.08624,37.35879],[-122.00975,37.30127],[-121.96833,37.2701],[-121.93169,37.2425],[-121.88042,37.20364],[-121.84382,37.17581],[-121.77204,37.12141],[-121.71911,37.08125],[-121.67238,37.04573],[-121.62491,37.00948],[-121.56818,36.96601],[-121.51751,36.92739],[-121.462,36.88503],[-121.43118,36.86145],[-121.35687,36.8039],[-121.30212,36.76204],[-121.26074,36.73024]]}
}
