{
  "id": 2048307029,
  "type": "Feature",
  "properties": {
    "geom:area": 0,
    "geom:bbox": "-122.345200,36.737050,-121.888130,37.606160",
    "geom:latitude": 37.21766746086483,
    "geom:longitude": -122.10077608712176,
    "src:alt_label": "swim-approach",
    "src:geom": "swim",
    "swim:elevations": [
      5390,
      5025,
      4718,
      4533,
      3978,
      3913,
      3794,
      3401,
      3315,
      3112,
      3053,
      2899,
      2740,
      2648,
      2431,
      2335,
      2043,
      1907,
      1829,
      1829,
      1726,
      1671,
      1390,
      1309,
      1213,
      929,
      792,
      670,
      576,
      489,
      338,
      263,
      173,
      77
    ],
    "swim:geom": "approach",
    "swim:timestamps": [
      1789131535,
      1789131561,
      1789131589,
      1789131607,
      1789131658,
      1789131664,
      1789131675,
      1789131716,
      1789131726,
      1789131768,
      1789131785,
      1789131827,
      1789131857,
      1789131873,
      1789131916,
      1789131930,
      1789131979,
      1789132007,
      1789132033,
      1789132058,
      1789132098,
      1789132110,
      1789132158,
      1789132170,
      1789132201,
      1789132238,
      1789132276,
      1789132317,
      1789132341,
      1789132366,
      1789132405,
      1789132424,
      1789132450,
      1789132473
    ],
    "wof:geomhash": "b2f978595fd6e94a8643b3f16e28665f",
    "wof:id": 2048307029,
    "wof:repo": "sfomuseum-data-flights-2026-09"
  },
  "bbox": [
    -122.3452,
    36.73705,
    -121.88813,
    37.60616
  ],
  "geometry": {"type":"LineString","coordinates":[[-121.88813,36.73705],[-121.90684,36.78717],[-121.92117,36.83894],[-121.93011,36.87076],[-121.95689,36.96037],[-121.96083,36.96993],[-121.96786,36.98796],[-121.99226,37.05127],[-121.99765,37.06538],[-122.02137,37.1268],[-122.0385,37.14741],[-122.09264,37.17814],[-122.12985,37.19859],[-122.14831,37.20873],[-122.19449,37.23824],[-122.20562,37.25085],[-122.24262,37.29599],[-122.23518,37.32414],[-122.21437,37.34747],[-122.19372,37.3704],[-122.16364,37.40391],[-122.15477,37.41393],[-122.13496,37.45441],[-122.13174,37.4654],[-122.14525,37.48855],[-122.1674,37.51412],[-122.19134,37.53987],[-122.22463,37.5555],[-122.24275,37.5631],[-122.26236,37.57139],[-122.2926,37.58407],[-122.30796,37.59059],[-122.32777,37.5989],[-122.3452,37.60616]]}
}
