{
  "id": 2048335613,
  "type": "Feature",
  "properties": {
    "geom:area": 0,
    "geom:bbox": "-122.389290,36.722270,-121.878450,37.610120",
    "geom:latitude": 37.209415482438764,
    "geom:longitude": -122.17072082913818,
    "src:alt_label": "swim-approach",
    "src:geom": "swim",
    "swim:elevations": [
      5347,
      4945,
      4632,
      4093,
      3995,
      3834,
      3759,
      3644,
      3512,
      3351,
      3257,
      3084,
      3049,
      3048,
      3046,
      2867,
      2739,
      2450,
      2438,
      2438,
      2266,
      2071,
      1845,
      1829,
      1724,
      1707,
      1369,
      1321,
      1222,
      1219,
      1219,
      1219,
      1206,
      1069,
      836,
      914,
      842,
      673,
      479,
      304,
      216,
      176,
      44
    ],
    "swim:geom": "approach",
    "swim:timestamps": [
      1789383680,
      1789383712,
      1789383740,
      1789383803,
      1789383817,
      1789383844,
      1789383861,
      1789383878,
      1789383905,
      1789383951,
      1789383970,
      1789384003,
      1789384040,
      1789384060,
      1789384097,
      1789384133,
      1789384151,
      1789384197,
      1789384223,
      1789384249,
      1789384278,
      1789384311,
      1789384346,
      1789384364,
      1789384401,
      1789384415,
      1789384465,
      1789384478,
      1789384504,
      1789384556,
      1789384584,
      1789384611,
      1789384630,
      1789384658,
      1789384702,
      1789384715,
      1789384758,
      1789384792,
      1789384821,
      1789384857,
      1789384882,
      1789384892,
      1789384929
    ],
    "wof:geomhash": "e3cc1595eb21f0f76b23fe0597e6071f",
    "wof:id": 2048335613,
    "wof:repo": "sfomuseum-data-flights-2026-09"
  },
  "bbox": [
    -122.38929,
    36.72227,
    -121.87845,
    37.61012
  ],
  "geometry": {"type":"LineString","coordinates":[[-121.87845,36.72227],[-121.90299,36.77281],[-121.91574,36.81784],[-121.94292,36.91633],[-121.94913,36.93806],[-121.9645,36.97637],[-121.98407,36.99373],[-122.01129,37.00452],[-122.05318,37.01828],[-122.11844,37.04012],[-122.14543,37.04902],[-122.18904,37.06323],[-122.23774,37.07876],[-122.26372,37.08709],[-122.31107,37.10442],[-122.3325,37.13906],[-122.33997,37.15852],[-122.35805,37.20709],[-122.36808,37.23395],[-122.37812,37.26156],[-122.38867,37.2904],[-122.38929,37.3244],[-122.35049,37.34055],[-122.32678,37.34469],[-122.28034,37.35576],[-122.26375,37.36092],[-122.20281,37.38125],[-122.18764,37.38648],[-122.15915,37.39595],[-122.12062,37.42595],[-122.10748,37.44749],[-122.10325,37.46906],[-122.11162,37.48278],[-122.12507,37.50328],[-122.15788,37.52666],[-122.17097,37.53103],[-122.21161,37.54841],[-122.24228,37.56308],[-122.26867,37.57379],[-122.29941,37.58679],[-122.31896,37.59496],[-122.32655,37.59842],[-122.35459,37.61012]]}
}
