{
  "id": 2048480265,
  "type": "Feature",
  "properties": {
    "geom:area": 0,
    "geom:bbox": "-122.749167,37.629444,-122.216667,45.583056",
    "geom:latitude": 41.684680229420294,
    "geom:longitude": -122.51276203657865,
    "src:alt_label": "swim-path",
    "src:geom": "swim",
    "swim:altitudes": [
      "005",
      "007",
      "031",
      "044",
      "063",
      "095",
      "118",
      "143",
      "155",
      "172",
      "193",
      "211",
      "225",
      "255",
      "285",
      "297",
      "305",
      "324",
      "338",
      "350",
      "362",
      "376",
      "380C",
      "380C",
      "380C",
      "380C",
      "380C",
      "380C",
      "380C",
      "380C",
      "380C",
      "380C",
      "380C",
      "380C",
      "380C",
      "380C",
      "380C",
      "380C",
      "380C",
      "380C",
      "380C",
      "380C",
      "380C",
      "380C",
      "380C",
      "380C",
      "380C",
      "380C",
      "380C",
      "380C",
      "380",
      "371",
      "361",
      "351",
      "326",
      "304",
      "284",
      "263",
      "220",
      "200",
      "182",
      "165",
      "160",
      "148",
      "133",
      "130",
      "120",
      "096",
      "090",
      "082",
      "079",
      "068",
      "057",
      "055",
      "041",
      "035",
      "029",
      "028",
      "025",
      "025",
      "017",
      "015",
      "010",
      "008",
      "003",
      "001"
    ],
    "swim:geom": "path",
    "swim:speeds": [
      153,
      152,
      145,
      185,
      262,
      276,
      319,
      324,
      382,
      408,
      409,
      422,
      434,
      454,
      433,
      427,
      457,
      459,
      454,
      449,
      449,
      447,
      441,
      443,
      445,
      444,
      444,
      444,
      445,
      446,
      446,
      447,
      448,
      448,
      450,
      450,
      451,
      437,
      426,
      435,
      436,
      438,
      440,
      441,
      443,
      444,
      446,
      448,
      448,
      449,
      449,
      443,
      442,
      443,
      443,
      432,
      415,
      407,
      388,
      377,
      352,
      342,
      335,
      335,
      329,
      310,
      291,
      289,
      283,
      284,
      281,
      283,
      277,
      264,
      251,
      250,
      245,
      230,
      199,
      181,
      164,
      148,
      137,
      133,
      131,
      132
    ],
    "swim:timestamps": [
      1790790528,
      1790790538,
      1790790598,
      1790790659,
      1790790719,
      1790790779,
      1790790839,
      1790790902,
      1790790959,
      1790791019,
      1790791082,
      1790791139,
      1790791199,
      1790791320,
      1790791380,
      1790791442,
      1790791500,
      1790791560,
      1790791623,
      1790791680,
      1790791740,
      1790791803,
      1790791860,
      1790791920,
      1790791983,
      1790792041,
      1790792103,
      1790792163,
      1790792221,
      1790792281,
      1790792341,
      1790792404,
      1790792461,
      1790792521,
      1790792584,
      1790792641,
      1790792702,
      1790792764,
      1790792822,
      1790792882,
      1790792942,
      1790793002,
      1790793064,
      1790793124,
      1790793185,
      1790793245,
      1790793305,
      1790793365,
      1790793425,
      1790793485,
      1790793545,
      1790793605,
      1790793665,
      1790793725,
      1790793785,
      1790793845,
      1790793905,
      1790793966,
      1790794086,
      1790794146,
      1790794206,
      1790794266,
      1790794284,
      1790794326,
      1790794386,
      1790794398,
      1790794452,
      1790794566,
      1790794584,
      1790794626,
      1790794638,
      1790794692,
      1790794747,
      1790794758,
      1790794807,
      1790794824,
      1790794867,
      1790794878,
      1790794927,
      1790794938,
      1790794987,
      1790795004,
      1790795047,
      1790795064,
      1790795107,
      1790795124
    ],
    "wof:geomhash": "33fad8b6386a559b76d1c4b105806429",
    "wof:id": 2048480265,
    "wof:repo": "sfomuseum-data-flights-2026-09"
  },
  "bbox": [
    -122.74916666666667,
    37.629444444444445,
    -122.21666666666667,
    45.58305555555556
  ],
  "geometry": {"type":"LineString","coordinates":[[-122.36666666666666,37.63333333333333],[-122.36527777777778,37.629444444444445],[-122.32638888888889,37.654444444444444],[-122.28083333333333,37.68194444444444],[-122.2175,37.725],[-122.21666666666667,37.80166666666666],[-122.21805555555555,37.886944444444445],[-122.21944444444445,37.972500000000004],[-122.22361111111111,38.07944444444445],[-122.22666666666667,38.19277777777778],[-122.22555555555556,38.30083333333333],[-122.23833333333333,38.42638888888889],[-122.25055555555555,38.54472222222222],[-122.27722222222222,38.80083333333333],[-122.29027777777777,38.925],[-122.29833333333333,39.03],[-122.31638888888888,39.17111111111111],[-122.33,39.29888888888889],[-122.3411111111111,39.40833333333333],[-122.35499999999999,39.531666666666666],[-122.36861111111111,39.65694444444444],[-122.38388888888889,39.80027777777777],[-122.39527777777778,39.903888888888886],[-122.40861111111111,40.02861111111111],[-122.4225,40.155],[-122.4363888888889,40.28138888888889],[-122.44972222222222,40.405],[-122.46333333333334,40.52861111111111],[-122.47722222222222,40.653888888888886],[-122.49083333333333,40.776666666666664],[-122.50444444444445,40.89972222222222],[-122.51861111111111,41.0225],[-122.53222222222222,41.14888888888889],[-122.54638888888888,41.27305555555555],[-122.56027777777777,41.397777777777776],[-122.57555555555555,41.53194444444444],[-122.58361111111111,41.66],[-122.59138888888889,41.78],[-122.59944444444444,41.89861111111111],[-122.60749999999999,42.0225],[-122.61555555555555,42.14555555555555],[-122.6236111111111,42.2675],[-122.63194444444444,42.39083333333333],[-122.64,42.515277777777776],[-122.64861111111112,42.63944444444444],[-122.6563888888889,42.75666666666667],[-122.665,42.88138888888889],[-122.67333333333333,43.00472222222222],[-122.68194444444445,43.13111111111111],[-122.69027777777778,43.25527777777778],[-122.69888888888889,43.380833333333335],[-122.70722222222223,43.50277777777778],[-122.71583333333334,43.62555555555556],[-122.72444444444444,43.74861111111111],[-122.73305555555555,43.870555555555555],[-122.74111111111111,43.99],[-122.74916666666667,44.10444444444445],[-122.7461111111111,44.21611111111111],[-122.72472222222223,44.43277777777777],[-122.71444444444445,44.53638888888889],[-122.70333333333333,44.647777777777776],[-122.69416666666667,44.7425],[-122.69166666666668,44.7725],[-122.68472222222222,44.834722222222226],[-122.67694444444444,44.91222222222222],[-122.67527777777778,44.94222222222222],[-122.66666666666667,45.01638888888889],[-122.65138888888889,45.16555555555556],[-122.65027777777779,45.19305555555555],[-122.64250000000001,45.24388888888889],[-122.63194444444444,45.26083333333333],[-122.57277777777777,45.31583333333333],[-122.50194444444445,45.36055555555556],[-122.48444444444445,45.37388888888889],[-122.42833333333334,45.408055555555556],[-122.40527777777778,45.425],[-122.37166666666666,45.46194444444445],[-122.36583333333333,45.47555555555556],[-122.39527777777778,45.51416666666667],[-122.41166666666668,45.52166666666667],[-122.45777777777778,45.54138888888889],[-122.47222222222223,45.54694444444444],[-122.50583333333333,45.56027777777778],[-122.52,45.56527777777777],[-122.55111111111111,45.5775],[-122.56527777777778,45.58305555555556]]}
}
