{
  "id": 2048448317,
  "type": "Feature",
  "properties": {
    "geom:area": 0,
    "geom:bbox": "-122.360970,37.492160,-121.278880,37.614530",
    "geom:latitude": 37.541458719876594,
    "geom:longitude": -121.82679492367568,
    "src:alt_label": "swim-approach",
    "src:geom": "swim",
    "swim:elevations": [
      4727,
      4618,
      4221,
      3980,
      3916,
      3754,
      3714,
      2842,
      2543,
      2204,
      2109,
      1986,
      1829,
      1829,
      1829,
      1829,
      1757,
      1606,
      1352,
      1220,
      1206,
      1019,
      906,
      732,
      610,
      431,
      340,
      101,
      95,
      192
    ],
    "swim:geom": "approach",
    "swim:timestamps": [
      1790510481,
      1790510494,
      1790510543,
      1790510574,
      1790510583,
      1790510622,
      1790510632,
      1790510755,
      1790510800,
      1790510843,
      1790510874,
      1790510891,
      1790510930,
      1790510945,
      1790510954,
      1790510961,
      1790510990,
      1790511019,
      1790511055,
      1790511080,
      1790511111,
      1790511146,
      1790511170,
      1790511208,
      1790511231,
      1790511268,
      1790511292,
      1790511323,
      1790511352,
      1790511374
    ],
    "wof:geomhash": "77a38927a2f19a3cd9516b53f1ac5584",
    "wof:id": 2048448317,
    "wof:repo": "sfomuseum-data-flights-2026-09"
  },
  "bbox": [
    -122.36097,
    37.49216,
    -121.27888,
    37.61453
  ],
  "geometry": {"type":"LineString","coordinates":[[-121.27888,37.59078],[-121.30033,37.58833],[-121.38483,37.57892],[-121.43811,37.57277],[-121.45357,37.5709],[-121.51629,37.56335],[-121.52963,37.56176],[-121.6998,37.53313],[-121.75827,37.51871],[-121.81389,37.50563],[-121.8542,37.49594],[-121.87523,37.49216],[-121.92946,37.494],[-121.94928,37.4952],[-121.96136,37.49589],[-121.97004,37.49643],[-122.00538,37.4982],[-122.03771,37.49983],[-122.07727,37.50255],[-122.10432,37.50751],[-122.13422,37.51948],[-122.16742,37.53367],[-122.1897,37.5431],[-122.22492,37.55794],[-122.24678,37.56708],[-122.27853,37.58062],[-122.2978,37.58852],[-122.32182,37.59883],[-122.34334,37.60772],[-122.36097,37.61453]]}
}
