{
  "id": 2048408653,
  "type": "Feature",
  "properties": {
    "geom:area": 0,
    "geom:bbox": "-122.547690,36.720720,-121.554260,37.668960",
    "geom:latitude": 37.220533560666404,
    "geom:longitude": -122.12149019573916,
    "src:alt_label": "swim-takeoff",
    "src:geom": "swim",
    "swim:elevations": [
      213,
      309,
      532,
      671,
      1143,
      1376,
      1747,
      2024,
      2466,
      3320,
      3373,
      3514,
      3631,
      4131,
      4702,
      4977,
      5505,
      5752,
      6108,
      6339,
      6808,
      7142,
      7240,
      7529,
      7648,
      7951,
      8261,
      8583,
      8871,
      9345,
      9431,
      9449
    ],
    "swim:geom": "takeoff",
    "swim:timestamps": [
      1790068044,
      1790068050,
      1790068067,
      1790068081,
      1790068131,
      1790068163,
      1790068191,
      1790068207,
      1790068234,
      1790068287,
      1790068291,
      1790068307,
      1790068322,
      1790068360,
      1790068401,
      1790068421,
      1790068466,
      1790068487,
      1790068522,
      1790068539,
      1790068579,
      1790068614,
      1790068624,
      1790068656,
      1790068668,
      1790068693,
      1790068725,
      1790068749,
      1790068776,
      1790068825,
      1790068840,
      1790068875
    ],
    "wof:geomhash": "244cf33374c9ded971b8e24743d3d7f8",
    "wof:id": 2048408653,
    "wof:repo": "sfomuseum-data-flights-2026-09"
  },
  "bbox": [
    -122.54769,
    36.72072,
    -121.55426,
    37.66896
  ],
  "geometry": {"type":"LineString","coordinates":[[-122.38092,37.62131],[-122.38524,37.62323],[-122.39673,37.62833],[-122.40556,37.6322],[-122.44179,37.64783],[-122.47265,37.6611],[-122.50717,37.66896],[-122.52923,37.66204],[-122.54769,37.63313],[-122.51563,37.56733],[-122.51309,37.5625],[-122.50177,37.54075],[-122.49009,37.51908],[-122.44707,37.46726],[-122.38597,37.41666],[-122.35327,37.3896],[-122.28258,37.33076],[-122.24703,37.30119],[-122.18898,37.25281],[-122.15961,37.22828],[-122.09077,37.17081],[-122.02813,37.11834],[-122.01067,37.10371],[-121.95395,37.05605],[-121.93163,37.03729],[-121.88593,36.99868],[-121.82764,36.94994],[-121.78267,36.91311],[-121.73368,36.87207],[-121.64563,36.79912],[-121.61707,36.7749],[-121.55426,36.72072]]}
}
