{
  "id": 2048284795,
  "type": "Feature",
  "properties": {
    "geom:area": 0,
    "geom:bbox": "-122.762500,37.378840,-122.153850,38.514610",
    "geom:latitude": 37.8173273016389,
    "geom:longitude": -122.49296010458328,
    "src:alt_label": "swim-approach",
    "src:geom": "swim",
    "swim:elevations": [
      7620,
      7468,
      7188,
      6762,
      6671,
      6460,
      6079,
      5964,
      5645,
      5392,
      5089,
      4623,
      4636,
      4338,
      4252,
      3879,
      3734,
      3505,
      3355,
      3353,
      3353,
      3353,
      3353,
      3353,
      3353,
      3309,
      3025,
      2853,
      2536,
      2417,
      2216,
      2072,
      1852,
      1798,
      1671,
      1525,
      1460,
      1158,
      981,
      813,
      433,
      512,
      329,
      269,
      121,
      62
    ],
    "swim:geom": "approach",
    "swim:timestamps": [
      1788863878,
      1788863891,
      1788863922,
      1788863968,
      1788863977,
      1788864001,
      1788864044,
      1788864070,
      1788864111,
      1788864137,
      1788864168,
      1788864202,
      1788864224,
      1788864262,
      1788864271,
      1788864323,
      1788864344,
      1788864376,
      1788864411,
      1788864443,
      1788864468,
      1788864493,
      1788864504,
      1788864523,
      1788864542,
      1788864570,
      1788864609,
      1788864634,
      1788864684,
      1788864705,
      1788864739,
      1788864770,
      1788864796,
      1788864816,
      1788864840,
      1788864883,
      1788864911,
      1788864945,
      1788864978,
      1788865003,
      1788865036,
      1788865065,
      1788865107,
      1788865125,
      1788865167,
      1788865182
    ],
    "wof:geomhash": "39b747e081af25492cdc0f2389f60c0a",
    "wof:id": 2048284795,
    "wof:repo": "sfomuseum-data-flights-2026-09"
  },
  "bbox": [
    -122.7625,
    37.37884,
    -122.15385,
    38.51461
  ],
  "geometry": {"type":"LineString","coordinates":[[-122.68636,38.51461],[-122.69306,38.49083],[-122.7085,38.43582],[-122.7308,38.35608],[-122.73505,38.34096],[-122.74633,38.30044],[-122.7625,38.2256],[-122.75512,38.18299],[-122.73689,38.11897],[-122.72547,38.08002],[-122.71215,38.0343],[-122.69814,37.98485],[-122.68875,37.9533],[-122.66855,37.89879],[-122.6592,37.88659],[-122.59731,37.82757],[-122.57273,37.80463],[-122.53529,37.76953],[-122.49489,37.73133],[-122.45914,37.69762],[-122.43417,37.6741],[-122.4105,37.65171],[-122.40018,37.642],[-122.38253,37.62538],[-122.36491,37.60843],[-122.34944,37.57939],[-122.32757,37.53873],[-122.31211,37.5134],[-122.29398,37.4614],[-122.30493,37.44013],[-122.31967,37.40609],[-122.29685,37.38063],[-122.26095,37.37884],[-122.23864,37.39081],[-122.21903,37.41262],[-122.18808,37.45334],[-122.17104,37.47685],[-122.15385,37.50497],[-122.1711,37.53129],[-122.19594,37.54334],[-122.2301,37.55748],[-122.25878,37.56987],[-122.29538,37.58532],[-122.30903,37.59107],[-122.34013,37.6041],[-122.35122,37.60873]]}
}
