{
  "id": 2048439295,
  "type": "Feature",
  "properties": {
    "geom:area": 0,
    "geom:bbox": "-122.366667,37.492500,-76.683333,41.626389",
    "geom:latitude": 40.38348587670356,
    "geom:longitude": -99.5766574990827,
    "src:alt_label": "swim-path",
    "src:geom": "swim",
    "swim:altitudes": [
      "012",
      "026",
      "032",
      "036",
      "043",
      "055",
      "091",
      "106",
      "109",
      "120",
      "130",
      "154",
      "177",
      "197",
      "212",
      "217",
      "231",
      "246",
      "257",
      "260",
      "272",
      "284",
      "301",
      "313",
      "325",
      "327",
      "338",
      "349",
      "357",
      "358C",
      "360C",
      "360C",
      "360C",
      "360C",
      "360C",
      "360C",
      "360C",
      "360C",
      "360C",
      "360C",
      "360C",
      "360C",
      "360C",
      "360C",
      "360C",
      "360C",
      "360C",
      "360C",
      "360C",
      "360C",
      "360C",
      "360C",
      "360C",
      "360C",
      "360C",
      "360C",
      "360C",
      "360C",
      "360C",
      "360C",
      "360C",
      "360C",
      "360C",
      "360C",
      "360C",
      "360C",
      "360C",
      "360C",
      "360C",
      "360C",
      "360C",
      "360C",
      "360C",
      "360C",
      "360C",
      "360C",
      "360C",
      "360C",
      "360C",
      "360C",
      "360C",
      "360C",
      "360C",
      "360C",
      "360C",
      "360C",
      "360C",
      "360C",
      "360C",
      "360C",
      "360C",
      "360C",
      "360C",
      "360C",
      "360C",
      "360C",
      "360C",
      "360C",
      "360C",
      "360C",
      "360C",
      "360C",
      "360C",
      "360C",
      "360C",
      "360C",
      "360C",
      "360C",
      "360C",
      "360C",
      "360C",
      "360C",
      "360C",
      "360C",
      "360C",
      "360C",
      "360C",
      "360C",
      "360C",
      "360C",
      "360C",
      "360C",
      "360C",
      "360C",
      "360C",
      "360C",
      "360C",
      "360C",
      "360C",
      "360C",
      "360C",
      "360C",
      "360C",
      "360C",
      "360C",
      "360C",
      "360C",
      "360C",
      "360C",
      "360C",
      "360C",
      "360C",
      "360C",
      "360C",
      "360C",
      "360C",
      "360C",
      "360C",
      "360C",
      "360C",
      "360C",
      "360C",
      "360C",
      "360C",
      "360C",
      "360C",
      "360C",
      "360C",
      "360C",
      "360C",
      "360C",
      "360C",
      "360C",
      "360C",
      "360C",
      "360C",
      "360C",
      "360C",
      "360C",
      "360C",
      "360C",
      "360C",
      "360C",
      "360C",
      "360C",
      "360C",
      "360C",
      "360C",
      "360C",
      "360C",
      "360C",
      "360C",
      "360C",
      "360C",
      "360C",
      "360C",
      "360C",
      "360C",
      "360C",
      "360C",
      "360C",
      "360C",
      "360C",
      "360C",
      "360C",
      "360C",
      "360C",
      "360",
      "360",
      "360",
      "360",
      "360",
      "360",
      "368",
      "370",
      "374",
      "375",
      "380C",
      "380C",
      "380C",
      "380C",
      "380C",
      "380C",
      "380C",
      "380C",
      "380C",
      "380C",
      "380C",
      "380C",
      "380C",
      "380C",
      "380C",
      "380C",
      "380C",
      "380C",
      "380C",
      "380C",
      "380C",
      "380C",
      "380C",
      "380C",
      "380C",
      "380C",
      "380C",
      "380C",
      "380C",
      "380C",
      "380C",
      "380C",
      "380C",
      "380C",
      "380C",
      "380C",
      "380C",
      "380C",
      "380C",
      "380C",
      "380C",
      "380C",
      "380C",
      "380C",
      "380C",
      "380C",
      "380C",
      "380C",
      "380C",
      "380C",
      "380C",
      "380C",
      "380C",
      "380C",
      "380C",
      "380C",
      "380C",
      "380C",
      "380C",
      "380C",
      "380C",
      "380C",
      "380C",
      "380C",
      "380C",
      "380C",
      "380C",
      "380C",
      "380C",
      "380C",
      "380C",
      "380C",
      "380C",
      "380C",
      "380C",
      "380C",
      "380C",
      "380C",
      "380C",
      "380C",
      "380C",
      "380C",
      "380C",
      "380C",
      "380C",
      "380C",
      "380C",
      "380C",
      "380C",
      "380C",
      "380C",
      "380C",
      "380C",
      "380C",
      "380C",
      "380C",
      "380C",
      "380C",
      "380C",
      "380C",
      "380C",
      "380C",
      "380C",
      "380C",
      "380C",
      "380C",
      "380C",
      "380C",
      "380C",
      "380C",
      "380C",
      "380C",
      "380C",
      "380C",
      "380C",
      "380C",
      "380C",
      "380C",
      "380C",
      "380C",
      "380C",
      "380C",
      "380C",
      "380C",
      "380C",
      "380C",
      "380C",
      "380C",
      "380C",
      "380C",
      "380C",
      "380C",
      "380C",
      "380C",
      "380C",
      "380C",
      "380C",
      "380C",
      "380C",
      "380C",
      "380C",
      "380C",
      "380C",
      "380C",
      "380C",
      "380C",
      "380C",
      "380C",
      "380C",
      "380C",
      "380C",
      "380C",
      "380C",
      "380C",
      "380C",
      "380C",
      "380C",
      "380C",
      "380C",
      "380C",
      "380C",
      "380C",
      "380C",
      "380C",
      "380C",
      "380C",
      "380C",
      "380",
      "380",
      "380",
      "372",
      "345",
      "313",
      "287",
      "263",
      "241",
      "215",
      "192",
      "169",
      "148",
      "128",
      "115",
      "114",
      "105",
      "093",
      "082",
      "071",
      "065",
      "064",
      "057",
      "055",
      "046",
      "044",
      "034",
      "032",
      "024",
      "013",
      "005",
      "80"
    ],
    "swim:geom": "path",
    "swim:speeds": [
      157,
      217,
      218,
      230,
      288,
      305,
      294,
      311,
      331,
      352,
      357,
      378,
      398,
      408,
      416,
      417,
      431,
      444,
      453,
      454,
      466,
      474,
      475,
      474,
      472,
      471,
      469,
      468,
      465,
      466,
      463,
      463,
      462,
      462,
      461,
      460,
      460,
      459,
      456,
      454,
      451,
      449,
      451,
      452,
      453,
      451,
      449,
      445,
      443,
      441,
      441,
      440,
      439,
      441,
      442,
      444,
      446,
      451,
      447,
      452,
      448,
      451,
      448,
      450,
      448,
      449,
      446,
      446,
      444,
      432,
      429,
      428,
      426,
      426,
      425,
      425,
      423,
      424,
      422,
      423,
      421,
      421,
      420,
      418,
      416,
      414,
      412,
      410,
      410,
      408,
      408,
      408,
      409,
      410,
      410,
      411,
      411,
      412,
      411,
      412,
      412,
      413,
      412,
      413,
      413,
      413,
      414,
      414,
      415,
      416,
      417,
      418,
      420,
      422,
      424,
      425,
      425,
      426,
      426,
      425,
      426,
      427,
      429,
      430,
      432,
      442,
      436,
      434,
      432,
      432,
      434,
      433,
      435,
      433,
      435,
      434,
      434,
      434,
      436,
      436,
      434,
      435,
      435,
      436,
      437,
      440,
      442,
      443,
      444,
      445,
      446,
      445,
      444,
      442,
      440,
      440,
      439,
      439,
      437,
      436,
      434,
      429,
      426,
      423,
      420,
      418,
      416,
      415,
      414,
      412,
      410,
      408,
      408,
      409,
      409,
      410,
      411,
      413,
      415,
      414,
      415,
      415,
      415,
      415,
      415,
      415,
      415,
      416,
      416,
      416,
      417,
      417,
      417,
      417,
      417,
      418,
      418,
      418,
      419,
      419,
      420,
      421,
      420,
      422,
      421,
      425,
      425,
      428,
      427,
      428,
      427,
      427,
      427,
      426,
      426,
      424,
      424,
      424,
      423,
      425,
      425,
      421,
      427,
      428,
      429,
      429,
      429,
      428,
      427,
      425,
      422,
      418,
      415,
      415,
      415,
      416,
      418,
      419,
      421,
      423,
      419,
      424,
      424,
      421,
      426,
      427,
      428,
      428,
      429,
      431,
      434,
      431,
      429,
      428,
      427,
      423,
      421,
      419,
      418,
      417,
      417,
      417,
      417,
      419,
      420,
      422,
      424,
      423,
      423,
      424,
      424,
      425,
      426,
      427,
      427,
      427,
      427,
      426,
      425,
      424,
      422,
      421,
      420,
      420,
      418,
      417,
      417,
      416,
      416,
      416,
      416,
      416,
      417,
      417,
      417,
      416,
      416,
      417,
      418,
      419,
      420,
      420,
      419,
      419,
      419,
      420,
      421,
      422,
      423,
      422,
      422,
      429,
      441,
      442,
      443,
      443,
      437,
      417,
      420,
      414,
      416,
      413,
      415,
      414,
      414,
      414,
      417,
      415,
      416,
      417,
      418,
      418,
      420,
      420,
      422,
      422,
      422,
      422,
      422,
      422,
      422,
      422,
      422,
      421,
      421,
      421,
      421,
      420,
      420,
      420,
      419,
      419,
      419,
      419,
      419,
      419,
      420,
      420,
      423,
      423,
      425,
      425,
      427,
      426,
      427,
      426,
      426,
      424,
      422,
      420,
      419,
      418,
      418,
      418,
      420,
      422,
      424,
      424,
      420,
      421,
      415,
      401,
      384,
      370,
      365,
      356,
      346,
      336,
      304,
      304,
      258,
      237,
      226,
      230,
      224,
      227,
      237,
      233,
      236,
      235,
      203,
      203,
      187,
      175,
      151,
      145
    ],
    "swim:timestamps": [
      1790425609,
      1790425664,
      1790425685,
      1790425695,
      1790425724,
      1790425755,
      1790425815,
      1790425849,
      1790425875,
      1790425909,
      1790425936,
      1790425996,
      1790426056,
      1790426116,
      1790426165,
      1790426176,
      1790426236,
      1790426296,
      1790426346,
      1790426356,
      1790426416,
      1790426476,
      1790426537,
      1790426597,
      1790426646,
      1790426657,
      1790426717,
      1790426777,
      1790426826,
      1790426837,
      1790426886,
      1790426897,
      1790426946,
      1790426957,
      1790427017,
      1790427067,
      1790427077,
      1790427127,
      1790427187,
      1790427247,
      1790427307,
      1790427367,
      1790427427,
      1790427487,
      1790427547,
      1790427607,
      1790427668,
      1790427728,
      1790427788,
      1790427848,
      1790427908,
      1790427968,
      1790428028,
      1790428088,
      1790428148,
      1790428208,
      1790428268,
      1790428302,
      1790428328,
      1790428362,
      1790428389,
      1790428422,
      1790428449,
      1790428482,
      1790428509,
      1790428543,
      1790428569,
      1790428603,
      1790428629,
      1790428663,
      1790428689,
      1790428723,
      1790428749,
      1790428783,
      1790428809,
      1790428843,
      1790428869,
      1790428903,
      1790428929,
      1790428963,
      1790428989,
      1790429023,
      1790429050,
      1790429083,
      1790429110,
      1790429144,
      1790429170,
      1790429204,
      1790429230,
      1790429264,
      1790429290,
      1790429324,
      1790429350,
      1790429384,
      1790429410,
      1790429444,
      1790429470,
      1790429504,
      1790429530,
      1790429564,
      1790429590,
      1790429624,
      1790429650,
      1790429684,
      1790429744,
      1790429805,
      1790429865,
      1790429925,
      1790429985,
      1790430045,
      1790430105,
      1790430165,
      1790430225,
      1790430285,
      1790430345,
      1790430406,
      1790430466,
      1790430526,
      1790430586,
      1790430646,
      1790430706,
      1790430766,
      1790430826,
      1790430886,
      1790430946,
      1790430956,
      1790431016,
      1790431067,
      1790431076,
      1790431136,
      1790431187,
      1790431196,
      1790431247,
      1790431256,
      1790431307,
      1790431376,
      1790431427,
      1790431487,
      1790431496,
      1790431557,
      1790431608,
      1790431617,
      1790431668,
      1790431728,
      1790431797,
      1790431848,
      1790431908,
      1790431977,
      1790432037,
      1790432097,
      1790432157,
      1790432209,
      1790432269,
      1790432338,
      1790432398,
      1790432449,
      1790432518,
      1790432578,
      1790432638,
      1790432698,
      1790432758,
      1790432818,
      1790432878,
      1790432938,
      1790432998,
      1790433059,
      1790433119,
      1790433179,
      1790433239,
      1790433299,
      1790433359,
      1790433419,
      1790433479,
      1790433539,
      1790433599,
      1790433659,
      1790433719,
      1790433780,
      1790433826,
      1790433840,
      1790433887,
      1790433900,
      1790433960,
      1790434007,
      1790434020,
      1790434067,
      1790434080,
      1790434127,
      1790434140,
      1790434187,
      1790434200,
      1790434247,
      1790434260,
      1790434307,
      1790434320,
      1790434367,
      1790434380,
      1790434427,
      1790434440,
      1790434487,
      1790434500,
      1790434547,
      1790434561,
      1790434608,
      1790434621,
      1790434668,
      1790434681,
      1790434728,
      1790434741,
      1790434788,
      1790434801,
      1790434848,
      1790434861,
      1790434908,
      1790434921,
      1790434968,
      1790435028,
      1790435088,
      1790435152,
      1790435208,
      1790435268,
      1790435332,
      1790435389,
      1790435449,
      1790435509,
      1790435569,
      1790435629,
      1790435689,
      1790435749,
      1790435809,
      1790435869,
      1790435929,
      1790435989,
      1790436049,
      1790436110,
      1790436170,
      1790436230,
      1790436294,
      1790436350,
      1790436410,
      1790436474,
      1790436530,
      1790436590,
      1790436654,
      1790436710,
      1790436770,
      1790436831,
      1790436891,
      1790436951,
      1790437015,
      1790437071,
      1790437131,
      1790437191,
      1790437251,
      1790437311,
      1790437371,
      1790437431,
      1790437491,
      1790437552,
      1790437612,
      1790437672,
      1790437732,
      1790437792,
      1790437852,
      1790437912,
      1790437972,
      1790438032,
      1790438096,
      1790438152,
      1790438212,
      1790438273,
      1790438333,
      1790438393,
      1790438453,
      1790438513,
      1790438573,
      1790438637,
      1790438697,
      1790438753,
      1790438813,
      1790438877,
      1790438933,
      1790438997,
      1790439054,
      1790439114,
      1790439174,
      1790439238,
      1790439298,
      1790439358,
      1790439418,
      1790439478,
      1790439538,
      1790439598,
      1790439658,
      1790439718,
      1790439778,
      1790439838,
      1790439898,
      1790439959,
      1790440019,
      1790440079,
      1790440139,
      1790440199,
      1790440259,
      1790440319,
      1790440379,
      1790440439,
      1790440499,
      1790440559,
      1790440619,
      1790440680,
      1790440740,
      1790440800,
      1790440860,
      1790440920,
      1790440980,
      1790441040,
      1790441100,
      1790441143,
      1790441160,
      1790441203,
      1790441220,
      1790441263,
      1790441280,
      1790441323,
      1790441340,
      1790441383,
      1790441400,
      1790441443,
      1790441461,
      1790441504,
      1790441521,
      1790441564,
      1790441581,
      1790441624,
      1790441641,
      1790441684,
      1790441701,
      1790441744,
      1790441761,
      1790441804,
      1790441821,
      1790441864,
      1790441881,
      1790441924,
      1790441941,
      1790441984,
      1790442001,
      1790442044,
      1790442061,
      1790442104,
      1790442121,
      1790442164,
      1790442181,
      1790442225,
      1790442242,
      1790442285,
      1790442302,
      1790442345,
      1790442362,
      1790442405,
      1790442422,
      1790442465,
      1790442482,
      1790442525,
      1790442542,
      1790442585,
      1790442645,
      1790442705,
      1790442765,
      1790442825,
      1790442886,
      1790442946,
      1790443006,
      1790443066,
      1790443126,
      1790443186,
      1790443246,
      1790443306,
      1790443366,
      1790443426,
      1790443486,
      1790443547,
      1790443609,
      1790443679,
      1790443739,
      1790443799,
      1790443859,
      1790443910,
      1790443919,
      1790443979,
      1790444039,
      1790444090,
      1790444159,
      1790444210,
      1790444219,
      1790444270,
      1790444280,
      1790444330,
      1790444340,
      1790444390,
      1790444400,
      1790444450,
      1790444520,
      1790444580,
      1790444640
    ],
    "wof:geomhash": "7c5f04cf226a3567e05457ee234c6f6f",
    "wof:id": 2048439295,
    "wof:repo": "sfomuseum-data-flights-2026-09"
  },
  "bbox": [
    -122.36666666666666,
    37.4925,
    -76.68333333333334,
    41.62638888888889
  ],
  "geometry": {"type":"LineString","coordinates":[[-76.68333333333334,39.18333333333333],[-76.75,39.2],[-76.76277777777777,39.20388888888889],[-76.78722222222223,39.2075],[-76.83333333333333,39.2],[-76.89416666666668,39.202222222222225],[-76.99916666666667,39.20111111111111],[-77.06666666666666,39.21666666666667],[-77.10749999999999,39.21805555555556],[-77.16666666666667,39.25],[-77.20111111111112,39.279444444444444],[-77.29194444444444,39.358333333333334],[-77.41888888888889,39.405],[-77.55166666666666,39.45583333333334],[-77.65916666666668,39.50388888888889],[-77.68138888888889,39.51361111111111],[-77.81472222222222,39.572500000000005],[-77.9563888888889,39.63472222222222],[-78.07138888888889,39.684999999999995],[-78.10027777777778,39.69777777777777],[-78.24444444444444,39.760555555555555],[-78.39444444444445,39.825833333333335],[-78.54416666666667,39.890277777777776],[-78.69083333333333,39.95305555555556],[-78.8111111111111,40.004444444444445],[-78.83916666666666,40.01638888888889],[-78.985,40.07833333333333],[-79.13472222222222,40.141666666666666],[-79.25416666666666,40.19222222222222],[-79.27888888888889,40.20277777777778],[-79.39861111111112,40.253055555555555],[-79.42722222222223,40.265],[-79.54472222222222,40.31388888888888],[-79.54333333333334,40.31333333333333],[-79.71916666666667,40.38638888888889],[-79.83472222222221,40.43416666666666],[-79.86555555555555,40.44694444444444],[-79.97888888888889,40.493611111111115],[-80.13444444444445,40.55722222222222],[-80.2786111111111,40.61611111111111],[-80.4263888888889,40.67611111111111],[-80.57083333333333,40.73416666666667],[-80.71805555555555,40.793055555555554],[-80.84444444444443,40.844166666666666],[-80.99027777777778,40.90222222222222],[-81.15861111111111,40.96888888888889],[-81.30472222222222,41.02611111111111],[-81.44777777777779,41.08222222222223],[-81.565,41.128055555555555],[-81.71333333333334,41.18555555555555],[-81.85749999999999,41.24138888888889],[-82.00222222222222,41.29694444444444],[-82.15222222222222,41.350833333333334],[-82.31361111111111,41.36694444444444],[-82.4775,41.376666666666665],[-82.6413888888889,41.36638888888889],[-82.80472222222222,41.35305555555556],[-82.91694444444445,41.343333333333334],[-82.96888888888888,41.33861111111111],[-83.08138888888888,41.3275],[-83.13277777777778,41.32333333333334],[-83.2461111111111,41.312777777777775],[-83.2961111111111,41.308055555555555],[-83.41083333333334,41.29722222222222],[-83.45944444444444,41.29277777777778],[-83.57416666666666,41.281666666666666],[-83.62388888888889,41.276944444444446],[-83.73583333333333,41.26555555555556],[-83.78416666666666,41.26],[-83.89472222222223,41.257777777777775],[-83.95666666666666,41.26361111111111],[-84.04861111111111,41.271388888888886],[-84.11055555555555,41.27638888888889],[-84.20333333333333,41.28388888888889],[-84.265,41.288888888888884],[-84.35972222222222,41.296388888888885],[-84.42083333333333,41.30138888888889],[-84.51555555555555,41.30916666666666],[-84.57416666666666,41.31361111111111],[-84.66916666666667,41.32083333333334],[-84.72944444444444,41.32555555555556],[-84.82277777777777,41.33277777777778],[-84.88111111111111,41.33722222222222],[-84.97527777777778,41.34444444444445],[-85.03333333333333,41.34861111111111],[-85.12638888888888,41.355555555555554],[-85.18416666666667,41.36],[-85.27944444444444,41.36694444444444],[-85.33749999999999,41.37111111111111],[-85.42805555555556,41.3775],[-85.48722222222223,41.38194444444444],[-85.58083333333333,41.388333333333335],[-85.64083333333333,41.3925],[-85.7038888888889,41.39694444444444],[-85.7936111111111,41.403055555555554],[-85.85749999999999,41.4075],[-85.94638888888889,41.413333333333334],[-86.00861111111111,41.4175],[-86.09833333333333,41.42305555555555],[-86.16055555555556,41.42722222222222],[-86.24972222222222,41.433055555555555],[-86.31333333333333,41.43722222222222],[-86.40277777777779,41.44277777777778],[-86.46722222222222,41.446666666666665],[-86.61888888888888,41.45611111111111],[-86.77944444444444,41.465833333333336],[-86.93083333333334,41.474444444444444],[-87.08333333333333,41.483333333333334],[-87.23777777777778,41.49194444444444],[-87.3611111111111,41.49861111111111],[-87.54555555555555,41.50861111111111],[-87.7,41.51638888888889],[-87.85583333333332,41.52444444444444],[-88.00694444444444,41.531666666666666],[-88.19111111111111,41.54055555555556],[-88.34638888888888,41.547777777777775],[-88.5025,41.55305555555555],[-88.66027777777778,41.558611111111105],[-88.81694444444445,41.56388888888888],[-88.97500000000001,41.56916666666667],[-89.13388888888889,41.573888888888895],[-89.29083333333332,41.578611111111115],[-89.45138888888889,41.58305555555556],[-89.6111111111111,41.587500000000006],[-89.77083333333333,41.59138888888889],[-89.79305555555555,41.590833333333336],[-89.95277777777778,41.594166666666666],[-90.08944444444444,41.598888888888894],[-90.11166666666666,41.598888888888894],[-90.27333333333333,41.60166666666667],[-90.41055555555556,41.605555555555554],[-90.43444444444445,41.60527777777778],[-90.57,41.608333333333334],[-90.59555555555555,41.60805555555556],[-90.72694444444444,41.611111111111114],[-90.91916666666667,41.61388888888889],[-91.04722222222222,41.615833333333335],[-91.20916666666668,41.617777777777775],[-91.24194444444444,41.6175],[-91.40194444444445,41.62],[-91.53138888888888,41.62138888888889],[-91.56361111111111,41.62111111111111],[-91.69222222222223,41.62305555555555],[-91.85583333333332,41.62416666666667],[-92.03583333333333,41.624722222222225],[-92.18194444444445,41.62583333333333],[-92.34805555555555,41.626111111111115],[-92.5375,41.62638888888889],[-92.72472222222223,41.62638888888889],[-92.89111111111112,41.626111111111115],[-93.05555555555556,41.62583333333333],[-93.18527777777778,41.625277777777775],[-93.34916666666666,41.62416666666667],[-93.5461111111111,41.6225],[-93.70583333333333,41.62111111111111],[-93.83666666666666,41.62],[-94.03166666666667,41.617777777777775],[-94.19277777777778,41.61555555555556],[-94.34444444444443,41.61333333333334],[-94.50444444444445,41.61083333333333],[-94.66388888888889,41.608333333333334],[-94.82333333333332,41.605000000000004],[-94.9786111111111,41.60194444444445],[-95.13361111111112,41.598888888888894],[-95.28888888888889,41.59527777777778],[-95.44083333333333,41.59166666666667],[-95.59305555555555,41.58777777777778],[-95.74972222222222,41.58361111111111],[-95.90444444444445,41.57916666666667],[-96.05388888888889,41.57472222222223],[-96.20583333333333,41.57027777777778],[-96.35666666666665,41.56527777777777],[-96.52277777777778,41.55972222222222],[-96.67361111111111,41.55444444444444],[-96.82277777777777,41.549166666666665],[-96.97527777777778,41.54361111111111],[-97.12888888888888,41.5375],[-97.28083333333333,41.53138888888889],[-97.38916666666667,41.52722222222222],[-97.43555555555555,41.525277777777774],[-97.54222222222222,41.520833333333336],[-97.58916666666666,41.51861111111111],[-97.74138888888889,41.51166666666666],[-97.85277777777777,41.50666666666667],[-97.89527777777778,41.50472222222222],[-98.00527777777778,41.5],[-98.04888888888888,41.50111111111111],[-98.16027777777778,41.50333333333333],[-98.18916666666667,41.50388888888889],[-98.31583333333333,41.506388888888885],[-98.34388888888888,41.50694444444444],[-98.47055555555556,41.50944444444445],[-98.51055555555556,41.51],[-98.62194444444444,41.511944444444445],[-98.66472222222222,41.5125],[-98.77805555555555,41.51444444444444],[-98.81972222222223,41.515],[-98.92333333333333,41.516666666666666],[-98.97472222222223,41.51722222222222],[-99.08,41.51888888888889],[-99.1286111111111,41.519444444444446],[-99.23388888888888,41.52055555555555],[-99.26527777777778,41.520833333333336],[-99.39166666666668,41.52222222222222],[-99.42166666666667,41.5225],[-99.54833333333333,41.52333333333333],[-99.5786111111111,41.52361111111111],[-99.70805555555556,41.52472222222222],[-99.74027777777778,41.525],[-99.87666666666667,41.52583333333333],[-99.89416666666668,41.52611111111111],[-100.03138888888888,41.526666666666664],[-100.05527777777777,41.526666666666664],[-100.18833333333333,41.52722222222222],[-100.20944444444444,41.52722222222222],[-100.34527777777777,41.527499999999996],[-100.49972222222222,41.52777777777778],[-100.6563888888889,41.527499999999996],[-100.82833333333333,41.51583333333333],[-100.96277777777777,41.486111111111114],[-101.11583333333333,41.45777777777778],[-101.28666666666666,41.42638888888889],[-101.42055555555557,41.40138888888889],[-101.57305555555556,41.3725],[-101.72694444444444,41.343333333333334],[-101.87888888888888,41.31444444444444],[-102.03416666666666,41.28444444444444],[-102.18527777777778,41.255],[-102.33611111111111,41.22555555555556],[-102.48555555555555,41.19638888888888],[-102.635,41.166666666666664],[-102.78222222222222,41.13722222222222],[-102.9588888888889,41.10166666666667],[-103.10249999999999,41.08305555555556],[-103.25333333333333,41.065555555555555],[-103.40666666666667,41.047777777777775],[-103.55944444444444,41.029444444444444],[-103.7125,41.010555555555555],[-103.865,40.99305555555556],[-104.0175,40.97416666666667],[-104.17444444444445,40.95444444444445],[-104.32388888888889,40.93611111111111],[-104.47611111111111,40.916666666666664],[-104.63083333333333,40.89527777777778],[-104.78527777777778,40.87722222222222],[-104.93833333333333,40.856944444444444],[-105.09194444444444,40.83694444444445],[-105.2475,40.81583333333333],[-105.40194444444445,40.794999999999995],[-105.56361111111111,40.7725],[-105.7125,40.7525],[-105.87666666666667,40.72972222222222],[-106.01916666666666,40.709722222222226],[-106.18416666666667,40.68611111111111],[-106.33777777777777,40.66416666666667],[-106.48833333333333,40.64222222222222],[-106.6125,40.62388888888889],[-106.76222222222222,40.60194444444445],[-106.91111111111111,40.57972222222222],[-107.05888888888889,40.5575],[-107.20916666666668,40.53472222222222],[-107.35749999999999,40.50833333333333],[-107.50611111111111,40.47555555555556],[-107.65472222222223,40.442499999999995],[-107.80166666666666,40.40972222222222],[-107.95277777777778,40.37555555555556],[-108.10166666666666,40.34166666666667],[-108.26555555555555,40.30416666666667],[-108.40972222222223,40.270833333333336],[-108.55499999999999,40.23722222222222],[-108.70277777777778,40.20277777777778],[-108.84888888888888,40.16833333333333],[-108.99527777777777,40.13388888888889],[-109.14333333333335,40.09861111111111],[-109.2911111111111,40.06333333333333],[-109.43583333333333,40.02833333333333],[-109.58277777777778,39.99277777777778],[-109.73027777777779,39.95666666666667],[-109.87416666666665,39.921388888888885],[-110.01916666666666,39.885555555555555],[-110.19194444444445,39.8425],[-110.30611111111111,39.814166666666665],[-110.48,39.77027777777778],[-110.59527777777777,39.74277777777778],[-110.73861111111111,39.71083333333333],[-110.88222222222221,39.678888888888885],[-111.05611111111111,39.63972222222222],[-111.19944444444445,39.60722222222223],[-111.33222222222221,39.577222222222225],[-111.47666666666667,39.54416666666666],[-111.61944444444444,39.51111111111111],[-111.76305555555555,39.47777777777778],[-111.90861111111111,39.443888888888885],[-112.05083333333333,39.41027777777778],[-112.19388888888889,39.376666666666665],[-112.33638888888889,39.34277777777778],[-112.48027777777779,39.30833333333333],[-112.62416666666665,39.27972222222222],[-112.78,39.249722222222225],[-112.92500000000001,39.22166666666667],[-113.07194444444444,39.19305555555555],[-113.21694444444445,39.164722222222224],[-113.36027777777777,39.13638888888889],[-113.50444444444445,39.1075],[-113.63805555555557,39.058611111111105],[-113.7425,38.972500000000004],[-113.83944444444444,38.88444444444444],[-113.93694444444445,38.794999999999995],[-114.03527777777778,38.705000000000005],[-114.14305555555556,38.62555555555556],[-114.28472222222221,38.595],[-114.43111111111112,38.6225],[-114.54972222222221,38.70166666666667],[-114.65944444444445,38.79194444444444],[-114.76805555555555,38.882222222222225],[-114.87249999999999,38.971111111111114],[-114.9875,39.05555555555555],[-115.1275,39.08416666666667],[-115.20833333333334,39.055277777777775],[-115.26055555555556,39.03388888888889],[-115.33944444444444,39.00333333333333],[-115.39027777777778,38.9825],[-115.47055555555556,38.950833333333335],[-115.51666666666667,38.9325],[-115.60194444444444,38.89861111111111],[-115.64722222222223,38.88027777777778],[-115.75472222222223,38.83722222222222],[-115.77972222222222,38.827222222222225],[-115.88583333333334,38.785],[-115.91111111111111,38.77444444444444],[-116.01916666666666,38.73111111111111],[-116.0461111111111,38.72027777777778],[-116.15305555555557,38.67666666666666],[-116.17861111111111,38.66638888888889],[-116.28611111111111,38.62277777777778],[-116.31305555555555,38.61194444444445],[-116.42027777777778,38.56805555555556],[-116.44583333333334,38.5575],[-116.55277777777778,38.51361111111111],[-116.57805555555555,38.50333333333333],[-116.68472222222222,38.45916666666667],[-116.71027777777778,38.448611111111106],[-116.81527777777778,38.405],[-116.8425,38.39388888888889],[-116.94888888888889,38.35],[-116.97277777777778,38.34],[-117.0775,38.29611111111111],[-117.10277777777777,38.285555555555554],[-117.20666666666666,38.24194444444444],[-117.23138888888889,38.231388888888894],[-117.33749999999999,38.18694444444444],[-117.35694444444444,38.178888888888885],[-117.46222222222222,38.134166666666665],[-117.48333333333333,38.125277777777775],[-117.58999999999999,38.080000000000005],[-117.61638888888888,38.06888888888889],[-117.72083333333333,38.02444444444444],[-117.7461111111111,38.01416666666667],[-117.86583333333333,37.993611111111115],[-117.89277777777778,37.99055555555556],[-118.01444444444445,37.9775],[-118.04194444444444,37.974444444444444],[-118.16472222222222,37.96138888888889],[-118.19250000000001,37.95861111111111],[-118.3125,37.94583333333333],[-118.34027777777777,37.94277777777778],[-118.46222222222222,37.92944444444444],[-118.60805555555555,37.91305555555555],[-118.75333333333333,37.89666666666667],[-118.89888888888889,37.88027777777778],[-119.04166666666667,37.86416666666667],[-119.18694444444445,37.84722222222222],[-119.33333333333333,37.83027777777778],[-119.47722222222222,37.81333333333333],[-119.62666666666667,37.79527777777778],[-119.77361111111111,37.777499999999996],[-119.92305555555556,37.759166666666665],[-120.07027777777778,37.74111111111111],[-120.21333333333334,37.72361111111111],[-120.36,37.70472222222222],[-120.50611111111111,37.68722222222222],[-120.6463888888889,37.670833333333334],[-120.77972222222222,37.655],[-120.91666666666667,37.63333333333333],[-121.05944444444444,37.62027777777778],[-121.1875,37.60277777777778],[-121.30722222222222,37.58722222222222],[-121.42277777777778,37.574444444444445],[-121.51666666666667,37.56666666666667],[-121.53305555555555,37.56194444444444],[-121.62555555555555,37.55027777777777],[-121.705,37.53138888888889],[-121.76666666666667,37.516666666666666],[-121.85749999999999,37.49472222222222],[-121.93333333333334,37.5],[-121.9375,37.4925],[-122,37.5],[-122.01638888888888,37.50388888888889],[-122.08333333333333,37.53333333333333],[-122.09305555555555,37.52861111111111],[-122.15,37.55],[-122.16194444444444,37.551111111111105],[-122.21666666666667,37.56666666666667],[-122.2825,37.58888888888889],[-122.33138888888888,37.603611111111114],[-122.36666666666666,37.6175]]}
}
