{
  "id": 2048426341,
  "type": "Feature",
  "properties": {
    "geom:area": 0,
    "geom:bbox": "-122.403056,37.651111,-77.027222,43.643611",
    "geom:latitude": 41.522017349647996,
    "geom:longitude": -99.83358828425135,
    "src:alt_label": "swim-path",
    "src:geom": "swim",
    "swim:altitudes": [
      "013",
      "023",
      "035",
      "039",
      "045",
      "053",
      "064",
      "074",
      "088",
      "107",
      "117",
      "129",
      "147",
      "165",
      "182",
      "200",
      "215",
      "230",
      "243",
      "255",
      "269",
      "284",
      "297",
      "310",
      "323",
      "333",
      "343",
      "354",
      "363",
      "369C",
      "370C",
      "370C",
      "370C",
      "370C",
      "370C",
      "370C",
      "370C",
      "370C",
      "370C",
      "370C",
      "370C",
      "370C",
      "370C",
      "370C",
      "370C",
      "370C",
      "370C",
      "370C",
      "370C",
      "370C",
      "370C",
      "370C",
      "370C",
      "370C",
      "370C",
      "370C",
      "370C",
      "370C",
      "370C",
      "370C",
      "370C",
      "370C",
      "370C",
      "370C",
      "370C",
      "370C",
      "370C",
      "370C",
      "370C",
      "370C",
      "370C",
      "370C",
      "370C",
      "370C",
      "370C",
      "370C",
      "370C",
      "370C",
      "370C",
      "370C",
      "370C",
      "370C",
      "370C",
      "370C",
      "370C",
      "370C",
      "370C",
      "370C",
      "370C",
      "370C",
      "370C",
      "370C",
      "370C",
      "370C",
      "370C",
      "370C",
      "370C",
      "370C",
      "370C",
      "370C",
      "370C",
      "370C",
      "370C",
      "370C",
      "370C",
      "370C",
      "370C",
      "370C",
      "370C",
      "370C",
      "370C",
      "370C",
      "370C",
      "370C",
      "370C",
      "370C",
      "370C",
      "370C",
      "370C",
      "370C",
      "370C",
      "370C",
      "370C",
      "370C",
      "370C",
      "370C",
      "370C",
      "370C",
      "370C",
      "370C",
      "370C",
      "370C",
      "370C",
      "370C",
      "370C",
      "370C",
      "370C",
      "370C",
      "370C",
      "370C",
      "370C",
      "370C",
      "370C",
      "370C",
      "370C",
      "370C",
      "370C",
      "370C",
      "370C",
      "370C",
      "370C",
      "370C",
      "370C",
      "370C",
      "370C",
      "370C",
      "370C",
      "370C",
      "370C",
      "370C",
      "370C",
      "370C",
      "370C",
      "370C",
      "370C",
      "370C",
      "370C",
      "370C",
      "370C",
      "370C",
      "370C",
      "370C",
      "370C",
      "370C",
      "370C",
      "370C",
      "370C",
      "370C",
      "370C",
      "370C",
      "370C",
      "369C",
      "370C",
      "370C",
      "370C",
      "370C",
      "370C",
      "370C",
      "370C",
      "370C",
      "370C",
      "370C",
      "370C",
      "370C",
      "370C",
      "370C",
      "370C",
      "370C",
      "370C",
      "370C",
      "370C",
      "370C",
      "370C",
      "370C",
      "370C",
      "370C",
      "370C",
      "370C",
      "370C",
      "370C",
      "370C",
      "370C",
      "370C",
      "370C",
      "370C",
      "370C",
      "370C",
      "370C",
      "370C",
      "370C",
      "370C",
      "370C",
      "370C",
      "370C",
      "370C",
      "370C",
      "370C",
      "370C",
      "370C",
      "370C",
      "370C",
      "370C",
      "370C",
      "370C",
      "370C",
      "370C",
      "370C",
      "370C",
      "370C",
      "370C",
      "370C",
      "370C",
      "370C",
      "370C",
      "370C",
      "370C",
      "370C",
      "370C",
      "370C",
      "370C",
      "370C",
      "370C",
      "370C",
      "370C",
      "370C",
      "370C",
      "370C",
      "370C",
      "370C",
      "370C",
      "370C",
      "370C",
      "370C",
      "370C",
      "370C",
      "370C",
      "370C",
      "370C",
      "370C",
      "370C",
      "370C",
      "370C",
      "370C",
      "370C",
      "370C",
      "370C",
      "370C",
      "370C",
      "370C",
      "370C",
      "370C",
      "370C",
      "370C",
      "370C",
      "370C",
      "370C",
      "370C",
      "370C",
      "370C",
      "370C",
      "370C",
      "370C",
      "370C",
      "370C",
      "370C",
      "370C",
      "370C",
      "370C",
      "370C",
      "370C",
      "370C",
      "370C",
      "370C",
      "370C",
      "370C",
      "370C",
      "370C",
      "370C",
      "370C",
      "370C",
      "370C",
      "370C",
      "370C",
      "370C",
      "370C",
      "370",
      "371",
      "379",
      "386",
      "386",
      "390C",
      "390C",
      "390C",
      "390C",
      "390C",
      "390C",
      "390C",
      "390C",
      "390C",
      "390C",
      "390C",
      "390C",
      "390C",
      "390C",
      "390C",
      "390C",
      "390C",
      "390C",
      "390C",
      "390C",
      "390C",
      "390C",
      "390C",
      "390C",
      "390C",
      "390C",
      "390C",
      "390C",
      "390C",
      "390C",
      "390C",
      "390C",
      "390C",
      "390C",
      "389",
      "386",
      "379",
      "376",
      "370",
      "367",
      "360",
      "355",
      "351",
      "350",
      "350",
      "350",
      "350",
      "350",
      "350",
      "350",
      "350",
      "350",
      "349",
      "340",
      "329",
      "325",
      "318",
      "310",
      "310",
      "310",
      "310",
      "310",
      "310",
      "309",
      "302",
      "294",
      "281",
      "280",
      "278",
      "270",
      "258",
      "250",
      "238",
      "229",
      "217",
      "206",
      "195",
      "188",
      "177",
      "171",
      "170",
      "170",
      "171",
      "170",
      "170",
      "166",
      "154",
      "152",
      "144",
      "134",
      "134",
      "133",
      "126",
      "124",
      "107",
      "100",
      "094",
      "091",
      "080",
      "067",
      "055",
      "054",
      "041",
      "039",
      "027",
      "020",
      "020",
      "020",
      "020",
      "020",
      "020",
      "016",
      "016",
      "011",
      "004"
    ],
    "swim:geom": "path",
    "swim:speeds": [
      197,
      201,
      201,
      232,
      262,
      295,
      300,
      309,
      305,
      320,
      372,
      404,
      412,
      423,
      437,
      448,
      457,
      472,
      482,
      490,
      495,
      495,
      496,
      494,
      491,
      489,
      488,
      485,
      481,
      479,
      479,
      479,
      478,
      479,
      476,
      475,
      474,
      473,
      471,
      472,
      472,
      472,
      471,
      470,
      469,
      468,
      466,
      466,
      464,
      463,
      461,
      460,
      460,
      460,
      460,
      461,
      462,
      463,
      464,
      464,
      464,
      465,
      466,
      467,
      467,
      468,
      469,
      469,
      471,
      472,
      474,
      475,
      476,
      478,
      479,
      480,
      481,
      480,
      481,
      482,
      482,
      483,
      484,
      484,
      484,
      485,
      485,
      486,
      487,
      490,
      487,
      490,
      490,
      489,
      490,
      489,
      491,
      490,
      490,
      490,
      490,
      491,
      491,
      492,
      492,
      492,
      492,
      493,
      494,
      495,
      496,
      497,
      498,
      498,
      499,
      499,
      498,
      498,
      498,
      498,
      498,
      498,
      498,
      497,
      497,
      496,
      495,
      495,
      495,
      494,
      494,
      494,
      495,
      495,
      496,
      497,
      498,
      499,
      500,
      500,
      500,
      500,
      499,
      499,
      499,
      500,
      500,
      500,
      496,
      500,
      497,
      499,
      498,
      499,
      501,
      500,
      502,
      501,
      502,
      501,
      502,
      502,
      503,
      503,
      504,
      504,
      504,
      504,
      504,
      504,
      505,
      505,
      506,
      506,
      507,
      509,
      510,
      511,
      512,
      513,
      515,
      517,
      518,
      518,
      519,
      520,
      520,
      521,
      521,
      522,
      523,
      524,
      525,
      523,
      519,
      517,
      516,
      514,
      513,
      512,
      511,
      510,
      509,
      508,
      509,
      507,
      508,
      506,
      508,
      505,
      503,
      504,
      504,
      505,
      505,
      506,
      506,
      507,
      508,
      508,
      508,
      508,
      508,
      507,
      507,
      506,
      506,
      506,
      506,
      506,
      506,
      506,
      506,
      507,
      507,
      508,
      509,
      510,
      511,
      512,
      512,
      513,
      513,
      514,
      514,
      514,
      514,
      514,
      514,
      513,
      514,
      514,
      514,
      514,
      514,
      515,
      515,
      516,
      516,
      515,
      517,
      515,
      517,
      514,
      516,
      514,
      515,
      514,
      515,
      514,
      518,
      513,
      514,
      513,
      514,
      514,
      514,
      515,
      517,
      515,
      518,
      517,
      519,
      519,
      521,
      521,
      522,
      522,
      525,
      524,
      525,
      525,
      526,
      526,
      526,
      526,
      526,
      526,
      526,
      525,
      525,
      525,
      524,
      523,
      522,
      522,
      521,
      519,
      518,
      517,
      514,
      514,
      511,
      508,
      508,
      506,
      504,
      500,
      490,
      490,
      483,
      483,
      483,
      483,
      483,
      484,
      484,
      484,
      486,
      488,
      488,
      490,
      492,
      492,
      491,
      486,
      486,
      485,
      484,
      484,
      484,
      483,
      483,
      481,
      481,
      481,
      478,
      478,
      477,
      476,
      476,
      475,
      475,
      476,
      475,
      475,
      474,
      474,
      473,
      473,
      473,
      474,
      475,
      476,
      476,
      476,
      476,
      476,
      477,
      477,
      477,
      477,
      477,
      477,
      477,
      476,
      463,
      460,
      459,
      458,
      458,
      457,
      456,
      456,
      453,
      447,
      439,
      432,
      429,
      425,
      416,
      411,
      404,
      399,
      393,
      387,
      375,
      377,
      367,
      371,
      358,
      361,
      359,
      354,
      356,
      355,
      348,
      352,
      349,
      341,
      345,
      330,
      302,
      306,
      304,
      281,
      280,
      280,
      271,
      269,
      260,
      264,
      252,
      255,
      225,
      227,
      228,
      164,
      166,
      155,
      157,
      149,
      149,
      133,
      135
    ],
    "swim:timestamps": [
      1790286308,
      1790286337,
      1790286368,
      1790286397,
      1790286428,
      1790286457,
      1790286489,
      1790286517,
      1790286549,
      1790286609,
      1790286669,
      1790286729,
      1790286789,
      1790286849,
      1790286909,
      1790286969,
      1790287029,
      1790287089,
      1790287150,
      1790287210,
      1790287274,
      1790287334,
      1790287390,
      1790287450,
      1790287510,
      1790287570,
      1790287630,
      1790287690,
      1790287750,
      1790287811,
      1790287875,
      1790287931,
      1790287991,
      1790288055,
      1790288111,
      1790288171,
      1790288236,
      1790288296,
      1790288351,
      1790288411,
      1790288472,
      1790288532,
      1790288592,
      1790288652,
      1790288712,
      1790288772,
      1790288832,
      1790288892,
      1790288952,
      1790289012,
      1790289077,
      1790289149,
      1790289209,
      1790289269,
      1790289329,
      1790289389,
      1790289449,
      1790289509,
      1790289569,
      1790289629,
      1790289689,
      1790289750,
      1790289810,
      1790289870,
      1790289930,
      1790289990,
      1790290050,
      1790290110,
      1790290170,
      1790290230,
      1790290290,
      1790290350,
      1790290410,
      1790290471,
      1790290531,
      1790290591,
      1790290651,
      1790290711,
      1790290771,
      1790290891,
      1790290951,
      1790291011,
      1790291071,
      1790291131,
      1790291191,
      1790291252,
      1790291312,
      1790291372,
      1790291432,
      1790291458,
      1790291492,
      1790291518,
      1790291578,
      1790291612,
      1790291638,
      1790291672,
      1790291698,
      1790291732,
      1790291758,
      1790291792,
      1790291818,
      1790291852,
      1790291878,
      1790291912,
      1790291938,
      1790291973,
      1790291998,
      1790292033,
      1790292058,
      1790292093,
      1790292119,
      1790292165,
      1790292179,
      1790292225,
      1790292239,
      1790292285,
      1790292299,
      1790292345,
      1790292359,
      1790292405,
      1790292419,
      1790292465,
      1790292479,
      1790292525,
      1790292539,
      1790292585,
      1790292599,
      1790292645,
      1790292659,
      1790292705,
      1790292719,
      1790292779,
      1790292839,
      1790292900,
      1790292960,
      1790293020,
      1790293080,
      1790293140,
      1790293200,
      1790293260,
      1790293320,
      1790293380,
      1790293440,
      1790293500,
      1790293560,
      1790293621,
      1790293681,
      1790293741,
      1790293765,
      1790293801,
      1790293825,
      1790293861,
      1790293885,
      1790293945,
      1790293981,
      1790294005,
      1790294041,
      1790294065,
      1790294101,
      1790294125,
      1790294161,
      1790294185,
      1790294221,
      1790294246,
      1790294281,
      1790294306,
      1790294342,
      1790294366,
      1790294402,
      1790294426,
      1790294462,
      1790294486,
      1790294522,
      1790294546,
      1790294582,
      1790294606,
      1790294642,
      1790294666,
      1790294702,
      1790294726,
      1790294786,
      1790294846,
      1790294906,
      1790294967,
      1790295027,
      1790295087,
      1790295147,
      1790295207,
      1790295267,
      1790295327,
      1790295387,
      1790295447,
      1790295507,
      1790295567,
      1790295627,
      1790295688,
      1790295748,
      1790295808,
      1790295868,
      1790295928,
      1790295988,
      1790296048,
      1790296108,
      1790296168,
      1790296197,
      1790296228,
      1790296257,
      1790296288,
      1790296317,
      1790296348,
      1790296377,
      1790296409,
      1790296434,
      1790296469,
      1790296494,
      1790296529,
      1790296554,
      1790296589,
      1790296614,
      1790296649,
      1790296674,
      1790296709,
      1790296734,
      1790296769,
      1790296795,
      1790296829,
      1790296855,
      1790296889,
      1790296915,
      1790296949,
      1790296975,
      1790297009,
      1790297035,
      1790297069,
      1790297095,
      1790297130,
      1790297155,
      1790297190,
      1790297215,
      1790297250,
      1790297275,
      1790297310,
      1790297335,
      1790297370,
      1790297395,
      1790297430,
      1790297456,
      1790297490,
      1790297516,
      1790297550,
      1790297576,
      1790297610,
      1790297636,
      1790297696,
      1790297756,
      1790297816,
      1790297876,
      1790297936,
      1790297997,
      1790298057,
      1790298087,
      1790298117,
      1790298147,
      1790298177,
      1790298207,
      1790298237,
      1790298268,
      1790298297,
      1790298328,
      1790298357,
      1790298388,
      1790298417,
      1790298448,
      1790298477,
      1790298508,
      1790298537,
      1790298568,
      1790298628,
      1790298658,
      1790298688,
      1790298718,
      1790298748,
      1790298778,
      1790298808,
      1790298838,
      1790298868,
      1790298898,
      1790298928,
      1790298982,
      1790298989,
      1790299018,
      1790299049,
      1790299078,
      1790299109,
      1790299138,
      1790299162,
      1790299169,
      1790299198,
      1790299229,
      1790299258,
      1790299282,
      1790299289,
      1790299319,
      1790299349,
      1790299379,
      1790299402,
      1790299409,
      1790299439,
      1790299462,
      1790299499,
      1790299522,
      1790299529,
      1790299559,
      1790299582,
      1790299589,
      1790299619,
      1790299649,
      1790299679,
      1790299703,
      1790299710,
      1790299739,
      1790299770,
      1790299799,
      1790299830,
      1790299859,
      1790299883,
      1790299890,
      1790299919,
      1790299950,
      1790300003,
      1790300010,
      1790300063,
      1790300123,
      1790300130,
      1790300190,
      1790300243,
      1790300250,
      1790300303,
      1790300310,
      1790300364,
      1790300371,
      1790300424,
      1790300431,
      1790300484,
      1790300491,
      1790300513,
      1790300544,
      1790300551,
      1790300573,
      1790300604,
      1790300633,
      1790300664,
      1790300671,
      1790300693,
      1790300731,
      1790300753,
      1790300791,
      1790300813,
      1790300844,
      1790300874,
      1790300911,
      1790300934,
      1790300964,
      1790300994,
      1790301025,
      1790301054,
      1790301085,
      1790301092,
      1790301114,
      1790301145,
      1790301152,
      1790301174,
      1790301212,
      1790301234,
      1790301265,
      1790301272,
      1790301294,
      1790301325,
      1790301354,
      1790301385,
      1790301392,
      1790301414,
      1790301445,
      1790301452,
      1790301474,
      1790301505,
      1790301535,
      1790301565,
      1790301595,
      1790301625,
      1790301655,
      1790301685,
      1790301715,
      1790301746,
      1790301775,
      1790301806,
      1790301834,
      1790301866,
      1790301894,
      1790301926,
      1790301948,
      1790301955,
      1790301986,
      1790302008,
      1790302015,
      1790302046,
      1790302068,
      1790302075,
      1790302106,
      1790302128,
      1790302136,
      1790302166,
      1790302188,
      1790302196,
      1790302256,
      1790302316,
      1790302362,
      1790302376,
      1790302436,
      1790302496,
      1790302549,
      1790302556,
      1790302609,
      1790302616,
      1790302675,
      1790302729,
      1790302737,
      1790302789,
      1790302797,
      1790302849,
      1790302857,
      1790302909,
      1790302917,
      1790302975,
      1790303035
    ],
    "wof:geomhash": "570675959099c409046eee26fd9dd3ef",
    "wof:id": 2048426341,
    "wof:repo": "sfomuseum-data-flights-2026-09"
  },
  "bbox": [
    -122.40305555555557,
    37.651111111111106,
    -77.02722222222222,
    43.64361111111111
  ],
  "geometry": {"type":"LineString","coordinates":[[-122.40305555555557,37.651111111111106],[-122.38333333333334,37.666666666666664],[-122.34027777777777,37.675],[-122.3,37.68333333333333],[-122.26305555555555,37.70138888888889],[-122.21666666666667,37.71666666666667],[-122.18527777777778,37.75055555555556],[-122.15,37.78333333333333],[-122.10972222222222,37.811388888888885],[-122.02833333333334,37.870555555555555],[-121.9363888888889,37.93888888888888],[-121.83305555555555,38.013888888888886],[-121.74111111111111,38.081388888888895],[-121.63138888888888,38.16138888888889],[-121.51944444444445,38.24305555555556],[-121.40111111111112,38.32833333333333],[-121.27777777777777,38.405833333333334],[-121.12472222222222,38.50055555555556],[-120.9925,38.58166666666667],[-120.85527777777777,38.66611111111111],[-120.7063888888889,38.75361111111111],[-120.56694444444445,38.83916666666667],[-120.4375,38.919999999999995],[-120.29916666666666,39.00333333333333],[-120.16083333333334,39.086111111111116],[-120.04083333333332,39.157777777777774],[-119.90222222222222,39.24027777777778],[-119.765,39.32055555555556],[-119.6275,39.40222222222222],[-119.49194444444444,39.481944444444444],[-119.32666666666667,39.5775],[-119.21472222222222,39.64388888888889],[-119.07555555555555,39.724444444444444],[-118.91166666666668,39.81916666666667],[-118.79777777777778,39.88305555555556],[-118.64833333333334,39.945277777777775],[-118.46694444444445,40.01916666666666],[-118.35111111111111,40.06583333333333],[-118.19333333333334,40.129444444444445],[-118.04027777777777,40.190555555555555],[-117.8825,40.24027777777778],[-117.72666666666667,40.286944444444444],[-117.565,40.335],[-117.40722222222223,40.38166666666667],[-117.24888888888889,40.42805555555555],[-117.08722222222222,40.47555555555556],[-116.9263888888889,40.52222222222222],[-116.76333333333334,40.56916666666667],[-116.6036111111111,40.615],[-116.44416666666667,40.660555555555554],[-116.29083333333332,40.70388888888889],[-116.10083333333333,40.75694444444444],[-115.94388888888889,40.80083333333333],[-115.78361111111111,40.84583333333334],[-115.62583333333333,40.88916666666667],[-115.46611111111112,40.93277777777777],[-115.30749999999999,40.976111111111116],[-115.14666666666668,41.01972222222222],[-114.98611111111111,41.06305555555555],[-114.82583333333334,41.10583333333334],[-114.655,41.151111111111106],[-114.49444444444444,41.19361111111111],[-114.33027777777778,41.23638888888889],[-114.16777777777779,41.27861111111111],[-114.00333333333333,41.321111111111115],[-113.83944444444444,41.36333333333334],[-113.67750000000001,41.406388888888884],[-113.51361111111112,41.45027777777778],[-113.3475,41.494166666666665],[-113.18027777777779,41.53777777777778],[-113.01416666666667,41.58111111111111],[-112.84777777777778,41.62388888888889],[-112.67916666666667,41.66722222222222],[-112.50916666666667,41.71055555555556],[-112.34027777777777,41.75333333333333],[-112.17,41.79611111111111],[-111.99805555555555,41.83444444444444],[-111.82416666666666,41.867222222222225],[-111.68416666666667,41.89361111111111],[-111.30138888888888,41.96472222222223],[-111.12388888888889,41.99722222222222],[-110.9475,42.029444444444444],[-110.79166666666667,42.0575],[-110.615,42.08888888888889],[-110.43805555555556,42.12027777777778],[-110.26277777777777,42.15083333333333],[-110.1211111111111,42.17527777777777],[-109.90416666666667,42.212500000000006],[-109.72805555555556,42.242222222222225],[-109.65694444444445,42.25527777777778],[-109.55027777777778,42.27222222222222],[-109.47611111111111,42.28444444444444],[-109.2975,42.31388888888888],[-109.18805555555556,42.33222222222223],[-109.11666666666666,42.343333333333334],[-109.00916666666667,42.361111111111114],[-108.93527777777778,42.3725],[-108.82777777777777,42.39055555555556],[-108.75833333333334,42.401666666666664],[-108.64805555555556,42.41888888888889],[-108.57805555555555,42.43],[-108.46666666666667,42.44777777777777],[-108.39583333333334,42.45888888888889],[-108.28583333333333,42.476111111111116],[-108.21305555555556,42.48722222222222],[-108.10472222222222,42.50388888888889],[-108.03083333333333,42.515277777777776],[-107.92333333333333,42.532222222222224],[-107.85249999999999,42.54888888888889],[-107.74361111111111,42.57472222222223],[-107.67416666666666,42.59138888888889],[-107.52916666666667,42.62583333333333],[-107.49277777777777,42.63444444444444],[-107.34944444444444,42.66861111111111],[-107.31555555555555,42.67666666666666],[-107.16666666666667,42.70277777777778],[-107.11444444444444,42.70944444444445],[-106.98138888888889,42.7275],[-106.92944444444444,42.734722222222224],[-106.78,42.755],[-106.74361111111111,42.76],[-106.59416666666667,42.780277777777776],[-106.55944444444444,42.78472222222222],[-106.41166666666668,42.80444444444444],[-106.37555555555555,42.80916666666666],[-106.22555555555556,42.82888888888889],[-106.19277777777778,42.83305555555556],[-106.04333333333334,42.8525],[-106.00638888888889,42.85722222222223],[-105.85944444444443,42.87583333333333],[-105.82222222222222,42.88055555555555],[-105.6375,42.90361111111111],[-105.4525,42.92638888888889],[-105.26722222222222,42.94916666666666],[-105.08,42.97138888888889],[-104.89472222222223,42.99333333333333],[-104.70583333333333,43.01555555555556],[-104.51666666666667,43.03722222222222],[-104.32722222222222,43.058611111111105],[-104.13972222222223,43.07944444444445],[-103.94861111111112,43.10055555555556],[-103.76166666666667,43.120555555555555],[-103.57333333333332,43.14055555555556],[-103.38527777777779,43.16],[-103.19722222222222,43.17944444444444],[-103.00916666666667,43.198611111111106],[-102.82138888888889,43.2175],[-102.63166666666666,43.236111111111114],[-102.56583333333333,43.2425],[-102.44333333333334,43.25416666666667],[-102.37527777777777,43.260555555555555],[-102.25361111111111,43.27194444444444],[-102.19083333333333,43.27777777777778],[-101.99861111111112,43.29555555555555],[-101.87777777777777,43.30638888888888],[-101.81055555555555,43.31222222222222],[-101.69638888888889,43.322500000000005],[-101.6211111111111,43.32916666666667],[-101.50805555555556,43.33888888888889],[-101.43055555555556,43.345555555555556],[-101.31722222222221,43.355555555555554],[-101.24055555555556,43.36194444444445],[-101.12555555555555,43.37166666666667],[-101.04944444444445,43.378055555555555],[-100.93555555555555,43.38722222222222],[-100.86027777777777,43.39333333333333],[-100.74666666666667,43.402499999999996],[-100.66722222222222,43.40888888888889],[-100.55499999999999,43.41777777777777],[-100.47916666666667,43.42361111111111],[-100.36527777777778,43.4325],[-100.28777777777778,43.43833333333333],[-100.1713888888889,43.44694444444444],[-100.0936111111111,43.45277777777778],[-99.97833333333334,43.461111111111116],[-99.90111111111112,43.466944444444444],[-99.78305555555555,43.47527777777778],[-99.70694444444445,43.48083333333334],[-99.58944444444444,43.48888888888889],[-99.51166666666667,43.49444444444445],[-99.31333333333333,43.507777777777775],[-99.11611111111111,43.52111111111111],[-98.92027777777778,43.53361111111111],[-98.72555555555556,43.545833333333334],[-98.50166666666667,43.559444444444445],[-98.30027777777778,43.57138888888889],[-98.10472222222222,43.5825],[-97.90583333333333,43.593611111111116],[-97.70833333333334,43.60416666666667],[-97.50666666666666,43.61472222222223],[-97.30666666666666,43.624722222222225],[-97.1061111111111,43.63444444444444],[-96.90722222222223,43.64361111111111],[-96.70916666666668,43.63638888888889],[-96.5213888888889,43.603611111111114],[-96.33083333333333,43.569722222222225],[-96.14166666666668,43.535555555555554],[-95.95333333333333,43.50111111111111],[-95.76416666666667,43.46638888888889],[-95.57555555555555,43.43083333333333],[-95.38722222222223,43.395833333333336],[-95.19833333333334,43.36],[-95.01277777777777,43.32416666666667],[-94.82472222222222,43.28805555555555],[-94.75861111111111,43.275277777777774],[-94.63916666666667,43.251666666666665],[-94.5736111111111,43.23916666666667],[-94.4563888888889,43.21527777777778],[-94.38861111111112,43.200833333333335],[-94.27,43.17861111111111],[-94.20527777777778,43.16555555555556],[-94.0936111111111,43.143055555555556],[-94.02055555555556,43.12833333333333],[-93.90972222222223,43.10583333333334],[-93.83638888888889,43.090833333333336],[-93.72305555555556,43.0675],[-93.65194444444445,43.05277777777778],[-93.53833333333333,43.029444444444444],[-93.46694444444445,43.01444444444444],[-93.35416666666666,42.99111111111111],[-93.28166666666667,42.975833333333334],[-93.16805555555555,42.95194444444445],[-93.0961111111111,42.93666666666666],[-92.98444444444445,42.91277777777778],[-92.8775,42.89],[-92.80166666666666,42.87388888888889],[-92.69166666666668,42.85],[-92.61749999999999,42.83388888888889],[-92.5111111111111,42.81083333333333],[-92.43472222222222,42.79416666666666],[-92.32694444444444,42.77055555555555],[-92.25472222222223,42.75472222222222],[-92.14527777777778,42.730555555555554],[-92.07111111111111,42.71416666666667],[-91.96333333333334,42.69],[-91.88972222222223,42.67361111111111],[-91.78027777777778,42.64888888888889],[-91.67194444444445,42.62444444444444],[-91.60166666666666,42.60861111111111],[-91.49333333333334,42.58388888888889],[-91.41972222222223,42.566944444444445],[-91.30777777777777,42.54111111111111],[-91.23555555555555,42.52444444444444],[-91.12638888888888,42.49944444444444],[-91.0525,42.48222222222223],[-90.94416666666667,42.45666666666667],[-90.87055555555555,42.43944444444444],[-90.75972222222222,42.413333333333334],[-90.68666666666667,42.39361111111111],[-90.58138888888888,42.3575],[-90.5111111111111,42.333333333333336],[-90.40694444444445,42.2975],[-90.33777777777777,42.27361111111111],[-90.16555555555556,42.21333333333334],[-89.98916666666666,42.151666666666664],[-89.81916666666666,42.09166666666667],[-89.64666666666668,42.03055555555555],[-89.45444444444445,41.96194444444445],[-89.28138888888888,41.89972222222222],[-89.12888888888888,41.84444444444445],[-89.03166666666667,41.8075],[-88.93555555555555,41.774166666666666],[-88.86,41.74583333333334],[-88.76444444444445,41.71138888888889],[-88.68861111111111,41.68333333333333],[-88.59222222222222,41.647777777777776],[-88.51805555555555,41.62111111111111],[-88.42055555555557,41.58416666666667],[-88.34805555555555,41.5575],[-88.245,41.530833333333334],[-88.16638888888889,41.513888888888886],[-88.06194444444444,41.49138888888889],[-87.98583333333333,41.473055555555554],[-87.8775,41.45111111111111],[-87.80333333333333,41.43527777777778],[-87.73055555555555,41.41888888888889],[-87.62083333333332,41.394444444444446],[-87.43722222222223,41.35388888888889],[-87.3261111111111,41.32916666666667],[-87.25361111111111,41.31388888888888],[-87.14416666666668,41.28805555555555],[-87.06972222222223,41.271388888888886],[-86.96111111111111,41.24666666666667],[-86.88944444444445,41.23027777777778],[-86.77555555555556,41.20416666666667],[-86.70416666666667,41.187777777777775],[-86.5925,41.161944444444444],[-86.51861111111111,41.14472222222222],[-86.33555555555554,41.102222222222224],[-86.33555555555554,41.102222222222224],[-86.22500000000001,41.07638888888889],[-86.15277777777779,41.05916666666666],[-86.04083333333332,41.032777777777774],[-85.96861111111112,41.01555555555556],[-85.85694444444444,40.98888888888889],[-85.78555555555555,40.971944444444446],[-85.78583333333333,40.971944444444446],[-85.6738888888889,40.94499999999999],[-85.60138888888888,40.927499999999995],[-85.49277777777777,40.901111111111106],[-85.42222222222223,40.884166666666665],[-85.42222222222223,40.884166666666665],[-85.31305555555555,40.8575],[-85.23972222222223,40.839444444444446],[-85.13222222222221,40.81305555555555],[-85.0625,40.79555555555555],[-85.0625,40.79555555555555],[-84.95194444444445,40.76833333333333],[-84.88277777777778,40.75111111111111],[-84.77416666666666,40.723888888888894],[-84.70083333333334,40.70527777777778],[-84.70083333333334,40.70527777777778],[-84.60166666666666,40.68055555555555],[-84.52222222222223,40.660555555555554],[-84.52222222222223,40.660555555555554],[-84.42916666666667,40.636944444444445],[-84.35,40.61666666666667],[-84.25277777777778,40.591944444444444],[-84.17777777777778,40.57277777777778],[-84.17777777777778,40.57277777777778],[-84.08666666666666,40.54944444444444],[-84.01138888888889,40.53],[-83.9238888888889,40.507222222222225],[-83.83694444444444,40.48444444444444],[-83.75722222222223,40.46388888888889],[-83.67666666666668,40.442499999999995],[-83.66861111111112,40.440555555555555],[-83.58916666666666,40.41972222222222],[-83.50083333333333,40.396388888888886],[-83.33833333333332,40.35333333333333],[-83.33277777777778,40.35194444444445],[-83.16944444444445,40.30833333333333],[-82.99888888888889,40.2625],[-82.99361111111111,40.26111111111111],[-82.82555555555555,40.21555555555556],[-82.69527777777778,40.180277777777775],[-82.6588888888889,40.17055555555555],[-82.53055555555555,40.13472222222222],[-82.49472222222222,40.12416666666667],[-82.36694444444444,40.08555555555556],[-82.33138888888888,40.075],[-82.20361111111112,40.03638888888889],[-82.16777777777779,40.02583333333333],[-82.04305555555555,39.98861111111111],[-82.0075,39.97805555555556],[-81.95861111111111,39.963055555555556],[-81.88361111111112,39.94083333333333],[-81.84666666666666,39.92972222222222],[-81.8,39.91555555555556],[-81.72305555555556,39.89194444444444],[-81.64194444444445,39.86694444444444],[-81.56527777777778,39.843611111111116],[-81.53222222222222,39.83361111111111],[-81.48055555555555,39.81777777777778],[-81.37416666666665,39.78472222222222],[-81.32722222222222,39.77027777777778],[-81.21444444444445,39.73555555555556],[-81.16861111111112,39.72138888888889],[-81.0736111111111,39.69194444444444],[-81.0125,39.67305555555555],[-80.89777777777779,39.63722222222222],[-80.8236111111111,39.61361111111111],[-80.75833333333334,39.59305555555556],[-80.665,39.56361111111111],[-80.60111111111111,39.543055555555554],[-80.5075,39.51361111111111],[-80.44305555555556,39.49333333333333],[-80.41583333333334,39.48444444444444],[-80.34833333333333,39.46333333333334],[-80.28611111111111,39.44333333333333],[-80.25611111111111,39.433611111111105],[-80.19083333333333,39.41277777777778],[-80.09805555555555,39.3825],[-80.03333333333333,39.361111111111114],[-79.97027777777778,39.34111111111111],[-79.9413888888889,39.33166666666667],[-79.88305555555554,39.3125],[-79.82,39.29666666666667],[-79.7213888888889,39.28611111111111],[-79.65555555555557,39.28055555555555],[-79.62277777777777,39.278055555555554],[-79.56027777777777,39.272777777777776],[-79.49638888888889,39.2675],[-79.46000000000001,39.264722222222225],[-79.40083333333334,39.26],[-79.33777777777777,39.254444444444445],[-79.24416666666667,39.24666666666667],[-79.1875,39.24194444444444],[-79.09777777777778,39.23444444444444],[-79.03666666666666,39.22916666666667],[-78.94861111111112,39.22166666666667],[-78.8913888888889,39.21638888888889],[-78.80666666666666,39.20777777777778],[-78.74833333333333,39.202222222222225],[-78.67,39.19444444444444],[-78.5925,39.18694444444444],[-78.51666666666667,39.18333333333333],[-78.47805555555556,39.175555555555555],[-78.4,39.166666666666664],[-78.34944444444444,39.15972222222222],[-78.28333333333333,39.15],[-78.28138888888888,39.143055555555556],[-78.2213888888889,39.12833333333333],[-78.16666666666667,39.11666666666667],[-78.16305555555556,39.11388888888889],[-78.11027777777777,39.10055555555556],[-78.03333333333333,39.083333333333336],[-78.0286111111111,39.07972222222222],[-77.98194444444445,39.06777777777778],[-77.93333333333334,39.05],[-77.91944444444445,39.05166666666666],[-77.87638888888888,39.04083333333333],[-77.81666666666666,39.03333333333333],[-77.80805555555555,39.02333333333333],[-77.70583333333333,38.99666666666667],[-77.61027777777777,38.967777777777776],[-77.53333333333333,38.95],[-77.51972222222223,38.93611111111111],[-77.4325,38.903888888888886],[-77.34888888888888,38.8675],[-77.26666666666667,38.833333333333336],[-77.26666666666667,38.83111111111111],[-77.2,38.8],[-77.18944444444445,38.79611111111111],[-77.11666666666666,38.75],[-77.11666666666666,38.7],[-77.10972222222222,38.69472222222222],[-77.06666666666666,38.666666666666664],[-77.06305555555555,38.67388888888889],[-77.03333333333333,38.7],[-77.03416666666666,38.70944444444445],[-77.03333333333333,38.75],[-77.02722222222222,38.75055555555556],[-77.03333333333333,38.78333333333333],[-77.03333333333333,38.81666666666667]]}
}
