{
  "id": 2048320651,
  "type": "Feature",
  "properties": {
    "geom:area": 0,
    "geom:bbox": "-122.401680,37.626940,-121.247140,38.282650",
    "geom:latitude": 37.974302985899136,
    "geom:longitude": -121.84262808840994,
    "src:alt_label": "swim-takeoff",
    "src:geom": "swim",
    "swim:elevations": [
      305,
      692,
      823,
      1195,
      1386,
      1486,
      2160,
      2578,
      3108,
      3296,
      3340,
      3676,
      4084,
      4226,
      4610,
      4943,
      5086,
      5445,
      5618,
      6004,
      6106,
      6577,
      6757,
      6983,
      7087
    ],
    "swim:geom": "takeoff",
    "swim:timestamps": [
      1789207583,
      1789207612,
      1789207626,
      1789207671,
      1789207704,
      1789207714,
      1789207761,
      1789207791,
      1789207827,
      1789207850,
      1789207864,
      1789207903,
      1789207941,
      1789207955,
      1789207998,
      1789208035,
      1789208052,
      1789208083,
      1789208103,
      1789208149,
      1789208163,
      1789208216,
      1789208237,
      1789208265,
      1789208280
    ],
    "wof:geomhash": "47fe9f01f410f92cddfa08bbc1a13c80",
    "wof:id": 2048320651,
    "wof:repo": "sfomuseum-data-flights-2026-09"
  },
  "bbox": [
    -122.40168,
    37.62694,
    -121.24714,
    38.28265
  ],
  "geometry": {"type":"LineString","coordinates":[[-122.39394,37.62694],[-122.40168,37.64504],[-122.39181,37.65355],[-122.34677,37.66949],[-122.30421,37.68477],[-122.28944,37.69026],[-122.21854,37.7169],[-122.18335,37.74767],[-122.13791,37.78419],[-122.10781,37.80708],[-122.08738,37.82229],[-122.02621,37.86787],[-121.96449,37.91374],[-121.94066,37.93136],[-121.86594,37.9867],[-121.79987,38.03544],[-121.76974,38.05681],[-121.7023,38.08909],[-121.65804,38.10805],[-121.55436,38.15248],[-121.52325,38.16577],[-121.39797,38.21883],[-121.3494,38.23948],[-121.2826,38.26769],[-121.24714,38.28265]]}
}
