{
  "id": 2048404821,
  "type": "Feature",
  "properties": {
    "geom:area": 0,
    "geom:bbox": "-122.352630,37.492320,-121.244030,37.611680",
    "geom:latitude": 37.546629424553686,
    "geom:longitude": -121.80316907314175,
    "src:alt_label": "swim-approach",
    "src:geom": "swim",
    "swim:elevations": [
      4658,
      4277,
      3943,
      3792,
      3414,
      3343,
      3139,
      3080,
      2891,
      2757,
      2535,
      2379,
      2157,
      2010,
      1856,
      1829,
      1767,
      1493,
      1209,
      1086,
      951,
      765,
      547,
      455,
      300,
      210,
      52
    ],
    "swim:geom": "approach",
    "swim:timestamps": [
      1790099894,
      1790099933,
      1790099968,
      1790099984,
      1790100024,
      1790100033,
      1790100067,
      1790100099,
      1790100132,
      1790100155,
      1790100188,
      1790100219,
      1790100255,
      1790100288,
      1790100326,
      1790100348,
      1790100360,
      1790100399,
      1790100443,
      1790100461,
      1790100489,
      1790100524,
      1790100565,
      1790100581,
      1790100621,
      1790100643,
      1790100680
    ],
    "wof:geomhash": "eb7b6e6c1d91cc494c182c0da2a3dd35",
    "wof:id": 2048404821,
    "wof:repo": "sfomuseum-data-flights-2026-09"
  },
  "bbox": [
    -122.35263,
    37.49232,
    -121.24403,
    37.61168
  ],
  "geometry": {"type":"LineString","coordinates":[[-121.24403,37.59532],[-121.32246,37.58555],[-121.39127,37.57806],[-121.42175,37.57471],[-121.49979,37.56552],[-121.51559,37.56364],[-121.57969,37.55604],[-121.6348,37.54844],[-121.68798,37.53569],[-121.72249,37.52741],[-121.77397,37.51503],[-121.81954,37.50418],[-121.87274,37.4924],[-121.92304,37.49232],[-121.97637,37.49365],[-122.00555,37.50025],[-122.02081,37.50543],[-122.06826,37.521],[-122.12082,37.5376],[-122.14232,37.54439],[-122.1745,37.55469],[-122.21294,37.56761],[-122.25551,37.58123],[-122.27104,37.58591],[-122.3063,37.59562],[-122.32429,37.60132],[-122.35263,37.61168]]}
}
