{
  "id": 2048292811,
  "type": "Feature",
  "properties": {
    "geom:area": 0,
    "geom:bbox": "-122.728970,37.532300,-122.089150,38.515540",
    "geom:latitude": 37.964335796547765,
    "geom:longitude": -122.493386115184,
    "src:alt_label": "swim-approach",
    "src:geom": "swim",
    "swim:elevations": [
      7841,
      7830,
      7701,
      7331,
      6979,
      6832,
      6590,
      6019,
      5719,
      5442,
      5112,
      4901,
      4530,
      4286,
      4096,
      3829,
      3566,
      3356,
      3353,
      3353,
      3318,
      3165,
      3050,
      2680,
      2354,
      2094,
      1831,
      1829,
      1794,
      1560,
      1286,
      1093,
      914,
      874,
      728,
      516,
      387,
      300,
      165,
      1,
      8039,
      7590,
      7184
    ],
    "swim:geom": "approach",
    "swim:timestamps": [
      1788938093,
      1788938096,
      1788938109,
      1788938146,
      1788938182,
      1788938197,
      1788938220,
      1788938276,
      1788938304,
      1788938331,
      1788938365,
      1788938386,
      1788938423,
      1788938444,
      1788938464,
      1788938493,
      1788938523,
      1788938578,
      1788938599,
      1788938613,
      1788938635,
      1788938662,
      1788938673,
      1788938708,
      1788938741,
      1788938763,
      1788938811,
      1788938825,
      1788938874,
      1788938900,
      1788938920,
      1788938947,
      1788938995,
      1788939013,
      1788939040,
      1788939081,
      1788939110,
      1788939126,
      1788939164,
      1788939208,
      1789023521,
      1789023561,
      1789023591
    ],
    "wof:geomhash": "a0e9d1e3b4ed0120c2eacb22075b6950",
    "wof:id": 2048292811,
    "wof:repo": "sfomuseum-data-flights-2026-09"
  },
  "bbox": [
    -122.72897,
    37.5323,
    -122.08915,
    38.51554
  ],
  "geometry": {"type":"LineString","coordinates":[[-122.63676,38.51554],[-122.6372,38.50961],[-122.63877,38.48479],[-122.64238,38.41439],[-122.64617,38.34955],[-122.64781,38.32163],[-122.6502,38.28109],[-122.65607,38.18301],[-122.65898,38.13386],[-122.66166,38.08803],[-122.66504,38.03081],[-122.66699,37.99698],[-122.6706,37.93625],[-122.66716,37.90307],[-122.64719,37.87564],[-122.60908,37.83975],[-122.57126,37.80397],[-122.50621,37.74236],[-122.48301,37.72197],[-122.46112,37.71283],[-122.42389,37.70373],[-122.38033,37.69371],[-122.36286,37.68972],[-122.30874,37.67663],[-122.25868,37.66403],[-122.22522,37.65525],[-122.15466,37.63037],[-122.13759,37.62298],[-122.08915,37.59352],[-122.09213,37.57064],[-122.09808,37.55242],[-122.11428,37.5323],[-122.16918,37.53467],[-122.18866,37.54269],[-122.21626,37.55428],[-122.25896,37.57225],[-122.28732,37.58415],[-122.30162,37.59019],[-122.33017,37.60221],[-122.36154,37.61589],[-122.69332,38.49259],[-122.71339,38.41906],[-122.72897,38.36371]]}
}
