{
  "id": 2048272121,
  "type": "Feature",
  "properties": {
    "geom:area": 0,
    "geom:bbox": "-122.354390,37.491400,-121.264610,37.612450",
    "geom:latitude": 37.54594039561597,
    "geom:longitude": -121.8142627321797,
    "src:alt_label": "swim-approach",
    "src:geom": "swim",
    "swim:elevations": [
      4484,
      4291,
      3967,
      3660,
      3490,
      3226,
      3165,
      3020,
      2779,
      2590,
      2529,
      2339,
      2180,
      2060,
      1829,
      1705,
      1478,
      1135,
      1041,
      856,
      853,
      751,
      622,
      553,
      518,
      486,
      358,
      174,
      161,
      33
    ],
    "swim:geom": "approach",
    "swim:timestamps": [
      1788819029,
      1788819050,
      1788819083,
      1788819117,
      1788819137,
      1788819170,
      1788819188,
      1788819224,
      1788819258,
      1788819289,
      1788819304,
      1788819346,
      1788819376,
      1788819393,
      1788819448,
      1788819475,
      1788819499,
      1788819537,
      1788819551,
      1788819582,
      1788819611,
      1788819627,
      1788819645,
      1788819660,
      1788819681,
      1788819698,
      1788819731,
      1788819779,
      1788819782,
      1788819815
    ],
    "wof:geomhash": "ced791f00f5a87eeb09141cbbaa91507",
    "wof:id": 2048272121,
    "wof:repo": "sfomuseum-data-flights-2026-09"
  },
  "bbox": [
    -122.35439,
    37.4914,
    -121.26461,
    37.61245
  ],
  "geometry": {"type":"LineString","coordinates":[[-121.26461,37.59265],[-121.30703,37.58749],[-121.37167,37.58043],[-121.43792,37.57273],[-121.47531,37.56843],[-121.53758,37.56117],[-121.5704,37.55723],[-121.6327,37.54893],[-121.68681,37.53599],[-121.73595,37.52426],[-121.75871,37.51889],[-121.82069,37.50401],[-121.86538,37.49334],[-121.89148,37.4914],[-121.97323,37.49351],[-122.0119,37.50221],[-122.04575,37.51346],[-122.09847,37.53073],[-122.11741,37.53678],[-122.1568,37.54955],[-122.18702,37.55931],[-122.2024,37.56435],[-122.21968,37.56988],[-122.23346,37.57432],[-122.25089,37.57987],[-122.2641,37.58403],[-122.28983,37.59149],[-122.32714,37.60274],[-122.32946,37.60347],[-122.35439,37.61245]]}
}
