{
  "id": 2048253249,
  "type": "Feature",
  "properties": {
    "geom:area": 0,
    "geom:bbox": "-122.407330,37.624390,-121.318320,38.096400",
    "geom:latitude": 37.86783135502153,
    "geom:longitude": -121.88423280437529,
    "src:alt_label": "swim-takeoff",
    "src:geom": "swim",
    "swim:elevations": [
      122,
      368,
      904,
      1220,
      1280,
      1727,
      2127,
      2814,
      3166,
      3392,
      3785,
      4115,
      4274,
      4387,
      4487,
      5037,
      5437,
      5555,
      6105,
      6305,
      6448,
      6759,
      6853,
      7097
    ],
    "swim:geom": "takeoff",
    "swim:timestamps": [
      1788505764,
      1788505783,
      1788505822,
      1788505856,
      1788505864,
      1788505904,
      1788505927,
      1788505963,
      1788505990,
      1788506011,
      1788506045,
      1788506079,
      1788506105,
      1788506122,
      1788506139,
      1788506184,
      1788506212,
      1788506224,
      1788506277,
      1788506293,
      1788506306,
      1788506337,
      1788506347,
      1788506373
    ],
    "wof:geomhash": "50a445b3be308c187691f9b5b31a046b",
    "wof:id": 2048253249,
    "wof:repo": "sfomuseum-data-flights-2026-09"
  },
  "bbox": [
    -122.40733,
    37.62439,
    -121.31832,
    38.0964
  ],
  "geometry": {"type":"LineString","coordinates":[[-122.38844,37.62439],[-122.4054,37.6325],[-122.40733,37.66251],[-122.36989,37.67561],[-122.35858,37.67815],[-122.29759,37.69458],[-122.26003,37.70498],[-122.2034,37.72339],[-122.16347,37.74362],[-122.13271,37.75988],[-122.07609,37.78945],[-122.01704,37.82011],[-121.96657,37.84208],[-121.9286,37.85694],[-121.89153,37.87144],[-121.78564,37.91272],[-121.71988,37.93867],[-121.691,37.95031],[-121.56278,38.00055],[-121.52053,38.01714],[-121.48846,38.02977],[-121.41002,38.06054],[-121.38485,38.07038],[-121.31832,38.0964]]}
}
