{
  "id": 2048240153,
  "type": "Feature",
  "properties": {
    "geom:area": 0,
    "geom:bbox": "-122.848700,37.373650,-122.130860,38.502360",
    "geom:latitude": 37.79837194838389,
    "geom:longitude": -122.49028149345503,
    "src:alt_label": "swim-approach",
    "src:geom": "swim",
    "swim:elevations": [
      7250,
      7144,
      6788,
      6618,
      6211,
      6128,
      5733,
      5532,
      5307,
      5023,
      4695,
      4477,
      4208,
      4080,
      3746,
      3577,
      3428,
      3350,
      3353,
      3353,
      3353,
      3353,
      3229,
      3029,
      2893,
      2720,
      2545,
      2352,
      2144,
      1897,
      1806,
      1638,
      1491,
      1432,
      1271,
      1158,
      1083,
      1069,
      944,
      945,
      914,
      761,
      701,
      423,
      277,
      92,
      215
    ],
    "swim:geom": "approach",
    "swim:timestamps": [
      1788440696,
      1788440710,
      1788440750,
      1788440770,
      1788440818,
      1788440830,
      1788440878,
      1788440898,
      1788440921,
      1788440956,
      1788440993,
      1788441020,
      1788441054,
      1788441072,
      1788441118,
      1788441146,
      1788441172,
      1788441208,
      1788441218,
      1788441256,
      1788441279,
      1788441309,
      1788441331,
      1788441380,
      1788441411,
      1788441442,
      1788441472,
      1788441503,
      1788441527,
      1788441567,
      1788441593,
      1788441625,
      1788441654,
      1788441665,
      1788441699,
      1788441746,
      1788441774,
      1788441784,
      1788441816,
      1788441828,
      1788441862,
      1788441892,
      1788441901,
      1788441941,
      1788441963,
      1788442014,
      1788442034
    ],
    "wof:geomhash": "77dc8af190ede048a895280dc9dc2640",
    "wof:id": 2048240153,
    "wof:repo": "sfomuseum-data-flights-2026-09"
  },
  "bbox": [
    -122.8487,
    37.37365,
    -122.13086,
    38.50236
  ],
  "geometry": {"type":"LineString","coordinates":[[-122.8487,38.50236],[-122.8409,38.47576],[-122.81931,38.40247],[-122.809,38.36731],[-122.78357,38.28062],[-122.77731,38.25923],[-122.75297,38.17647],[-122.74291,38.14133],[-122.73161,38.10225],[-122.71438,38.04301],[-122.69666,37.98231],[-122.68431,37.93982],[-122.66138,37.88841],[-122.63646,37.86451],[-122.57486,37.80689],[-122.54073,37.7748],[-122.51151,37.74713],[-122.47399,37.71168],[-122.46466,37.70291],[-122.42825,37.66846],[-122.40682,37.6483],[-122.37943,37.62251],[-122.35912,37.60176],[-122.33162,37.55112],[-122.31451,37.51948],[-122.31129,37.48648],[-122.31138,37.45477],[-122.31184,37.42135],[-122.30877,37.3952],[-122.26108,37.37545],[-122.22454,37.37365],[-122.18086,37.37512],[-122.15569,37.39801],[-122.14934,37.40911],[-122.13086,37.44242],[-122.13531,37.49039],[-122.14943,37.51473],[-122.15637,37.52255],[-122.18438,37.53838],[-122.19516,37.54297],[-122.22492,37.55563],[-122.25113,37.56627],[-122.25875,37.56942],[-122.29166,37.58348],[-122.31003,37.59122],[-122.34825,37.6075],[-122.36211,37.61458]]}
}
