{
  "id": 2048226691,
  "type": "Feature",
  "properties": {
    "geom:area": 0,
    "geom:bbox": "-122.397980,37.630470,-121.388620,38.513150",
    "geom:latitude": 38.130992705766296,
    "geom:longitude": -121.9985634033063,
    "src:alt_label": "swim-takeoff",
    "src:geom": "swim",
    "swim:elevations": [
      414,
      716,
      945,
      1036,
      1130,
      1399,
      1674,
      2158,
      2327,
      2832,
      2996,
      3168,
      3326,
      3594,
      3844,
      4212,
      4442,
      4765,
      4876,
      5228,
      5469,
      5636,
      5911,
      6131,
      6284,
      6399,
      6569,
      6772
    ],
    "swim:geom": "takeoff",
    "swim:timestamps": [
      1788330149,
      1788330179,
      1788330207,
      1788330237,
      1788330266,
      1788330296,
      1788330314,
      1788330356,
      1788330368,
      1788330409,
      1788330424,
      1788330464,
      1788330507,
      1788330533,
      1788330554,
      1788330595,
      1788330619,
      1788330654,
      1788330669,
      1788330713,
      1788330747,
      1788330771,
      1788330808,
      1788330831,
      1788330857,
      1788330877,
      1788330905,
      1788330937
    ],
    "wof:geomhash": "7345b2cb85ea64283ba25baf449a1fc7",
    "wof:id": 2048226691,
    "wof:repo": "sfomuseum-data-flights-2026-09"
  },
  "bbox": [
    -122.39798,
    37.63047,
    -121.38862,
    38.51315
  ],
  "geometry": {"type":"LineString","coordinates":[[-122.39779,37.63047],[-122.39798,37.6535],[-122.38007,37.67374],[-122.35942,37.69669],[-122.33866,37.72485],[-122.3456,37.76185],[-122.35582,37.7832],[-122.3809,37.83312],[-122.38536,37.84866],[-122.38432,37.9034],[-122.38274,37.92366],[-122.33761,37.96956],[-122.26408,38.01374],[-122.21705,38.04204],[-122.17917,38.06512],[-122.10469,38.11084],[-122.05898,38.13873],[-121.99298,38.1788],[-121.96404,38.19628],[-121.87669,38.24898],[-121.80938,38.28954],[-121.75866,38.31854],[-121.67956,38.36038],[-121.62865,38.38719],[-121.57025,38.41798],[-121.52629,38.44103],[-121.46278,38.47436],[-121.38862,38.51315]]}
}
