{
  "id": 2048259129,
  "type": "Feature",
  "properties": {
    "geom:area": 0,
    "geom:bbox": "-122.360770,37.492110,-121.251700,37.614360",
    "geom:latitude": 37.546783238986734,
    "geom:longitude": -121.8110835878994,
    "src:alt_label": "swim-approach",
    "src:geom": "swim",
    "swim:elevations": [
      4914,
      4388,
      4043,
      3600,
      3482,
      3200,
      3157,
      3127,
      2914,
      2775,
      2537,
      2430,
      2371,
      2169,
      1948,
      1828,
      1829,
      1767,
      1441,
      1285,
      1153,
      1073,
      1023,
      954,
      861,
      758,
      657,
      544,
      484,
      352,
      244,
      153,
      57,
      427
    ],
    "swim:geom": "approach",
    "swim:timestamps": [
      1788637533,
      1788637579,
      1788637609,
      1788637648,
      1788637658,
      1788637689,
      1788637699,
      1788637713,
      1788637764,
      1788637785,
      1788637822,
      1788637850,
      1788637860,
      1788637897,
      1788637947,
      1788637976,
      1788637992,
      1788638013,
      1788638067,
      1788638093,
      1788638126,
      1788638153,
      1788638178,
      1788638206,
      1788638244,
      1788638272,
      1788638302,
      1788638336,
      1788638355,
      1788638393,
      1788638426,
      1788638453,
      1788638477,
      1788638500
    ],
    "wof:geomhash": "b1c97479a2df5f42fe6c3987e92d28d1",
    "wof:id": 2048259129,
    "wof:repo": "sfomuseum-data-flights-2026-09"
  },
  "bbox": [
    -122.36077,
    37.49211,
    -121.2517,
    37.61436
  ],
  "geometry": {"type":"LineString","coordinates":[[-121.2517,37.59453],[-121.34322,37.58365],[-121.40208,37.57656],[-121.4795,37.56762],[-121.49773,37.56555],[-121.55431,37.55927],[-121.57251,37.55718],[-121.59764,37.55423],[-121.67853,37.5377],[-121.71024,37.53039],[-121.76666,37.51676],[-121.80544,37.50754],[-121.8185,37.50441],[-121.86471,37.49355],[-121.92408,37.49211],[-121.95873,37.49304],[-121.97505,37.4937],[-121.99609,37.49741],[-122.048,37.51413],[-122.0728,37.52223],[-122.10144,37.53152],[-122.12551,37.53926],[-122.14439,37.54541],[-122.16478,37.55203],[-122.19176,37.56077],[-122.21147,37.56715],[-122.23246,37.5739],[-122.25537,37.58125],[-122.26753,37.58481],[-122.29193,37.59196],[-122.31365,37.59846],[-122.33139,37.60395],[-122.34661,37.60906],[-122.36077,37.61436]]}
}
