{
  "id": 2048382667,
  "type": "Feature",
  "properties": {
    "geom:area": 0,
    "geom:bbox": "-122.398630,37.629670,-121.246850,37.965010",
    "geom:latitude": 37.833356270581326,
    "geom:longitude": -121.84439660741492,
    "src:alt_label": "swim-takeoff",
    "src:geom": "swim",
    "swim:elevations": [
      213,
      678,
      897,
      1200,
      1375,
      1798,
      1902,
      2281,
      2839,
      3148,
      3267,
      3762,
      4088,
      4174,
      4602,
      4847,
      5019,
      5225,
      5622,
      5781,
      6031,
      6283
    ],
    "swim:geom": "takeoff",
    "swim:timestamps": [
      1789817470,
      1789817513,
      1789817532,
      1789817576,
      1789817597,
      1789817633,
      1789817643,
      1789817674,
      1789817710,
      1789817747,
      1789817767,
      1789817822,
      1789817873,
      1789817886,
      1789817937,
      1789817964,
      1789817984,
      1789818005,
      1789818055,
      1789818077,
      1789818111,
      1789818143
    ],
    "wof:geomhash": "512c05715339dce58845ebdc03a2816d",
    "wof:id": 2048382667,
    "wof:repo": "sfomuseum-data-flights-2026-09"
  },
  "bbox": [
    -122.39863,
    37.62967,
    -121.24685,
    37.96501
  ],
  "geometry": {"type":"LineString","coordinates":[[-122.39572,37.62967],[-122.39863,37.66013],[-122.37893,37.66618],[-122.33069,37.68168],[-122.30195,37.691],[-122.25092,37.70692],[-122.23722,37.71124],[-122.19291,37.72915],[-122.14205,37.7555],[-122.09081,37.78132],[-122.05926,37.79748],[-121.9621,37.83504],[-121.85957,37.85323],[-121.82982,37.85857],[-121.71857,37.87902],[-121.65871,37.89012],[-121.61302,37.8985],[-121.56755,37.9069],[-121.45226,37.92799],[-121.40171,37.9372],[-121.32315,37.95134],[-121.24685,37.96501]]}
}
