{
  "id": 2048376737,
  "type": "Feature",
  "properties": {
    "geom:area": 0,
    "geom:bbox": "-122.823500,37.414400,-122.112020,38.415640",
    "geom:latitude": 37.78807390221284,
    "geom:longitude": -122.48086085013048,
    "src:alt_label": "swim-approach",
    "src:geom": "swim",
    "swim:elevations": [
      7529,
      7077,
      7035,
      6720,
      6469,
      6380,
      6037,
      5649,
      5423,
      5073,
      4805,
      4534,
      4392,
      4292,
      4015,
      3931,
      3778,
      3676,
      3498,
      3384,
      3319,
      3291,
      2986,
      2801,
      2527,
      2312,
      2056,
      2011,
      1767,
      1626,
      1525,
      1416,
      1320,
      1066,
      915,
      914,
      824,
      722,
      634,
      554,
      422,
      315,
      155,
      29,
      42
    ],
    "swim:geom": "approach",
    "swim:timestamps": [
      1789809584,
      1789809628,
      1789809632,
      1789809662,
      1789809685,
      1789809694,
      1789809726,
      1789809764,
      1789809792,
      1789809834,
      1789809867,
      1789809896,
      1789809908,
      1789809931,
      1789809987,
      1789810010,
      1789810043,
      1789810065,
      1789810095,
      1789810116,
      1789810164,
      1789810171,
      1789810221,
      1789810248,
      1789810279,
      1789810312,
      1789810349,
      1789810355,
      1789810389,
      1789810416,
      1789810440,
      1789810479,
      1789810505,
      1789810550,
      1789810573,
      1789810605,
      1789810627,
      1789810652,
      1789810670,
      1789810689,
      1789810723,
      1789810749,
      1789810791,
      1789810827,
      1789810835
    ],
    "wof:geomhash": "1f08651ea07ae6d4e210886dd8335196",
    "wof:id": 2048376737,
    "wof:repo": "sfomuseum-data-flights-2026-09"
  },
  "bbox": [
    -122.8235,
    37.4144,
    -122.11202,
    38.41564
  ],
  "geometry": {"type":"LineString","coordinates":[[-122.8235,38.41564],[-122.80042,38.33719],[-122.79813,38.32938],[-122.78258,38.27645],[-122.77087,38.23642],[-122.7662,38.22027],[-122.75033,38.16489],[-122.7315,38.10021],[-122.71792,38.05401],[-122.69805,37.98552],[-122.68358,37.93538],[-122.66452,37.89458],[-122.65197,37.87978],[-122.62504,37.85415],[-122.56301,37.79507],[-122.53909,37.77263],[-122.5063,37.74192],[-122.48415,37.72122],[-122.4559,37.69468],[-122.43526,37.67499],[-122.3894,37.63185],[-122.38269,37.62555],[-122.34465,37.57552],[-122.33112,37.54654],[-122.31104,37.51447],[-122.29008,37.4796],[-122.26665,37.44126],[-122.26287,37.43509],[-122.22649,37.4144],[-122.19291,37.42338],[-122.16501,37.43332],[-122.12441,37.45551],[-122.11202,37.47906],[-122.13307,37.5116],[-122.14985,37.5233],[-122.17645,37.53537],[-122.19556,37.54325],[-122.21723,37.55243],[-122.23356,37.55927],[-122.24941,37.56592],[-122.2774,37.57778],[-122.29758,37.58623],[-122.32902,37.59938],[-122.35548,37.6105],[-122.36096,37.61311]]}
}
