{
  "id": 2048475745,
  "type": "Feature",
  "properties": {
    "geom:area": 0,
    "geom:bbox": "-122.348333,37.466667,-77.433333,39.786111",
    "geom:latitude": 38.93896967004663,
    "geom:longitude": -99.94519775401389,
    "src:alt_label": "swim-path",
    "src:geom": "swim",
    "swim:altitudes": [
      "012",
      "029",
      "043",
      "052",
      "061",
      "070",
      "070",
      "070",
      "075",
      "098",
      "108",
      "121",
      "137",
      "153",
      "167",
      "191",
      "202",
      "213",
      "225",
      "236",
      "237",
      "245",
      "246",
      "254",
      "253",
      "262",
      "262",
      "268",
      "268",
      "279",
      "279",
      "289",
      "292",
      "300",
      "302",
      "308",
      "309",
      "315",
      "317",
      "325",
      "327",
      "332",
      "333",
      "339C",
      "340C",
      "340C",
      "340C",
      "340C",
      "340C",
      "340C",
      "340C",
      "340C",
      "340C",
      "340C",
      "340C",
      "340C",
      "340C",
      "340C",
      "340C",
      "340C",
      "340C",
      "340C",
      "340C",
      "340C",
      "340C",
      "340C",
      "340C",
      "340C",
      "340C",
      "340C",
      "340C",
      "340C",
      "340C",
      "340C",
      "340C",
      "340C",
      "340C",
      "340C",
      "340C",
      "340C",
      "340C",
      "340C",
      "340C",
      "340C",
      "340C",
      "340",
      "338",
      "330",
      "328",
      "319",
      "311",
      "300C",
      "300C",
      "300C",
      "300C",
      "300C",
      "300C",
      "300C",
      "300C",
      "300C",
      "300C",
      "300C",
      "300C",
      "300C",
      "300C",
      "300C",
      "300C",
      "300C",
      "300C",
      "300C",
      "300C",
      "300C",
      "300C",
      "300C",
      "300C",
      "300C",
      "300C",
      "300C",
      "300C",
      "300C",
      "300C",
      "300C",
      "300C",
      "300C",
      "300C",
      "300C",
      "300C",
      "300C",
      "300C",
      "300C",
      "300C",
      "300C",
      "300C",
      "300C",
      "300C",
      "300C",
      "300C",
      "300C",
      "300C",
      "300C",
      "300C",
      "300C",
      "300C",
      "300C",
      "300C",
      "300C",
      "300C",
      "300C",
      "300C",
      "300C",
      "300C",
      "300C",
      "300C",
      "300C",
      "300C",
      "300C",
      "300C",
      "300C",
      "300C",
      "300C",
      "300C",
      "300C",
      "300C",
      "300C",
      "300C",
      "300C",
      "300C",
      "300C",
      "300C",
      "300C",
      "300C",
      "300C",
      "300C",
      "300C",
      "300C",
      "300C",
      "300C",
      "300C",
      "300C",
      "300C",
      "300C",
      "300C",
      "300C",
      "300C",
      "300C",
      "300C",
      "300C",
      "300C",
      "300C",
      "300C",
      "300C",
      "300C",
      "300C",
      "300C",
      "300C",
      "300C",
      "300C",
      "300C",
      "300C",
      "300C",
      "300C",
      "300C",
      "300C",
      "300C",
      "300C",
      "300C",
      "300C",
      "300C",
      "300C",
      "300C",
      "300C",
      "300C",
      "300C",
      "300C",
      "300C",
      "300C",
      "300C",
      "300C",
      "300C",
      "300C",
      "300C",
      "300C",
      "300C",
      "300C",
      "300C",
      "300C",
      "300C",
      "300C",
      "300C",
      "300C",
      "300C",
      "300C",
      "300C",
      "300C",
      "300C",
      "300C",
      "300C",
      "300C",
      "300C",
      "300C",
      "300C",
      "300C",
      "300C",
      "300C",
      "300C",
      "300C",
      "300C",
      "300C",
      "300C",
      "300C",
      "300C",
      "300C",
      "300C",
      "300C",
      "300C",
      "300C",
      "300C",
      "300C",
      "300C",
      "300",
      "300C",
      "300C",
      "300C",
      "300C",
      "300C",
      "300C",
      "300C",
      "300C",
      "300C",
      "300C",
      "300C",
      "300C",
      "300C",
      "300C",
      "300C",
      "300C",
      "300C",
      "300C",
      "300C",
      "300C",
      "300C",
      "300C",
      "300C",
      "300C",
      "300C",
      "300C",
      "300C",
      "300C",
      "300C",
      "300C",
      "300C",
      "300C",
      "300C",
      "300C",
      "300C",
      "300C",
      "300C",
      "300C",
      "300C",
      "300C",
      "300C",
      "300C",
      "300C",
      "300C",
      "300C",
      "300C",
      "300C",
      "300C",
      "300C",
      "300C",
      "300C",
      "300C",
      "300C",
      "300C",
      "300C",
      "300C",
      "300C",
      "300C",
      "300C",
      "300C",
      "300C",
      "300C",
      "300C",
      "300C",
      "300C",
      "300C",
      "300C",
      "300C",
      "300C",
      "300C",
      "300C",
      "300C",
      "300C",
      "300C",
      "300C",
      "300C",
      "300C",
      "300C",
      "300C",
      "300C",
      "300C",
      "300C",
      "300C",
      "300C",
      "300C",
      "300",
      "300",
      "300",
      "300",
      "298",
      "258",
      "235",
      "232",
      "218",
      "211",
      "198",
      "191",
      "177",
      "172",
      "162",
      "154",
      "145",
      "140",
      "131",
      "125",
      "118",
      "111",
      "110",
      "110",
      "107",
      "101",
      "097",
      "091",
      "084",
      "079C",
      "072",
      "068",
      "065",
      "063",
      "059",
      "053",
      "046",
      "041",
      "035",
      "031",
      "025",
      "021",
      "016",
      "011",
      "007",
      "003"
    ],
    "swim:geom": "path",
    "swim:speeds": [
      183,
      232,
      229,
      253,
      265,
      276,
      273,
      273,
      273,
      282,
      332,
      368,
      380,
      386,
      397,
      408,
      419,
      430,
      435,
      438,
      438,
      442,
      443,
      450,
      450,
      455,
      455,
      461,
      460,
      463,
      462,
      462,
      461,
      456,
      455,
      453,
      453,
      453,
      454,
      453,
      453,
      452,
      451,
      452,
      451,
      450,
      448,
      446,
      445,
      445,
      445,
      446,
      448,
      450,
      452,
      453,
      454,
      454,
      455,
      455,
      454,
      454,
      454,
      455,
      456,
      456,
      455,
      455,
      453,
      450,
      451,
      450,
      450,
      448,
      450,
      449,
      449,
      450,
      448,
      448,
      446,
      444,
      442,
      443,
      440,
      442,
      439,
      440,
      439,
      441,
      441,
      448,
      451,
      452,
      451,
      451,
      451,
      450,
      449,
      449,
      447,
      447,
      446,
      446,
      446,
      447,
      448,
      448,
      449,
      449,
      451,
      452,
      453,
      453,
      454,
      454,
      454,
      454,
      455,
      456,
      457,
      457,
      458,
      458,
      458,
      459,
      460,
      460,
      460,
      460,
      460,
      460,
      459,
      458,
      457,
      456,
      455,
      455,
      454,
      453,
      452,
      450,
      448,
      447,
      449,
      450,
      451,
      452,
      453,
      454,
      456,
      456,
      456,
      457,
      458,
      459,
      460,
      461,
      461,
      462,
      461,
      462,
      462,
      463,
      464,
      459,
      458,
      457,
      457,
      457,
      461,
      463,
      463,
      464,
      463,
      455,
      452,
      451,
      449,
      448,
      449,
      450,
      450,
      451,
      461,
      469,
      471,
      472,
      474,
      475,
      482,
      486,
      492,
      494,
      495,
      497,
      499,
      496,
      501,
      498,
      487,
      498,
      485,
      494,
      485,
      487,
      480,
      484,
      477,
      481,
      476,
      478,
      475,
      476,
      474,
      475,
      483,
      477,
      490,
      485,
      491,
      492,
      492,
      492,
      493,
      492,
      493,
      493,
      493,
      493,
      493,
      493,
      493,
      493,
      493,
      493,
      493,
      493,
      493,
      493,
      493,
      492,
      493,
      491,
      491,
      489,
      490,
      489,
      489,
      489,
      489,
      489,
      490,
      490,
      490,
      491,
      491,
      491,
      491,
      491,
      491,
      490,
      490,
      489,
      488,
      485,
      483,
      482,
      480,
      480,
      479,
      479,
      477,
      476,
      475,
      474,
      473,
      472,
      471,
      470,
      470,
      470,
      471,
      473,
      475,
      481,
      485,
      487,
      487,
      485,
      483,
      482,
      481,
      480,
      479,
      477,
      475,
      474,
      473,
      472,
      471,
      470,
      468,
      465,
      468,
      465,
      467,
      465,
      466,
      465,
      466,
      466,
      466,
      465,
      465,
      465,
      464,
      464,
      464,
      465,
      465,
      466,
      466,
      467,
      467,
      467,
      467,
      467,
      467,
      467,
      467,
      467,
      467,
      467,
      466,
      466,
      465,
      465,
      465,
      465,
      464,
      463,
      462,
      462,
      461,
      461,
      461,
      461,
      462,
      463,
      433,
      423,
      428,
      402,
      403,
      392,
      393,
      382,
      382,
      363,
      348,
      326,
      320,
      313,
      315,
      307,
      308,
      291,
      268,
      252,
      255,
      249,
      250,
      260,
      256,
      246,
      247,
      235,
      217,
      203,
      200,
      186,
      189,
      192,
      191,
      192,
      191,
      185,
      175,
      156,
      156
    ],
    "swim:timestamps": [
      1790787223,
      1790787283,
      1790787314,
      1790787343,
      1790787374,
      1790787403,
      1790787435,
      1790787463,
      1790787495,
      1790787555,
      1790787615,
      1790787675,
      1790787735,
      1790787795,
      1790787855,
      1790787973,
      1790788034,
      1790788096,
      1790788166,
      1790788216,
      1790788226,
      1790788276,
      1790788286,
      1790788336,
      1790788346,
      1790788396,
      1790788406,
      1790788456,
      1790788466,
      1790788517,
      1790788526,
      1790788577,
      1790788586,
      1790788637,
      1790788647,
      1790788697,
      1790788707,
      1790788757,
      1790788767,
      1790788817,
      1790788827,
      1790788877,
      1790788887,
      1790788937,
      1790788947,
      1790788997,
      1790789007,
      1790789067,
      1790789118,
      1790789127,
      1790789187,
      1790789247,
      1790789308,
      1790789368,
      1790789428,
      1790789488,
      1790789548,
      1790789608,
      1790789668,
      1790789728,
      1790789788,
      1790789848,
      1790789908,
      1790789969,
      1790790029,
      1790790089,
      1790790142,
      1790790149,
      1790790209,
      1790790262,
      1790790269,
      1790790322,
      1790790329,
      1790790389,
      1790790443,
      1790790503,
      1790790509,
      1790790563,
      1790790569,
      1790790630,
      1790790690,
      1790790750,
      1790790810,
      1790790863,
      1790790870,
      1790790923,
      1790790930,
      1790790983,
      1790790990,
      1790791050,
      1790791104,
      1790791170,
      1790791230,
      1790791290,
      1790791344,
      1790791351,
      1790791404,
      1790791471,
      1790791524,
      1790791531,
      1790791645,
      1790791651,
      1790791711,
      1790791765,
      1790791771,
      1790791825,
      1790791885,
      1790791891,
      1790791951,
      1790792012,
      1790792065,
      1790792125,
      1790792185,
      1790792245,
      1790792306,
      1790792366,
      1790792426,
      1790792486,
      1790792546,
      1790792606,
      1790792666,
      1790792726,
      1790792786,
      1790792846,
      1790792906,
      1790792967,
      1790793027,
      1790793087,
      1790793147,
      1790793207,
      1790793267,
      1790793327,
      1790793387,
      1790793447,
      1790793507,
      1790793567,
      1790793628,
      1790793688,
      1790793748,
      1790793808,
      1790793868,
      1790793928,
      1790793988,
      1790794048,
      1790794105,
      1790794165,
      1790794225,
      1790794286,
      1790794346,
      1790794406,
      1790794466,
      1790794526,
      1790794586,
      1790794646,
      1790794706,
      1790794766,
      1790794826,
      1790794886,
      1790794947,
      1790795002,
      1790795062,
      1790795122,
      1790795182,
      1790795242,
      1790795303,
      1790795363,
      1790795423,
      1790795483,
      1790795543,
      1790795608,
      1790795663,
      1790795723,
      1790795783,
      1790795843,
      1790795903,
      1790795963,
      1790796024,
      1790796084,
      1790796144,
      1790796204,
      1790796264,
      1790796324,
      1790796384,
      1790796444,
      1790796504,
      1790796564,
      1790796624,
      1790796684,
      1790796745,
      1790796805,
      1790796865,
      1790796925,
      1790796985,
      1790797045,
      1790797105,
      1790797165,
      1790797225,
      1790797254,
      1790797285,
      1790797314,
      1790797345,
      1790797374,
      1790797405,
      1790797434,
      1790797466,
      1790797494,
      1790797526,
      1790797554,
      1790797586,
      1790797614,
      1790797646,
      1790797675,
      1790797706,
      1790797735,
      1790797766,
      1790797795,
      1790797826,
      1790797855,
      1790797886,
      1790797915,
      1790797946,
      1790797975,
      1790798006,
      1790798066,
      1790798095,
      1790798126,
      1790798155,
      1790798187,
      1790798215,
      1790798247,
      1790798275,
      1790798307,
      1790798335,
      1790798367,
      1790798396,
      1790798427,
      1790798456,
      1790798487,
      1790798516,
      1790798547,
      1790798576,
      1790798607,
      1790798636,
      1790798667,
      1790798696,
      1790798727,
      1790798756,
      1790798787,
      1790798816,
      1790798847,
      1790798876,
      1790798908,
      1790798936,
      1790798968,
      1790798996,
      1790799028,
      1790799056,
      1790799088,
      1790799116,
      1790799148,
      1790799177,
      1790799208,
      1790799237,
      1790799268,
      1790799297,
      1790799328,
      1790799357,
      1790799388,
      1790799417,
      1790799448,
      1790799477,
      1790799508,
      1790799537,
      1790799568,
      1790799597,
      1790799629,
      1790799657,
      1790799717,
      1790799777,
      1790799837,
      1790799898,
      1790799958,
      1790800018,
      1790800078,
      1790800138,
      1790800198,
      1790800258,
      1790800318,
      1790800378,
      1790800438,
      1790800498,
      1790800558,
      1790800618,
      1790800679,
      1790800739,
      1790800799,
      1790800859,
      1790800919,
      1790800979,
      1790801039,
      1790801099,
      1790801159,
      1790801219,
      1790801258,
      1790801279,
      1790801318,
      1790801339,
      1790801378,
      1790801400,
      1790801438,
      1790801460,
      1790801498,
      1790801520,
      1790801558,
      1790801580,
      1790801619,
      1790801640,
      1790801679,
      1790801700,
      1790801739,
      1790801760,
      1790801799,
      1790801820,
      1790801859,
      1790801880,
      1790801931,
      1790801940,
      1790801991,
      1790802000,
      1790802060,
      1790802111,
      1790802121,
      1790802171,
      1790802181,
      1790802241,
      1790802301,
      1790802361,
      1790802421,
      1790802481,
      1790802544,
      1790802604,
      1790802664,
      1790802724,
      1790802784,
      1790802844,
      1790802904,
      1790802964,
      1790803025,
      1790803085,
      1790803145,
      1790803265,
      1790803307,
      1790803325,
      1790803367,
      1790803397,
      1790803427,
      1790803457,
      1790803487,
      1790803517,
      1790803541,
      1790803577,
      1790803606,
      1790803637,
      1790803667,
      1790803698,
      1790803722,
      1790803758,
      1790803781,
      1790803818,
      1790803846,
      1790803878,
      1790803906,
      1790803938,
      1790803967,
      1790803998,
      1790804027,
      1790804058,
      1790804086,
      1790804118,
      1790804146,
      1790804178,
      1790804207,
      1790804238,
      1790804267,
      1790804298,
      1790804327,
      1790804359,
      1790804387,
      1790804419,
      1790804442,
      1790804479
    ],
    "wof:geomhash": "88f387240f0a6d8bfa02e134fcf53210",
    "wof:id": 2048475745,
    "wof:repo": "sfomuseum-data-flights-2026-09"
  },
  "bbox": [
    -122.34833333333333,
    37.46666666666667,
    -77.43333333333334,
    39.78611111111111
  ],
  "geometry": {"type":"LineString","coordinates":[[-77.43333333333334,38.916666666666664],[-77.46666666666667,38.85],[-77.47777777777777,38.824444444444445],[-77.5,38.8],[-77.54666666666667,38.79277777777778],[-77.6,38.78333333333333],[-77.64777777777779,38.77222222222222],[-77.7,38.766666666666666],[-77.74388888888889,38.76888888888889],[-77.83972222222222,38.77611111111111],[-77.94861111111112,38.79111111111111],[-78.0736111111111,38.82222222222222],[-78.20305555555557,38.85166666666667],[-78.34055555555555,38.85333333333333],[-78.48333333333333,38.85138888888889],[-78.75527777777778,38.847500000000004],[-78.90611111111112,38.84527777777778],[-79.08027777777778,38.8425],[-79.2461111111111,38.839444444444446],[-79.39,38.836666666666666],[-79.40055555555556,38.83638888888889],[-79.54972222222221,38.833333333333336],[-79.56027777777777,38.83305555555556],[-79.71944444444445,38.82972222222222],[-79.71666666666667,38.82972222222222],[-79.88083333333333,38.825833333333335],[-79.87916666666666,38.825833333333335],[-80.04277777777777,38.82166666666667],[-80.04277777777777,38.82194444444445],[-80.20805555555556,38.81722222222223],[-80.20833333333334,38.8175],[-80.36694444444444,38.81305555555555],[-80.405,38.81194444444444],[-80.52833333333334,38.808055555555555],[-80.55777777777777,38.80722222222222],[-80.6863888888889,38.80333333333333],[-80.72,38.80222222222222],[-80.85138888888888,38.79805555555556],[-80.88111111111111,38.79722222222222],[-81.0111111111111,38.79277777777778],[-81.04138888888889,38.79194444444444],[-81.17,38.78722222222222],[-81.20194444444445,38.78611111111111],[-81.33027777777778,38.78194444444444],[-81.3625,38.78055555555555],[-81.49027777777778,38.775555555555556],[-81.52111111111111,38.774166666666666],[-81.66666666666667,38.76888888888889],[-81.80527777777777,38.763333333333335],[-81.82194444444444,38.7625],[-81.98027777777779,38.75611111111111],[-82.1375,38.749722222222225],[-82.3,38.743611111111115],[-82.45916666666668,38.737500000000004],[-82.62166666666666,38.73083333333334],[-82.78027777777778,38.72416666666667],[-82.94388888888889,38.71666666666667],[-83.10583333333332,38.70944444444445],[-83.27277777777778,38.70166666666667],[-83.43333333333334,38.69416666666666],[-83.5961111111111,38.68611111111111],[-83.7575,38.67777777777778],[-83.91805555555555,38.669444444444444],[-84.08166666666666,38.66083333333333],[-84.24277777777777,38.651666666666664],[-84.4075,38.64277777777778],[-84.53388888888888,38.64138888888889],[-84.56472222222222,38.65277777777778],[-84.72583333333334,38.665277777777774],[-84.85277777777777,38.67305555555555],[-84.885,38.67722222222222],[-84.98,38.68277777777777],[-85.04277777777777,38.68888888888888],[-85.2,38.70027777777778],[-85.3275,38.70666666666667],[-85.4875,38.712500000000006],[-85.51944444444445,38.71638888888889],[-85.64722222222223,38.721111111111114],[-85.67833333333334,38.724444444444444],[-85.83694444444444,38.73222222222223],[-85.99555555555555,38.73972222222222],[-86.1525,38.74666666666667],[-86.30916666666667,38.75361111111111],[-86.43277777777779,38.76],[-86.46666666666667,38.760555555555555],[-86.55611111111111,38.76555555555556],[-86.62027777777777,38.766666666666666],[-86.74166666666667,38.7725],[-86.77777777777777,38.77333333333333],[-86.93305555555555,38.77916666666667],[-87.05138888888888,38.78361111111111],[-87.24666666666667,38.79083333333333],[-87.405,38.796388888888885],[-87.56638888888888,38.80166666666666],[-87.69305555555556,38.80583333333333],[-87.72583333333334,38.80694444444444],[-87.85472222222222,38.81083333333333],[-88.0436111111111,38.81638888888889],[-88.1413888888889,38.81888888888889],[-88.20444444444445,38.82083333333334],[-88.49055555555556,38.82833333333333],[-88.52166666666666,38.82916666666667],[-88.67944444444444,38.83277777777778],[-88.80972222222222,38.83555555555556],[-88.83833333333332,38.83638888888889],[-88.9675,38.83916666666667],[-89.12722222222222,38.842222222222226],[-89.15861111111111,38.84305555555556],[-89.32,38.846111111111114],[-89.4775,38.84861111111111],[-89.60944444444443,38.85055555555556],[-89.73861111111111,38.8525],[-89.93111111111112,38.85527777777778],[-90.1111111111111,38.85722222222223],[-90.27333333333333,38.85888888888889],[-90.43833333333333,38.86027777777778],[-90.56583333333333,38.870555555555555],[-90.75611111111111,38.89277777777778],[-90.91694444444445,38.91138888888889],[-91.07694444444444,38.92916666666667],[-91.23805555555556,38.947222222222216],[-91.40083333333334,38.965833333333336],[-91.56138888888889,38.98361111111111],[-91.7238888888889,39.00138888888889],[-91.88416666666667,39.01833333333333],[-92.04833333333333,39.035555555555554],[-92.21083333333334,39.052499999999995],[-92.36472222222221,39.068333333333335],[-92.52833333333334,39.084722222222226],[-92.69194444444445,39.10111111111111],[-92.86944444444444,39.118611111111115],[-93.03138888888888,39.134166666666665],[-93.16388888888889,39.14694444444444],[-93.325,39.16222222222222],[-93.49888888888889,39.17833333333333],[-93.6613888888889,39.19305555555555],[-93.82305555555556,39.2075],[-93.98305555555555,39.22138888888889],[-94.14472222222223,39.23555555555556],[-94.30499999999999,39.24944444444444],[-94.465,39.26277777777778],[-94.62277777777777,39.27583333333333],[-94.78361111111111,39.28722222222222],[-94.94305555555556,39.29416666666666],[-95.10222222222221,39.301111111111105],[-95.28861111111111,39.30833333333333],[-95.44388888888889,39.31472222222222],[-95.60749999999999,39.32083333333334],[-95.76777777777778,39.32666666666667],[-95.93138888888889,39.3325],[-96.09472222222222,39.338055555555556],[-96.24416666666667,39.34277777777778],[-96.40694444444445,39.34805555555556],[-96.58472222222221,39.35305555555556],[-96.74944444444445,39.35777777777778],[-96.91555555555556,39.36222222222222],[-97.08138888888888,39.36638888888889],[-97.2461111111111,39.37027777777778],[-97.41111111111111,39.37388888888889],[-97.56472222222222,39.37722222222222],[-97.72500000000001,39.38027777777778],[-97.89027777777778,39.38333333333333],[-98.05527777777777,39.38611111111111],[-98.22166666666666,39.38861111111111],[-98.38777777777779,39.39083333333333],[-98.5525,39.393055555555556],[-98.71000000000001,39.394999999999996],[-98.87138888888889,39.396388888888886],[-99.04277777777777,39.397777777777776],[-99.2025,39.39888888888889],[-99.37555555555555,39.4],[-99.54138888888889,39.40083333333333],[-99.70916666666668,39.401111111111106],[-99.87444444444444,39.40138888888889],[-100.04305555555555,39.401111111111106],[-100.20666666666666,39.40083333333333],[-100.36805555555554,39.400277777777774],[-100.5286111111111,39.39972222222222],[-100.68861111111111,39.39861111111111],[-100.85083333333333,39.3975],[-101.01166666666667,39.39611111111111],[-101.17222222222223,39.39472222222222],[-101.33527777777778,39.39277777777778],[-101.49777777777778,39.39083333333333],[-101.66583333333334,39.38805555555555],[-101.83305555555555,39.40222222222222],[-102.00138888888888,39.41972222222222],[-102.16972222222223,39.43666666666666],[-102.33916666666666,39.45305555555556],[-102.50083333333333,39.469166666666666],[-102.67611111111111,39.48583333333333],[-102.8475,39.50222222222222],[-103.02583333333334,39.51888888888889],[-103.20277777777778,39.535],[-103.37888888888888,39.55083333333333],[-103.5586111111111,39.56666666666667],[-103.73611111111111,39.581944444444446],[-103.82194444444444,39.587500000000006],[-103.91472222222222,39.597500000000004],[-104.00166666666667,39.60305555555556],[-104.0886111111111,39.611666666666665],[-104.17416666666666,39.617777777777775],[-104.2625,39.626111111111115],[-104.34555555555555,39.63194444444444],[-104.4363888888889,39.640277777777776],[-104.51638888888888,39.64555555555555],[-104.60249999999999,39.653055555555554],[-104.68611111111112,39.65972222222222],[-104.79916666666666,39.66861111111111],[-104.86361111111111,39.67333333333333],[-104.96611111111112,39.68138888888889],[-105.03277777777778,39.68583333333333],[-105.13416666666667,39.693888888888885],[-105.20222222222222,39.698055555555555],[-105.30472222222222,39.70611111111111],[-105.37138888888889,39.71027777777778],[-105.4786111111111,39.718611111111116],[-105.54527777777777,39.72277777777778],[-105.6538888888889,39.73111111111111],[-105.72166666666666,39.73583333333333],[-105.83111111111111,39.74305555555556],[-105.90111111111112,39.74888888888889],[-106.00638888888889,39.75472222222222],[-106.1825,39.76638888888889],[-106.25361111111111,39.77194444444444],[-106.36138888888888,39.77777777777778],[-106.43,39.781666666666666],[-106.53777777777778,39.785555555555554],[-106.60777777777777,39.78611111111111],[-106.68722222222223,39.771388888888886],[-106.78388888888888,39.76583333333333],[-106.89611111111111,39.74861111111111],[-106.96000000000001,39.74138888888889],[-107.07055555555556,39.72944444444445],[-107.13472222222222,39.72138888888889],[-107.24111111111111,39.71],[-107.31166666666667,39.700833333333335],[-107.41722222222222,39.689722222222215],[-107.4863888888889,39.68138888888889],[-107.56861111111111,39.67222222222222],[-107.66083333333334,39.66111111111111],[-107.74527777777777,39.65138888888889],[-107.83611111111111,39.64],[-107.91888888888889,39.630833333333335],[-108.01083333333334,39.61972222222222],[-108.09444444444443,39.60944444444445],[-108.1825,39.59861111111111],[-108.27166666666666,39.58777777777778],[-108.35722222222222,39.577222222222225],[-108.44527777777778,39.566111111111105],[-108.53138888888888,39.55555555555555],[-108.6375,39.54194444444444],[-108.70944444444444,39.532777777777774],[-108.81861111111111,39.51888888888889],[-108.88972222222223,39.51],[-108.9588888888889,39.50083333333333],[-109.065,39.48722222222222],[-109.13611111111112,39.47805555555556],[-109.24138888888889,39.46388888888889],[-109.3086111111111,39.455000000000005],[-109.41444444444446,39.44083333333333],[-109.48333333333333,39.431666666666665],[-109.58611111111111,39.41777777777777],[-109.65527777777778,39.40861111111111],[-109.75861111111111,39.394444444444446],[-109.82527777777777,39.38527777777778],[-109.92972222222222,39.37111111111111],[-109.99361111111111,39.36222222222222],[-110.09638888888888,39.34861111111111],[-110.16250000000001,39.33972222222222],[-110.26472222222222,39.325833333333335],[-110.33138888888888,39.31666666666667],[-110.43444444444445,39.30277777777778],[-110.49861111111112,39.29388888888889],[-110.59777777777778,39.280277777777776],[-110.66388888888889,39.27111111111111],[-110.76472222222222,39.25694444444444],[-110.92916666666667,39.23361111111111],[-111.09694444444445,39.209722222222226],[-111.26,39.186388888888885],[-111.43361111111112,39.16138888888889],[-111.59888888888888,39.136944444444445],[-111.765,39.11222222222222],[-111.92888888888889,39.08777777777778],[-112.09833333333333,39.06222222222222],[-112.26638888888888,39.03666666666666],[-112.435,39.01027777777778],[-112.60666666666665,38.983333333333334],[-112.77583333333334,38.956944444444446],[-112.94472222222223,38.93],[-113.1111111111111,38.903055555555554],[-113.28,38.87555555555556],[-113.44472222222223,38.84861111111111],[-113.61,38.821111111111115],[-113.77638888888889,38.79333333333333],[-113.93972222222223,38.76583333333333],[-114.10444444444444,38.73777777777778],[-114.26638888888888,38.71],[-114.43027777777779,38.681666666666665],[-114.59444444444443,38.653055555555554],[-114.75555555555556,38.62638888888889],[-114.91805555555555,38.6],[-115.08111111111111,38.573055555555555],[-115.17944444444444,38.55611111111111],[-115.24222222222222,38.545833333333334],[-115.33111111111111,38.53055555555555],[-115.39500000000001,38.519999999999996],[-115.49305555555556,38.50361111111111],[-115.55555555555556,38.49277777777778],[-115.65416666666667,38.47638888888889],[-115.71555555555555,38.46527777777778],[-115.81527777777778,38.448611111111106],[-115.87722222222222,38.43722222222222],[-115.97583333333334,38.419999999999995],[-116.0375,38.409166666666664],[-116.13583333333334,38.39194444444444],[-116.19888888888889,38.380833333333335],[-116.2961111111111,38.36361111111111],[-116.35777777777777,38.35277777777778],[-116.4563888888889,38.335],[-116.51833333333333,38.323888888888895],[-116.61611111111111,38.30611111111111],[-116.68083333333334,38.294444444444444],[-116.77972222222222,38.27638888888889],[-116.84194444444444,38.265],[-116.96972222222223,38.24166666666667],[-117.00194444444445,38.23555555555556],[-117.16277777777778,38.20583333333334],[-117.1575,38.206944444444446],[-117.34222222222222,38.17222222222222],[-117.47055555555556,38.14805555555556],[-117.50194444444445,38.14222222222222],[-117.63138888888888,38.117777777777775],[-117.65861111111111,38.11277777777778],[-117.82,38.08166666666667],[-117.97972222222222,38.05083333333333],[-118.13694444444445,38.019999999999996],[-118.29833333333333,37.98861111111111],[-118.45527777777778,37.9575],[-118.61611111111111,37.92527777777777],[-118.77472222222222,37.894444444444446],[-118.93666666666667,37.876111111111115],[-119.0786111111111,37.859722222222224],[-119.23833333333333,37.84138888888889],[-119.39833333333334,37.822500000000005],[-119.55888888888889,37.80333333333333],[-119.71916666666667,37.784166666666664],[-119.88138888888888,37.76444444444444],[-120.03999999999999,37.745],[-120.20166666666667,37.724722222222226],[-120.50833333333334,37.68694444444444],[-120.63333333333334,37.666666666666664],[-120.65583333333333,37.669999999999995],[-120.78333333333333,37.65],[-120.82694444444444,37.64944444444444],[-120.91666666666667,37.63333333333333],[-120.96305555555556,37.632777777777775],[-121.05,37.61666666666667],[-121.09666666666666,37.615],[-121.16666666666667,37.6],[-121.23305555555555,37.59666666666667],[-121.3,37.583333333333336],[-121.34527777777777,37.58305555555556],[-121.4,37.583333333333336],[-121.45416666666667,37.57083333333334],[-121.5,37.56666666666667],[-121.56,37.55833333333333],[-121.6,37.55],[-121.65611111111112,37.543055555555554],[-121.7,37.55],[-121.73666666666666,37.55833333333333],[-121.78333333333333,37.56666666666667],[-121.81388888888888,37.55472222222222],[-121.81666666666666,37.516666666666666],[-121.83111111111111,37.48638888888889],[-121.86666666666666,37.46666666666667],[-121.91055555555556,37.47833333333333],[-121.95,37.483333333333334],[-121.98833333333333,37.49444444444445],[-122.01666666666667,37.5],[-122.05416666666666,37.51583333333333],[-122.08333333333333,37.53333333333333],[-122.11416666666666,37.535555555555554],[-122.15,37.55],[-122.17666666666668,37.55583333333333],[-122.21666666666667,37.56666666666667],[-122.23861111111111,37.575833333333335],[-122.26666666666667,37.583333333333336],[-122.29777777777778,37.593611111111116],[-122.31666666666666,37.6],[-122.34833333333333,37.609722222222224]]}
}
