{
  "id": 2048316967,
  "type": "Feature",
  "properties": {
    "geom:area": 0,
    "geom:bbox": "-122.356480,37.491110,-121.250240,37.613230",
    "geom:latitude": 37.54667223254987,
    "geom:longitude": -121.80817835267439,
    "src:alt_label": "swim-approach",
    "src:geom": "swim",
    "swim:elevations": [
      5018,
      4802,
      4679,
      4266,
      3943,
      3653,
      3375,
      3229,
      3119,
      2897,
      2584,
      2529,
      2391,
      2078,
      1967,
      1890,
      1643,
      1496,
      1492,
      1191,
      948,
      945,
      612,
      512,
      398,
      236,
      142,
      0
    ],
    "swim:geom": "approach",
    "swim:timestamps": [
      1789219617,
      1789219638,
      1789219650,
      1789219691,
      1789219721,
      1789219748,
      1789219790,
      1789219823,
      1789219837,
      1789219865,
      1789219917,
      1789219930,
      1789219950,
      1789219998,
      1789220022,
      1789220045,
      1789220092,
      1789220128,
      1789220135,
      1789220181,
      1789220217,
      1789220230,
      1789220303,
      1789220325,
      1789220346,
      1789220396,
      1789220417,
      1789220456
    ],
    "wof:geomhash": "4f8ae302828cf99b58d693f90e0fccd2",
    "wof:id": 2048316967,
    "wof:repo": "sfomuseum-data-flights-2026-09"
  },
  "bbox": [
    -122.35648,
    37.49111,
    -121.25024,
    37.61323
  ],
  "geometry": {"type":"LineString","coordinates":[[-121.25024,37.59414],[-121.28993,37.58886],[-121.31367,37.586],[-121.39091,37.57748],[-121.44809,37.57106],[-121.49762,37.56537],[-121.57418,37.55652],[-121.63003,37.54946],[-121.65154,37.54447],[-121.69633,37.53355],[-121.77562,37.51457],[-121.79497,37.50996],[-121.82313,37.50322],[-121.89368,37.49111],[-121.92921,37.49241],[-121.96124,37.49317],[-122.02611,37.50739],[-122.07,37.52151],[-122.07707,37.52376],[-122.1254,37.53941],[-122.16023,37.55064],[-122.17278,37.55471],[-122.24378,37.57755],[-122.26401,37.58413],[-122.28209,37.58929],[-122.31751,37.59953],[-122.33222,37.60341],[-122.35648,37.61323]]}
}
