{
  "id": 2048287117,
  "type": "Feature",
  "properties": {
    "geom:area": 0,
    "geom:bbox": "-122.395520,37.628500,-121.254860,37.956770",
    "geom:latitude": 37.81597012498883,
    "geom:longitude": -121.8404822160022,
    "src:alt_label": "swim-takeoff",
    "src:geom": "swim",
    "swim:elevations": [
      305,
      670,
      693,
      1030,
      1519,
      1881,
      2215,
      2643,
      3040,
      3077,
      3107,
      3271,
      3566,
      3852,
      4109,
      4245,
      4412,
      4807,
      5106,
      5161,
      5317,
      5541
    ],
    "swim:geom": "takeoff",
    "swim:timestamps": [
      1788890214,
      1788890244,
      1788890262,
      1788890300,
      1788890333,
      1788890362,
      1788890390,
      1788890425,
      1788890458,
      1788890478,
      1788890490,
      1788890540,
      1788890576,
      1788890607,
      1788890638,
      1788890654,
      1788890677,
      1788890720,
      1788890757,
      1788890770,
      1788890791,
      1788890820
    ],
    "wof:geomhash": "6fa5e36d428d96297dd37cb8f04528cc",
    "wof:id": 2048287117,
    "wof:repo": "sfomuseum-data-flights-2026-09"
  },
  "bbox": [
    -122.39552,
    37.6285,
    -121.25486,
    37.95677
  ],
  "geometry": {"type":"LineString","coordinates":[[-122.39175,37.6285],[-122.39552,37.65002],[-122.37811,37.65936],[-122.32797,37.68014],[-122.28091,37.69758],[-122.23756,37.71092],[-122.19673,37.72699],[-122.14562,37.75016],[-122.09105,37.76424],[-122.057,37.77195],[-122.03366,37.77705],[-121.92901,37.80109],[-121.848,37.82027],[-121.77753,37.83673],[-121.70378,37.85388],[-121.66627,37.86252],[-121.61037,37.87535],[-121.50525,37.89954],[-121.41387,37.92054],[-121.38134,37.92796],[-121.32897,37.93994],[-121.25486,37.95677]]}
}
