{
  "id": 2048276685,
  "type": "Feature",
  "properties": {
    "geom:area": 0,
    "geom:bbox": "-122.526010,37.630730,-121.243330,38.152640",
    "geom:latitude": 37.94024784867965,
    "geom:longitude": -121.97636228258102,
    "src:alt_label": "swim-takeoff",
    "src:geom": "swim",
    "swim:elevations": [
      311,
      533,
      586,
      796,
      1352,
      1673,
      2039,
      2201,
      2645,
      3140,
      3299,
      3334,
      3632,
      3986,
      4248,
      4527,
      4710,
      5023,
      5323,
      5538,
      5838,
      6128,
      6271,
      6552,
      6792,
      6848,
      7071,
      7184
    ],
    "swim:geom": "takeoff",
    "swim:timestamps": [
      1788848993,
      1788849025,
      1788849034,
      1788849073,
      1788849115,
      1788849140,
      1788849168,
      1788849181,
      1788849219,
      1788849264,
      1788849295,
      1788849301,
      1788849347,
      1788849385,
      1788849415,
      1788849443,
      1788849464,
      1788849497,
      1788849534,
      1788849560,
      1788849589,
      1788849624,
      1788849646,
      1788849684,
      1788849715,
      1788849724,
      1788849765,
      1788849784
    ],
    "wof:geomhash": "7c8bebd96701dfc22477bfc9a867c411",
    "wof:id": 2048276685,
    "wof:repo": "sfomuseum-data-flights-2026-09"
  },
  "bbox": [
    -122.52601,
    37.63073,
    -121.24333,
    38.15264
  ],
  "geometry": {"type":"LineString","coordinates":[[-122.40283,37.63073],[-122.43316,37.64398],[-122.44281,37.64813],[-122.49114,37.66904],[-122.52432,37.71168],[-122.52558,37.74463],[-122.52601,37.78102],[-122.51972,37.79726],[-122.46841,37.82533],[-122.39593,37.84789],[-122.34146,37.86271],[-122.33045,37.86567],[-122.2397,37.8902],[-122.16298,37.91074],[-122.09952,37.92777],[-122.03913,37.94386],[-121.99326,37.95616],[-121.92062,37.97542],[-121.83646,37.99767],[-121.77858,38.01294],[-121.71088,38.03075],[-121.63082,38.0518],[-121.57817,38.06563],[-121.48901,38.08888],[-121.41253,38.10874],[-121.39082,38.11439],[-121.29067,38.14036],[-121.24333,38.15264]]}
}
