{
  "id": 2048439701,
  "type": "Feature",
  "properties": {
    "geom:area": 0,
    "geom:bbox": "-122.850200,37.413380,-122.094570,38.508650",
    "geom:latitude": 37.81948550795138,
    "geom:longitude": -122.49283761332063,
    "src:alt_label": "swim-approach",
    "src:geom": "swim",
    "swim:elevations": [
      7557,
      7387,
      6905,
      6581,
      6510,
      6320,
      6186,
      5652,
      5423,
      5223,
      4992,
      4825,
      4575,
      4382,
      4154,
      4005,
      3520,
      3453,
      3353,
      3353,
      3353,
      3353,
      3353,
      3353,
      2895,
      2802,
      2603,
      2472,
      2334,
      2175,
      2128,
      1879,
      1792,
      1481,
      1436,
      1279,
      1166,
      1134,
      1041,
      1007,
      782,
      580,
      516,
      365,
      239,
      97,
      87
    ],
    "swim:geom": "approach",
    "swim:timestamps": [
      1790417877,
      1790417891,
      1790417935,
      1790417965,
      1790417972,
      1790417989,
      1790418002,
      1790418058,
      1790418086,
      1790418115,
      1790418146,
      1790418170,
      1790418205,
      1790418230,
      1790418265,
      1790418278,
      1790418323,
      1790418330,
      1790418385,
      1790418402,
      1790418410,
      1790418414,
      1790418439,
      1790418455,
      1790418565,
      1790418581,
      1790418626,
      1790418654,
      1790418687,
      1790418714,
      1790418722,
      1790418777,
      1790418794,
      1790418838,
      1790418845,
      1790418877,
      1790418926,
      1790418931,
      1790418957,
      1790418966,
      1790419003,
      1790419046,
      1790419059,
      1790419096,
      1790419126,
      1790419167,
      1790419171
    ],
    "wof:geomhash": "5b1b8452d32719d0a0ccfef8d5d0fd4c",
    "wof:id": 2048439701,
    "wof:repo": "sfomuseum-data-flights-2026-09"
  },
  "bbox": [
    -122.8502,
    37.41338,
    -122.09457,
    38.50865
  ],
  "geometry": {"type":"LineString","coordinates":[[-122.8502,38.50865],[-122.8429,38.48354],[-122.81986,38.40497],[-122.80449,38.35244],[-122.80095,38.3404],[-122.79225,38.31064],[-122.78558,38.28789],[-122.75767,38.19251],[-122.74413,38.14583],[-122.7301,38.09725],[-122.71547,38.04731],[-122.70441,38.00884],[-122.68831,37.95349],[-122.67709,37.91538],[-122.63924,37.86846],[-122.62217,37.8523],[-122.56501,37.79801],[-122.55575,37.78925],[-122.48893,37.72614],[-122.46973,37.70804],[-122.4606,37.69949],[-122.45673,37.69581],[-122.43148,37.67208],[-122.41545,37.657],[-122.33267,37.55082],[-122.32225,37.53388],[-122.29727,37.49242],[-122.28255,37.46829],[-122.26656,37.44156],[-122.24309,37.4258],[-122.23362,37.42388],[-122.16895,37.41435],[-122.14987,37.41338],[-122.11103,37.44104],[-122.10477,37.44662],[-122.09457,37.47471],[-122.12475,37.51302],[-122.13016,37.51552],[-122.15738,37.52752],[-122.16658,37.53145],[-122.20371,37.5467],[-122.2457,37.56441],[-122.25801,37.56964],[-122.29107,37.58354],[-122.31374,37.59298],[-122.34215,37.60481],[-122.34487,37.60602]]}
}
