{
  "id": 2048458173,
  "type": "Feature",
  "properties": {
    "geom:area": 0,
    "geom:bbox": "-122.363320,37.432880,-121.295910,37.613930",
    "geom:latitude": 37.527955160580625,
    "geom:longitude": -121.83830960770179,
    "src:alt_label": "swim-approach",
    "src:geom": "swim",
    "swim:elevations": [
      4521,
      4339,
      4254,
      4096,
      3935,
      3566,
      3264,
      3115,
      3049,
      2878,
      2791,
      2696,
      2289,
      2130,
      1929,
      1831,
      1830,
      1829,
      1829,
      1795,
      1737,
      1629,
      1446,
      1168,
      1093,
      907,
      809,
      752,
      610,
      492,
      308,
      214,
      89,
      228
    ],
    "swim:geom": "approach",
    "swim:timestamps": [
      1790590224,
      1790590246,
      1790590258,
      1790590276,
      1790590291,
      1790590332,
      1790590370,
      1790590408,
      1790590428,
      1790590466,
      1790590488,
      1790590502,
      1790590554,
      1790590587,
      1790590613,
      1790590626,
      1790590635,
      1790590660,
      1790590674,
      1790590703,
      1790590718,
      1790590741,
      1790590775,
      1790590821,
      1790590837,
      1790590877,
      1790590892,
      1790590908,
      1790590937,
      1790590963,
      1790591006,
      1790591030,
      1790591063,
      1790591087
    ],
    "wof:geomhash": "1c07488dd26fcdf2a4b6c1007e4e9f68",
    "wof:id": 2048458173,
    "wof:repo": "sfomuseum-data-flights-2026-09"
  },
  "bbox": [
    -122.36332,
    37.43288,
    -121.29591,
    37.61393
  ],
  "geometry": {"type":"LineString","coordinates":[[-121.29591,37.58879],[-121.34075,37.58359],[-121.3654,37.58082],[-121.40142,37.5767],[-121.43075,37.57347],[-121.51208,37.56405],[-121.5846,37.55554],[-121.65095,37.54431],[-121.68546,37.53621],[-121.74457,37.52212],[-121.7766,37.51432],[-121.79558,37.50899],[-121.83088,37.45811],[-121.86904,37.43979],[-121.9029,37.43422],[-121.92046,37.43288],[-121.93085,37.43468],[-121.96155,37.44367],[-121.97785,37.4501],[-122.00973,37.4646],[-122.02565,37.47167],[-122.04988,37.48183],[-122.08329,37.49585],[-122.12739,37.51446],[-122.14339,37.52119],[-122.18209,37.53759],[-122.19754,37.54411],[-122.21322,37.55073],[-122.24113,37.5625],[-122.26563,37.57276],[-122.30068,37.58743],[-122.31933,37.59543],[-122.34542,37.60624],[-122.36332,37.61393]]}
}
