{
  "id": 2048229145,
  "type": "Feature",
  "properties": {
    "geom:area": 0,
    "geom:bbox": "-122.358750,36.726590,-121.881810,37.614390",
    "geom:latitude": 37.219340011629214,
    "geom:longitude": -122.07116329542275,
    "src:alt_label": "swim-approach",
    "src:geom": "swim",
    "swim:elevations": [
      4697,
      4358,
      4230,
      3987,
      3767,
      3419,
      3198,
      3021,
      2953,
      2732,
      2604,
      2438,
      2438,
      2438,
      2257,
      2056,
      1990,
      1563,
      1523,
      1297,
      1181,
      892,
      829,
      656,
      514,
      457,
      273,
      227,
      121,
      82
    ],
    "swim:geom": "approach",
    "swim:timestamps": [
      1788373959,
      1788374000,
      1788374012,
      1788374046,
      1788374073,
      1788374118,
      1788374150,
      1788374187,
      1788374197,
      1788374224,
      1788374253,
      1788374301,
      1788374330,
      1788374359,
      1788374395,
      1788374425,
      1788374431,
      1788374483,
      1788374494,
      1788374543,
      1788374557,
      1788374607,
      1788374620,
      1788374645,
      1788374685,
      1788374707,
      1788374757,
      1788374772,
      1788374805,
      1788374837
    ],
    "wof:geomhash": "e7b80ca367796300051f7b33a1bdefca",
    "wof:id": 2048229145,
    "wof:repo": "sfomuseum-data-flights-2026-09"
  },
  "bbox": [
    -122.35875,
    36.72659,
    -121.88181,
    37.61439
  ],
  "geometry": {"type":"LineString","coordinates":[[-121.88181,36.72659],[-121.90616,36.78724],[-121.91153,36.80598],[-121.92643,36.85903],[-121.93803,36.90023],[-121.95882,36.96817],[-121.97662,37.01367],[-121.99605,37.06369],[-122.00062,37.07549],[-122.01451,37.11063],[-122.0283,37.14605],[-122.05069,37.20282],[-122.06437,37.23778],[-122.07783,37.27201],[-122.09466,37.31499],[-122.10875,37.35046],[-122.11153,37.35766],[-122.13384,37.41982],[-122.13842,37.43321],[-122.15618,37.48673],[-122.16108,37.50152],[-122.18122,37.55407],[-122.19362,37.5623],[-122.22024,37.57],[-122.25422,37.58102],[-122.26974,37.58573],[-122.30455,37.59589],[-122.31537,37.59917],[-122.33803,37.60596],[-122.35875,37.61439]]}
}
