{
  "id": 2048361535,
  "type": "Feature",
  "properties": {
    "geom:area": 0,
    "geom:bbox": "-122.913430,37.552730,-122.093180,38.466020",
    "geom:latitude": 37.87624163230655,
    "geom:longitude": -122.51373682465751,
    "src:alt_label": "swim-approach",
    "src:geom": "swim",
    "swim:elevations": [
      6988,
      6718,
      6632,
      6421,
      6102,
      5749,
      5458,
      5307,
      5173,
      4798,
      4470,
      4288,
      4110,
      4000,
      3583,
      3415,
      3382,
      3353,
      3321,
      3045,
      2909,
      2559,
      2347,
      1900,
      1818,
      1600,
      1525,
      1390,
      1311,
      1176,
      916,
      914,
      914,
      693,
      533,
      331,
      251,
      87,
      69
    ],
    "swim:geom": "approach",
    "swim:timestamps": [
      1789669584,
      1789669618,
      1789669627,
      1789669652,
      1789669689,
      1789669731,
      1789669765,
      1789669785,
      1789669800,
      1789669848,
      1789669886,
      1789669913,
      1789669940,
      1789669952,
      1789669999,
      1789670036,
      1789670051,
      1789670088,
      1789670119,
      1789670150,
      1789670165,
      1789670203,
      1789670223,
      1789670267,
      1789670283,
      1789670327,
      1789670357,
      1789670388,
      1789670400,
      1789670440,
      1789670485,
      1789670504,
      1789670531,
      1789670592,
      1789670622,
      1789670667,
      1789670687,
      1789670727,
      1789670732
    ],
    "wof:geomhash": "2740f6c0eefb34d62b585e30c61c4b55",
    "wof:id": 2048361535,
    "wof:repo": "sfomuseum-data-flights-2026-09"
  },
  "bbox": [
    -122.91343,
    37.55273,
    -122.09318,
    38.46602
  ],
  "geometry": {"type":"LineString","coordinates":[[-122.91343,38.46602],[-122.87811,38.40735],[-122.86877,38.39195],[-122.84239,38.34862],[-122.80491,38.28665],[-122.76616,38.21498],[-122.74681,38.1543],[-122.73634,38.11835],[-122.72876,38.09181],[-122.70503,38.00938],[-122.68653,37.94548],[-122.67009,37.9033],[-122.63872,37.86689],[-122.62429,37.85284],[-122.5687,37.80075],[-122.53035,37.76485],[-122.51552,37.75097],[-122.47942,37.71677],[-122.44034,37.69919],[-122.40076,37.68743],[-122.38282,37.68209],[-122.33838,37.66843],[-122.31642,37.66194],[-122.26754,37.64696],[-122.24929,37.64169],[-122.20052,37.62831],[-122.1683,37.61915],[-122.13457,37.60983],[-122.12268,37.60676],[-122.09318,37.58222],[-122.11233,37.55273],[-122.13338,37.55293],[-122.16283,37.55528],[-122.22644,37.57202],[-122.25537,37.5814],[-122.2956,37.59311],[-122.31344,37.59825],[-122.34628,37.60889],[-122.35003,37.61045]]}
}
