{
  "id": 2048474397,
  "type": "Feature",
  "properties": {
    "geom:area": 0,
    "geom:bbox": "-122.359090,37.492310,-121.272950,37.615300",
    "geom:latitude": 37.542008354560664,
    "geom:longitude": -121.8231599594789,
    "src:alt_label": "swim-approach",
    "src:geom": "swim",
    "swim:elevations": [
      4580,
      4212,
      3904,
      3831,
      3316,
      3138,
      3065,
      2872,
      2803,
      2551,
      2466,
      2404,
      2153,
      1991,
      1801,
      1645,
      1509,
      1359,
      1163,
      987,
      912,
      747,
      652,
      429,
      365,
      353,
      320,
      153,
      35,
      420
    ],
    "swim:geom": "approach",
    "swim:timestamps": [
      1790810091,
      1790810127,
      1790810156,
      1790810163,
      1790810214,
      1790810241,
      1790810272,
      1790810306,
      1790810316,
      1790810348,
      1790810362,
      1790810377,
      1790810424,
      1790810451,
      1790810484,
      1790810511,
      1790810535,
      1790810562,
      1790810602,
      1790810632,
      1790810645,
      1790810684,
      1790810704,
      1790810749,
      1790810762,
      1790810767,
      1790810776,
      1790810815,
      1790810845,
      1790810857
    ],
    "wof:geomhash": "afe2519a95759c5d2bcb39ec831ef047",
    "wof:id": 2048474397,
    "wof:repo": "sfomuseum-data-flights-2026-09"
  },
  "bbox": [
    -122.35909,
    37.49231,
    -121.27295,
    37.6153
  ],
  "geometry": {"type":"LineString","coordinates":[[-121.27295,37.59138],[-121.34614,37.58304],[-121.40361,37.57674],[-121.41857,37.57507],[-121.51967,37.56329],[-121.57235,37.55703],[-121.62923,37.54944],[-121.6846,37.5363],[-121.70076,37.53248],[-121.75346,37.51988],[-121.77615,37.51449],[-121.79986,37.50886],[-121.87193,37.49231],[-121.91346,37.49298],[-121.96354,37.49582],[-122.00363,37.49819],[-122.0378,37.50014],[-122.07547,37.50227],[-122.12671,37.51599],[-122.16107,37.53053],[-122.17592,37.53697],[-122.21607,37.55399],[-122.23676,37.56296],[-122.27835,37.58037],[-122.28802,37.58442],[-122.29261,37.58639],[-122.29979,37.58943],[-122.33032,37.60224],[-122.35262,37.61157],[-122.35909,37.6153]]}
}
