{
  "id": 2048452981,
  "type": "Feature",
  "properties": {
    "geom:area": 0,
    "geom:bbox": "-122.550000,29.991667,-95.341389,37.666667",
    "geom:latitude": 32.96433311582495,
    "geom:longitude": -109.24796466410336,
    "src:alt_label": "swim-path",
    "src:geom": "swim",
    "swim:altitudes": [
      "004",
      "024",
      "035",
      "039",
      "040",
      "043",
      "056",
      "073",
      "088",
      "112",
      "126",
      "155",
      "171",
      "196",
      "211",
      "234",
      "248",
      "257",
      "272",
      "283",
      "295",
      "305",
      "313",
      "319",
      "327",
      "330C",
      "330C",
      "330C",
      "330C",
      "330C",
      "330C",
      "330C",
      "330C",
      "330C",
      "330C",
      "330",
      "330C",
      "330",
      "330C",
      "330",
      "330C",
      "330C",
      "330C",
      "330C",
      "330C",
      "330C",
      "330C",
      "330C",
      "330C",
      "330C",
      "330",
      "336",
      "341",
      "346",
      "350C",
      "350C",
      "350C",
      "350C",
      "350C",
      "350C",
      "350C",
      "350C",
      "350C",
      "350C",
      "350C",
      "350C",
      "350C",
      "350C",
      "350C",
      "350C",
      "350C",
      "350C",
      "350C",
      "350C",
      "350C",
      "350C",
      "350C",
      "350C",
      "350C",
      "350C",
      "350C",
      "350C",
      "350C",
      "350C",
      "350C",
      "350C",
      "350C",
      "350C",
      "350C",
      "350C",
      "350C",
      "350C",
      "350C",
      "350C",
      "350C",
      "350C",
      "350C",
      "350C",
      "350C",
      "350C",
      "350C",
      "350C",
      "350C",
      "350C",
      "350C",
      "350C",
      "350C",
      "350C",
      "350C",
      "350C",
      "350C",
      "350C",
      "350C",
      "350C",
      "350C",
      "350C",
      "350C",
      "350C",
      "350C",
      "350C",
      "350C",
      "350C",
      "350C",
      "350C",
      "350C",
      "350C",
      "350C",
      "350C",
      "350C",
      "350C",
      "350C",
      "350C",
      "350C",
      "350C",
      "350C",
      "350C",
      "350C",
      "350C",
      "350C",
      "350C",
      "350C",
      "350C",
      "350C",
      "350C",
      "350C",
      "350C",
      "350C",
      "350C",
      "350C",
      "350C",
      "350C",
      "350C",
      "350C",
      "350C",
      "350C",
      "350C",
      "350C",
      "350C",
      "350C",
      "350C",
      "350C",
      "350C",
      "350C",
      "350C",
      "350C",
      "350C",
      "350C",
      "350C",
      "350C",
      "350C",
      "350C",
      "350C",
      "350C",
      "350C",
      "350C",
      "350C",
      "350C",
      "350C",
      "350C",
      "350C",
      "350C",
      "350C",
      "350C",
      "350C",
      "350C",
      "350C",
      "350C",
      "350",
      "343",
      "331C",
      "330C",
      "330C",
      "330C",
      "330C",
      "330C",
      "330C",
      "330C",
      "330C",
      "326",
      "317",
      "299",
      "280",
      "261",
      "241",
      "224",
      "206",
      "189",
      "175",
      "170",
      "165",
      "152",
      "147",
      "134",
      "129",
      "117",
      "112",
      "109",
      "105",
      "098C",
      "093",
      "086",
      "084",
      "080",
      "079",
      "077",
      "076",
      "075",
      "073",
      "072",
      "071",
      "066",
      "062",
      "057",
      "052",
      "045",
      "041",
      "033",
      "030",
      "023",
      "021",
      "015",
      "012",
      "007",
      "004",
      "001"
    ],
    "swim:geom": "path",
    "swim:speeds": [
      175,
      165,
      172,
      224,
      252,
      284,
      286,
      289,
      287,
      301,
      321,
      366,
      372,
      391,
      415,
      417,
      418,
      424,
      443,
      448,
      451,
      453,
      462,
      472,
      480,
      479,
      476,
      475,
      472,
      469,
      468,
      470,
      471,
      471,
      487,
      491,
      489,
      494,
      490,
      489,
      489,
      487,
      487,
      486,
      481,
      478,
      477,
      476,
      475,
      476,
      476,
      483,
      490,
      502,
      507,
      507,
      506,
      506,
      506,
      508,
      509,
      508,
      506,
      506,
      504,
      505,
      506,
      507,
      509,
      508,
      508,
      507,
      506,
      506,
      514,
      516,
      517,
      519,
      520,
      520,
      520,
      519,
      518,
      517,
      515,
      515,
      514,
      514,
      514,
      514,
      512,
      512,
      511,
      510,
      511,
      512,
      512,
      512,
      511,
      510,
      510,
      508,
      506,
      506,
      506,
      505,
      505,
      506,
      506,
      507,
      509,
      509,
      509,
      509,
      510,
      510,
      511,
      511,
      511,
      510,
      511,
      510,
      510,
      511,
      511,
      508,
      510,
      508,
      510,
      508,
      510,
      508,
      510,
      508,
      510,
      509,
      510,
      510,
      510,
      510,
      510,
      510,
      510,
      511,
      511,
      512,
      511,
      513,
      512,
      513,
      512,
      513,
      513,
      513,
      513,
      512,
      512,
      511,
      511,
      510,
      510,
      509,
      509,
      508,
      508,
      509,
      509,
      510,
      510,
      513,
      514,
      515,
      515,
      515,
      516,
      517,
      514,
      512,
      512,
      511,
      509,
      506,
      506,
      506,
      506,
      506,
      505,
      504,
      497,
      494,
      493,
      491,
      489,
      487,
      487,
      491,
      493,
      493,
      497,
      497,
      477,
      474,
      464,
      444,
      414,
      399,
      394,
      377,
      380,
      377,
      381,
      378,
      372,
      364,
      360,
      350,
      321,
      307,
      301,
      293,
      286,
      265,
      255,
      252,
      253,
      250,
      246,
      239,
      233,
      221,
      216,
      214,
      210,
      209,
      210,
      208,
      202,
      191,
      173,
      159,
      154,
      153,
      153,
      156,
      144
    ],
    "swim:timestamps": [
      1790552027,
      1790552069,
      1790552112,
      1790552130,
      1790552172,
      1790552190,
      1790552232,
      1790552250,
      1790552292,
      1790552352,
      1790552410,
      1790552473,
      1790552530,
      1790552593,
      1790552653,
      1790552713,
      1790552773,
      1790552831,
      1790552893,
      1790552953,
      1790553013,
      1790553073,
      1790553133,
      1790553194,
      1790553252,
      1790553312,
      1790553374,
      1790553434,
      1790553494,
      1790553552,
      1790553614,
      1790553674,
      1790553733,
      1790553794,
      1790553854,
      1790553883,
      1790553915,
      1790553937,
      1790553975,
      1790553997,
      1790554035,
      1790554153,
      1790554215,
      1790554275,
      1790554334,
      1790554394,
      1790554454,
      1790554514,
      1790554571,
      1790554631,
      1790554691,
      1790554751,
      1790554811,
      1790554871,
      1790554932,
      1790554992,
      1790555052,
      1790555112,
      1790555172,
      1790555232,
      1790555292,
      1790555352,
      1790555408,
      1790555468,
      1790555528,
      1790555588,
      1790555648,
      1790555708,
      1790555768,
      1790555828,
      1790555888,
      1790555949,
      1790556009,
      1790556069,
      1790556129,
      1790556189,
      1790556249,
      1790556309,
      1790556369,
      1790556429,
      1790556489,
      1790556549,
      1790556609,
      1790556670,
      1790556730,
      1790556790,
      1790556850,
      1790556910,
      1790556970,
      1790557030,
      1790557090,
      1790557150,
      1790557210,
      1790557270,
      1790557332,
      1790557392,
      1790557452,
      1790557572,
      1790557632,
      1790557693,
      1790557753,
      1790557813,
      1790557873,
      1790557933,
      1790557993,
      1790558053,
      1790558113,
      1790558173,
      1790558233,
      1790558293,
      1790558353,
      1790558414,
      1790558474,
      1790558534,
      1790558594,
      1790558654,
      1790558714,
      1790558774,
      1790558834,
      1790558841,
      1790558894,
      1790558901,
      1790558954,
      1790558961,
      1790559021,
      1790559075,
      1790559081,
      1790559135,
      1790559141,
      1790559192,
      1790559201,
      1790559252,
      1790559261,
      1790559313,
      1790559321,
      1790559373,
      1790559382,
      1790559433,
      1790559442,
      1790559493,
      1790559502,
      1790559553,
      1790559562,
      1790559613,
      1790559622,
      1790559673,
      1790559682,
      1790559733,
      1790559742,
      1790559793,
      1790559802,
      1790559853,
      1790559862,
      1790559913,
      1790559922,
      1790559974,
      1790559982,
      1790560034,
      1790560043,
      1790560094,
      1790560103,
      1790560154,
      1790560163,
      1790560214,
      1790560223,
      1790560274,
      1790560283,
      1790560334,
      1790560343,
      1790560403,
      1790560454,
      1790560463,
      1790560514,
      1790560523,
      1790560583,
      1790560643,
      1790560703,
      1790560764,
      1790560824,
      1790560884,
      1790560944,
      1790561004,
      1790561064,
      1790561124,
      1790561184,
      1790561244,
      1790561304,
      1790561364,
      1790561425,
      1790561485,
      1790561545,
      1790561605,
      1790561665,
      1790561725,
      1790561785,
      1790561845,
      1790561905,
      1790561965,
      1790562025,
      1790562085,
      1790562146,
      1790562206,
      1790562266,
      1790562326,
      1790562386,
      1790562446,
      1790562506,
      1790562539,
      1790562566,
      1790562575,
      1790562626,
      1790562635,
      1790562686,
      1790562695,
      1790562746,
      1790562758,
      1790562806,
      1790562818,
      1790562867,
      1790562882,
      1790562927,
      1790562939,
      1790562987,
      1790562999,
      1790563047,
      1790563059,
      1790563107,
      1790563125,
      1790563167,
      1790563179,
      1790563227,
      1790563239,
      1790563287,
      1790563299,
      1790563347,
      1790563359,
      1790563407,
      1790563419,
      1790563467,
      1790563479,
      1790563527,
      1790563545,
      1790563587,
      1790563606,
      1790563648
    ],
    "wof:geomhash": "481301aa6201973679500ffcf3937ad7",
    "wof:id": 2048452981,
    "wof:repo": "sfomuseum-data-flights-2026-09"
  },
  "bbox": [
    -122.55,
    29.991666666666667,
    -95.34138888888889,
    37.666666666666664
  ],
  "geometry": {"type":"LineString","coordinates":[[-122.38333333333334,37.63333333333333],[-122.43333333333334,37.63333333333333],[-122.45583333333333,37.653888888888886],[-122.48333333333333,37.666666666666664],[-122.53027777777778,37.66305555555555],[-122.55,37.63333333333333],[-122.53555555555555,37.59277777777778],[-122.51666666666667,37.55],[-122.49194444444444,37.519999999999996],[-122.42750000000001,37.459722222222226],[-122.34138888888889,37.4],[-122.21611111111112,37.32333333333334],[-122.14305555555556,37.26694444444444],[-122.00722222222223,37.187777777777775],[-121.8963888888889,37.11555555555556],[-121.78416666666666,37.04222222222222],[-121.67222222222223,36.968611111111116],[-121.58527777777778,36.907777777777774],[-121.43722222222223,36.814166666666665],[-121.33722222222222,36.74777777777778],[-121.2175,36.668055555555554],[-121.0961111111111,36.58694444444445],[-120.97305555555556,36.504444444444445],[-120.84694444444445,36.42055555555555],[-120.7225,36.33722222222222],[-120.59583333333333,36.25138888888889],[-120.49444444444444,36.18222222222222],[-120.34222222222222,36.07944444444445],[-120.21805555555555,35.99583333333334],[-120.0975,35.913888888888884],[-119.97083333333333,35.827222222222225],[-119.84972222222221,35.74138888888889],[-119.73,35.65694444444444],[-119.60388888888889,35.56805555555556],[-119.46027777777778,35.5025],[-119.37277777777777,35.473888888888894],[-119.30777777777777,35.45138888888889],[-119.23138888888889,35.42388888888889],[-119.15138888888889,35.39861111111111],[-119.07472222222222,35.37222222222222],[-118.99805555555555,35.34666666666667],[-118.69805555555556,35.24444444444445],[-118.5411111111111,35.19027777777777],[-118.38861111111112,35.13777777777778],[-118.23222222222222,35.08305555555556],[-118.08472222222221,35.03138888888889],[-117.93805555555556,34.98027777777778],[-117.79027777777777,34.92805555555555],[-117.64666666666668,34.8775],[-117.50138888888888,34.825833333333335],[-117.35527777777777,34.77333333333333],[-117.20666666666666,34.72],[-117.05472222222222,34.665],[-116.89916666666667,34.60861111111111],[-116.74333333333334,34.551944444444445],[-116.58722222222222,34.49472222222222],[-116.43305555555555,34.43805555555555],[-116.27916666666667,34.38111111111111],[-116.1236111111111,34.323055555555555],[-115.9675,34.265],[-115.80444444444444,34.20388888888889],[-115.65111111111112,34.14611111111111],[-115.50555555555556,34.09138888888889],[-115.36416666666666,34.03666666666666],[-115.20111111111112,33.975],[-115.05944444444444,33.92055555555555],[-114.90555555555557,33.86138888888889],[-114.75055555555555,33.80138888888889],[-114.59416666666667,33.74055555555556],[-114.44416666666667,33.68194444444444],[-114.28972222222222,33.62111111111111],[-114.1388888888889,33.561388888888885],[-113.98666666666666,33.50138888888889],[-113.83111111111111,33.445277777777775],[-113.66305555555556,33.41361111111111],[-113.49666666666667,33.382777777777775],[-113.32722222222222,33.35138888888889],[-113.15666666666667,33.319722222222225],[-112.98916666666666,33.28805555555555],[-112.81861111111111,33.25555555555555],[-112.64972222222222,33.223333333333336],[-112.47361111111111,33.189166666666665],[-112.30833333333334,33.15694444444444],[-112.14277777777778,33.12444444444444],[-111.97722222222222,33.091944444444444],[-111.81333333333333,33.05916666666666],[-111.64972222222222,33.02638888888889],[-111.485,32.99305555555556],[-111.31972222222223,32.95944444444445],[-111.15722222222223,32.92611111111111],[-110.9925,32.89222222222222],[-110.83027777777778,32.858333333333334],[-110.66777777777779,32.824444444444445],[-110.50555555555556,32.79],[-110.33972222222222,32.755],[-110.17805555555556,32.720555555555556],[-110.01416666666667,32.684999999999995],[-109.68833333333333,32.61416666666667],[-109.52833333333334,32.57916666666667],[-109.36833333333333,32.54361111111111],[-109.20722222222223,32.507777777777775],[-109.04805555555555,32.47222222222222],[-108.8888888888889,32.436388888888885],[-108.72805555555556,32.4],[-108.53861111111111,32.35666666666667],[-108.39055555555557,32.32277777777778],[-108.23,32.285555555555554],[-108.07027777777778,32.248333333333335],[-107.91111111111111,32.211111111111116],[-107.75055555555555,32.17305555555555],[-107.59055555555555,32.13527777777778],[-107.4325,32.09722222222222],[-107.27277777777778,32.05916666666666],[-107.11527777777778,32.02111111111111],[-106.95555555555556,31.981944444444444],[-106.7975,31.943333333333335],[-106.63777777777779,31.904166666666665],[-106.47611111111111,31.86416666666667],[-106.31777777777778,31.82472222222222],[-106.30361111111111,31.81972222222222],[-106.13138888888888,31.798333333333336],[-106.14083333333333,31.790000000000003],[-105.96555555555555,31.778333333333332],[-105.97583333333334,31.77138888888889],[-105.8111111111111,31.75722222222222],[-105.63833333333334,31.73888888888889],[-105.64777777777779,31.74138888888889],[-105.49055555555556,31.72083333333333],[-105.48277777777778,31.724166666666665],[-105.32555555555555,31.700277777777778],[-105.31944444444444,31.698888888888888],[-105.1613888888889,31.679722222222225],[-105.15611111111112,31.677222222222223],[-104.99694444444445,31.65861111111111],[-104.99166666666667,31.660833333333333],[-104.83277777777778,31.637777777777778],[-104.82777777777777,31.637777777777778],[-104.665,31.616111111111113],[-104.66416666666667,31.61388888888889],[-104.5,31.594444444444445],[-104.49944444444445,31.595555555555553],[-104.33638888888889,31.572777777777777],[-104.33583333333333,31.573888888888888],[-104.17027777777778,31.550555555555555],[-104.17111111111112,31.552777777777777],[-104.005,31.528333333333332],[-104.00666666666666,31.530277777777776],[-103.84055555555555,31.50611111111111],[-103.84194444444444,31.5075],[-103.6713888888889,31.482777777777777],[-103.67750000000001,31.482777777777777],[-103.50555555555556,31.460277777777776],[-103.47972222222222,31.45861111111111],[-103.34138888888889,31.440833333333334],[-103.31527777777778,31.438333333333333],[-103.17583333333334,31.420555555555556],[-103.17888888888889,31.420833333333334],[-103.01222222222222,31.4],[-103.01472222222222,31.400277777777777],[-102.84861111111111,31.379166666666666],[-102.85166666666666,31.379444444444445],[-102.68555555555555,31.358333333333334],[-102.68861111111111,31.35888888888889],[-102.52527777777777,31.3375],[-102.52527777777777,31.3375],[-102.36527777777778,31.316944444444445],[-102.36,31.316111111111113],[-102.19888888888889,31.295],[-102.1825,31.29277777777778],[-102.015,31.270833333333332],[-101.88388888888889,31.253055555555555],[-101.85138888888888,31.248611111111114],[-101.71833333333333,31.230555555555554],[-101.6863888888889,31.22611111111111],[-101.52,31.203333333333333],[-101.35333333333332,31.18027777777778],[-101.17555555555556,31.165],[-101.00944444444444,31.15222222222222],[-100.84416666666667,31.139166666666664],[-100.67916666666667,31.12611111111111],[-100.51583333333333,31.11277777777778],[-100.35249999999999,31.099444444444444],[-100.18916666666667,31.085555555555555],[-100.02638888888889,31.071666666666665],[-99.86305555555555,31.0575],[-99.7325,31.046111111111113],[-99.56888888888888,31.031666666666666],[-99.40694444444445,31.016944444444444],[-99.24722222222222,31.0025],[-99.06305555555555,30.985277777777778],[-98.90472222222223,30.970277777777778],[-98.74861111111112,30.95138888888889],[-98.5936111111111,30.93],[-98.43972222222223,30.90833333333333],[-98.28583333333333,30.886388888888888],[-98.12833333333333,30.86388888888889],[-97.97111111111111,30.841388888888886],[-97.81472222222222,30.81861111111111],[-97.65805555555556,30.79527777777778],[-97.50027777777778,30.771944444444443],[-97.35222222222221,30.749444444444446],[-97.20166666666667,30.72694444444444],[-97.05583333333333,30.704166666666666],[-96.91444444444446,30.68277777777778],[-96.78444444444445,30.662777777777777],[-96.65694444444445,30.6425],[-96.53472222222221,30.623055555555556],[-96.44666666666667,30.6075],[-96.41444444444446,30.598333333333333],[-96.38194444444444,30.579166666666666],[-96.31388888888888,30.537222222222223],[-96.28222222222222,30.51638888888889],[-96.21611111111112,30.47583333333333],[-96.18722222222223,30.45583333333333],[-96.1236111111111,30.41722222222222],[-96.09444444444443,30.3975],[-96.03916666666666,30.359444444444446],[-96.02444444444444,30.33277777777778],[-96.00333333333333,30.273888888888887],[-95.99361111111111,30.24416666666667],[-95.97500000000001,30.197777777777777],[-95.96972222222223,30.176944444444445],[-95.95027777777779,30.129722222222224],[-95.94361111111111,30.111944444444447],[-95.92583333333334,30.063333333333333],[-95.92,30.044722222222223],[-95.88555555555556,30.00777777777778],[-95.86055555555555,29.993333333333336],[-95.81444444444445,29.9925],[-95.79333333333334,29.991666666666667],[-95.745,29.992222222222225],[-95.72583333333334,29.991944444444446],[-95.67833333333334,29.99277777777778],[-95.65833333333335,29.992222222222225],[-95.61166666666666,29.99277777777778],[-95.59305555555555,29.99277777777778],[-95.5461111111111,29.993055555555557],[-95.52777777777777,29.993055555555557],[-95.4875,29.993055555555557],[-95.4725,29.992222222222225],[-95.43861111111111,29.993333333333336],[-95.41916666666667,29.99388888888889],[-95.38944444444445,29.993333333333336],[-95.3711111111111,29.99361111111111],[-95.34138888888889,29.993333333333336]]}
}
