{
  "id": 2048332485,
  "type": "Feature",
  "properties": {
    "date:inception_lower": "2026-09-14",
    "date:inception_upper": "2026-09-14",
    "edtf:cessation": "",
    "edtf:inception": "2026-09-14",
    "flysfo:actual_timestamp": -1,
    "flysfo:airline": "AC",
    "flysfo:base_airline": "",
    "flysfo:base_flight_number": "4247",
    "flysfo:date": "2026-09-14",
    "flysfo:estimated_timestamp": 1789445760,
    "flysfo:event": "A",
    "flysfo:flight_number": "AC4247",
    "flysfo:gate": "F5",
    "flysfo:journey": "SNA-SFO",
    "flysfo:scheduled_timestamp": 1789447200,
    "flysfo:timestamp": 1789447200,
    "geom:area": 0,
    "geom:bbox": "-122.370943,33.677724,-117.866280,37.617990",
    "geom:latitude": 35.647857,
    "geom:longitude": -120.1186115,
    "iata:airline": "AC",
    "iata:base_airline": "",
    "icao:airline": "ACA",
    "icao:base_airline": "ACA",
    "lbl:latitude": 37.620164,
    "lbl:longitude": -122.387194,
    "sfomuseum:airline_id": 1159283597,
    "sfomuseum:arrival_id": 102527513,
    "sfomuseum:base_flight_id": "20260914-A-ACA-4247",
    "sfomuseum:departure_id": 102534161,
    "sfomuseum:flight_id": "20260914-A-ACA-4247",
    "sfomuseum:flight_number": [
      "ACA4247",
      "AC4247"
    ],
    "sfomuseum:placetype": "flight",
    "src:geom": "flysfo",
    "wof:belongsto": [
      1914600839,
      102527513,
      1914600845,
      102191575,
      85633793,
      102087579,
      85922583,
      554784711,
      85688637,
      1930457221,
      1914600841,
      102085387
    ],
    "wof:country": "US",
    "wof:created": 1789488134,
    "wof:geomhash": "01009f732d03a7803d3f7fd23cf321f4",
    "wof:hierarchy": [
      {
        "building_id": 1914600839,
        "campus_id": 102527513,
        "concourse_id": 1914600845,
        "continent_id": 102191575,
        "country_id": 85633793,
        "county_id": 102087579,
        "custom_id": 2048332485,
        "flight_id": 2048332485,
        "locality_id": 85922583,
        "postalcode_id": 554784711,
        "region_id": 85688637,
        "venue_id": 1930457221,
        "wing_id": 1914600841
      },
      {
        "building_id": 1914600839,
        "campus_id": 102527513,
        "concourse_id": 1914600845,
        "continent_id": 102191575,
        "country_id": 85633793,
        "county_id": 102085387,
        "custom_id": 2048332485,
        "flight_id": 2048332485,
        "region_id": 85688637,
        "venue_id": 1930457221,
        "wing_id": 1914600841
      }
    ],
    "wof:id": 2048332485,
    "wof:involves": [
      102527513,
      102534161,
      1159283597,
      1930457221,
      1159283597
    ],
    "wof:lastmodified": 1789488134,
    "wof:name": "AC4247 (SNA-SFO)",
    "wof:parent_id": 1930457221,
    "wof:placetype": "custom",
    "wof:placetype_alt": [
      "flight"
    ],
    "wof:repo": "sfomuseum-data-flights-2026-09",
    "wof:superseded_by": [],
    "wof:supersedes": []
  },
  "bbox": [
    -122.370943,
    33.677724,
    -117.86628,
    37.61799
  ],
  "geometry": {"type":"MultiPoint","coordinates":[[-117.86628,33.677724],[-122.370943,37.61799]]}
}
