{
  "id": 2048292043,
  "type": "Feature",
  "properties": {
    "geom:area": 0,
    "geom:bbox": "-122.356160,36.745180,-121.891940,37.610770",
    "geom:latitude": 37.22730061687122,
    "geom:longitude": -122.12782174584862,
    "src:alt_label": "swim-approach",
    "src:geom": "swim",
    "swim:elevations": [
      5166,
      4852,
      4674,
      4308,
      3996,
      3795,
      3669,
      3515,
      3444,
      3426,
      3342,
      3150,
      3073,
      3048,
      3048,
      2953,
      2687,
      2492,
      2284,
      2101,
      2048,
      1832,
      1814,
      1583,
      1548,
      1396,
      1253,
      1219,
      1062,
      1003,
      743,
      730,
      495,
      391,
      274,
      206,
      31
    ],
    "swim:geom": "approach",
    "swim:timestamps": [
      1788963087,
      1788963118,
      1788963137,
      1788963175,
      1788963207,
      1788963237,
      1788963260,
      1788963291,
      1788963303,
      1788963308,
      1788963334,
      1788963370,
      1788963390,
      1788963428,
      1788963466,
      1788963486,
      1788963528,
      1788963562,
      1788963594,
      1788963626,
      1788963634,
      1788963675,
      1788963706,
      1788963744,
      1788963753,
      1788963783,
      1788963807,
      1788963824,
      1788963865,
      1788963876,
      1788963927,
      1788963933,
      1788963978,
      1788964005,
      1788964037,
      1788964058,
      1788964105
    ],
    "wof:geomhash": "aa1a6fd6b7f750a93c99b3b8df4212e5",
    "wof:id": 2048292043,
    "wof:repo": "sfomuseum-data-flights-2026-09"
  },
  "bbox": [
    -122.35616,
    36.74518,
    -121.89194,
    37.61077
  ],
  "geometry": {"type":"LineString","coordinates":[[-121.89194,36.74518],[-121.91006,36.7998],[-121.91895,36.83131],[-121.93749,36.89653],[-121.9524,36.94952],[-121.97071,36.99707],[-121.98405,37.03135],[-122.0009,37.07452],[-122.00726,37.09089],[-122.00967,37.09705],[-122.02393,37.12932],[-122.06858,37.15315],[-122.09467,37.16227],[-122.14593,37.17979],[-122.19683,37.19723],[-122.22363,37.20641],[-122.28014,37.22551],[-122.31673,37.25091],[-122.31411,37.28475],[-122.2809,37.30606],[-122.27178,37.3117],[-122.22771,37.33932],[-122.19533,37.36083],[-122.16811,37.39541],[-122.16191,37.40333],[-122.1401,37.43095],[-122.1334,37.45516],[-122.13614,37.47254],[-122.14466,37.51501],[-122.15282,37.52274],[-122.20515,37.54729],[-122.21085,37.54966],[-122.25491,37.56829],[-122.27915,37.57844],[-122.30431,37.58907],[-122.31983,37.59551],[-122.35616,37.61077]]}
}
