{
  "id": 2048476873,
  "type": "Feature",
  "properties": {
    "geom:area": 0,
    "geom:bbox": "-122.366420,37.627940,-121.257130,38.120150",
    "geom:latitude": 37.890798912126584,
    "geom:longitude": -121.82001667975298,
    "src:alt_label": "swim-takeoff",
    "src:geom": "swim",
    "swim:elevations": [
      122,
      459,
      511,
      565,
      821,
      1043,
      1450,
      1914,
      2231,
      2514,
      2619,
      3136,
      3169,
      3543,
      4052,
      4151,
      4304,
      4462,
      6284,
      6568,
      6715
    ],
    "swim:geom": "takeoff",
    "swim:timestamps": [
      1790789657,
      1790789692,
      1790789700,
      1790789708,
      1790789750,
      1790789774,
      1790789809,
      1790789846,
      1790789872,
      1790789895,
      1790789903,
      1790789964,
      1790789973,
      1790790019,
      1790790075,
      1790790085,
      1790790100,
      1790790112,
      1790790284,
      1790790317,
      1790790334
    ],
    "wof:geomhash": "a0bd735d95d6487c0ce0bed0dcc728f4",
    "wof:id": 2048476873,
    "wof:repo": "sfomuseum-data-flights-2026-09"
  },
  "bbox": [
    -122.36642,
    37.62794,
    -121.25713,
    38.12015
  ],
  "geometry": {"type":"LineString","coordinates":[[-122.36642,37.62794],[-122.34091,37.64891],[-122.33293,37.65313],[-122.32559,37.65709],[-122.28034,37.68255],[-122.24965,37.69941],[-122.20316,37.72344],[-122.15414,37.74862],[-122.11718,37.76778],[-122.08526,37.78423],[-122.07414,37.79004],[-121.98457,37.83386],[-121.97026,37.83972],[-121.88893,37.87164],[-121.78364,37.91313],[-121.76519,37.92053],[-121.73538,37.93242],[-121.71243,37.9416],[-121.36318,38.07889],[-121.29237,38.10645],[-121.25713,38.12015]]}
}
