{
  "id": 2048245995,
  "type": "Feature",
  "properties": {
    "geom:area": 0,
    "geom:bbox": "-122.539970,36.719620,-121.295160,37.668600",
    "geom:latitude": 37.198696384987755,
    "geom:longitude": -121.99558111740305,
    "src:alt_label": "swim-takeoff",
    "src:geom": "swim",
    "swim:elevations": [
      122,
      221,
      958,
      995,
      1226,
      1784,
      2082,
      2380,
      2683,
      3267,
      3361,
      3557,
      3792,
      3879,
      4407,
      4633,
      4661,
      5058,
      5244,
      5417,
      5758,
      5790,
      5932,
      6013,
      6264,
      6522,
      6708,
      6835,
      7048,
      7142,
      7455
    ],
    "swim:geom": "takeoff",
    "swim:timestamps": [
      1788458365,
      1788458372,
      1788458427,
      1788458430,
      1788458465,
      1788458516,
      1788458537,
      1788458559,
      1788458581,
      1788458627,
      1788458655,
      1788458691,
      1788458727,
      1788458735,
      1788458788,
      1788458816,
      1788458820,
      1788458871,
      1788458902,
      1788458926,
      1788458966,
      1788458970,
      1788458994,
      1788459006,
      1788459044,
      1788459086,
      1788459117,
      1788459140,
      1788459174,
      1788459188,
      1788459237
    ],
    "wof:geomhash": "4e83660158cb75706a09a26105aea2fe",
    "wof:id": 2048245995,
    "wof:repo": "sfomuseum-data-flights-2026-09"
  },
  "bbox": [
    -122.53997,
    36.71962,
    -121.29516,
    37.6686
  ],
  "geometry": {"type":"LineString","coordinates":[[-122.39692,37.62822],[-122.40346,37.63126],[-122.45548,37.65346],[-122.45909,37.65491],[-122.49853,37.6686],[-122.53997,37.62967],[-122.52928,37.606],[-122.51723,37.58027],[-122.50475,37.55346],[-122.47651,37.49762],[-122.44113,37.46793],[-122.38321,37.43059],[-122.31942,37.38914],[-122.30442,37.37948],[-122.20761,37.31753],[-122.15569,37.28404],[-122.14805,37.27909],[-122.04883,37.21515],[-121.98686,37.17485],[-121.94042,37.14451],[-121.8599,37.09184],[-121.85101,37.08596],[-121.80285,37.05445],[-121.77882,37.03874],[-121.70025,36.98723],[-121.61419,36.9306],[-121.54954,36.88809],[-121.50194,36.85665],[-121.42855,36.80808],[-121.39959,36.7889],[-121.29516,36.71962]]}
}
