{
  "id": 2048379095,
  "type": "Feature",
  "properties": {
    "geom:area": 0,
    "geom:bbox": "-123.503900,37.266530,-122.063500,37.627410",
    "geom:latitude": 37.424211128919204,
    "geom:longitude": -122.68228422864055,
    "src:alt_label": "swim-approach",
    "src:geom": "swim",
    "swim:elevations": [
      5949,
      5798,
      5605,
      5351,
      5262,
      4968,
      4674,
      4344,
      4149,
      3812,
      3467,
      3279,
      3072,
      3048,
      3048,
      3022,
      2902,
      2793,
      2733,
      2572,
      2438,
      2438,
      2395,
      2276,
      2102,
      1951,
      1829,
      1829,
      1829,
      1829,
      1829,
      1829,
      1829,
      1829,
      1797,
      1651,
      1569,
      1369,
      1248,
      991,
      821,
      655,
      595,
      455,
      333,
      197,
      50,
      0
    ],
    "swim:geom": "approach",
    "swim:timestamps": [
      1789807287,
      1789807302,
      1789807323,
      1789807348,
      1789807358,
      1789807387,
      1789807417,
      1789807451,
      1789807473,
      1789807507,
      1789807541,
      1789807561,
      1789807594,
      1789807644,
      1789807676,
      1789807684,
      1789807718,
      1789807762,
      1789807779,
      1789807802,
      1789807856,
      1789807872,
      1789807914,
      1789807934,
      1789807959,
      1789807982,
      1789808034,
      1789808045,
      1789808098,
      1789808106,
      1789808154,
      1789808180,
      1789808213,
      1789808231,
      1789808279,
      1789808307,
      1789808325,
      1789808359,
      1789808386,
      1789808426,
      1789808454,
      1789808487,
      1789808500,
      1789808534,
      1789808565,
      1789808599,
      1789808637,
      1789808645
    ],
    "wof:geomhash": "8715ace273458d551a2cfe2b03504365",
    "wof:id": 2048379095,
    "wof:repo": "sfomuseum-data-flights-2026-09"
  },
  "bbox": [
    -123.5039,
    37.26653,
    -122.0635,
    37.62741
  ],
  "geometry": {"type":"LineString","coordinates":[[-123.5039,37.62741],[-123.47437,37.61054],[-123.43481,37.58787],[-123.38585,37.55989],[-123.36683,37.54894],[-123.31184,37.51734],[-123.25648,37.48545],[-123.19478,37.44988],[-123.1557,37.42735],[-123.0951,37.39227],[-123.03509,37.35752],[-123.00084,37.33769],[-122.94618,37.30589],[-122.87136,37.26653],[-122.8166,37.26838],[-122.80478,37.2711],[-122.75113,37.28356],[-122.68823,37.29865],[-122.66487,37.30412],[-122.63504,37.31116],[-122.56358,37.32757],[-122.54143,37.33264],[-122.48742,37.34508],[-122.46059,37.35122],[-122.42898,37.35855],[-122.39993,37.36808],[-122.35192,37.40545],[-122.34134,37.41384],[-122.28902,37.44866],[-122.27895,37.44925],[-122.21885,37.42791],[-122.18704,37.41489],[-122.14677,37.39826],[-122.12275,37.39407],[-122.0803,37.42614],[-122.0635,37.45132],[-122.06839,37.46835],[-122.09605,37.49684],[-122.12291,37.51484],[-122.16985,37.53449],[-122.20145,37.54804],[-122.23534,37.56231],[-122.24803,37.56766],[-122.27656,37.57967],[-122.29954,37.58927],[-122.32445,37.59979],[-122.35241,37.61156],[-122.35772,37.61373]]}
}
