{
  "id": 2048375029,
  "type": "Feature",
  "properties": {
    "geom:area": 0,
    "geom:bbox": "-122.527060,37.626390,-122.054430,38.496560",
    "geom:latitude": 38.02543890881395,
    "geom:longitude": -122.31051180076443,
    "src:alt_label": "swim-takeoff",
    "src:geom": "swim",
    "swim:elevations": [
      122,
      330,
      727,
      977,
      1097,
      1209,
      1556,
      2102,
      2218,
      2781,
      2987,
      3144,
      3322,
      3507,
      3635,
      3989,
      4185,
      4841,
      5065,
      5323,
      5518,
      5663,
      6143
    ],
    "swim:geom": "takeoff",
    "swim:timestamps": [
      1789738047,
      1789738063,
      1789738105,
      1789738129,
      1789738152,
      1789738175,
      1789738212,
      1789738255,
      1789738265,
      1789738312,
      1789738333,
      1789738352,
      1789738400,
      1789738432,
      1789738449,
      1789738490,
      1789738513,
      1789738581,
      1789738605,
      1789738635,
      1789738667,
      1789738688,
      1789738753
    ],
    "wof:geomhash": "da1d209b310da28911c61671c5b66088",
    "wof:id": 2048375029,
    "wof:repo": "sfomuseum-data-flights-2026-09"
  },
  "bbox": [
    -122.52706,
    37.62639,
    -122.05443,
    38.49656
  ],
  "geometry": {"type":"LineString","coordinates":[[-122.39308,37.62639],[-122.40743,37.63236],[-122.44803,37.64994],[-122.47179,37.66027],[-122.49676,37.67093],[-122.51952,37.68824],[-122.5253,37.73049],[-122.52706,37.7835],[-122.52281,37.7958],[-122.46192,37.82779],[-122.43404,37.84191],[-122.41707,37.8631],[-122.37872,37.92443],[-122.34902,37.9701],[-122.33223,37.99613],[-122.29278,38.05809],[-122.26927,38.09421],[-122.19886,38.20309],[-122.17421,38.24116],[-122.14243,38.29004],[-122.11176,38.34222],[-122.09656,38.37973],[-122.05443,38.49656]]}
}
