{
  "id": 2048254779,
  "type": "Feature",
  "properties": {
    "geom:area": 0,
    "geom:bbox": "-122.409010,37.625440,-122.233850,38.517040",
    "geom:latitude": 38.0533101787339,
    "geom:longitude": -122.2941447851732,
    "src:alt_label": "swim-takeoff",
    "src:geom": "swim",
    "swim:elevations": [
      122,
      521,
      910,
      1138,
      1258,
      1374,
      1834,
      2465,
      2747,
      3189,
      3304,
      3818,
      4154,
      4284,
      4911,
      5069,
      5468,
      5832,
      6063,
      6241,
      6432,
      6774,
      6880
    ],
    "swim:geom": "takeoff",
    "swim:timestamps": [
      1788549912,
      1788549942,
      1788549973,
      1788549999,
      1788550018,
      1788550027,
      1788550064,
      1788550108,
      1788550128,
      1788550161,
      1788550182,
      1788550218,
      1788550249,
      1788550261,
      1788550317,
      1788550332,
      1788550370,
      1788550405,
      1788550437,
      1788550458,
      1788550481,
      1788550523,
      1788550538
    ],
    "wof:geomhash": "f7073073f7ea0bd4d002899df6f8275d",
    "wof:id": 2048254779,
    "wof:repo": "sfomuseum-data-flights-2026-09"
  },
  "bbox": [
    -122.40901,
    37.62544,
    -122.23385,
    38.51704
  ],
  "geometry": {"type":"LineString","coordinates":[[-122.39103,37.62544],[-122.40901,37.64243],[-122.38672,37.66085],[-122.35893,37.67099],[-122.34808,37.68904],[-122.34769,37.69936],[-122.34561,37.74451],[-122.33536,37.80026],[-122.3305,37.82691],[-122.32154,37.87225],[-122.3159,37.90263],[-122.30585,37.95914],[-122.29712,38.00665],[-122.29372,38.02589],[-122.27577,38.11793],[-122.27078,38.14404],[-122.25854,38.20848],[-122.24692,38.26978],[-122.2365,38.32663],[-122.23385,38.3661],[-122.23753,38.40856],[-122.24572,38.48815],[-122.24873,38.51704]]}
}
