{
  "id": 2048450119,
  "type": "Feature",
  "properties": {
    "geom:area": 0,
    "geom:bbox": "-122.541660,36.718930,-121.293950,37.669410",
    "geom:latitude": 37.2050066303952,
    "geom:longitude": -122.00260639594009,
    "src:alt_label": "swim-takeoff",
    "src:geom": "swim",
    "swim:elevations": [
      152,
      428,
      892,
      1134,
      1312,
      1432,
      1851,
      2357,
      2565,
      2964,
      3232,
      3509,
      3670,
      4286,
      4552,
      4815,
      5174,
      5671,
      5880,
      6075,
      6188,
      6416,
      6801,
      6950,
      7176,
      7530,
      7685,
      7751,
      8085,
      8253,
      8507,
      8798,
      8904,
      9095
    ],
    "swim:geom": "takeoff",
    "swim:timestamps": [
      1790522341,
      1790522375,
      1790522428,
      1790522452,
      1790522472,
      1790522481,
      1790522512,
      1790522547,
      1790522562,
      1790522595,
      1790522629,
      1790522663,
      1790522673,
      1790522727,
      1790522753,
      1790522776,
      1790522803,
      1790522846,
      1790522869,
      1790522892,
      1790522907,
      1790522935,
      1790522968,
      1790522982,
      1790523007,
      1790523057,
      1790523082,
      1790523090,
      1790523137,
      1790523159,
      1790523196,
      1790523236,
      1790523257,
      1790523295
    ],
    "wof:geomhash": "388039800e50fc6cdcd618ce43ca37dc",
    "wof:id": 2048450119,
    "wof:repo": "sfomuseum-data-flights-2026-09"
  },
  "bbox": [
    -122.54166,
    36.71893,
    -121.29395,
    37.66941
  ],
  "geometry": {"type":"LineString","coordinates":[[-122.38722,37.62394],[-122.41642,37.6365],[-122.47389,37.66182],[-122.50478,37.66941],[-122.53211,37.66038],[-122.54064,37.65241],[-122.54166,37.61327],[-122.51761,37.57084],[-122.5082,37.55298],[-122.48703,37.51265],[-122.45315,37.47555],[-122.40143,37.44293],[-122.38594,37.4331],[-122.30461,37.38033],[-122.26362,37.35388],[-122.22648,37.33012],[-122.18154,37.301],[-122.11343,37.25687],[-122.07492,37.23186],[-122.03565,37.20631],[-122.01035,37.18987],[-121.9604,37.15741],[-121.90172,37.1193],[-121.87824,37.10397],[-121.83345,37.0746],[-121.74417,37.01602],[-121.69815,36.98577],[-121.68432,36.9766],[-121.59612,36.91829],[-121.55517,36.89136],[-121.48441,36.8454],[-121.40705,36.79441],[-121.36759,36.76785],[-121.29395,36.71893]]}
}
