{
  "id": 2048355393,
  "type": "Feature",
  "properties": {
    "geom:area": 0,
    "geom:bbox": "-122.404220,37.624690,-122.114940,38.518630",
    "geom:latitude": 38.04932645687908,
    "geom:longitude": -122.22143262780499,
    "src:alt_label": "swim-takeoff",
    "src:geom": "swim",
    "swim:elevations": [
      122,
      411,
      703,
      1063,
      1191,
      1306,
      1598,
      1932,
      2277,
      2538,
      3120,
      3231,
      3754,
      3993,
      4444,
      5131,
      5188,
      5441,
      5754,
      6095,
      6403,
      6582,
      6927,
      7351,
      7545
    ],
    "swim:geom": "takeoff",
    "swim:timestamps": [
      1789588464,
      1789588488,
      1789588515,
      1789588554,
      1789588578,
      1789588597,
      1789588635,
      1789588665,
      1789588697,
      1789588717,
      1789588761,
      1789588771,
      1789588815,
      1789588836,
      1789588868,
      1789588916,
      1789588921,
      1789588942,
      1789588971,
      1789589005,
      1789589030,
      1789589047,
      1789589076,
      1789589118,
      1789589134
    ],
    "wof:geomhash": "f033b03e4e21608c8f88a8a4519a85d6",
    "wof:id": 2048355393,
    "wof:repo": "sfomuseum-data-flights-2026-09"
  },
  "bbox": [
    -122.40422,
    37.62469,
    -122.11494,
    38.51863
  ],
  "geometry": {"type":"LineString","coordinates":[[-122.38903,37.62469],[-122.40422,37.63787],[-122.38809,37.65435],[-122.34849,37.66818],[-122.33188,37.68638],[-122.32663,37.70726],[-122.31358,37.75041],[-122.30097,37.78838],[-122.28671,37.83058],[-122.27743,37.85752],[-122.25657,37.91836],[-122.25187,37.93221],[-122.2299,37.99554],[-122.2193,38.02655],[-122.20301,38.07429],[-122.17744,38.1488],[-122.17492,38.15592],[-122.16313,38.18955],[-122.14724,38.23594],[-122.12785,38.29193],[-122.11656,38.334],[-122.11494,38.3643],[-122.11822,38.41446],[-122.12321,38.48824],[-122.12523,38.51863]]}
}
