{
  "id": 2048280071,
  "type": "Feature",
  "properties": {
    "geom:area": 0,
    "geom:bbox": "-122.410700,37.626390,-122.026330,38.518880",
    "geom:latitude": 38.055383407101225,
    "geom:longitude": -122.22273959514534,
    "src:alt_label": "swim-takeoff",
    "src:geom": "swim",
    "swim:elevations": [
      122,
      422,
      604,
      1002,
      1132,
      1213,
      1642,
      2005,
      2413,
      2553,
      2763,
      3189,
      3319,
      3549,
      3812,
      4187,
      4436,
      4964,
      5309,
      5432,
      5642,
      5913,
      6215,
      6700,
      6905
    ],
    "swim:geom": "takeoff",
    "swim:timestamps": [
      1788771508,
      1788771530,
      1788771545,
      1788771580,
      1788771598,
      1788771614,
      1788771653,
      1788771676,
      1788771703,
      1788771731,
      1788771748,
      1788771777,
      1788771788,
      1788771832,
      1788771855,
      1788771884,
      1788771906,
      1788771951,
      1788771984,
      1788772001,
      1788772022,
      1788772051,
      1788772081,
      1788772130,
      1788772153
    ],
    "wof:geomhash": "1cd1ce4027c6d61b03658348517add58",
    "wof:id": 2048280071,
    "wof:repo": "sfomuseum-data-flights-2026-09"
  },
  "bbox": [
    -122.4107,
    37.62639,
    -122.02633,
    38.51888
  ],
  "geometry": {"type":"LineString","coordinates":[[-122.39325,37.62639],[-122.4107,37.63883],[-122.40937,37.65075],[-122.379,37.66445],[-122.35934,37.67079],[-122.33954,37.67759],[-122.3124,37.71662],[-122.31006,37.74621],[-122.30724,37.78221],[-122.30369,37.81937],[-122.30115,37.842],[-122.29646,37.88192],[-122.29456,37.89768],[-122.28064,37.96515],[-122.26511,38.00111],[-122.24294,38.04871],[-122.22656,38.0842],[-122.19272,38.1586],[-122.16704,38.21535],[-122.15402,38.24389],[-122.13668,38.2818],[-122.11299,38.33347],[-122.08871,38.38603],[-122.04609,38.47738],[-122.02633,38.51888]]}
}
