{
  "id": 2048261443,
  "type": "Feature",
  "properties": {
    "geom:area": 0,
    "geom:bbox": "-122.543760,36.722910,-121.476830,37.665680",
    "geom:latitude": 37.21691311845026,
    "geom:longitude": -122.07928277322586,
    "src:alt_label": "swim-takeoff",
    "src:geom": "swim",
    "swim:elevations": [
      122,
      500,
      764,
      1151,
      1312,
      1824,
      2301,
      2752,
      3013,
      3290,
      3592,
      3837,
      4276,
      4423,
      4685,
      5246,
      5786,
      6055,
      6103,
      6659,
      6990,
      7261,
      7425,
      7631,
      7858,
      8193,
      8341,
      8584,
      8838,
      8880
    ],
    "swim:geom": "takeoff",
    "swim:timestamps": [
      1788593654,
      1788593681,
      1788593703,
      1788593750,
      1788593776,
      1788593809,
      1788593839,
      1788593876,
      1788593893,
      1788593924,
      1788593968,
      1788593988,
      1788594019,
      1788594036,
      1788594062,
      1788594106,
      1788594148,
      1788594175,
      1788594180,
      1788594235,
      1788594267,
      1788594295,
      1788594314,
      1788594341,
      1788594370,
      1788594415,
      1788594435,
      1788594467,
      1788594504,
      1788594510
    ],
    "wof:geomhash": "b19b83fcd2cf67ec8b1d8204b78385e4",
    "wof:id": 2048261443,
    "wof:repo": "sfomuseum-data-flights-2026-09"
  },
  "bbox": [
    -122.54376,
    36.72291,
    -121.47683,
    37.66568
  ],
  "geometry": {"type":"LineString","coordinates":[[-122.39225,37.62589],[-122.41697,37.63638],[-122.43596,37.64493],[-122.48271,37.66536],[-122.51894,37.66568],[-122.54376,37.63334],[-122.52927,37.59713],[-122.50664,37.55315],[-122.49548,37.53154],[-122.47246,37.49314],[-122.41181,37.44419],[-122.38248,37.42219],[-122.33466,37.38621],[-122.30899,37.36732],[-122.26623,37.33608],[-122.19247,37.2819],[-122.12205,37.22979],[-122.07583,37.19567],[-122.06814,37.19],[-121.97115,37.11791],[-121.9147,37.07577],[-121.86433,37.03821],[-121.83004,37.01263],[-121.78108,36.97548],[-121.72679,36.93469],[-121.64749,36.86805],[-121.61193,36.83729],[-121.5543,36.78785],[-121.48779,36.7322],[-121.47683,36.72291]]}
}
