{
  "id": 2048428841,
  "type": "Feature",
  "properties": {
    "geom:area": 0,
    "geom:bbox": "-122.357380,37.491120,-121.246360,37.613690",
    "geom:latitude": 37.546785285018515,
    "geom:longitude": -121.8068111322701,
    "src:alt_label": "swim-approach",
    "src:geom": "swim",
    "swim:elevations": [
      4767,
      4595,
      4261,
      3967,
      3637,
      3354,
      3219,
      3044,
      2988,
      2691,
      2653,
      2470,
      2378,
      2190,
      2037,
      1812,
      1829,
      1739,
      1683,
      1603,
      1410,
      1309,
      1156,
      922,
      893,
      758,
      704,
      587,
      531,
      421,
      275,
      178,
      153,
      1
    ],
    "swim:geom": "approach",
    "swim:timestamps": [
      1790371738,
      1790371754,
      1790371790,
      1790371820,
      1790371854,
      1790371884,
      1790371904,
      1790371948,
      1790371965,
      1790372007,
      1790372013,
      1790372040,
      1790372086,
      1790372117,
      1790372138,
      1790372180,
      1790372198,
      1790372216,
      1790372225,
      1790372240,
      1790372272,
      1790372286,
      1790372313,
      1790372362,
      1790372371,
      1790372398,
      1790372411,
      1790372432,
      1790372448,
      1790372481,
      1790372517,
      1790372545,
      1790372552,
      1790372585
    ],
    "wof:geomhash": "451ad973a18a6ec07bcedadc7b881c90",
    "wof:id": 2048428841,
    "wof:repo": "sfomuseum-data-flights-2026-09"
  },
  "bbox": [
    -122.35738,
    37.49112,
    -121.24636,
    37.61369
  ],
  "geometry": {"type":"LineString","coordinates":[[-121.24636,37.5949],[-121.27648,37.59084],[-121.34548,37.58336],[-121.40365,37.57663],[-121.4658,37.5694],[-121.52096,37.56303],[-121.55714,37.55875],[-121.63129,37.54911],[-121.65501,37.54358],[-121.71408,37.52946],[-121.72242,37.52745],[-121.75974,37.51842],[-121.82181,37.50358],[-121.86244,37.4939],[-121.8919,37.49112],[-121.95152,37.49277],[-121.97758,37.49382],[-122.00239,37.49938],[-122.01441,37.50336],[-122.03435,37.50974],[-122.07674,37.52342],[-122.09425,37.52909],[-122.12597,37.53959],[-122.17524,37.55536],[-122.18404,37.55821],[-122.21035,37.5667],[-122.22314,37.57072],[-122.2412,37.57671],[-122.25477,37.58105],[-122.27944,37.58837],[-122.30671,37.59642],[-122.32794,37.60265],[-122.33274,37.60409],[-122.35738,37.61369]]}
}
