{
  "id": 2048386521,
  "type": "Feature",
  "properties": {
    "geom:area": 0,
    "geom:bbox": "-122.361840,37.438140,-122.124700,37.614540",
    "geom:latitude": 37.51575235806014,
    "geom:longitude": -122.21725738486454,
    "src:alt_label": "swim-approach",
    "src:geom": "swim",
    "swim:elevations": [
      2528,
      2272,
      1889,
      1746,
      1561,
      1349,
      1281,
      1115,
      827,
      752,
      637,
      478,
      323,
      185,
      133,
      0
    ],
    "swim:geom": "approach",
    "swim:timestamps": [
      1789923424,
      1789923462,
      1789923508,
      1789923524,
      1789923547,
      1789923598,
      1789923608,
      1789923637,
      1789923684,
      1789923703,
      1789923725,
      1789923765,
      1789923802,
      1789923834,
      1789923850,
      1789923887
    ],
    "wof:geomhash": "db9438128acf8f28b5356a7da55e8110",
    "wof:id": 2048386521,
    "wof:repo": "sfomuseum-data-flights-2026-09"
  },
  "bbox": [
    -122.36184,
    37.43814,
    -122.1247,
    37.61454
  ],
  "geometry": {"type":"LineString","coordinates":[[-122.28512,37.47942],[-122.23755,37.46298],[-122.17941,37.44422],[-122.15786,37.43814],[-122.1292,37.44595],[-122.1247,37.49315],[-122.13287,37.50085],[-122.1563,37.52162],[-122.20115,37.54787],[-122.21917,37.55561],[-122.23863,37.56375],[-122.27167,37.57758],[-122.30084,37.58984],[-122.32414,37.59962],[-122.33581,37.60456],[-122.36184,37.61454]]}
}
