{
  "id": 2048347975,
  "type": "Feature",
  "properties": {
    "geom:area": 0,
    "geom:bbox": "-122.526460,37.634730,-122.272800,38.516140",
    "geom:latitude": 38.0452299297406,
    "geom:longitude": -122.39092081666065,
    "src:alt_label": "swim-takeoff",
    "src:geom": "swim",
    "swim:elevations": [
      584,
      693,
      1318,
      1728,
      1901,
      2797,
      2862,
      3048,
      3096,
      3454,
      4017,
      4062,
      4532,
      4999,
      5341,
      5646,
      6015,
      6933,
      7011,
      7010,
      7067,
      7104
    ],
    "swim:geom": "takeoff",
    "swim:timestamps": [
      1789491927,
      1789491935,
      1789491987,
      1789492017,
      1789492026,
      1789492078,
      1789492082,
      1789492149,
      1789492195,
      1789492223,
      1789492258,
      1789492262,
      1789492293,
      1789492325,
      1789492348,
      1789492366,
      1789492393,
      1789492466,
      1789492491,
      1789492509,
      1789492557,
      1789492560
    ],
    "wof:geomhash": "9441a175a90bec007e7b5c0c63e4c012",
    "wof:id": 2048347975,
    "wof:repo": "sfomuseum-data-flights-2026-09"
  },
  "bbox": [
    -122.52646,
    37.63473,
    -122.2728,
    38.51614
  ],
  "geometry": {"type":"LineString","coordinates":[[-122.41147,37.63473],[-122.41815,37.63761],[-122.47023,37.65965],[-122.50846,37.67852],[-122.51702,37.68758],[-122.52629,37.75373],[-122.52646,37.75912],[-122.48979,37.84901],[-122.4572,37.91416],[-122.43691,37.95417],[-122.41127,38.00377],[-122.40816,38.00968],[-122.3837,38.05732],[-122.35836,38.10704],[-122.33912,38.14433],[-122.3241,38.17343],[-122.30173,38.21669],[-122.2728,38.34336],[-122.27973,38.39024],[-122.28436,38.42308],[-122.297,38.51059],[-122.29782,38.51614]]}
}
