{
  "id": 2048335795,
  "type": "Feature",
  "properties": {
    "geom:area": 0,
    "geom:bbox": "-122.719900,37.418110,-122.166160,38.428860",
    "geom:latitude": 37.857966297236345,
    "geom:longitude": -122.47699721630738,
    "src:alt_label": "swim-approach",
    "src:geom": "swim",
    "swim:elevations": [
      8382,
      8228,
      7740,
      7568,
      7135,
      6600,
      6123,
      5835,
      5667,
      5383,
      4915,
      4688,
      4513,
      4109,
      3966,
      3747,
      3643,
      3521,
      3353,
      3353,
      3353,
      3353,
      3214,
      3023,
      2566,
      2383,
      2009,
      1905,
      1739,
      1555,
      1239,
      1219,
      1179,
      1024,
      822,
      757,
      669,
      607,
      398,
      326,
      225,
      167,
      82
    ],
    "swim:geom": "approach",
    "swim:timestamps": [
      1789411877,
      1789411899,
      1789411943,
      1789411958,
      1789411997,
      1789412038,
      1789412067,
      1789412093,
      1789412112,
      1789412139,
      1789412188,
      1789412211,
      1789412233,
      1789412276,
      1789412300,
      1789412330,
      1789412359,
      1789412376,
      1789412417,
      1789412445,
      1789412474,
      1789412503,
      1789412540,
      1789412561,
      1789412607,
      1789412627,
      1789412667,
      1789412681,
      1789412704,
      1789412720,
      1789412753,
      1789412767,
      1789412796,
      1789412826,
      1789412872,
      1789412898,
      1789412931,
      1789412947,
      1789412998,
      1789413025,
      1789413054,
      1789413074,
      1789413099
    ],
    "wof:geomhash": "e2561d8303180e6d429bd285ec59ccde",
    "wof:id": 2048335795,
    "wof:repo": "sfomuseum-data-flights-2026-09"
  },
  "bbox": [
    -122.7199,
    37.41811,
    -122.16616,
    38.42886
  ],
  "geometry": {"type":"LineString","coordinates":[[-122.41753,38.42886],[-122.45453,38.40734],[-122.53117,38.36264],[-122.55642,38.34762],[-122.62311,38.30899],[-122.69091,38.26775],[-122.7199,38.22351],[-122.71809,38.17745],[-122.71258,38.14336],[-122.70555,38.09646],[-122.692,38.01268],[-122.68552,37.97424],[-122.67968,37.93893],[-122.64537,37.87379],[-122.61354,37.84392],[-122.57433,37.80629],[-122.53936,37.77291],[-122.52067,37.75517],[-122.47622,37.71335],[-122.44573,37.68473],[-122.41647,37.65727],[-122.38941,37.63168],[-122.36123,37.59771],[-122.34942,37.57636],[-122.32099,37.53029],[-122.3081,37.50946],[-122.28351,37.46921],[-122.27486,37.45516],[-122.26095,37.43283],[-122.24697,37.4207],[-122.20268,37.41811],[-122.18616,37.4251],[-122.17097,37.45203],[-122.16616,37.48283],[-122.18012,37.52289],[-122.19461,37.5407],[-122.22556,37.55569],[-122.23928,37.56164],[-122.27951,37.57865],[-122.29723,37.58609],[-122.31637,37.59409],[-122.32984,37.59972],[-122.34644,37.6067]]}
}
