{
  "id": 2048352357,
  "type": "Feature",
  "properties": {
    "geom:area": 0,
    "geom:bbox": "-122.362540,37.470200,-121.288000,37.616930",
    "geom:latitude": 37.535587309204786,
    "geom:longitude": -121.83343271117712,
    "src:alt_label": "swim-approach",
    "src:geom": "swim",
    "swim:elevations": [
      4868,
      4678,
      4217,
      4037,
      3749,
      3447,
      3321,
      3139,
      3012,
      2868,
      2558,
      2349,
      2193,
      2134,
      2006,
      1804,
      1614,
      1524,
      1524,
      1481,
      1344,
      1113,
      961,
      703,
      662,
      435,
      383,
      244,
      31,
      275
    ],
    "swim:geom": "approach",
    "swim:timestamps": [
      1789554234,
      1789554251,
      1789554292,
      1789554306,
      1789554334,
      1789554375,
      1789554396,
      1789554436,
      1789554462,
      1789554482,
      1789554530,
      1789554563,
      1789554590,
      1789554627,
      1789554648,
      1789554685,
      1789554710,
      1789554739,
      1789554758,
      1789554791,
      1789554811,
      1789554856,
      1789554879,
      1789554928,
      1789554939,
      1789554975,
      1789554990,
      1789555031,
      1789555074,
      1789555087
    ],
    "wof:geomhash": "9d85276cecbde40c62441086e1cbc636",
    "wof:id": 2048352357,
    "wof:repo": "sfomuseum-data-flights-2026-09"
  },
  "bbox": [
    -122.36254,
    37.4702,
    -121.288,
    37.61693
  ],
  "geometry": {"type":"LineString","coordinates":[[-121.288,37.58933],[-121.31918,37.5859],[-121.39992,37.57728],[-121.4263,37.57421],[-121.48088,37.56767],[-121.55318,37.55928],[-121.58778,37.55515],[-121.64852,37.54495],[-121.68487,37.53634],[-121.71107,37.53013],[-121.76673,37.50646],[-121.80286,37.48709],[-121.83783,37.48343],[-121.88534,37.47949],[-121.91308,37.47711],[-121.95966,37.47292],[-121.99173,37.4702],[-122.02722,37.47421],[-122.04743,37.4828],[-122.08452,37.49852],[-122.10647,37.50789],[-122.15543,37.52862],[-122.18088,37.53927],[-122.22999,37.56085],[-122.24023,37.56509],[-122.27384,37.57874],[-122.28677,37.58404],[-122.31984,37.59785],[-122.35357,37.61201],[-122.36254,37.61693]]}
}
