{
  "id": 2048287303,
  "type": "Feature",
  "properties": {
    "date:inception_lower": "2026-09-08",
    "date:inception_upper": "2026-09-08",
    "edtf:cessation": "",
    "edtf:inception": "2026-09-08",
    "flysfo:actual_timestamp": -1,
    "flysfo:airline": "AZ",
    "flysfo:base_airline": "",
    "flysfo:base_flight_number": "3942",
    "flysfo:date": "2026-09-08",
    "flysfo:estimated_timestamp": 1788917940,
    "flysfo:event": "D",
    "flysfo:flight_number": "AZ4490",
    "flysfo:gate": "G4",
    "flysfo:journey": "SFO-LAS",
    "flysfo:scheduled_timestamp": 1788918360,
    "flysfo:timestamp": 1788918360,
    "geom:area": 0,
    "geom:bbox": "-122.370943,36.081003,-115.156440,37.617990",
    "geom:latitude": 36.8494965,
    "geom:longitude": -118.7636915,
    "iata:airline": "AZ",
    "iata:base_airline": "",
    "icao:airline": "ITY",
    "icao:base_airline": "ACA",
    "lbl:latitude": 37.61776,
    "lbl:longitude": -122.3918,
    "sfomuseum:airline_id": 1763699293,
    "sfomuseum:arrival_id": 102527209,
    "sfomuseum:base_flight_id": "20260908-D-ACA-3942",
    "sfomuseum:departure_id": 102527513,
    "sfomuseum:flight_id": "20260908-D-ITY-4490",
    "sfomuseum:flight_number": [
      "ITY4490",
      "AZ4490"
    ],
    "sfomuseum:placetype": "flight",
    "src:geom": "flysfo",
    "wof:belongsto": [
      1947304067,
      102527513,
      1947304129,
      102191575,
      85633793,
      102087579,
      85922583,
      554784711,
      85688637,
      1947304137,
      1947304069,
      102085387
    ],
    "wof:country": "US",
    "wof:created": 1788970384,
    "wof:geomhash": "ccf694144ef1f7a2823fe9bc7c6018ea",
    "wof:hierarchy": [
      {
        "building_id": 1947304067,
        "campus_id": 102527513,
        "concourse_id": 1947304129,
        "continent_id": 102191575,
        "country_id": 85633793,
        "county_id": 102087579,
        "custom_id": 2048287303,
        "flight_id": 2048287303,
        "locality_id": 85922583,
        "postalcode_id": 554784711,
        "region_id": 85688637,
        "venue_id": 1947304137,
        "wing_id": 1947304069
      },
      {
        "building_id": 1947304067,
        "campus_id": 102527513,
        "concourse_id": 1947304129,
        "continent_id": 102191575,
        "country_id": 85633793,
        "county_id": 102085387,
        "custom_id": 2048287303,
        "flight_id": 2048287303,
        "region_id": 85688637,
        "venue_id": 1947304137,
        "wing_id": 1947304069
      }
    ],
    "wof:id": 2048287303,
    "wof:involves": [
      102527209,
      102527513,
      1763699293,
      1947304137,
      1159283597
    ],
    "wof:lastmodified": 1788970384,
    "wof:name": "AZ4490 (SFO-LAS)",
    "wof:parent_id": 1947304137,
    "wof:placetype": "custom",
    "wof:placetype_alt": [
      "flight"
    ],
    "wof:repo": "sfomuseum-data-flights-2026-09",
    "wof:superseded_by": [],
    "wof:supersedes": []
  },
  "bbox": [
    -122.370943,
    36.081003,
    -115.15644,
    37.61799
  ],
  "geometry": {"type":"MultiPoint","coordinates":[[-122.370943,37.61799],[-115.15644,36.081003]]}
}
