{
  "id": 2048439837,
  "type": "Feature",
  "properties": {
    "geom:area": 0,
    "geom:bbox": "-122.338060,37.491280,-121.255510,37.605960",
    "geom:latitude": 37.54520996301687,
    "geom:longitude": -121.80128378568796,
    "src:alt_label": "swim-approach",
    "src:geom": "swim",
    "swim:elevations": [
      4570,
      4480,
      4259,
      4196,
      3732,
      3490,
      3268,
      3167,
      3048,
      2665,
      2614,
      2462,
      2295,
      2068,
      1935,
      1812,
      1765,
      1606,
      1422,
      1212,
      1043,
      901,
      853,
      640,
      423,
      334,
      179,
      130
    ],
    "swim:geom": "approach",
    "swim:timestamps": [
      1790417511,
      1790417520,
      1790417544,
      1790417551,
      1790417605,
      1790417632,
      1790417656,
      1790417678,
      1790417727,
      1790417788,
      1790417795,
      1790417831,
      1790417853,
      1790417891,
      1790417935,
      1790417965,
      1790417972,
      1790417997,
      1790418025,
      1790418058,
      1790418086,
      1790418115,
      1790418122,
      1790418165,
      1790418205,
      1790418222,
      1790418265,
      1790418278
    ],
    "wof:geomhash": "0cd9e65cb115af4850b00caf0852d740",
    "wof:id": 2048439837,
    "wof:repo": "sfomuseum-data-flights-2026-09"
  },
  "bbox": [
    -122.33806,
    37.49128,
    -121.25551,
    37.60596
  ],
  "geometry": {"type":"LineString","coordinates":[[-121.25551,37.59375],[-121.27409,37.5913],[-121.32022,37.58604],[-121.33186,37.58478],[-121.43393,37.57313],[-121.48408,37.56721],[-121.52987,37.56187],[-121.56932,37.55725],[-121.65035,37.5446],[-121.73948,37.52332],[-121.74926,37.52104],[-121.79978,37.50898],[-121.83052,37.50148],[-121.88501,37.49128],[-121.95004,37.49286],[-121.99273,37.49646],[-122.002,37.49927],[-122.03583,37.51027],[-122.07202,37.52196],[-122.11459,37.53571],[-122.14982,37.54722],[-122.18556,37.55876],[-122.19378,37.56133],[-122.23894,37.57605],[-122.27909,37.58814],[-122.29338,37.59231],[-122.3278,37.60267],[-122.33806,37.60596]]}
}
