{
  "id": 2048435489,
  "type": "Feature",
  "properties": {
    "geom:area": 0,
    "geom:bbox": "-122.546630,37.236720,-121.269440,37.665980",
    "geom:latitude": 37.42780245802739,
    "geom:longitude": -122.0035041584273,
    "src:alt_label": "swim-takeoff",
    "src:geom": "swim",
    "swim:elevations": [
      213,
      611,
      915,
      930,
      951,
      1197,
      1617,
      2276,
      2611,
      3206,
      3311,
      3537,
      4192,
      4496,
      4915,
      5662,
      6366,
      6790,
      7081,
      7226,
      7568,
      7839,
      8040,
      8259,
      8290,
      8445,
      8577,
      8662
    ],
    "swim:geom": "takeoff",
    "swim:timestamps": [
      1790378064,
      1790378090,
      1790378126,
      1790378138,
      1790378164,
      1790378195,
      1790378217,
      1790378247,
      1790378265,
      1790378303,
      1790378323,
      1790378348,
      1790378396,
      1790378416,
      1790378448,
      1790378512,
      1790378569,
      1790378605,
      1790378633,
      1790378648,
      1790378687,
      1790378722,
      1790378748,
      1790378781,
      1790378784,
      1790378805,
      1790378821,
      1790378833
    ],
    "wof:geomhash": "61fcd10dfd60da8794409e1a27d560d5",
    "wof:id": 2048435489,
    "wof:repo": "sfomuseum-data-flights-2026-09"
  },
  "bbox": [
    -122.54663,
    37.23672,
    -121.26944,
    37.66598
  ],
  "geometry": {"type":"LineString","coordinates":[[-122.38606,37.6235],[-122.40643,37.63221],[-122.4399,37.64631],[-122.45322,37.65213],[-122.48314,37.66484],[-122.5242,37.66598],[-122.54663,37.64799],[-122.54495,37.61135],[-122.53305,37.59084],[-122.50628,37.54568],[-122.48613,37.52071],[-122.44011,37.50378],[-122.33561,37.48428],[-122.29387,37.47549],[-122.22261,37.45944],[-122.07883,37.42572],[-121.94376,37.39452],[-121.85815,37.37477],[-121.79072,37.35907],[-121.75403,37.35058],[-121.65674,37.32792],[-121.5654,37.30653],[-121.49881,37.29081],[-121.41102,37.27009],[-121.40287,37.26809],[-121.34614,37.25475],[-121.30225,37.24433],[-121.26944,37.23672]]}
}
