{
  "id": 2048308225,
  "type": "Feature",
  "properties": {
    "geom:area": 0,
    "geom:bbox": "-122.345420,37.492140,-121.247090,37.608560",
    "geom:latitude": 37.54226474904039,
    "geom:longitude": -121.80301156286875,
    "src:alt_label": "swim-approach",
    "src:geom": "swim",
    "swim:elevations": [
      4662,
      4350,
      4076,
      3746,
      3492,
      3251,
      3107,
      3046,
      2858,
      2801,
      2521,
      2340,
      2253,
      2085,
      1877,
      1681,
      1627,
      1470,
      1268,
      1150,
      1041,
      893,
      698,
      577,
      432,
      332,
      213,
      152,
      88
    ],
    "swim:geom": "approach",
    "swim:timestamps": [
      1789174015,
      1789174048,
      1789174075,
      1789174108,
      1789174135,
      1789174162,
      1789174198,
      1789174222,
      1789174258,
      1789174267,
      1789174318,
      1789174348,
      1789174364,
      1789174400,
      1789174433,
      1789174466,
      1789174478,
      1789174502,
      1789174535,
      1789174568,
      1789174601,
      1789174635,
      1789174672,
      1789174696,
      1789174736,
      1789174763,
      1789174796,
      1789174814,
      1789174832
    ],
    "wof:geomhash": "b991a3b702116c753e14b21dd83830aa",
    "wof:id": 2048308225,
    "wof:repo": "sfomuseum-data-flights-2026-09"
  },
  "bbox": [
    -122.34542,
    37.49214,
    -121.24709,
    37.60856
  ],
  "geometry": {"type":"LineString","coordinates":[[-121.24709,37.59482],[-121.30935,37.58699],[-121.36005,37.58148],[-121.42172,37.57462],[-121.47191,37.56877],[-121.52194,37.56282],[-121.58707,37.55521],[-121.62725,37.54943],[-121.68395,37.53677],[-121.6983,37.53331],[-121.77963,37.51382],[-121.82442,37.50295],[-121.84831,37.49721],[-121.90091,37.49214],[-121.94642,37.49469],[-121.99138,37.49757],[-122.00777,37.49855],[-122.04049,37.50045],[-122.085,37.5031],[-122.12434,37.51538],[-122.15844,37.52984],[-122.19063,37.54343],[-122.22586,37.55827],[-122.24762,37.56741],[-122.27898,37.58067],[-122.29735,37.58829],[-122.32061,37.59816],[-122.33299,37.60333],[-122.34542,37.60856]]}
}
