{
  "id": 2048443761,
  "type": "Feature",
  "properties": {
    "geom:area": 0,
    "geom:bbox": "-122.406160,37.626940,-121.258600,38.163040",
    "geom:latitude": 37.98794163136009,
    "geom:longitude": -121.9455373530068,
    "src:alt_label": "swim-takeoff",
    "src:geom": "swim",
    "swim:elevations": [
      213,
      659,
      822,
      1277,
      1413,
      1436,
      1660,
      1997,
      2425,
      2657,
      3221,
      3409,
      3522,
      3941,
      4102,
      4592,
      4688,
      4959,
      5246,
      5720,
      5916,
      6192,
      6404,
      6536,
      6612,
      6645,
      6687,
      6769,
      6796
    ],
    "swim:geom": "takeoff",
    "swim:timestamps": [
      1790486814,
      1790486844,
      1790486856,
      1790486905,
      1790486929,
      1790486940,
      1790486963,
      1790486990,
      1790487019,
      1790487034,
      1790487085,
      1790487108,
      1790487120,
      1790487178,
      1790487193,
      1790487237,
      1790487246,
      1790487276,
      1790487306,
      1790487357,
      1790487381,
      1790487417,
      1790487445,
      1790487473,
      1790487500,
      1790487512,
      1790487524,
      1790487563,
      1790487574
    ],
    "wof:geomhash": "087b7c37bd01f68779f41c38705727e7",
    "wof:id": 2048443761,
    "wof:repo": "sfomuseum-data-flights-2026-09"
  },
  "bbox": [
    -122.40616,
    37.62694,
    -121.2586,
    38.16304
  ],
  "geometry": {"type":"LineString","coordinates":[[-122.39425,37.62694],[-122.40616,37.64729],[-122.40098,37.65637],[-122.3673,37.68918],[-122.34924,37.70935],[-122.3405,37.72166],[-122.34,37.74969],[-122.35505,37.78186],[-122.37343,37.81868],[-122.38214,37.83678],[-122.3828,37.90722],[-122.36209,37.93683],[-122.34307,37.94762],[-122.22534,37.97273],[-122.19289,37.97908],[-122.09574,37.99843],[-122.07578,38.00243],[-122.00818,38.01585],[-121.939,38.02981],[-121.81941,38.0533],[-121.76178,38.06502],[-121.67384,38.08239],[-121.60496,38.09588],[-121.53427,38.1097],[-121.46354,38.12338],[-121.4314,38.12964],[-121.39891,38.13596],[-121.29072,38.15685],[-121.2586,38.16304]]}
}
