{
  "id": 2048272091,
  "type": "Feature",
  "properties": {
    "geom:area": 0,
    "geom:bbox": "-122.362790,37.491520,-121.768310,37.616120",
    "geom:latitude": 37.53461464490198,
    "geom:longitude": -122.06797134528092,
    "src:alt_label": "swim-approach",
    "src:geom": "swim",
    "swim:elevations": [
      2583,
      2315,
      2187,
      2073,
      1861,
      1765,
      1534,
      1350,
      1196,
      1051,
      800,
      648,
      488,
      381,
      265,
      217,
      38,
      0
    ],
    "swim:geom": "approach",
    "swim:timestamps": [
      1788806076,
      1788806117,
      1788806142,
      1788806166,
      1788806215,
      1788806239,
      1788806265,
      1788806296,
      1788806320,
      1788806345,
      1788806393,
      1788806424,
      1788806459,
      1788806485,
      1788806512,
      1788806523,
      1788806570,
      1788806583
    ],
    "wof:geomhash": "4983f5aeede5a1ba5fcb91b14caa0b13",
    "wof:id": 2048272091,
    "wof:repo": "sfomuseum-data-flights-2026-09"
  },
  "bbox": [
    -122.36279,
    37.49152,
    -121.76831,
    37.61612
  ],
  "geometry": {"type":"LineString","coordinates":[[-121.76831,37.51651],[-121.83092,37.50157],[-121.86658,37.49329],[-121.90148,37.49152],[-121.97471,37.49346],[-122.0099,37.50162],[-122.04591,37.51338],[-122.08753,37.52692],[-122.11716,37.53657],[-122.14752,37.5465],[-122.20083,37.56371],[-122.23255,37.57392],[-122.26601,37.58432],[-122.2891,37.59073],[-122.31074,37.59772],[-122.31998,37.60038],[-122.35421,37.61222],[-122.36279,37.61612]]}
}
