{
  "id": 2048263627,
  "type": "Feature",
  "properties": {
    "geom:area": 0,
    "geom:bbox": "-122.400830,37.625250,-121.504930,38.509770",
    "geom:latitude": 38.03655875886658,
    "geom:longitude": -121.93679563445507,
    "src:alt_label": "swim-takeoff",
    "src:geom": "swim",
    "swim:elevations": [
      152,
      564,
      773,
      949,
      1322,
      1755,
      2222,
      2395,
      2857,
      3199,
      3501,
      3585,
      4280,
      4767,
      5136,
      5356,
      5730,
      6164,
      6487,
      6780,
      6955,
      7216,
      7458,
      7706,
      7865
    ],
    "swim:geom": "takeoff",
    "swim:timestamps": [
      1788633881,
      1788633918,
      1788633951,
      1788633961,
      1788634009,
      1788634040,
      1788634077,
      1788634092,
      1788634125,
      1788634150,
      1788634194,
      1788634200,
      1788634250,
      1788634287,
      1788634317,
      1788634334,
      1788634368,
      1788634406,
      1788634436,
      1788634467,
      1788634488,
      1788634520,
      1788634546,
      1788634573,
      1788634591
    ],
    "wof:geomhash": "cf7ddd721a837a6dbca2ca3b6b08839b",
    "wof:id": 2048263627,
    "wof:repo": "sfomuseum-data-flights-2026-09"
  },
  "bbox": [
    -122.40083,
    37.62525,
    -121.50493,
    38.50977
  ],
  "geometry": {"type":"LineString","coordinates":[[-122.39028,37.62525],[-122.40083,37.6486],[-122.36415,37.66516],[-122.3511,37.66968],[-122.28641,37.69225],[-122.23871,37.70912],[-122.19271,37.74195],[-122.17745,37.75922],[-122.14311,37.79637],[-122.11667,37.8258],[-122.06539,37.88264],[-122.05795,37.89077],[-121.99666,37.95814],[-121.94846,38.01132],[-121.90923,38.05436],[-121.8854,38.08045],[-121.83917,38.13093],[-121.7836,38.19162],[-121.74011,38.23909],[-121.69275,38.2896],[-121.65981,38.32489],[-121.6109,38.37864],[-121.56943,38.42405],[-121.52932,38.47416],[-121.50493,38.50977]]}
}
