{
  "id": 2048430481,
  "type": "Feature",
  "properties": {
    "geom:area": 0,
    "geom:bbox": "-122.360580,37.491750,-121.248500,37.615160",
    "geom:latitude": 37.546978397573156,
    "geom:longitude": -121.8095977702105,
    "src:alt_label": "swim-approach",
    "src:geom": "swim",
    "swim:elevations": [
      5058,
      4759,
      4375,
      4170,
      3907,
      3788,
      3413,
      3283,
      2984,
      2862,
      2636,
      2530,
      2446,
      2224,
      2044,
      1984,
      1819,
      1767,
      1668,
      1615,
      1376,
      1140,
      1048,
      786,
      649,
      600,
      418,
      304,
      259,
      123,
      55,
      0
    ],
    "swim:geom": "approach",
    "swim:timestamps": [
      1790377967,
      1790377992,
      1790378032,
      1790378057,
      1790378090,
      1790378103,
      1790378151,
      1790378167,
      1790378204,
      1790378217,
      1790378247,
      1790378268,
      1790378291,
      1790378329,
      1790378365,
      1790378380,
      1790378425,
      1790378432,
      1790378451,
      1790378462,
      1790378503,
      1790378548,
      1790378566,
      1790378608,
      1790378636,
      1790378651,
      1790378695,
      1790378722,
      1790378737,
      1790378772,
      1790378787,
      1790378799
    ],
    "wof:geomhash": "c6ade114816a8546cf31f91c49246e67",
    "wof:id": 2048430481,
    "wof:repo": "sfomuseum-data-flights-2026-09"
  },
  "bbox": [
    -122.36058,
    37.49175,
    -121.2485,
    37.61516
  ],
  "geometry": {"type":"LineString","coordinates":[[-121.2485,37.59475],[-121.29822,37.58818],[-121.3744,37.58001],[-121.41788,37.57508],[-121.47566,37.56847],[-121.4975,37.56591],[-121.58006,37.55605],[-121.60648,37.55302],[-121.66691,37.54075],[-121.68712,37.53588],[-121.73486,37.52453],[-121.76726,37.51686],[-121.80032,37.50888],[-121.85445,37.49584],[-121.90546,37.49175],[-121.927,37.4923],[-121.98635,37.49488],[-121.99533,37.49689],[-122.01863,37.50458],[-122.03207,37.50898],[-122.08197,37.52503],[-122.13621,37.54283],[-122.15716,37.54947],[-122.20322,37.56435],[-122.23093,37.57339],[-122.24524,37.57798],[-122.28448,37.58981],[-122.30443,37.59583],[-122.31592,37.59906],[-122.34116,37.60668],[-122.35167,37.61123],[-122.36058,37.61516]]}
}
