{
  "id": 2048326679,
  "type": "Feature",
  "properties": {
    "geom:area": 0,
    "geom:bbox": "-122.836740,37.427200,-122.124280,38.460090",
    "geom:latitude": 37.81595161977083,
    "geom:longitude": -122.49799650114652,
    "src:alt_label": "swim-approach",
    "src:geom": "swim",
    "swim:elevations": [
      7088,
      6969,
      6359,
      6142,
      5884,
      5535,
      5083,
      4918,
      4605,
      4390,
      4389,
      4232,
      3934,
      3732,
      3511,
      3354,
      3353,
      3353,
      3355,
      3344,
      3312,
      3078,
      2848,
      2665,
      2489,
      2306,
      1853,
      1582,
      1425,
      1304,
      1207,
      1071,
      971,
      942,
      798,
      730,
      599,
      395,
      298,
      212,
      120,
      63
    ],
    "swim:geom": "approach",
    "swim:timestamps": [
      1789325998,
      1789326011,
      1789326056,
      1789326072,
      1789326110,
      1789326145,
      1789326176,
      1789326189,
      1789326228,
      1789326263,
      1789326280,
      1789326314,
      1789326356,
      1789326383,
      1789326414,
      1789326447,
      1789326475,
      1789326486,
      1789326510,
      1789326547,
      1789326556,
      1789326589,
      1789326622,
      1789326648,
      1789326671,
      1789326695,
      1789326745,
      1789326778,
      1789326806,
      1789326832,
      1789326851,
      1789326875,
      1789326902,
      1789326927,
      1789326957,
      1789326972,
      1789327002,
      1789327046,
      1789327076,
      1789327104,
      1789327130,
      1789327145
    ],
    "wof:geomhash": "a658f6e2730fe539fe216f2ad66d17c4",
    "wof:id": 2048326679,
    "wof:repo": "sfomuseum-data-flights-2026-09"
  },
  "bbox": [
    -122.83674,
    37.4272,
    -122.12428,
    38.46009
  ],
  "geometry": {"type":"LineString","coordinates":[[-122.83674,38.46009],[-122.8289,38.43412],[-122.80218,38.34326],[-122.79329,38.31241],[-122.77164,38.23831],[-122.75168,38.16988],[-122.73377,38.10833],[-122.72671,38.08402],[-122.7058,38.01209],[-122.68883,37.95343],[-122.68151,37.92823],[-122.65303,37.88059],[-122.60148,37.83175],[-122.56766,37.7999],[-122.53065,37.76488],[-122.49051,37.72684],[-122.45774,37.69632],[-122.44472,37.68401],[-122.41728,37.65809],[-122.37753,37.6207],[-122.36899,37.61242],[-122.34197,37.57678],[-122.32432,37.53912],[-122.30928,37.51119],[-122.29381,37.48599],[-122.27601,37.46338],[-122.2128,37.43812],[-122.16998,37.4272],[-122.14202,37.44176],[-122.12946,37.4639],[-122.12428,37.48035],[-122.13582,37.4982],[-122.15341,37.51744],[-122.17154,37.53253],[-122.20001,37.5452],[-122.21458,37.5513],[-122.24261,37.56311],[-122.28097,37.57924],[-122.30209,37.58811],[-122.32113,37.59612],[-122.33933,37.60372],[-122.34961,37.60801]]}
}
