{
  "id": 2048387305,
  "type": "Feature",
  "properties": {
    "geom:area": 0,
    "geom:bbox": "-122.361510,37.460480,-121.274920,37.615080",
    "geom:latitude": 37.53912089105349,
    "geom:longitude": -121.82745357681169,
    "src:alt_label": "swim-approach",
    "src:geom": "swim",
    "swim:elevations": [
      4398,
      4264,
      3928,
      3554,
      3388,
      3226,
      3053,
      2967,
      2892,
      2741,
      2743,
      2705,
      2548,
      2430,
      2138,
      2115,
      1917,
      1837,
      1829,
      1829,
      1707,
      1511,
      1247,
      1009,
      824,
      698,
      514,
      461,
      304,
      204,
      63,
      0
    ],
    "swim:geom": "approach",
    "swim:timestamps": [
      1789893235,
      1789893248,
      1789893284,
      1789893327,
      1789893357,
      1789893389,
      1789893417,
      1789893439,
      1789893458,
      1789893504,
      1789893516,
      1789893534,
      1789893561,
      1789893577,
      1789893620,
      1789893647,
      1789893682,
      1789893704,
      1789893737,
      1789893757,
      1789893791,
      1789893813,
      1789893848,
      1789893881,
      1789893919,
      1789893944,
      1789893983,
      1789893995,
      1789894038,
      1789894063,
      1789894096,
      1789894111
    ],
    "wof:geomhash": "820eee423ee927655845ffce032a321a",
    "wof:id": 2048387305,
    "wof:repo": "sfomuseum-data-flights-2026-09"
  },
  "bbox": [
    -122.36151,
    37.46048,
    -121.27492,
    37.61508
  ],
  "geometry": {"type":"LineString","coordinates":[[-121.27492,37.59117],[-121.30155,37.58783],[-121.37377,37.5801],[-121.4607,37.57029],[-121.51547,37.56407],[-121.57187,37.55705],[-121.62018,37.55107],[-121.65466,37.54345],[-121.68405,37.53655],[-121.74999,37.53465],[-121.76568,37.54097],[-121.79079,37.54663],[-121.82471,37.53551],[-121.83475,37.52069],[-121.86276,37.48245],[-121.89965,37.47511],[-121.94512,37.46638],[-121.97299,37.46048],[-122.01534,37.46996],[-122.03858,37.47913],[-122.07307,37.49389],[-122.09616,37.50373],[-122.1328,37.51903],[-122.16689,37.53347],[-122.20502,37.54954],[-122.22888,37.55956],[-122.26323,37.57406],[-122.27261,37.57796],[-122.30578,37.59198],[-122.32494,37.59994],[-122.34992,37.61049],[-122.36151,37.61508]]}
}
