{
  "id": 2048279495,
  "type": "Feature",
  "properties": {
    "geom:area": 0,
    "geom:bbox": "-122.526530,37.668330,-121.439290,38.511950",
    "geom:latitude": 38.10846310388334,
    "geom:longitude": -122.03440594376367,
    "src:alt_label": "swim-takeoff",
    "src:geom": "swim",
    "swim:elevations": [
      1094,
      1190,
      1266,
      1953,
      2073,
      2424,
      2721,
      3049,
      3072,
      3263,
      3555,
      3863,
      4016,
      4245,
      4582,
      4881,
      5107,
      5361,
      5471,
      5862,
      6019,
      6302,
      6521,
      6698,
      6888,
      6948,
      7129
    ],
    "swim:geom": "takeoff",
    "swim:timestamps": [
      1788802223,
      1788802243,
      1788802260,
      1788802317,
      1788802325,
      1788802353,
      1788802384,
      1788802425,
      1788802440,
      1788802481,
      1788802526,
      1788802558,
      1788802576,
      1788802596,
      1788802630,
      1788802667,
      1788802693,
      1788802725,
      1788802741,
      1788802791,
      1788802810,
      1788802849,
      1788802882,
      1788802909,
      1788802930,
      1788802937,
      1788802964
    ],
    "wof:geomhash": "216aa8ba51779929d6a1846740a0bd52",
    "wof:id": 2048279495,
    "wof:repo": "sfomuseum-data-flights-2026-09"
  },
  "bbox": [
    -122.52653,
    37.66833,
    -121.43929,
    38.51195
  ],
  "geometry": {"type":"LineString","coordinates":[[-122.49023,37.66833],[-122.5132,37.6796],[-122.52565,37.69731],[-122.52653,37.77101],[-122.52645,37.78162],[-122.5047,37.81271],[-122.45532,37.83052],[-122.3973,37.8627],[-122.37808,37.87673],[-122.32169,37.91618],[-122.2492,37.96625],[-122.19736,38.00211],[-122.1662,38.02357],[-122.13256,38.04678],[-122.07466,38.08662],[-122.01034,38.13084],[-121.96477,38.16207],[-121.9073,38.20147],[-121.87773,38.22175],[-121.78492,38.2852],[-121.74934,38.30942],[-121.67376,38.36078],[-121.60866,38.4049],[-121.55484,38.44137],[-121.51104,38.46815],[-121.49597,38.47717],[-121.43929,38.51195]]}
}
