{
  "id": 2048458415,
  "type": "Feature",
  "properties": {
    "geom:area": 0,
    "geom:bbox": "-122.350000,33.359167,-111.850000,37.605000",
    "geom:latitude": 34.89160838481243,
    "geom:longitude": -117.5233839647958,
    "src:alt_label": "swim-path",
    "src:geom": "swim",
    "swim:altitudes": [
      "017",
      "041",
      "044",
      "069",
      "098",
      "097",
      "122",
      "127",
      "145",
      "146",
      "160",
      "164",
      "184",
      "188",
      "206",
      "219",
      "222",
      "271",
      "295",
      "298C",
      "300C",
      "300C",
      "300C",
      "300C",
      "300C",
      "300C",
      "300C",
      "300C",
      "300C",
      "300C",
      "300C",
      "300C",
      "300C",
      "300C",
      "300C",
      "300C",
      "300C",
      "300C",
      "300C",
      "300C",
      "300C",
      "300C",
      "300C",
      "300C",
      "300C",
      "300C",
      "300C",
      "300C",
      "300C",
      "300C",
      "300C",
      "300C",
      "300C",
      "300C",
      "300C",
      "300C",
      "300C",
      "300C",
      "300C",
      "300C",
      "300C",
      "300C",
      "300C",
      "300C",
      "300C",
      "300C",
      "300C",
      "300C",
      "300C",
      "300C",
      "300C",
      "300C",
      "300C",
      "300C",
      "300C",
      "300C",
      "300C",
      "300C",
      "300C",
      "300C",
      "300C",
      "300C",
      "300",
      "300",
      "300",
      "300",
      "300",
      "287",
      "264",
      "253",
      "244",
      "230",
      "221",
      "209",
      "201",
      "187",
      "182",
      "167",
      "162",
      "148",
      "141",
      "137",
      "133",
      "124",
      "118",
      "105",
      "099",
      "090",
      "090",
      "086",
      "083",
      "076",
      "073",
      "066",
      "060",
      "060",
      "060",
      "060",
      "060",
      "054",
      "045",
      "043",
      "038",
      "034",
      "028",
      "027",
      "022",
      "019",
      "014",
      "007",
      "004"
    ],
    "swim:geom": "path",
    "swim:speeds": [
      184,
      219,
      215,
      247,
      278,
      274,
      305,
      289,
      339,
      328,
      385,
      373,
      392,
      392,
      399,
      418,
      412,
      417,
      393,
      392,
      404,
      409,
      419,
      419,
      420,
      421,
      421,
      422,
      423,
      423,
      424,
      426,
      426,
      428,
      434,
      433,
      428,
      428,
      428,
      428,
      427,
      425,
      425,
      438,
      448,
      447,
      431,
      434,
      435,
      435,
      436,
      439,
      442,
      442,
      442,
      442,
      443,
      444,
      444,
      445,
      446,
      447,
      448,
      447,
      447,
      446,
      444,
      443,
      443,
      443,
      439,
      431,
      430,
      429,
      427,
      424,
      423,
      422,
      422,
      420,
      419,
      418,
      420,
      421,
      422,
      425,
      426,
      417,
      406,
      393,
      371,
      359,
      358,
      346,
      344,
      327,
      327,
      316,
      319,
      322,
      320,
      313,
      305,
      290,
      292,
      286,
      290,
      287,
      270,
      244,
      245,
      240,
      241,
      234,
      223,
      225,
      226,
      226,
      221,
      218,
      193,
      185,
      163,
      167,
      161,
      163,
      165,
      159,
      154,
      154,
      154
    ],
    "swim:timestamps": [
      1790649891,
      1790649945,
      1790649961,
      1790650005,
      1790650071,
      1790650081,
      1790650141,
      1790650150,
      1790650201,
      1790650210,
      1790650261,
      1790650270,
      1790650321,
      1790650330,
      1790650381,
      1790650441,
      1790650450,
      1790650571,
      1790650622,
      1790650631,
      1790650682,
      1790650691,
      1790650751,
      1790650811,
      1790650862,
      1790650871,
      1790650931,
      1790650991,
      1790651042,
      1790651051,
      1790651111,
      1790651163,
      1790651172,
      1790651223,
      1790651292,
      1790651352,
      1790651412,
      1790651472,
      1790651532,
      1790651592,
      1790651652,
      1790651712,
      1790651773,
      1790651833,
      1790651893,
      1790651953,
      1790652013,
      1790652073,
      1790652133,
      1790652193,
      1790652253,
      1790652313,
      1790652373,
      1790652434,
      1790652494,
      1790652554,
      1790652614,
      1790652674,
      1790652734,
      1790652794,
      1790652854,
      1790652914,
      1790652974,
      1790653031,
      1790653090,
      1790653150,
      1790653212,
      1790653270,
      1790653330,
      1790653390,
      1790653450,
      1790653510,
      1790653572,
      1790653632,
      1790653690,
      1790653750,
      1790653810,
      1790653870,
      1790653933,
      1790653991,
      1790654051,
      1790654111,
      1790654171,
      1790654231,
      1790654291,
      1790654351,
      1790654411,
      1790654469,
      1790654531,
      1790654559,
      1790654591,
      1790654619,
      1790654651,
      1790654679,
      1790654711,
      1790654745,
      1790654771,
      1790654805,
      1790654831,
      1790654859,
      1790654892,
      1790654920,
      1790654952,
      1790654979,
      1790655012,
      1790655039,
      1790655072,
      1790655094,
      1790655132,
      1790655159,
      1790655192,
      1790655219,
      1790655252,
      1790655280,
      1790655340,
      1790655372,
      1790655400,
      1790655432,
      1790655459,
      1790655492,
      1790655526,
      1790655552,
      1790655580,
      1790655612,
      1790655640,
      1790655672,
      1790655700,
      1790655732,
      1790655760,
      1790655820,
      1790655853
    ],
    "wof:geomhash": "1c4fb4dd45f85d8304d125dc41f14652",
    "wof:id": 2048458415,
    "wof:repo": "sfomuseum-data-flights-2026-09"
  },
  "bbox": [
    -122.35,
    33.35916666666667,
    -111.85,
    37.605000000000004
  ],
  "geometry": {"type":"LineString","coordinates":[[-111.98333333333333,33.43333333333333],[-111.91666666666667,33.43333333333333],[-111.91805555555555,33.43277777777777],[-111.85,33.416666666666664],[-111.9,33.36666666666667],[-111.89944444444446,33.35916666666667],[-111.99416666666667,33.37555555555556],[-112.01583333333333,33.37861111111111],[-112.10305555555556,33.38972222222222],[-112.12555555555555,33.39222222222222],[-112.22777777777777,33.40555555555555],[-112.2538888888889,33.409166666666664],[-112.35527777777777,33.42194444444444],[-112.38361111111112,33.42666666666666],[-112.4888888888889,33.43666666666666],[-112.62583333333333,33.45111111111111],[-112.6525,33.4525],[-112.92750000000001,33.475833333333334],[-113.02888888888889,33.495555555555555],[-113.05416666666666,33.50055555555556],[-113.15722222222223,33.51888888888889],[-113.18555555555555,33.52361111111111],[-113.32055555555556,33.54944444444444],[-113.44777777777779,33.573055555555555],[-113.56555555555555,33.594166666666666],[-113.58638888888889,33.59805555555556],[-113.72333333333333,33.62361111111111],[-113.85944444444443,33.64888888888889],[-113.98583333333333,33.67194444444444],[-113.99722222222222,33.674166666666665],[-114.13555555555556,33.7],[-114.27944444444444,33.737500000000004],[-114.27166666666666,33.73555555555556],[-114.41527777777779,33.77166666666667],[-114.54666666666667,33.80444444444444],[-114.68555555555555,33.839444444444446],[-114.82166666666666,33.87361111111111],[-114.95916666666668,33.907777777777774],[-115.09527777777777,33.94138888888889],[-115.23055555555555,33.974722222222226],[-115.39444444444445,34.014722222222225],[-115.53027777777778,34.0475],[-115.66694444444445,34.08111111111111],[-115.79388888888889,34.13472222222222],[-115.90416666666667,34.219722222222224],[-116.00777777777778,34.29361111111111],[-116.1463888888889,34.324444444444445],[-116.29138888888889,34.348888888888894],[-116.43444444444445,34.37305555555555],[-116.57916666666667,34.39694444444444],[-116.72055555555556,34.42027777777778],[-116.86805555555554,34.44444444444444],[-117.01416666666667,34.467777777777776],[-117.16083333333334,34.49138888888889],[-117.30749999999999,34.51444444444444],[-117.455,34.53777777777778],[-117.60249999999999,34.56055555555555],[-117.75222222222222,34.58361111111111],[-117.90027777777779,34.60638888888889],[-118.04722222222222,34.63138888888889],[-118.18111111111112,34.6875],[-118.31416666666667,34.75],[-118.44583333333334,34.81222222222222],[-118.57888888888888,34.875277777777775],[-118.70833333333334,34.93555555555555],[-118.83777777777777,34.99611111111111],[-118.96666666666667,35.05611111111111],[-119.09833333333333,35.11694444444444],[-119.23027777777779,35.17777777777778],[-119.36,35.23777777777778],[-119.49083333333333,35.2975],[-119.61694444444444,35.35527777777778],[-119.74027777777778,35.41111111111111],[-119.86749999999999,35.468611111111116],[-119.99555555555555,35.526666666666664],[-120.12083333333332,35.58277777777778],[-120.2461111111111,35.63861111111111],[-120.36999999999999,35.69277777777778],[-120.48944444444444,35.75194444444445],[-120.60499999999999,35.82416666666667],[-120.71777777777778,35.89416666666666],[-120.83222222222221,35.96527777777778],[-120.94638888888889,36.03583333333333],[-121.06194444444444,36.106944444444444],[-121.17722222222223,36.17777777777778],[-121.29555555555555,36.25],[-121.41166666666668,36.32083333333334],[-121.53333333333333,36.4],[-121.63916666666667,36.459722222222226],[-121.7,36.5],[-121.73,36.53527777777778],[-121.76666666666667,36.583333333333336],[-121.7975,36.61972222222222],[-121.83333333333333,36.666666666666664],[-121.86027777777777,36.698611111111106],[-121.9,36.75],[-121.90527777777778,36.782222222222224],[-121.91666666666667,36.85],[-121.92944444444444,36.86694444444444],[-121.95,36.916666666666664],[-121.95916666666668,36.9525],[-122.01666666666667,36.983333333333334],[-122.05222222222221,36.99611111111111],[-122.11666666666666,37.016666666666666],[-122.14277777777778,37.03333333333333],[-122.18333333333334,37.06666666666667],[-122.21333333333334,37.09],[-122.25,37.11666666666667],[-122.27472222222222,37.15083333333333],[-122.3,37.18333333333333],[-122.31,37.21194444444445],[-122.33333333333333,37.25],[-122.33694444444444,37.275],[-122.35,37.31666666666667],[-122.35,37.36666666666667],[-122.31944444444444,37.3725],[-122.26666666666667,37.36666666666667],[-122.24555555555555,37.37555555555556],[-122.2,37.4],[-122.19444444444444,37.41833333333333],[-122.16666666666667,37.45],[-122.16583333333334,37.468611111111116],[-122.15,37.5],[-122.16000000000001,37.50972222222222],[-122.18333333333334,37.53333333333333],[-122.19666666666667,37.54333333333333],[-122.23333333333333,37.55],[-122.24722222222222,37.565],[-122.28333333333333,37.583333333333336],[-122.31666666666666,37.6],[-122.34222222222222,37.605000000000004]]}
}
