{
  "id": 2048428843,
  "type": "Feature",
  "properties": {
    "geom:area": 0,
    "geom:bbox": "-122.362290,36.737460,-121.888020,37.614040",
    "geom:latitude": 37.234988164830185,
    "geom:longitude": -122.06858221291563,
    "src:alt_label": "swim-approach",
    "src:geom": "swim",
    "swim:elevations": [
      5185,
      5144,
      5080,
      4678,
      4501,
      4128,
      3932,
      3748,
      3612,
      3390,
      3017,
      2971,
      2763,
      2681,
      2499,
      2349,
      2184,
      1955,
      1858,
      1846,
      1726,
      1367,
      1086,
      853,
      693,
      511,
      379,
      330,
      231,
      204,
      36,
      271
    ],
    "swim:geom": "approach",
    "swim:timestamps": [
      1790360276,
      1790360280,
      1790360288,
      1790360329,
      1790360350,
      1790360389,
      1790360411,
      1790360436,
      1790360460,
      1790360509,
      1790360574,
      1790360580,
      1790360614,
      1790360629,
      1790360665,
      1790360694,
      1790360721,
      1790360758,
      1790360781,
      1790360790,
      1790360840,
      1790360895,
      1790360944,
      1790360989,
      1790361011,
      1790361044,
      1790361076,
      1790361087,
      1790361117,
      1790361125,
      1790361172,
      1790361184
    ],
    "wof:geomhash": "6eac22c2064e5fd7fd2107557a462e7f",
    "wof:id": 2048428843,
    "wof:repo": "sfomuseum-data-flights-2026-09"
  },
  "bbox": [
    -122.36229,
    36.73746,
    -121.88802,
    37.61404
  ],
  "geometry": {"type":"LineString","coordinates":[[-121.88802,36.73746],[-121.8917,36.74419],[-121.89733,36.75668],[-121.91668,36.82233],[-121.92604,36.85576],[-121.94327,36.91719],[-121.95344,36.95283],[-121.96746,36.98928],[-121.98028,37.02276],[-122.00539,37.08618],[-122.03588,37.16335],[-122.03871,37.17051],[-122.05437,37.21002],[-122.06129,37.22809],[-122.07677,37.26928],[-122.08931,37.3019],[-122.10205,37.33265],[-122.09845,37.37523],[-122.07998,37.39828],[-122.07279,37.40691],[-122.07251,37.46027],[-122.118,37.50915],[-122.17386,37.53457],[-122.21784,37.55188],[-122.2367,37.56014],[-122.26211,37.57141],[-122.28574,37.58116],[-122.29382,37.58449],[-122.31469,37.59324],[-122.32,37.59548],[-122.35252,37.60929],[-122.36229,37.61404]]}
}
