{
  "id": 2048224351,
  "type": "Feature",
  "properties": {
    "geom:area": 0,
    "geom:bbox": "-122.359500,37.491250,-121.257850,37.614600",
    "geom:latitude": 37.54653862137824,
    "geom:longitude": -121.81359536374119,
    "src:alt_label": "swim-approach",
    "src:geom": "swim",
    "swim:elevations": [
      5243,
      4890,
      4792,
      4251,
      3977,
      3570,
      3343,
      3177,
      3050,
      3041,
      2658,
      2557,
      2305,
      2088,
      2011,
      1905,
      1793,
      1622,
      1371,
      1206,
      1074,
      989,
      740,
      610,
      472,
      393,
      243,
      94,
      0
    ],
    "swim:geom": "approach",
    "swim:timestamps": [
      1788294089,
      1788294117,
      1788294126,
      1788294172,
      1788294196,
      1788294232,
      1788294268,
      1788294297,
      1788294327,
      1788294338,
      1788294375,
      1788294391,
      1788294430,
      1788294468,
      1788294488,
      1788294516,
      1788294545,
      1788294573,
      1788294615,
      1788294655,
      1788294675,
      1788294693,
      1788294743,
      1788294778,
      1788294801,
      1788294825,
      1788294866,
      1788294896,
      1788294921
    ],
    "wof:geomhash": "0b67a667cc4fbfa7aaf54db3b21d04d3",
    "wof:id": 2048224351,
    "wof:repo": "sfomuseum-data-flights-2026-09"
  },
  "bbox": [
    -122.3595,
    37.49125,
    -121.25785,
    37.6146
  ],
  "geometry": {"type":"LineString","coordinates":[[-121.25785,37.59347],[-121.31289,37.5869],[-121.32909,37.58514],[-121.41863,37.57482],[-121.46426,37.56954],[-121.53122,37.56153],[-121.59892,37.55383],[-121.64789,37.54526],[-121.6949,37.53409],[-121.71184,37.53009],[-121.76534,37.51714],[-121.78828,37.51169],[-121.84136,37.49903],[-121.89383,37.49125],[-121.92201,37.49202],[-121.95911,37.49309],[-121.99555,37.49717],[-122.02938,37.50804],[-122.07944,37.5248],[-122.1262,37.53954],[-122.14854,37.54608],[-122.16749,37.55267],[-122.21611,37.56865],[-122.24693,37.57795],[-122.26528,37.58423],[-122.2844,37.59034],[-122.31652,37.60018],[-122.34028,37.60738],[-122.3595,37.6146]]}
}
