{
  "id": 2048421239,
  "type": "Feature",
  "properties": {
    "geom:area": 0,
    "geom:bbox": "-122.353240,36.760370,-121.898580,37.611870",
    "geom:latitude": 37.235008068353366,
    "geom:longitude": -122.07666353070356,
    "src:alt_label": "swim-approach",
    "src:geom": "swim",
    "swim:elevations": [
      5241,
      5024,
      4666,
      4435,
      4093,
      3726,
      3408,
      3177,
      3107,
      2985,
      2751,
      2690,
      2527,
      2388,
      2203,
      1969,
      1824,
      1706,
      1326,
      1121,
      944,
      838,
      731,
      579,
      484,
      367,
      341,
      279,
      106,
      40
    ],
    "swim:geom": "approach",
    "swim:timestamps": [
      1790233798,
      1790233820,
      1790233855,
      1790233878,
      1790233912,
      1790233946,
      1790233978,
      1790234003,
      1790234030,
      1790234065,
      1790234097,
      1790234105,
      1790234131,
      1790234152,
      1790234174,
      1790234210,
      1790234228,
      1790234250,
      1790234297,
      1790234334,
      1790234365,
      1790234379,
      1790234400,
      1790234428,
      1790234451,
      1790234475,
      1790234484,
      1790234501,
      1790234548,
      1790234560
    ],
    "wof:geomhash": "e44deae84e7421bdf73eda6e1d5f7f60",
    "wof:id": 2048421239,
    "wof:repo": "sfomuseum-data-flights-2026-09"
  },
  "bbox": [
    -122.35324,
    36.76037,
    -121.89858,
    37.61187
  ],
  "geometry": {"type":"LineString","coordinates":[[-121.89858,36.76037],[-121.90957,36.7973],[-121.92577,36.85422],[-121.93629,36.89178],[-121.95191,36.94724],[-121.97209,37.0009],[-121.99101,37.05003],[-122.00597,37.08759],[-122.02113,37.12678],[-122.03985,37.17422],[-122.05683,37.21689],[-122.06106,37.22764],[-122.07408,37.26115],[-122.08464,37.28817],[-122.09566,37.31634],[-122.11362,37.36258],[-122.1226,37.38561],[-122.13168,37.41344],[-122.15251,37.47316],[-122.16777,37.52006],[-122.18155,37.55654],[-122.19409,37.56644],[-122.21903,37.57227],[-122.24851,37.57903],[-122.26873,37.58459],[-122.28817,37.59042],[-122.29518,37.59272],[-122.30905,37.59697],[-122.34473,37.60822],[-122.35324,37.61187]]}
}
