{
  "id": 2048368073,
  "type": "Feature",
  "properties": {
    "geom:area": 0,
    "geom:bbox": "-122.359950,37.491370,-121.245080,37.614560",
    "geom:latitude": 37.54705126662263,
    "geom:longitude": -121.80748034644306,
    "src:alt_label": "swim-approach",
    "src:geom": "swim",
    "swim:elevations": [
      4578,
      4339,
      3901,
      3611,
      3595,
      3462,
      3204,
      3045,
      2886,
      2611,
      2583,
      2395,
      2221,
      2097,
      1965,
      1850,
      1677,
      1616,
      1523,
      1417,
      1226,
      1067,
      915,
      731,
      608,
      448,
      304,
      183,
      131,
      0
    ],
    "swim:geom": "approach",
    "swim:timestamps": [
      1789767732,
      1789767756,
      1789767801,
      1789767833,
      1789767836,
      1789767850,
      1789767877,
      1789767921,
      1789767951,
      1789767988,
      1789767992,
      1789768046,
      1789768069,
      1789768101,
      1789768134,
      1789768166,
      1789768197,
      1789768208,
      1789768224,
      1789768242,
      1789768278,
      1789768308,
      1789768332,
      1789768365,
      1789768392,
      1789768427,
      1789768459,
      1789768496,
      1789768508,
      1789768538
    ],
    "wof:geomhash": "28d7459aa5e9a14da4aa7c5b806d372f",
    "wof:id": 2048368073,
    "wof:repo": "sfomuseum-data-flights-2026-09"
  },
  "bbox": [
    -122.35995,
    37.49137,
    -121.24508,
    37.61456
  ],
  "geometry": {"type":"LineString","coordinates":[[-121.24508,37.59517],[-121.29361,37.58884],[-121.38214,37.57922],[-121.44369,37.57191],[-121.44947,37.57122],[-121.47593,37.56818],[-121.52831,37.56212],[-121.60777,37.5527],[-121.65701,37.54304],[-121.71732,37.52864],[-121.72336,37.52715],[-121.80618,37.50742],[-121.84051,37.49915],[-121.88728,37.49137],[-121.93341,37.49239],[-121.97831,37.49392],[-122.01696,37.5042],[-122.03023,37.50853],[-122.04943,37.51468],[-122.07168,37.52178],[-122.11631,37.53636],[-122.15169,37.54794],[-122.17885,37.5564],[-122.21434,37.56818],[-122.2417,37.57677],[-122.27341,37.58666],[-122.29946,37.59409],[-122.32837,37.60268],[-122.33745,37.60551],[-122.35995,37.61456]]}
}
