{
  "id": 2048458085,
  "type": "Feature",
  "properties": {
    "geom:area": 0,
    "geom:bbox": "-122.357870,37.491460,-121.268780,37.613560",
    "geom:latitude": 37.54208071346953,
    "geom:longitude": -121.82024152820625,
    "src:alt_label": "swim-approach",
    "src:geom": "swim",
    "swim:elevations": [
      4677,
      4483,
      4236,
      3840,
      3508,
      3258,
      3105,
      3075,
      2868,
      2808,
      2471,
      2400,
      2305,
      2108,
      1848,
      1737,
      1551,
      1499,
      1227,
      1159,
      1099,
      925,
      721,
      580,
      458,
      366,
      248,
      185,
      121,
      62,
      0
    ],
    "swim:geom": "approach",
    "swim:timestamps": [
      1790662298,
      1790662315,
      1790662338,
      1790662373,
      1790662402,
      1790662425,
      1790662454,
      1790662465,
      1790662495,
      1790662504,
      1790662557,
      1790662578,
      1790662596,
      1790662634,
      1790662679,
      1790662708,
      1790662737,
      1790662746,
      1790662797,
      1790662815,
      1790662833,
      1790662875,
      1790662915,
      1790662944,
      1790662969,
      1790662994,
      1790663029,
      1790663038,
      1790663055,
      1790663071,
      1790663082
    ],
    "wof:geomhash": "c5a995779df007b7884dd17d91e19a1b",
    "wof:id": 2048458085,
    "wof:repo": "sfomuseum-data-flights-2026-09"
  },
  "bbox": [
    -122.35787,
    37.49146,
    -121.26878,
    37.61356
  ],
  "geometry": {"type":"LineString","coordinates":[[-121.26878,37.59213],[-121.30525,37.58736],[-121.35487,37.58193],[-121.42786,37.57394],[-121.48774,37.56689],[-121.53408,37.5615],[-121.59028,37.55492],[-121.61149,37.55236],[-121.66513,37.54106],[-121.68095,37.53735],[-121.77107,37.51572],[-121.80416,37.50781],[-121.83169,37.50129],[-121.8878,37.49146],[-121.95146,37.49514],[-121.9917,37.49743],[-122.03068,37.49973],[-122.0426,37.50042],[-122.10603,37.50761],[-122.12448,37.51555],[-122.1428,37.52326],[-122.18506,37.54107],[-122.22502,37.55777],[-122.25175,37.56925],[-122.27244,37.57772],[-122.29113,37.58574],[-122.31752,37.59699],[-122.3247,37.60005],[-122.33773,37.60537],[-122.3498,37.61052],[-122.35787,37.61356]]}
}
