{
  "id": 2048451413,
  "type": "Feature",
  "properties": {
    "geom:area": 0,
    "geom:bbox": "-120.879722,38.872500,-105.071944,48.424167",
    "geom:latitude": 43.95600064914021,
    "geom:longitude": -113.16238003268344,
    "src:alt_label": "swim-path",
    "src:geom": "swim",
    "swim:altitudes": [
      "277",
      "281",
      "287",
      "294",
      "301",
      "306",
      "307",
      "317",
      "323",
      "327",
      "330",
      "330",
      "330",
      "330",
      "338",
      "352",
      "355",
      "359",
      "363",
      "363",
      "366",
      "366",
      "367",
      "368C",
      "370C",
      "370C",
      "370C",
      "370C",
      "370C",
      "370C",
      "370C",
      "370C",
      "370C",
      "370C",
      "370C",
      "370C",
      "370C",
      "370C",
      "370C",
      "370C",
      "370C",
      "370C",
      "370C",
      "370C",
      "370C",
      "370C",
      "370C",
      "370C",
      "370C",
      "370C",
      "370C",
      "370C",
      "370C",
      "370C",
      "370C",
      "370C",
      "370C",
      "370C",
      "370C",
      "370C",
      "370C",
      "370C",
      "370C",
      "370C",
      "370C",
      "370C",
      "370C",
      "370C",
      "370C",
      "370C",
      "370C",
      "370C",
      "370C",
      "370C",
      "370C",
      "370C",
      "370C",
      "370C",
      "370C",
      "370C",
      "370C",
      "370C",
      "370C",
      "370C",
      "370C",
      "370C",
      "370C",
      "370C",
      "370C",
      "370C",
      "370C",
      "370C",
      "370C",
      "370C",
      "370C",
      "370C",
      "370C",
      "370C",
      "370C",
      "370C",
      "370C",
      "370C",
      "370C",
      "370C",
      "370C",
      "370C",
      "370C",
      "370C",
      "370C",
      "370C",
      "370C",
      "370C",
      "370C",
      "370C",
      "370",
      "375",
      "379C",
      "380C"
    ],
    "swim:geom": "path",
    "swim:speeds": [
      489,
      490,
      497,
      502,
      514,
      515,
      525,
      534,
      535,
      536,
      537,
      549,
      547,
      550,
      548,
      546,
      541,
      540,
      541,
      542,
      543,
      543,
      546,
      546,
      546,
      545,
      545,
      545,
      545,
      545,
      545,
      545,
      545,
      545,
      546,
      546,
      546,
      545,
      544,
      543,
      543,
      543,
      543,
      542,
      541,
      542,
      543,
      545,
      547,
      548,
      549,
      550,
      549,
      547,
      546,
      546,
      545,
      544,
      544,
      544,
      544,
      543,
      544,
      544,
      543,
      543,
      543,
      542,
      542,
      542,
      544,
      544,
      545,
      544,
      543,
      543,
      544,
      543,
      542,
      540,
      537,
      536,
      535,
      534,
      533,
      533,
      532,
      530,
      529,
      529,
      529,
      531,
      532,
      531,
      530,
      529,
      528,
      528,
      528,
      527,
      527,
      527,
      526,
      525,
      524,
      523,
      524,
      525,
      525,
      524,
      523,
      524,
      525,
      526,
      526,
      527,
      529,
      532
    ],
    "swim:timestamps": [
      1790571744,
      1790571790,
      1790571804,
      1790571864,
      1790571924,
      1790571970,
      1790571984,
      1790572044,
      1790572091,
      1790572105,
      1790572151,
      1790572165,
      1790572211,
      1790572225,
      1790572271,
      1790572331,
      1790572345,
      1790572405,
      1790572451,
      1790572465,
      1790572511,
      1790572525,
      1790572571,
      1790572585,
      1790572631,
      1790572645,
      1790572691,
      1790572705,
      1790572751,
      1790572765,
      1790572811,
      1790572825,
      1790572871,
      1790572885,
      1790572931,
      1790572945,
      1790572991,
      1790573005,
      1790573051,
      1790573065,
      1790573111,
      1790573172,
      1790573232,
      1790573292,
      1790573352,
      1790573412,
      1790573472,
      1790573532,
      1790573592,
      1790573652,
      1790573712,
      1790573772,
      1790573832,
      1790573892,
      1790573952,
      1790574012,
      1790574072,
      1790574132,
      1790574192,
      1790574253,
      1790574313,
      1790574373,
      1790574433,
      1790574493,
      1790574553,
      1790574613,
      1790574673,
      1790574733,
      1790574793,
      1790574853,
      1790574913,
      1790574973,
      1790575033,
      1790575093,
      1790575153,
      1790575213,
      1790575273,
      1790575334,
      1790575394,
      1790575454,
      1790575514,
      1790575574,
      1790575634,
      1790575694,
      1790575754,
      1790575814,
      1790575874,
      1790575934,
      1790575994,
      1790576054,
      1790576114,
      1790576174,
      1790576234,
      1790576294,
      1790576354,
      1790576414,
      1790576474,
      1790576535,
      1790576595,
      1790576655,
      1790576715,
      1790576775,
      1790576835,
      1790576895,
      1790576955,
      1790577015,
      1790577075,
      1790577135,
      1790577195,
      1790577255,
      1790577315,
      1790577375,
      1790577435,
      1790577495,
      1790577555,
      1790577615,
      1790577675,
      1790577735
    ],
    "wof:geomhash": "efd11e24d8e474aee760a24e4c704b04",
    "wof:id": 2048451413,
    "wof:repo": "sfomuseum-data-flights-2026-09"
  },
  "bbox": [
    -120.87972222222221,
    38.8725,
    -105.07194444444444,
    48.424166666666665
  ],
  "geometry": {"type":"LineString","coordinates":[[-120.87972222222221,38.8725],[-120.79888888888888,38.9325],[-120.75194444444445,38.971111111111114],[-120.62694444444443,39.068333333333335],[-120.4961111111111,39.16916666666666],[-120.41166666666668,39.23305555555556],[-120.36138888888888,39.272777777777776],[-120.2238888888889,39.37777777777778],[-120.13722222222223,39.44277777777778],[-120.08138888888888,39.48638888888889],[-119.99805555555555,39.54722222222222],[-119.94194444444445,39.591944444444444],[-119.8561111111111,39.656388888888884],[-119.79805555555555,39.70055555555556],[-119.71388888888889,39.763333333333335],[-119.55166666666666,39.88527777777778],[-119.51666666666667,39.91138888888889],[-119.37416666666665,40.01722222222222],[-119.2625,40.1],[-119.23277777777778,40.121944444444445],[-119.12027777777777,40.20472222222222],[-119.08916666666666,40.2275],[-119.0025,40.29111111111111],[-118.94500000000001,40.33305555555556],[-118.8586111111111,40.39611111111111],[-118.79944444444445,40.439166666666665],[-118.71527777777779,40.500277777777775],[-118.65611111111112,40.54333333333333],[-118.57194444444444,40.60416666666667],[-118.51083333333334,40.64833333333333],[-118.42666666666668,40.70888888888889],[-118.36777777777777,40.75111111111111],[-118.28055555555555,40.81361111111111],[-118.22027777777778,40.85666666666667],[-118.13416666666667,40.91777777777777],[-118.10138888888888,40.941111111111105],[-117.98805555555556,41.02166666666667],[-117.95583333333333,41.04416666666666],[-117.84027777777777,41.12583333333333],[-117.81027777777777,41.14694444444444],[-117.69527777777778,41.22777777777778],[-117.54555555555555,41.3325],[-117.39916666666667,41.43444444444444],[-117.25166666666667,41.53638888888889],[-117.10222222222221,41.63944444444444],[-116.9538888888889,41.74111111111111],[-116.80499999999999,41.8425],[-116.65361111111112,41.94499999999999],[-116.50138888888888,42.047777777777775],[-116.34916666666666,42.150277777777774],[-116.19555555555556,42.25277777777778],[-116.04277777777777,42.35388888888889],[-115.88861111111112,42.45583333333334],[-115.73611111111111,42.55611111111111],[-115.58333333333333,42.655833333333334],[-115.43138888888889,42.75472222222222],[-115.2761111111111,42.85527777777778],[-115.12277777777777,42.95388888888889],[-114.96638888888889,43.05416666666667],[-114.8125,43.15222222222222],[-114.65805555555556,43.25],[-114.50166666666667,43.34861111111111],[-114.34277777777777,43.44777777777777],[-114.18583333333333,43.54555555555555],[-113.99638888888889,43.66305555555555],[-113.86055555555555,43.74666666666667],[-113.7,43.84527777777778],[-113.54083333333332,43.94222222222222],[-113.38083333333333,44.03916666666667],[-113.22194444444445,44.13472222222222],[-113.05833333333334,44.23277777777778],[-112.89666666666668,44.32916666666667],[-112.73277777777778,44.42638888888889],[-112.56944444444444,44.52222222222222],[-112.40694444444445,44.617777777777775],[-112.24166666666667,44.71361111111111],[-112.0736111111111,44.81111111111111],[-111.91055555555556,44.90472222222222],[-111.74166666666667,45.00138888888889],[-111.57694444444444,45.09527777777778],[-111.40555555555557,45.19194444444444],[-111.24083333333333,45.28472222222222],[-111.07138888888889,45.379444444444445],[-110.91638888888889,45.46555555555556],[-110.75,45.55722222222222],[-110.5825,45.64944444444444],[-110.43083333333334,45.73222222222223],[-110.26333333333334,45.823055555555555],[-110.09777777777778,45.9125],[-109.92944444444444,46.00277777777778],[-109.76416666666667,46.09111111111111],[-109.59388888888888,46.18138888888889],[-109.4225,46.271388888888886],[-109.25194444444445,46.36083333333333],[-109.08083333333333,46.45],[-108.9113888888889,46.5375],[-108.74083333333333,46.625277777777775],[-108.57083333333333,46.71194444444445],[-108.39944444444446,46.799166666666665],[-108.22611111111111,46.88666666666666],[-108.05416666666666,46.97277777777778],[-107.88138888888888,47.06055555555555],[-107.71138888888889,47.14861111111111],[-107.54222222222222,47.23527777777778],[-107.36888888888888,47.32333333333334],[-107.19666666666667,47.41027777777778],[-107.03388888888888,47.49194444444444],[-106.86055555555555,47.578611111111115],[-106.68416666666667,47.66611111111111],[-106.51138888888889,47.75111111111111],[-106.33749999999999,47.836111111111116],[-106.16027777777778,47.9225],[-105.9825,48.00833333333333],[-105.80194444444444,48.09166666666667],[-105.6211111111111,48.17472222222222],[-105.44,48.257777777777775],[-105.25694444444444,48.340833333333336],[-105.07194444444444,48.424166666666665]]}
}
