{
  "id": 2048452877,
  "type": "Feature",
  "properties": {
    "geom:area": 0,
    "geom:bbox": "-122.400000,37.631944,-104.696111,40.028333",
    "geom:latitude": 38.5012825196817,
    "geom:longitude": -111.97231732836937,
    "src:alt_label": "swim-path",
    "src:geom": "swim",
    "swim:altitudes": [
      "008",
      "011",
      "038",
      "056",
      "086",
      "134",
      "158",
      "203",
      "219",
      "234",
      "250",
      "305",
      "314",
      "327",
      "330",
      "340",
      "341",
      "348C",
      "350C",
      "350C",
      "350C",
      "350C",
      "350C",
      "350C",
      "350C",
      "350C",
      "350C",
      "350C",
      "350C",
      "350C",
      "350C",
      "350C",
      "350C",
      "350C",
      "350C",
      "350C",
      "350C",
      "350C",
      "350C",
      "350C",
      "350C",
      "350",
      "350",
      "360",
      "362",
      "366",
      "367",
      "370C",
      "370C",
      "370C",
      "370C",
      "370C",
      "370C",
      "370C",
      "370C",
      "370C",
      "370C",
      "370C",
      "370C",
      "370C",
      "370C",
      "370C",
      "370C",
      "370C",
      "370C",
      "370C",
      "370C",
      "370C",
      "370C",
      "370C",
      "370C",
      "370C",
      "370C",
      "370C",
      "370C",
      "370C",
      "370C",
      "370C",
      "370C",
      "370C",
      "370C",
      "370C",
      "370C",
      "370C",
      "370C",
      "370C",
      "370C",
      "370C",
      "370C",
      "370C",
      "370C",
      "370C",
      "370C",
      "370C",
      "370C",
      "370C",
      "370C",
      "370C",
      "370C",
      "370C",
      "370C",
      "370C",
      "370C",
      "370C",
      "370C",
      "370C",
      "370C",
      "370C",
      "370C",
      "370C",
      "370C",
      "370C",
      "370C",
      "370C",
      "370C",
      "370C",
      "370C",
      "370C",
      "370C",
      "370",
      "363",
      "354",
      "350C",
      "350C",
      "349",
      "334",
      "318",
      "298",
      "290C",
      "290C",
      "286",
      "280C",
      "280C",
      "277",
      "270C",
      "261C",
      "258",
      "250C",
      "250C",
      "250C",
      "250C",
      "250",
      "242C",
      "233",
      "222C",
      "220C",
      "220C",
      "220C",
      "220C",
      "220C",
      "220C",
      "220C",
      "220C",
      "220C",
      "220C",
      "220C",
      "220C",
      "220C",
      "220C",
      "220C",
      "220C",
      "220C",
      "220C",
      "220C",
      "220C",
      "220C",
      "218",
      "210",
      "206",
      "195",
      "190",
      "180",
      "171",
      "159",
      "150",
      "144",
      "134",
      "130",
      "130",
      "116",
      "110",
      "095",
      "082",
      "072",
      "063",
      "063",
      "055",
      "055",
      "054"
    ],
    "swim:geom": "path",
    "swim:speeds": [
      160,
      161,
      200,
      273,
      287,
      357,
      375,
      407,
      434,
      458,
      469,
      504,
      517,
      522,
      523,
      518,
      520,
      519,
      519,
      519,
      520,
      518,
      518,
      515,
      517,
      513,
      515,
      512,
      514,
      512,
      514,
      513,
      517,
      515,
      517,
      515,
      516,
      515,
      516,
      518,
      520,
      521,
      523,
      523,
      524,
      520,
      519,
      519,
      519,
      520,
      520,
      520,
      520,
      519,
      518,
      517,
      516,
      515,
      519,
      521,
      520,
      522,
      522,
      520,
      519,
      518,
      517,
      517,
      518,
      519,
      519,
      520,
      522,
      522,
      523,
      523,
      523,
      523,
      524,
      529,
      526,
      527,
      525,
      524,
      524,
      524,
      524,
      524,
      525,
      525,
      526,
      526,
      529,
      529,
      530,
      531,
      531,
      531,
      530,
      530,
      530,
      530,
      531,
      531,
      533,
      533,
      533,
      532,
      532,
      532,
      531,
      531,
      531,
      532,
      532,
      533,
      533,
      526,
      493,
      492,
      490,
      489,
      489,
      488,
      488,
      486,
      467,
      453,
      452,
      434,
      429,
      415,
      370,
      336,
      336,
      336,
      345,
      373,
      384,
      384,
      378,
      349,
      337,
      330,
      322,
      336,
      353,
      357,
      351,
      339,
      310,
      306,
      306,
      307,
      341,
      350,
      350,
      349,
      323,
      309,
      307,
      306,
      328,
      349,
      350,
      351,
      350,
      345,
      344,
      339,
      324,
      340,
      342,
      343,
      342,
      340,
      335,
      331,
      321,
      324,
      306,
      288,
      236,
      185,
      159,
      158,
      159,
      157,
      102
    ],
    "swim:timestamps": [
      1790553678,
      1790553686,
      1790553746,
      1790553806,
      1790553866,
      1790553987,
      1790554047,
      1790554167,
      1790554227,
      1790554287,
      1790554347,
      1790554588,
      1790554648,
      1790554708,
      1790554717,
      1790554768,
      1790554777,
      1790554828,
      1790554837,
      1790554888,
      1790554897,
      1790554948,
      1790554957,
      1790555008,
      1790555017,
      1790555068,
      1790555077,
      1790555128,
      1790555138,
      1790555188,
      1790555198,
      1790555248,
      1790555258,
      1790555309,
      1790555318,
      1790555369,
      1790555378,
      1790555429,
      1790555438,
      1790555489,
      1790555498,
      1790555549,
      1790555558,
      1790555609,
      1790555618,
      1790555669,
      1790555678,
      1790555729,
      1790555738,
      1790555798,
      1790555849,
      1790555858,
      1790555909,
      1790555919,
      1790555979,
      1790556039,
      1790556099,
      1790556159,
      1790556219,
      1790556279,
      1790556339,
      1790556399,
      1790556459,
      1790556519,
      1790556579,
      1790556640,
      1790556700,
      1790556760,
      1790556820,
      1790556880,
      1790556940,
      1790557000,
      1790557060,
      1790557120,
      1790557180,
      1790557240,
      1790557300,
      1790557360,
      1790557421,
      1790557467,
      1790557481,
      1790557527,
      1790557587,
      1790557601,
      1790557647,
      1790557661,
      1790557707,
      1790557721,
      1790557767,
      1790557781,
      1790557827,
      1790557841,
      1790557887,
      1790557901,
      1790557948,
      1790557961,
      1790558008,
      1790558021,
      1790558068,
      1790558081,
      1790558128,
      1790558141,
      1790558188,
      1790558202,
      1790558248,
      1790558262,
      1790558308,
      1790558322,
      1790558368,
      1790558382,
      1790558428,
      1790558488,
      1790558548,
      1790558608,
      1790558669,
      1790558729,
      1790558789,
      1790558849,
      1790558909,
      1790558969,
      1790559029,
      1790559089,
      1790559149,
      1790559209,
      1790559269,
      1790559329,
      1790559390,
      1790559450,
      1790559510,
      1790559570,
      1790559630,
      1790559690,
      1790559750,
      1790559810,
      1790559870,
      1790559930,
      1790559990,
      1790560050,
      1790560111,
      1790560171,
      1790560231,
      1790560291,
      1790560351,
      1790560411,
      1790560471,
      1790560531,
      1790560591,
      1790560663,
      1790560723,
      1790560783,
      1790560844,
      1790560904,
      1790560964,
      1790561024,
      1790561084,
      1790561144,
      1790561204,
      1790561264,
      1790561324,
      1790561384,
      1790561444,
      1790561504,
      1790561565,
      1790561625,
      1790561685,
      1790561745,
      1790561805,
      1790561865,
      1790561925,
      1790561985,
      1790562033,
      1790562105,
      1790562165,
      1790562225,
      1790562286,
      1790562346,
      1790562406,
      1790562466,
      1790562520,
      1790562586,
      1790562646,
      1790562706,
      1790562766,
      1790562826,
      1790562880,
      1790562886,
      1790562940,
      1790562946,
      1790563007
    ],
    "wof:geomhash": "d87affed32ee71da5049af3fcff7975a",
    "wof:id": 2048452877,
    "wof:repo": "sfomuseum-data-flights-2026-09"
  },
  "bbox": [
    -122.4,
    37.63194444444444,
    -104.69611111111111,
    40.02833333333333
  ],
  "geometry": {"type":"LineString","coordinates":[[-122.4,37.63333333333333],[-122.39722222222223,37.63194444444444],[-122.3611111111111,37.66916666666666],[-122.28027777777778,37.69555555555555],[-122.19166666666668,37.730000000000004],[-121.99416666666667,37.82694444444445],[-121.86999999999999,37.85166666666667],[-121.60222222222221,37.900555555555556],[-121.45472222222223,37.927499999999995],[-121.30027777777778,37.955555555555556],[-121.14250000000001,37.98416666666667],[-120.46027777777778,38.09055555555556],[-120.2825,38.11666666666667],[-120.10055555555554,38.14333333333333],[-120.06194444444444,38.14722222222222],[-119.91916666666667,38.16972222222222],[-119.88361111111112,38.172777777777775],[-119.73972222222223,38.19555555555555],[-119.70305555555557,38.19916666666666],[-119.55888888888889,38.220555555555556],[-119.52305555555556,38.224444444444444],[-119.38194444444444,38.24527777777778],[-119.34527777777777,38.24916666666667],[-119.20194444444445,38.27111111111111],[-119.16805555555555,38.275277777777774],[-119.02694444444444,38.29527777777778],[-118.99138888888889,38.29888888888889],[-118.84805555555555,38.319722222222225],[-118.81472222222222,38.32333333333334],[-118.67222222222223,38.343611111111116],[-118.63666666666667,38.34777777777778],[-118.49166666666667,38.3675],[-118.46055555555556,38.37166666666667],[-118.31333333333333,38.39111111111111],[-118.26277777777777,38.3975],[-118.13472222222222,38.41416666666667],[-118.08194444444445,38.42111111111111],[-117.93583333333333,38.439722222222215],[-117.90166666666667,38.443888888888885],[-117.75166666666667,38.463055555555556],[-117.71666666666667,38.4675],[-117.56722222222221,38.48638888888889],[-117.53194444444445,38.49055555555556],[-117.38111111111111,38.509166666666665],[-117.34666666666666,38.51361111111111],[-117.19638888888889,38.518055555555556],[-117.16305555555556,38.5175],[-117.01055555555556,38.513888888888886],[-117.01194444444444,38.513888888888886],[-116.82805555555555,38.507777777777775],[-116.64083333333333,38.50333333333333],[-116.64194444444445,38.50333333333333],[-116.4563888888889,38.498333333333335],[-116.45805555555556,38.498333333333335],[-116.27388888888889,38.4925],[-116.09027777777777,38.486666666666665],[-115.90694444444445,38.480555555555554],[-115.72527777777778,38.47416666666667],[-115.53944444444444,38.4675],[-115.35638888888889,38.46027777777778],[-115.16555555555556,38.45277777777778],[-114.98166666666667,38.44444444444444],[-114.79666666666667,38.43666666666666],[-114.61388888888888,38.42833333333333],[-114.43111111111112,38.41972222222222],[-114.24916666666667,38.41111111111111],[-114.06694444444445,38.40222222222222],[-113.88166666666666,38.3925],[-113.7,38.382777777777775],[-113.51555555555555,38.3725],[-113.33055555555555,38.36222222222222],[-113.14694444444446,38.35166666666667],[-112.96138888888889,38.34111111111111],[-112.7761111111111,38.32972222222222],[-112.59027777777777,38.31805555555556],[-112.40611111111112,38.30611111111111],[-112.22083333333333,38.29388888888889],[-112.03722222222223,38.28138888888889],[-111.85194444444444,38.26888888888889],[-111.6975,38.25833333333333],[-111.66472222222222,38.25611111111111],[-111.51333333333334,38.245],[-111.33,38.23111111111111],[-111.2975,38.228611111111114],[-111.14527777777778,38.217222222222226],[-111.11138888888888,38.21472222222223],[-110.96333333333334,38.20305555555556],[-110.92944444444444,38.20027777777778],[-110.7961111111111,38.19027777777777],[-110.76027777777777,38.1875],[-110.61416666666666,38.17583333333333],[-110.57388888888889,38.1725],[-110.42833333333334,38.16083333333333],[-110.38972222222223,38.1575],[-110.24083333333333,38.14527777777778],[-110.20138888888889,38.14194444444444],[-110.05638888888889,38.126666666666665],[-110.01722222222222,38.12111111111111],[-109.87222222222222,38.10055555555556],[-109.83638888888889,38.09583333333334],[-109.69166666666668,38.075833333333335],[-109.65444444444445,38.07055555555556],[-109.5075,38.050555555555555],[-109.43027777777779,38.04],[-109.29027777777777,38.02027777777778],[-109.24638888888889,38.01416666666667],[-109.10666666666665,37.994166666666665],[-109.06444444444445,37.988055555555555],[-108.92027777777778,37.967222222222226],[-108.88083333333333,37.96138888888889],[-108.73833333333333,37.94083333333333],[-108.55388888888889,37.913888888888884],[-108.37055555555555,37.88666666666666],[-108.18583333333333,37.85888888888889],[-108.00361111111111,37.83111111111111],[-107.82027777777778,37.80305555555555],[-107.63527777777779,37.77444444444444],[-107.4588888888889,37.806666666666665],[-107.36138888888888,37.91916666666666],[-107.27638888888889,38.03777777777778],[-107.19472222222223,38.152499999999996],[-107.11749999999999,38.26027777777778],[-107.03194444444445,38.3775],[-106.94583333333334,38.496944444444445],[-106.86138888888888,38.61333333333334],[-106.77583333333334,38.73111111111111],[-106.69277777777778,38.844722222222224],[-106.60666666666665,38.96194444444445],[-106.47666666666667,39.034166666666664],[-106.33555555555554,39.08638888888889],[-106.19777777777779,39.13666666666666],[-106.05888888888889,39.14805555555556],[-106.00111111111111,39.059444444444445],[-106.07416666666666,38.98916666666667],[-106.1825,38.94972222222222],[-106.29555555555555,38.90888888888889],[-106.4113888888889,38.91861111111111],[-106.45083333333334,39.009166666666665],[-106.35499999999999,39.07888888888889],[-106.23,39.125277777777775],[-106.10694444444444,39.156666666666666],[-106.02722222222222,39.08777777777778],[-106.09027777777777,39.016666666666666],[-106.2,38.976111111111116],[-106.30361111111111,38.93888888888888],[-106.41416666666667,38.948055555555555],[-106.43166666666667,39.036944444444444],[-106.32527777777777,39.09027777777778],[-106.1875,39.140277777777776],[-106.07805555555555,39.143055555555556],[-106.06027777777777,39.06388888888888],[-106.15194444444445,39.019444444444446],[-106.255,38.9825],[-106.35472222222222,38.95111111111111],[-106.435,39.00694444444444],[-106.36305555555555,39.075833333333335],[-106.24888888888889,39.11805555555556],[-106.13722222222223,39.155833333333334],[-106.04888888888888,39.10888888888889],[-106.095,39.03805555555555],[-106.19722222222222,39.00055555555556],[-106.29666666666667,38.96472222222223],[-106.40222222222222,38.96],[-106.42166666666667,39.04527777777778],[-106.31444444444445,39.094166666666666],[-106.20083333333334,39.135555555555555],[-106.08999999999999,39.17527777777777],[-105.98027777777779,39.21472222222223],[-105.86694444444444,39.25527777777778],[-105.75527777777778,39.29611111111111],[-105.66666666666667,39.333333333333336],[-105.53888888888889,39.37388888888889],[-105.41944444444445,39.41833333333333],[-105.31777777777778,39.473055555555554],[-105.21583333333334,39.527499999999996],[-105.11638888888888,39.581944444444446],[-105.01833333333333,39.63472222222222],[-104.92027777777778,39.68722222222222],[-104.85,39.75],[-104.83999999999999,39.84055555555556],[-104.83916666666666,39.92666666666666],[-104.82777777777777,40.00694444444444],[-104.7461111111111,40.02833333333333],[-104.70138888888889,39.98833333333334],[-104.7,39.95],[-104.69888888888889,39.943888888888885],[-104.7,39.9],[-104.69611111111111,39.89944444444444],[-104.69611111111111,39.87027777777778]]}
}
