{
  "id": 2048369689,
  "type": "Feature",
  "properties": {
    "geom:area": 0,
    "geom:bbox": "-122.350510,37.471670,-121.265770,37.631920",
    "geom:latitude": 37.55442924422711,
    "geom:longitude": -121.80981161257918,
    "src:alt_label": "swim-approach",
    "src:geom": "swim",
    "swim:elevations": [
      4590,
      4445,
      4296,
      4108,
      4048,
      3778,
      3514,
      3442,
      3331,
      3353,
      3353,
      3309,
      3233,
      3168,
      3106,
      3048,
      2957,
      2828,
      2631,
      2525,
      2351,
      2346,
      2114,
      1919,
      1854,
      1795,
      1584,
      1508,
      1287,
      1226,
      1196,
      978,
      859,
      789,
      591,
      430,
      334,
      273,
      151,
      61
    ],
    "swim:geom": "approach",
    "swim:timestamps": [
      1789733093,
      1789733118,
      1789733157,
      1789733188,
      1789733194,
      1789733233,
      1789733275,
      1789733286,
      1789733299,
      1789733335,
      1789733368,
      1789733398,
      1789733418,
      1789733433,
      1789733450,
      1789733473,
      1789733502,
      1789733531,
      1789733573,
      1789733597,
      1789733638,
      1789733641,
      1789733687,
      1789733727,
      1789733740,
      1789733765,
      1789733814,
      1789733830,
      1789733874,
      1789733887,
      1789733898,
      1789733934,
      1789733959,
      1789733973,
      1789734015,
      1789734055,
      1789734078,
      1789734093,
      1789734122,
      1789734150
    ],
    "wof:geomhash": "f38e1a3708ddcb785db887c065e4c16c",
    "wof:id": 2048369689,
    "wof:repo": "sfomuseum-data-flights-2026-09"
  },
  "bbox": [
    -122.35051,
    37.47167,
    -121.26577,
    37.63192
  ],
  "geometry": {"type":"LineString","coordinates":[[-121.26577,37.59236],[-121.31042,37.58678],[-121.37373,37.58011],[-121.4226,37.57468],[-121.43184,37.57357],[-121.48995,37.56654],[-121.55155,37.55941],[-121.56843,37.55744],[-121.58795,37.55513],[-121.63935,37.55167],[-121.67627,37.57215],[-121.70784,37.59196],[-121.7302,37.60591],[-121.74658,37.61621],[-121.76508,37.62789],[-121.79596,37.63192],[-121.82157,37.6054],[-121.80797,37.57223],[-121.78184,37.52699],[-121.78162,37.49941],[-121.82483,37.47167],[-121.82976,37.47178],[-121.89336,37.48066],[-121.94691,37.48823],[-121.96482,37.49086],[-121.99548,37.497],[-122.04811,37.51424],[-122.06354,37.51917],[-122.10911,37.53388],[-122.12165,37.53802],[-122.13353,37.54193],[-122.16785,37.55309],[-122.19263,37.56099],[-122.20486,37.56491],[-122.24269,37.57717],[-122.27743,37.58775],[-122.29635,37.5933],[-122.3088,37.59696],[-122.33125,37.60345],[-122.35051,37.61077]]}
}
