{
  "id": 2048377565,
  "type": "Feature",
  "properties": {
    "geom:area": 0,
    "geom:bbox": "-122.357710,37.552770,-122.212990,37.613760",
    "geom:latitude": 37.58330947479275,
    "geom:longitude": -122.28533119594098,
    "src:alt_label": "swim-approach",
    "src:geom": "swim",
    "swim:elevations": [
      783,
      607,
      522,
      386,
      314,
      212,
      156,
      0
    ],
    "swim:geom": "approach",
    "swim:timestamps": [
      1789801215,
      1789801251,
      1789801266,
      1789801302,
      1789801318,
      1789801342,
      1789801353,
      1789801390
    ],
    "wof:geomhash": "e153f921dede510615a5940c8856ae40",
    "wof:id": 2048377565,
    "wof:repo": "sfomuseum-data-flights-2026-09"
  },
  "bbox": [
    -122.35771,
    37.55277,
    -122.21299,
    37.61376
  ],
  "geometry": {"type":"LineString","coordinates":[[-122.21299,37.55277],[-122.24778,37.56755],[-122.26153,37.57334],[-122.29068,37.58557],[-122.30285,37.59068],[-122.321,37.5983],[-122.33005,37.60212],[-122.35771,37.61376]]}
}
