{
  "id": 2048336531,
  "type": "Feature",
  "properties": {
    "geom:area": 0,
    "geom:bbox": "-122.406350,37.640520,-121.277460,37.991570",
    "geom:latitude": 37.93766577218643,
    "geom:longitude": -121.95139786117271,
    "src:alt_label": "swim-takeoff",
    "src:geom": "swim",
    "swim:elevations": [
      470,
      541,
      837,
      1065,
      1442,
      1977,
      2237,
      2465,
      2792,
      3177,
      3556,
      3661,
      3878,
      4206,
      4494,
      4627,
      4971,
      5235,
      5449,
      5628,
      5925,
      6078,
      6351,
      6581,
      6656,
      6777
    ],
    "swim:geom": "takeoff",
    "swim:timestamps": [
      1789427516,
      1789427530,
      1789427574,
      1789427599,
      1789427624,
      1789427666,
      1789427688,
      1789427705,
      1789427735,
      1789427773,
      1789427807,
      1789427824,
      1789427873,
      1789427907,
      1789427934,
      1789427950,
      1789427996,
      1789428026,
      1789428051,
      1789428073,
      1789428114,
      1789428132,
      1789428166,
      1789428208,
      1789428223,
      1789428244
    ],
    "wof:geomhash": "3813df093d1021983c107614cd1cf679",
    "wof:id": 2048336531,
    "wof:repo": "sfomuseum-data-flights-2026-09"
  },
  "bbox": [
    -122.40635,
    37.64052,
    -121.27746,
    37.99157
  ],
  "geometry": {"type":"LineString","coordinates":[[-122.40635,37.64052],[-122.40338,37.65182],[-122.37044,37.68769],[-122.34917,37.71146],[-122.33816,37.74119],[-122.36031,37.79012],[-122.37332,37.81783],[-122.38344,37.83941],[-122.38516,37.87922],[-122.37067,37.93142],[-122.31854,37.95317],[-122.28746,37.95918],[-122.18925,37.97962],[-122.11367,37.9881],[-122.05308,37.98832],[-122.01881,37.98869],[-121.91072,37.98947],[-121.83801,37.98988],[-121.77618,37.99023],[-121.72183,37.99047],[-121.61798,37.99092],[-121.57312,37.99095],[-121.48469,37.99118],[-121.37542,37.99152],[-121.33495,37.99157],[-121.27746,37.99147]]}
}
