{
  "id": 2048456137,
  "type": "Feature",
  "properties": {
    "date:cessation_lower": "2026-09-28",
    "date:cessation_upper": "2026-09-28",
    "date:inception_lower": "2026-09-28",
    "date:inception_upper": "2026-09-28",
    "edtf:cessation": "2026-09-28T08:18:23Z",
    "edtf:inception": "2026-09-28T03:37:00Z",
    "flysfo:actual_timestamp": -1,
    "flysfo:airline": "CI",
    "flysfo:date": "2026-09-28",
    "flysfo:estimated_timestamp": 1790583360,
    "flysfo:event": "A",
    "flysfo:flight_number": "CI5345",
    "flysfo:gate": "",
    "flysfo:journey": "ATL-SFO",
    "flysfo:scheduled_timestamp": 1790584440,
    "flysfo:timestamp": 1790584440,
    "geom:area": 0,
    "geom:bbox": "-122.370943,33.636518,-84.430686,37.617990",
    "geom:latitude": 35.627254,
    "geom:longitude": -103.4008145,
    "iata:airline": "CI",
    "icao:airline": "CAL",
    "lbl:latitude": 37.61799,
    "lbl:longitude": -122.370943,
    "sfomuseum:airline_id": 1159284153,
    "sfomuseum:arrival_id": 102527513,
    "sfomuseum:departure_id": 102526927,
    "sfomuseum:flight_id": "20260928-A-CAL-5345",
    "sfomuseum:flight_number": [
      "CAL5345",
      "CI5345"
    ],
    "sfomuseum:placetype": "flight",
    "src:geom": "flysfo",
    "wof:belongsto": [],
    "wof:concordances": {
      "swim:flight_ref": "158475366"
    },
    "wof:country": "US",
    "wof:created": 1790697919,
    "wof:geomhash": "ae92617dd2aca2afdb0c9096232ff0bb",
    "wof:hierarchy": [
      {
        "custom_id": 2048456137,
        "flight_id": 2048456137
      }
    ],
    "wof:id": 2048456137,
    "wof:involves": [
      102527513,
      102526927,
      1159284153,
      -1
    ],
    "wof:lastmodified": 1790698824,
    "wof:name": "CI5345 (ATL-SFO)",
    "wof:parent_id": -1,
    "wof:placetype": "custom",
    "wof:placetype_alt": [
      "flight"
    ],
    "wof:repo": "sfomuseum-data-flights-2026-09",
    "wof:superseded_by": [],
    "wof:supersedes": []
  },
  "bbox": [
    -122.370943,
    33.636518,
    -84.430686,
    37.61799
  ],
  "geometry": {"type":"MultiPoint","coordinates":[[-84.430686,33.636518],[-122.370943,37.61799]]}
}
