{
  "id": 2048267165,
  "type": "Feature",
  "properties": {
    "geom:area": 0,
    "geom:bbox": "-122.361140,37.491050,-121.251940,37.614970",
    "geom:latitude": 37.54278023447425,
    "geom:longitude": -121.81354012654391,
    "src:alt_label": "swim-approach",
    "src:geom": "swim",
    "swim:elevations": [
      4636,
      4429,
      3951,
      3810,
      3447,
      3239,
      3078,
      3046,
      2785,
      2597,
      2546,
      2527,
      2366,
      2195,
      2111,
      2121,
      2093,
      1997,
      1887,
      1694,
      1534,
      1251,
      1146,
      995,
      881,
      740,
      612,
      509,
      423,
      253,
      108,
      0
    ],
    "swim:geom": "approach",
    "swim:timestamps": [
      1788684412,
      1788684432,
      1788684478,
      1788684491,
      1788684531,
      1788684550,
      1788684576,
      1788684607,
      1788684658,
      1788684686,
      1788684692,
      1788684712,
      1788684749,
      1788684774,
      1788684793,
      1788684834,
      1788684855,
      1788684874,
      1788684897,
      1788684918,
      1788684936,
      1788684988,
      1788685011,
      1788685045,
      1788685068,
      1788685100,
      1788685133,
      1788685154,
      1788685176,
      1788685219,
      1788685258,
      1788685288
    ],
    "wof:geomhash": "3b5ad5a8aae03bbb4c01da4db5c9264e",
    "wof:id": 2048267165,
    "wof:repo": "sfomuseum-data-flights-2026-09"
  },
  "bbox": [
    -122.36114,
    37.49105,
    -121.25194,
    37.61497
  ],
  "geometry": {"type":"LineString","coordinates":[[-121.25194,37.59401],[-121.2904,37.58868],[-121.37499,37.57952],[-121.39757,37.57696],[-121.4715,37.56825],[-121.50697,37.56439],[-121.55292,37.55897],[-121.60504,37.55296],[-121.68839,37.53552],[-121.73397,37.52449],[-121.74346,37.52217],[-121.77459,37.51458],[-121.82683,37.50211],[-121.86279,37.49354],[-121.88836,37.49105],[-121.94593,37.49446],[-121.9731,37.49601],[-121.99577,37.49733],[-122.023,37.49894],[-122.04624,37.50038],[-122.06628,37.50155],[-122.12049,37.51306],[-122.14304,37.52357],[-122.17477,37.53693],[-122.19373,37.54485],[-122.22059,37.5561],[-122.24673,37.56699],[-122.26409,37.57445],[-122.28114,37.58162],[-122.31266,37.59482],[-122.34055,37.60661],[-122.36114,37.61497]]}
}
