{
  "id": 2048469707,
  "type": "Feature",
  "properties": {
    "geom:area": 0,
    "geom:bbox": "-122.800556,32.673889,-116.862778,37.700000",
    "geom:latitude": 35.01679442962469,
    "geom:longitude": -120.03874102546827,
    "src:alt_label": "swim-path",
    "src:geom": "swim",
    "swim:altitudes": [
      "005",
      "015",
      "033",
      "038",
      "060",
      "092",
      "141",
      "171",
      "196",
      "219",
      "259",
      "276",
      "290",
      "291",
      "305",
      "305",
      "318",
      "329",
      "341",
      "352",
      "364",
      "370C",
      "370C",
      "370C",
      "370C",
      "370C",
      "370C",
      "370C",
      "370C",
      "370C",
      "370C",
      "370C",
      "370C",
      "370C",
      "370C",
      "370C",
      "370C",
      "370C",
      "370C",
      "370C",
      "370",
      "362",
      "362",
      "352C",
      "350C",
      "350C",
      "350C",
      "350C",
      "350C",
      "350",
      "347",
      "336",
      "326",
      "317",
      "296",
      "271",
      "246",
      "221",
      "200",
      "193",
      "173",
      "154",
      "153",
      "138",
      "138",
      "117",
      "116",
      "106",
      "106",
      "095",
      "081",
      "082",
      "070",
      "071",
      "070",
      "070",
      "064",
      "064",
      "060",
      "052",
      "044",
      "039",
      "038",
      "027",
      "025",
      "017",
      "017",
      "009",
      "009",
      "002"
    ],
    "swim:geom": "path",
    "swim:speeds": [
      151,
      147,
      219,
      255,
      281,
      296,
      352,
      372,
      383,
      400,
      416,
      430,
      440,
      439,
      449,
      449,
      454,
      460,
      465,
      465,
      464,
      460,
      459,
      458,
      456,
      456,
      454,
      454,
      454,
      454,
      455,
      455,
      456,
      457,
      458,
      460,
      461,
      462,
      462,
      463,
      464,
      467,
      467,
      466,
      464,
      464,
      463,
      468,
      466,
      465,
      482,
      500,
      499,
      501,
      513,
      516,
      505,
      487,
      478,
      476,
      448,
      424,
      425,
      416,
      411,
      406,
      408,
      328,
      334,
      297,
      287,
      292,
      266,
      271,
      272,
      271,
      268,
      270,
      251,
      246,
      224,
      210,
      214,
      184,
      179,
      140,
      144,
      132,
      135,
      132
    ],
    "swim:timestamps": [
      1790727684,
      1790727717,
      1790727777,
      1790727787,
      1790727838,
      1790727898,
      1790728018,
      1790728078,
      1790728138,
      1790728198,
      1790728318,
      1790728378,
      1790728438,
      1790728444,
      1790728498,
      1790728504,
      1790728559,
      1790728619,
      1790728679,
      1790728739,
      1790728799,
      1790728859,
      1790728919,
      1790728979,
      1790729039,
      1790729045,
      1790729105,
      1790729159,
      1790729165,
      1790729219,
      1790729225,
      1790729279,
      1790729340,
      1790729400,
      1790729465,
      1790729520,
      1790729580,
      1790729640,
      1790729706,
      1790729766,
      1790729826,
      1790729880,
      1790729886,
      1790729946,
      1790730006,
      1790730066,
      1790730126,
      1790730186,
      1790730246,
      1790730307,
      1790730367,
      1790730427,
      1790730487,
      1790730547,
      1790730607,
      1790730667,
      1790730727,
      1790730787,
      1790730822,
      1790730847,
      1790730907,
      1790730954,
      1790730968,
      1790731020,
      1790731028,
      1790731074,
      1790731088,
      1790731135,
      1790731148,
      1790731208,
      1790731260,
      1790731268,
      1790731315,
      1790731328,
      1790731375,
      1790731388,
      1790731435,
      1790731448,
      1790731508,
      1790731569,
      1790731629,
      1790731681,
      1790731689,
      1790731736,
      1790731749,
      1790731801,
      1790731809,
      1790731861,
      1790731869,
      1790731916
    ],
    "wof:geomhash": "aa2c6f14c365f8730513e1c3682eb8b5",
    "wof:id": 2048469707,
    "wof:repo": "sfomuseum-data-flights-2026-09"
  },
  "bbox": [
    -122.80055555555555,
    32.67388888888889,
    -116.86277777777777,
    37.7
  ],
  "geometry": {"type":"LineString","coordinates":[[-122.36666666666666,37.63333333333333],[-122.36305555555555,37.644999999999996],[-122.37083333333332,37.69611111111111],[-122.38333333333334,37.7],[-122.45916666666668,37.69222222222222],[-122.55749999999999,37.66444444444444],[-122.77472222222222,37.60055555555556],[-122.80055555555555,37.50666666666667],[-122.75333333333333,37.407777777777774],[-122.70444444444445,37.30416666666667],[-122.60472222222222,37.0925],[-122.54666666666667,36.98166666666667],[-122.47,36.878055555555555],[-122.4713888888889,36.87972222222222],[-122.38972222222223,36.76861111111111],[-122.39111111111112,36.77055555555555],[-122.31055555555555,36.66],[-122.22916666666667,36.54833333333333],[-122.14805555555556,36.436388888888885],[-122.06694444444445,36.324444444444445],[-121.98722222222223,36.21388888888889],[-121.90777777777778,36.10277777777778],[-121.82416666666666,35.995],[-121.70166666666667,35.91722222222222],[-121.57944444444443,35.84],[-121.55694444444444,35.825833333333335],[-121.43583333333333,35.74944444444444],[-121.33416666666666,35.684999999999995],[-121.31305555555555,35.67166666666667],[-121.21277777777777,35.60777777777778],[-121.2063888888889,35.603611111111114],[-121.08999999999999,35.529444444444444],[-120.96527777777779,35.45472222222222],[-120.83666666666666,35.38111111111111],[-120.70055555555555,35.30166666666666],[-120.585,35.23416666666667],[-120.45916666666668,35.160555555555554],[-120.30972222222222,35.07194444444445],[-120.18777777777778,34.99944444444444],[-120.06055555555555,34.924166666666665],[-119.93222222222222,34.84777777777778],[-119.80138888888888,34.769444444444446],[-119.80555555555556,34.77194444444444],[-119.67805555555556,34.69583333333333],[-119.55388888888889,34.620555555555555],[-119.43222222222222,34.54694444444444],[-119.30638888888889,34.47083333333334],[-119.17805555555556,34.39277777777778],[-119.05305555555556,34.31583333333333],[-118.92777777777778,34.239444444444445],[-118.80083333333333,34.16138888888889],[-118.66611111111112,34.07805555555556],[-118.53027777777778,33.993611111111115],[-118.39944444444446,33.907777777777774],[-118.26861111111111,33.80638888888888],[-118.13805555555557,33.70611111111111],[-118.01305555555555,33.611111111111114],[-117.89361111111111,33.51583333333333],[-117.81666666666666,33.45],[-117.78472222222221,33.42222222222222],[-117.68361111111112,33.32611111111112],[-117.6,33.25],[-117.58972222222222,33.238055555555555],[-117.5,33.15],[-117.49861111111112,33.151666666666664],[-117.43333333333334,33.06666666666667],[-117.41916666666667,33.059999999999995],[-117.36666666666666,32.983333333333334],[-117.35805555555555,32.98638888888889],[-117.30055555555555,32.91833333333333],[-117.23333333333333,32.85],[-117.24638888888889,32.85305555555556],[-117.16666666666667,32.81666666666667],[-117.17333333333333,32.81388888888888],[-117.08333333333333,32.8],[-117.08722222222222,32.79388888888889],[-117,32.766666666666666],[-117.00138888888888,32.77388888888889],[-116.92,32.75666666666667],[-116.86277777777777,32.70583333333334],[-116.92222222222223,32.67388888888889],[-116.98333333333333,32.68333333333333],[-116.99083333333333,32.68583333333333],[-117.05,32.7],[-117.0525,32.70027777777778],[-117.1,32.71666666666667],[-117.09833333333333,32.71138888888889],[-117.13333333333334,32.71666666666667],[-117.14027777777778,32.72166666666667],[-117.16666666666667,32.733333333333334]]}
}
