{
  "id": 2048418065,
  "type": "Feature",
  "properties": {
    "geom:area": 0,
    "geom:bbox": "-122.360110,37.492350,-121.263520,37.614720",
    "geom:latitude": 37.54630134809277,
    "geom:longitude": -121.8167218134502,
    "src:alt_label": "swim-approach",
    "src:geom": "swim",
    "swim:elevations": [
      4607,
      4498,
      4244,
      3909,
      3719,
      3597,
      3250,
      3202,
      2992,
      2925,
      2829,
      2774,
      2696,
      2617,
      2443,
      2241,
      1971,
      1935,
      1855,
      1829,
      1698,
      1497,
      1419,
      1166,
      1072,
      937,
      939,
      890,
      770,
      740,
      699,
      623,
      549,
      487,
      423,
      311,
      120,
      194
    ],
    "swim:geom": "approach",
    "swim:timestamps": [
      1790279968,
      1790279979,
      1790280005,
      1790280038,
      1790280058,
      1790280070,
      1790280114,
      1790280128,
      1790280172,
      1790280184,
      1790280207,
      1790280218,
      1790280231,
      1790280245,
      1790280280,
      1790280315,
      1790280358,
      1790280364,
      1790280378,
      1790280401,
      1790280421,
      1790280446,
      1790280455,
      1790280506,
      1790280529,
      1790280560,
      1790280584,
      1790280610,
      1790280627,
      1790280633,
      1790280645,
      1790280656,
      1790280686,
      1790280715,
      1790280727,
      1790280760,
      1790280807,
      1790280838
    ],
    "wof:geomhash": "b092be0527422211c6a89860a101ab30",
    "wof:id": 2048418065,
    "wof:repo": "sfomuseum-data-flights-2026-09"
  },
  "bbox": [
    -122.36011,
    37.49235,
    -121.26352,
    37.61472
  ],
  "geometry": {"type":"LineString","coordinates":[[-121.26352,37.5928],[-121.28706,37.58972],[-121.33851,37.58402],[-121.40369,37.57677],[-121.44278,37.57224],[-121.46822,37.56921],[-121.55328,37.55936],[-121.57848,37.55647],[-121.6521,37.54425],[-121.67175,37.53941],[-121.70691,37.53105],[-121.72206,37.52748],[-121.74156,37.52283],[-121.76169,37.51798],[-121.81102,37.50615],[-121.86061,37.49421],[-121.92416,37.49235],[-121.93204,37.49259],[-121.95215,37.49305],[-121.98439,37.49475],[-122.00765,37.50113],[-122.03588,37.5102],[-122.04484,37.51309],[-122.09325,37.52878],[-122.11348,37.53519],[-122.14057,37.54406],[-122.161,37.55072],[-122.1829,37.55782],[-122.19844,37.56288],[-122.20354,37.56453],[-122.21322,37.56764],[-122.22153,37.57032],[-122.24513,37.5779],[-122.26776,37.58504],[-122.2772,37.58782],[-122.30236,37.5951],[-122.33846,37.60614],[-122.36011,37.61472]]}
}
