{
  "id": 2048421557,
  "type": "Feature",
  "properties": {
    "geom:area": 0,
    "geom:bbox": "-122.348490,37.444780,-122.158040,37.607510",
    "geom:latitude": 37.52883751628444,
    "geom:longitude": -122.22860506222955,
    "src:alt_label": "swim-approach",
    "src:geom": "swim",
    "swim:elevations": [
      1509,
      1219,
      1219,
      1155,
      907,
      769,
      548,
      424,
      421,
      211,
      121,
      64
    ],
    "swim:geom": "approach",
    "swim:timestamps": [
      1790271619,
      1790271677,
      1790271701,
      1790271727,
      1790271771,
      1790271786,
      1790271832,
      1790271862,
      1790271870,
      1790271925,
      1790271949,
      1790271965
    ],
    "wof:geomhash": "97b8596565765da117fd6bcb0ac6088d",
    "wof:id": 2048421557,
    "wof:repo": "sfomuseum-data-flights-2026-09"
  },
  "bbox": [
    -122.34849,
    37.44478,
    -122.15804,
    37.60751
  ],
  "geometry": {"type":"LineString","coordinates":[[-122.24618,37.44478],[-122.17815,37.46094],[-122.16368,37.48447],[-122.15804,37.51062],[-122.18975,37.5415],[-122.20442,37.54739],[-122.24902,37.56578],[-122.27376,37.57621],[-122.27998,37.57882],[-122.31962,37.59536],[-122.33645,37.60256],[-122.34849,37.60751]]}
}
