{
  "id": 2048337787,
  "type": "Feature",
  "properties": {
    "geom:area": 0,
    "geom:bbox": "-122.544890,36.720280,-121.439080,37.666320",
    "geom:latitude": 37.20684891880661,
    "geom:longitude": -122.06461395610913,
    "src:alt_label": "swim-takeoff",
    "src:geom": "swim",
    "swim:elevations": [
      330,
      462,
      585,
      1184,
      1494,
      1849,
      2093,
      2630,
      2676,
      3165,
      3390,
      3466,
      4078,
      4709,
      5062,
      5226,
      5472,
      5962,
      6240,
      6556,
      6671,
      6969,
      7344,
      7534,
      7802,
      7907,
      8169,
      8368,
      8687
    ],
    "swim:geom": "takeoff",
    "swim:timestamps": [
      1789380920,
      1789380939,
      1789380961,
      1789381016,
      1789381040,
      1789381078,
      1789381100,
      1789381136,
      1789381140,
      1789381183,
      1789381202,
      1789381215,
      1789381277,
      1789381335,
      1789381368,
      1789381387,
      1789381412,
      1789381453,
      1789381479,
      1789381522,
      1789381537,
      1789381568,
      1789381609,
      1789381633,
      1789381671,
      1789381682,
      1789381716,
      1789381744,
      1789381780
    ],
    "wof:geomhash": "278dca6be8ce374f30fa9bd5cefdeaef",
    "wof:id": 2048337787,
    "wof:repo": "sfomuseum-data-flights-2026-09"
  },
  "bbox": [
    -122.54489,
    36.72028,
    -121.43908,
    37.66632
  ],
  "geometry": {"type":"LineString","coordinates":[[-122.40438,37.63115],[-122.42264,37.63922],[-122.44534,37.64927],[-122.51785,37.66632],[-122.54489,37.64609],[-122.53528,37.59808],[-122.51881,37.57051],[-122.49363,37.52595],[-122.49099,37.52091],[-122.45052,37.47189],[-122.42639,37.45379],[-122.40785,37.44039],[-122.31892,37.37537],[-122.22868,37.3088],[-122.17575,37.26987],[-122.1447,37.24689],[-122.10377,37.2163],[-122.03531,37.1652],[-121.99217,37.13314],[-121.91722,37.07766],[-121.89009,37.05748],[-121.83515,37.01648],[-121.76209,36.96177],[-121.71771,36.92848],[-121.64746,36.87658],[-121.62513,36.86106],[-121.56008,36.81236],[-121.50803,36.77285],[-121.43908,36.72028]]}
}
