{
  "id": 2048396235,
  "type": "Feature",
  "properties": {
    "geom:area": 0,
    "geom:bbox": "-122.362770,36.721430,-121.877700,37.613560",
    "geom:latitude": 37.212790190962956,
    "geom:longitude": -122.07112857372832,
    "src:alt_label": "swim-approach",
    "src:geom": "swim",
    "swim:elevations": [
      5314,
      5000,
      4761,
      4476,
      4174,
      4087,
      3623,
      3469,
      3284,
      3112,
      2968,
      2835,
      2566,
      2463,
      2222,
      2086,
      1797,
      1586,
      1441,
      1170,
      913,
      786,
      606,
      384,
      243,
      131,
      115,
      54,
      146
    ],
    "swim:geom": "approach",
    "swim:timestamps": [
      1789976996,
      1789977028,
      1789977053,
      1789977084,
      1789977118,
      1789977126,
      1789977176,
      1789977193,
      1789977214,
      1789977263,
      1789977296,
      1789977317,
      1789977358,
      1789977375,
      1789977406,
      1789977426,
      1789977462,
      1789977495,
      1789977517,
      1789977556,
      1789977596,
      1789977612,
      1789977641,
      1789977682,
      1789977716,
      1789977744,
      1789977750,
      1789977777,
      1789977783
    ],
    "wof:geomhash": "935ae3fb2493cf5122cc1108f396f5ea",
    "wof:id": 2048396235,
    "wof:repo": "sfomuseum-data-flights-2026-09"
  },
  "bbox": [
    -122.36277,
    36.72143,
    -121.8777,
    37.61356
  ],
  "geometry": {"type":"LineString","coordinates":[[-121.8777,36.72143],[-121.90234,36.77196],[-121.91432,36.81407],[-121.9286,36.86448],[-121.94356,36.91763],[-121.9473,36.93109],[-121.97503,37.00834],[-121.98498,37.03374],[-121.99673,37.06395],[-122.02423,37.13479],[-122.04096,37.17715],[-122.05111,37.20254],[-122.07159,37.25426],[-122.07943,37.27463],[-122.09451,37.31315],[-122.10367,37.3363],[-122.12115,37.38144],[-122.13456,37.42154],[-122.14389,37.44859],[-122.16011,37.4954],[-122.18319,37.54007],[-122.2041,37.54893],[-122.24141,37.56214],[-122.28333,37.58021],[-122.31068,37.59169],[-122.33238,37.60086],[-122.33703,37.60284],[-122.3578,37.61153],[-122.36277,37.61356]]}
}
