{
  "id": 2048275475,
  "type": "Feature",
  "properties": {
    "geom:area": 0,
    "geom:bbox": "-122.663060,37.453410,-122.131080,38.426560",
    "geom:latitude": 37.815329368043784,
    "geom:longitude": -122.44132675702993,
    "src:alt_label": "swim-approach",
    "src:geom": "swim",
    "swim:elevations": [
      7590,
      7321,
      7181,
      6914,
      6463,
      6235,
      6088,
      5499,
      5070,
      4739,
      4596,
      4306,
      4102,
      3799,
      3578,
      3394,
      3380,
      3353,
      3353,
      3353,
      3278,
      3025,
      2969,
      2723,
      2652,
      2303,
      1923,
      1580,
      1469,
      1336,
      1249,
      1047,
      788,
      633,
      606,
      512,
      357,
      242,
      216,
      119
    ],
    "swim:geom": "approach",
    "swim:timestamps": [
      1788814137,
      1788814158,
      1788814170,
      1788814191,
      1788814225,
      1788814248,
      1788814261,
      1788814311,
      1788814347,
      1788814376,
      1788814389,
      1788814432,
      1788814456,
      1788814491,
      1788814515,
      1788814554,
      1788814560,
      1788814597,
      1788814633,
      1788814670,
      1788814696,
      1788814736,
      1788814749,
      1788814792,
      1788814804,
      1788814841,
      1788814880,
      1788814916,
      1788814932,
      1788814967,
      1788814988,
      1788815022,
      1788815063,
      1788815093,
      1788815100,
      1788815118,
      1788815153,
      1788815185,
      1788815191,
      1788815220
    ],
    "wof:geomhash": "6f7b226371af219f817348183459d6f8",
    "wof:id": 2048275475,
    "wof:repo": "sfomuseum-data-flights-2026-09"
  },
  "bbox": [
    -122.66306,
    37.45341,
    -122.13108,
    38.42656
  ],
  "geometry": {"type":"LineString","coordinates":[[-122.50603,38.42656],[-122.51892,38.38679],[-122.52564,38.36571],[-122.53858,38.32514],[-122.55785,38.26464],[-122.57134,38.22181],[-122.5784,38.1997],[-122.60678,38.10997],[-122.62669,38.047],[-122.64237,37.99744],[-122.6493,37.97568],[-122.66306,37.90422],[-122.64144,37.86951],[-122.59634,37.82683],[-122.5659,37.79795],[-122.51756,37.75233],[-122.51026,37.74548],[-122.4692,37.70683],[-122.42922,37.66929],[-122.39027,37.63273],[-122.36659,37.61008],[-122.33971,37.56905],[-122.33365,37.55485],[-122.30799,37.51125],[-122.29614,37.5018],[-122.25843,37.47554],[-122.21121,37.45741],[-122.16405,37.45341],[-122.14783,37.46434],[-122.13108,37.49567],[-122.13363,37.51478],[-122.16513,37.53057],[-122.2056,37.54742],[-122.23417,37.55983],[-122.24144,37.56281],[-122.25876,37.56994],[-122.28961,37.58289],[-122.31409,37.59317],[-122.31858,37.59503],[-122.34053,37.60425]]}
}
