{
  "id": 2048436505,
  "type": "Feature",
  "properties": {
    "geom:area": 0,
    "geom:bbox": "-122.355810,37.455510,-121.261360,37.619040",
    "geom:latitude": 37.55247096007985,
    "geom:longitude": -121.81089788552053,
    "src:alt_label": "swim-approach",
    "src:geom": "swim",
    "swim:elevations": [
      5198,
      5123,
      4880,
      4602,
      3354,
      3328,
      3290,
      3167,
      3110,
      3048,
      3048,
      3006,
      2929,
      2787,
      2766,
      2618,
      2486,
      2395,
      2240,
      2141,
      2134,
      2096,
      1927,
      1835,
      1806,
      1608,
      1523,
      1450,
      1292,
      967,
      826,
      728,
      638,
      551,
      426,
      342,
      181,
      123,
      90,
      20
    ],
    "swim:geom": "approach",
    "swim:timestamps": [
      1790452493,
      1790452505,
      1790452549,
      1790452580,
      1790452711,
      1790452759,
      1790452772,
      1790452796,
      1790452806,
      1790452850,
      1790452877,
      1790452889,
      1790452900,
      1790452926,
      1790452929,
      1790452946,
      1790452964,
      1790452978,
      1790452998,
      1790453011,
      1790453059,
      1790453083,
      1790453110,
      1790453142,
      1790453153,
      1790453175,
      1790453203,
      1790453237,
      1790453253,
      1790453301,
      1790453329,
      1790453351,
      1790453366,
      1790453385,
      1790453420,
      1790453437,
      1790453482,
      1790453497,
      1790453509,
      1790453524
    ],
    "wof:geomhash": "20d456ce91705029ba3c7a2c5c4da6d1",
    "wof:id": 2048436505,
    "wof:repo": "sfomuseum-data-flights-2026-09"
  },
  "bbox": [
    -122.35581,
    37.45551,
    -121.26136,
    37.61904
  ],
  "geometry": {"type":"LineString","coordinates":[[-121.26136,37.59307],[-121.2818,37.59035],[-121.35489,37.58237],[-121.40047,37.57728],[-121.59089,37.56777],[-121.65478,37.59369],[-121.67113,37.60036],[-121.70273,37.61334],[-121.71657,37.61904],[-121.77305,37.61476],[-121.78597,37.58902],[-121.78725,37.57618],[-121.7881,37.56347],[-121.78981,37.5371],[-121.79011,37.53335],[-121.79156,37.51608],[-121.79318,37.4974],[-121.79448,37.48333],[-121.80008,37.46452],[-121.81229,37.45551],[-121.87336,37.4594],[-121.90538,37.46922],[-121.9404,37.47992],[-121.98132,37.49258],[-121.99639,37.4973],[-122.02487,37.5064],[-122.06142,37.51855],[-122.10029,37.53136],[-122.11817,37.53704],[-122.16855,37.55306],[-122.19803,37.56285],[-122.21969,37.56965],[-122.23422,37.57436],[-122.25144,37.57987],[-122.28045,37.58829],[-122.29321,37.59212],[-122.32655,37.60239],[-122.33748,37.60578],[-122.34588,37.60884],[-122.35581,37.61293]]}
}
