{
  "id": 2048284749,
  "type": "Feature",
  "properties": {
    "geom:area": 0,
    "geom:bbox": "-123.073610,37.420040,-122.124980,38.468670",
    "geom:latitude": 37.84585305574973,
    "geom:longitude": -122.54918610415622,
    "src:alt_label": "swim-approach",
    "src:geom": "swim",
    "swim:elevations": [
      7590,
      7283,
      7045,
      6747,
      6554,
      6168,
      5830,
      5413,
      5200,
      5010,
      4674,
      4544,
      4326,
      4231,
      3900,
      3777,
      3549,
      3378,
      3354,
      3353,
      3353,
      3307,
      3081,
      3003,
      2841,
      2651,
      2273,
      2087,
      1919,
      1840,
      1798,
      1726,
      1522,
      1379,
      1238,
      1118,
      830,
      456,
      333,
      218,
      156,
      50,
      0
    ],
    "swim:geom": "approach",
    "swim:timestamps": [
      1788853762,
      1788853796,
      1788853822,
      1788853856,
      1788853875,
      1788853910,
      1788853934,
      1788853976,
      1788854000,
      1788854023,
      1788854062,
      1788854076,
      1788854126,
      1788854151,
      1788854186,
      1788854199,
      1788854225,
      1788854275,
      1788854302,
      1788854327,
      1788854362,
      1788854392,
      1788854425,
      1788854437,
      1788854468,
      1788854492,
      1788854544,
      1788854569,
      1788854597,
      1788854618,
      1788854659,
      1788854672,
      1788854716,
      1788854752,
      1788854773,
      1788854795,
      1788854823,
      1788854876,
      1788854908,
      1788854930,
      1788854945,
      1788854972,
      1788854981
    ],
    "wof:geomhash": "b58a482e3b6e145d42fbf886fec10f69",
    "wof:id": 2048284749,
    "wof:repo": "sfomuseum-data-flights-2026-09"
  },
  "bbox": [
    -123.07361,
    37.42004,
    -122.12498,
    38.46867
  ],
  "geometry": {"type":"LineString","coordinates":[[-123.07361,38.46867],[-123.01591,38.42273],[-122.97226,38.38813],[-122.91597,38.34309],[-122.88863,38.31604],[-122.85251,38.26043],[-122.83311,38.22182],[-122.80154,38.15753],[-122.78274,38.11954],[-122.76555,38.08499],[-122.73585,38.02538],[-122.72467,38.00304],[-122.68787,37.9293],[-122.66659,37.89496],[-122.6233,37.8521],[-122.60664,37.83648],[-122.57299,37.80507],[-122.51034,37.74598],[-122.47987,37.71716],[-122.45265,37.69152],[-122.41894,37.65961],[-122.38878,37.63132],[-122.35917,37.60004],[-122.35291,37.58708],[-122.3358,37.553],[-122.32124,37.52786],[-122.2877,37.47496],[-122.26718,37.45211],[-122.23245,37.43967],[-122.20437,37.431],[-122.15137,37.42004],[-122.13377,37.42635],[-122.12498,37.4711],[-122.15592,37.50454],[-122.1723,37.52183],[-122.18852,37.53857],[-122.21641,37.55183],[-122.2687,37.57402],[-122.29731,37.58608],[-122.31668,37.59425],[-122.32895,37.59941],[-122.35207,37.60908],[-122.35969,37.61234]]}
}
