{
  "id": 2048447935,
  "type": "Feature",
  "properties": {
    "geom:area": 0,
    "geom:bbox": "-122.354900,36.743430,-121.890710,37.610230",
    "geom:latitude": 37.221264191028325,
    "geom:longitude": -122.07325556458485,
    "src:alt_label": "swim-approach",
    "src:geom": "swim",
    "swim:elevations": [
      5309,
      5111,
      4685,
      4603,
      4155,
      3805,
      3708,
      3181,
      3146,
      3071,
      2971,
      2690,
      2473,
      2407,
      2236,
      1938,
      1753,
      1706,
      1601,
      1370,
      1294,
      1006,
      980,
      814,
      674,
      477,
      337,
      303,
      123,
      41
    ],
    "swim:geom": "approach",
    "swim:timestamps": [
      1790495091,
      1790495111,
      1790495153,
      1790495162,
      1790495206,
      1790495242,
      1790495251,
      1790495308,
      1790495313,
      1790495342,
      1790495360,
      1790495396,
      1790495426,
      1790495444,
      1790495467,
      1790495507,
      1790495540,
      1790495558,
      1790495571,
      1790495601,
      1790495613,
      1790495666,
      1790495675,
      1790495703,
      1790495735,
      1790495777,
      1790495818,
      1790495825,
      1790495873,
      1790495897
    ],
    "wof:geomhash": "367741c9bc971c11fad58d838c91f049",
    "wof:id": 2048447935,
    "wof:repo": "sfomuseum-data-flights-2026-09"
  },
  "bbox": [
    -122.3549,
    36.74343,
    -121.89071,
    37.61023
  ],
  "geometry": {"type":"LineString","coordinates":[[-121.89071,36.74343],[-121.90354,36.77606],[-121.92407,36.84876],[-121.92835,36.86404],[-121.9488,36.93707],[-121.97012,36.99556],[-121.97531,37.00905],[-122.00986,37.09764],[-122.01264,37.10457],[-122.02895,37.14656],[-122.03839,37.17082],[-122.05716,37.21864],[-122.07275,37.25826],[-122.08177,37.28114],[-122.09258,37.30878],[-122.11228,37.35855],[-122.1269,37.39789],[-122.13368,37.41779],[-122.13814,37.43096],[-122.14863,37.46166],[-122.15271,37.47351],[-122.16951,37.52334],[-122.17367,37.53052],[-122.19877,37.54446],[-122.22872,37.55735],[-122.26597,37.5729],[-122.29703,37.58598],[-122.30203,37.58798],[-122.33707,37.60282],[-122.3549,37.61023]]}
}
