{
  "id": 2048299469,
  "type": "Feature",
  "properties": {
    "geom:area": 0,
    "geom:bbox": "-122.354480,37.491380,-121.266400,37.612340",
    "geom:latitude": 37.54584344213734,
    "geom:longitude": -121.81521346291947,
    "src:alt_label": "swim-approach",
    "src:geom": "swim",
    "swim:elevations": [
      4490,
      4260,
      4105,
      3598,
      3502,
      3243,
      3078,
      2967,
      2683,
      2607,
      2470,
      2374,
      2256,
      2076,
      1985,
      1898,
      1643,
      1302,
      1216,
      1093,
      988,
      863,
      610,
      511,
      438,
      290,
      242,
      172,
      36
    ],
    "swim:geom": "approach",
    "swim:timestamps": [
      1789050533,
      1789050558,
      1789050574,
      1789050628,
      1789050640,
      1789050669,
      1789050713,
      1789050739,
      1789050778,
      1789050788,
      1789050836,
      1789050850,
      1789050874,
      1789050914,
      1789050930,
      1789050967,
      1789050997,
      1789051046,
      1789051065,
      1789051091,
      1789051113,
      1789051145,
      1789051198,
      1789051221,
      1789051236,
      1789051286,
      1789051296,
      1789051320,
      1789051354
    ],
    "wof:geomhash": "b4a45463ee125fa6a24f963ce0363d81",
    "wof:id": 2048299469,
    "wof:repo": "sfomuseum-data-flights-2026-09"
  },
  "bbox": [
    -122.35448,
    37.49138,
    -121.2664,
    37.61234
  ],
  "geometry": {"type":"LineString","coordinates":[[-121.2664,37.59217],[-121.31425,37.58642],[-121.34621,37.58302],[-121.44883,37.57146],[-121.47114,37.56884],[-121.52466,37.56258],[-121.6044,37.55309],[-121.64548,37.5457],[-121.707,37.53128],[-121.72396,37.52715],[-121.79592,37.50983],[-121.81409,37.50541],[-121.84767,37.4974],[-121.9029,37.49138],[-121.92571,37.49197],[-121.97745,37.49384],[-122.01826,37.50425],[-122.08048,37.52476],[-122.10371,37.53235],[-122.13376,37.54215],[-122.15819,37.55002],[-122.19008,37.56029],[-122.24056,37.57651],[-122.26159,37.58326],[-122.27402,37.58685],[-122.30754,37.59704],[-122.31469,37.59903],[-122.33172,37.60358],[-122.35448,37.61234]]}
}
