{
  "id": 2048460403,
  "type": "Feature",
  "properties": {
    "geom:area": 0,
    "geom:bbox": "-122.559380,36.728930,-122.361070,37.667000",
    "geom:latitude": 37.23076743258411,
    "geom:longitude": -122.50684760286968,
    "src:alt_label": "swim-takeoff",
    "src:geom": "swim",
    "swim:elevations": [
      437,
      530,
      996,
      1272,
      1707,
      1938,
      2618,
      3346,
      3824,
      4419,
      4863,
      5243,
      5407,
      5773,
      5947,
      6301,
      6538,
      6651,
      6771,
      7226,
      7641,
      7907
    ],
    "swim:geom": "takeoff",
    "swim:timestamps": [
      1790579991,
      1790580004,
      1790580055,
      1790580077,
      1790580116,
      1790580131,
      1790580176,
      1790580234,
      1790580278,
      1790580326,
      1790580358,
      1790580385,
      1790580398,
      1790580434,
      1790580454,
      1790580487,
      1790580506,
      1790580515,
      1790580524,
      1790580563,
      1790580598,
      1790580620
    ],
    "wof:geomhash": "04202da7115984876f630481d025c42c",
    "wof:id": 2048460403,
    "wof:repo": "sfomuseum-data-flights-2026-09"
  },
  "bbox": [
    -122.55938,
    36.72893,
    -122.36107,
    37.667
  ],
  "geometry": {"type":"LineString","coordinates":[[-122.41152,37.63395],[-122.42445,37.63958],[-122.4839,37.66547],[-122.51518,37.667],[-122.54619,37.62776],[-122.53888,37.60782],[-122.51538,37.54981],[-122.52185,37.46698],[-122.52911,37.39592],[-122.53693,37.31203],[-122.54222,37.2509],[-122.5465,37.19957],[-122.54867,37.17492],[-122.55531,37.10234],[-122.55938,37.05962],[-122.54704,36.98836],[-122.52394,36.95234],[-122.51127,36.93517],[-122.49863,36.91785],[-122.44291,36.84129],[-122.39268,36.77283],[-122.36107,36.72893]]}
}
