{
  "id": 2048470799,
  "type": "Feature",
  "properties": {
    "geom:area": 0,
    "geom:bbox": "-122.385030,37.640940,-121.441210,38.511220",
    "geom:latitude": 38.12287232518332,
    "geom:longitude": -122.01446017683871,
    "src:alt_label": "swim-takeoff",
    "src:geom": "swim",
    "swim:elevations": [
      263,
      615,
      981,
      1093,
      1174,
      1343,
      1581,
      1671,
      2253,
      2424,
      2879,
      3376,
      3667,
      3814,
      3993,
      4131,
      4727,
      5092,
      5309,
      5514,
      5794,
      6147,
      6361,
      6586,
      6731,
      6884,
      7141,
      7204
    ],
    "swim:geom": "takeoff",
    "swim:timestamps": [
      1790725947,
      1790725973,
      1790726006,
      1790726018,
      1790726036,
      1790726063,
      1790726093,
      1790726102,
      1790726150,
      1790726164,
      1790726197,
      1790726248,
      1790726276,
      1790726303,
      1790726325,
      1790726340,
      1790726412,
      1790726462,
      1790726483,
      1790726510,
      1790726546,
      1790726600,
      1790726630,
      1790726665,
      1790726686,
      1790726712,
      1790726754,
      1790726763
    ],
    "wof:geomhash": "ee2545a5980fab2f7bdf50be65be3788",
    "wof:id": 2048470799,
    "wof:repo": "sfomuseum-data-flights-2026-09"
  },
  "bbox": [
    -122.38503,
    37.64094,
    -121.44121,
    38.51122
  ],
  "geometry": {"type":"LineString","coordinates":[[-122.35622,37.64094],[-122.3361,37.65689],[-122.31415,37.67741],[-122.31115,37.68682],[-122.31237,37.70255],[-122.3268,37.72743],[-122.34319,37.75942],[-122.34857,37.76967],[-122.37724,37.82565],[-122.38452,37.84383],[-122.38503,37.88731],[-122.3681,37.95215],[-122.32664,37.97498],[-122.28615,37.99937],[-122.25188,38.02099],[-122.22806,38.03579],[-122.10819,38.10862],[-122.01979,38.16218],[-121.98227,38.18478],[-121.93367,38.21418],[-121.86746,38.25418],[-121.76527,38.31581],[-121.70704,38.35067],[-121.63873,38.39155],[-121.59755,38.41617],[-121.54435,38.44804],[-121.45949,38.49994],[-121.44121,38.51122]]}
}
