{
  "id": 2048246929,
  "type": "Feature",
  "properties": {
    "geom:area": 0,
    "geom:bbox": "-122.349750,37.491950,-121.260580,37.610420",
    "geom:latitude": 37.545760002181716,
    "geom:longitude": -121.80979376297667,
    "src:alt_label": "swim-approach",
    "src:geom": "swim",
    "swim:elevations": [
      4837,
      4497,
      4420,
      3987,
      3693,
      3432,
      3358,
      3206,
      2963,
      2680,
      2396,
      2284,
      2055,
      1918,
      1746,
      1566,
      1270,
      1187,
      1083,
      1004,
      945,
      903,
      612,
      545,
      241,
      186,
      87,
      65
    ],
    "swim:geom": "approach",
    "swim:timestamps": [
      1788545984,
      1788546020,
      1788546030,
      1788546075,
      1788546108,
      1788546139,
      1788546165,
      1788546198,
      1788546226,
      1788546282,
      1788546318,
      1788546332,
      1788546372,
      1788546405,
      1788546439,
      1788546464,
      1788546506,
      1788546521,
      1788546547,
      1788546574,
      1788546596,
      1788546611,
      1788546650,
      1788546660,
      1788546718,
      1788546736,
      1788546765,
      1788546770
    ],
    "wof:geomhash": "e8836f743bfaa94c305e64f7f1dad86c",
    "wof:id": 2048246929,
    "wof:repo": "sfomuseum-data-flights-2026-09"
  },
  "bbox": [
    -122.34975,
    37.49195,
    -121.26058,
    37.61042
  ],
  "geometry": {"type":"LineString","coordinates":[[-121.26058,37.593],[-121.32761,37.58499],[-121.34631,37.58287],[-121.42824,37.57325],[-121.48673,37.56679],[-121.54296,37.56023],[-121.58659,37.55512],[-121.63956,37.54711],[-121.68538,37.53593],[-121.77418,37.51485],[-121.82655,37.5023],[-121.84769,37.49722],[-121.9078,37.49195],[-121.95508,37.49316],[-122.00293,37.49941],[-122.03699,37.51067],[-122.09221,37.52862],[-122.11053,37.5344],[-122.14292,37.54502],[-122.17263,37.55467],[-122.19496,37.56198],[-122.21002,37.5667],[-122.25034,37.57963],[-122.26067,37.58295],[-122.31103,37.59771],[-122.32477,37.60174],[-122.34607,37.60888],[-122.34975,37.61042]]}
}
