{
  "id": 2048322263,
  "type": "Feature",
  "properties": {
    "geom:area": 0,
    "geom:bbox": "-122.408740,37.625690,-121.263180,38.415150",
    "geom:latitude": 38.017671161517434,
    "geom:longitude": -121.84896924025819,
    "src:alt_label": "swim-takeoff",
    "src:geom": "swim",
    "swim:elevations": [
      122,
      559,
      672,
      1112,
      1472,
      1658,
      2204,
      2584,
      2713,
      3175,
      3321,
      3418,
      3721,
      3877,
      4205,
      4438,
      4528,
      4748,
      5016,
      5179,
      5468,
      5648,
      5893,
      5988,
      6157,
      6394
    ],
    "swim:geom": "takeoff",
    "swim:timestamps": [
      1789204552,
      1789204586,
      1789204597,
      1789204629,
      1789204676,
      1789204695,
      1789204735,
      1789204764,
      1789204774,
      1789204826,
      1789204852,
      1789204871,
      1789204906,
      1789204925,
      1789204963,
      1789204991,
      1789205004,
      1789205032,
      1789205065,
      1789205087,
      1789205123,
      1789205146,
      1789205188,
      1789205206,
      1789205232,
      1789205268
    ],
    "wof:geomhash": "738a81c236b8bbf637b37347426088b5",
    "wof:id": 2048322263,
    "wof:repo": "sfomuseum-data-flights-2026-09"
  },
  "bbox": [
    -122.40874,
    37.62569,
    -121.26318,
    38.41515
  ],
  "geometry": {"type":"LineString","coordinates":[[-122.39153,37.62569],[-122.40874,37.64723],[-122.40353,37.65651],[-122.37007,37.66871],[-122.30966,37.68543],[-122.28056,37.69576],[-122.22067,37.71691],[-122.18652,37.74625],[-122.17696,37.75738],[-122.12147,37.82048],[-122.08876,37.85589],[-122.06132,37.88195],[-122.00101,37.92538],[-121.96697,37.94842],[-121.89576,37.99657],[-121.84189,38.03298],[-121.81672,38.05002],[-121.76231,38.08655],[-121.69712,38.13037],[-121.65099,38.1613],[-121.57736,38.21082],[-121.53113,38.24183],[-121.44205,38.30126],[-121.40338,38.32701],[-121.34595,38.36449],[-121.26318,38.41515]]}
}
