{
  "id": 2048348161,
  "type": "Feature",
  "properties": {
    "geom:area": 0,
    "geom:bbox": "-122.530690,36.730200,-121.558630,37.663300",
    "geom:latitude": 37.21729190348874,
    "geom:longitude": -122.11121908665804,
    "src:alt_label": "swim-takeoff",
    "src:geom": "swim",
    "swim:elevations": [
      274,
      882,
      1154,
      1668,
      1777,
      2574,
      2780,
      3546,
      4064,
      4382,
      4921,
      5056,
      5373,
      5695,
      5997,
      6286,
      6721,
      7025,
      7430,
      7465,
      7720,
      8159,
      8230,
      8230,
      8230,
      8230
    ],
    "swim:geom": "takeoff",
    "swim:timestamps": [
      1789472323,
      1789472369,
      1789472398,
      1789472427,
      1789472439,
      1789472485,
      1789472494,
      1789472544,
      1789472577,
      1789472596,
      1789472638,
      1789472654,
      1789472678,
      1789472725,
      1789472762,
      1789472790,
      1789472834,
      1789472866,
      1789472906,
      1789472910,
      1789472945,
      1789472985,
      1789473010,
      1789473048,
      1789473082,
      1789473110
    ],
    "wof:geomhash": "03590d64937fb1ba0a90bb6c146115d8",
    "wof:id": 2048348161,
    "wof:repo": "sfomuseum-data-flights-2026-09"
  },
  "bbox": [
    -122.53069,
    36.7302,
    -121.55863,
    37.6633
  ],
  "geometry": {"type":"LineString","coordinates":[[-122.38903,37.62475],[-122.42638,37.64083],[-122.4571,37.65409],[-122.49303,37.6633],[-122.50833,37.65903],[-122.53069,37.60732],[-122.52912,37.59513],[-122.50677,37.53124],[-122.46586,37.49692],[-122.44118,37.47661],[-122.3857,37.4304],[-122.36384,37.41215],[-122.32967,37.38351],[-122.257,37.32244],[-122.19605,37.27115],[-122.1486,37.23111],[-122.07212,37.16633],[-122.01509,37.11801],[-121.94185,37.05593],[-121.93458,37.0497],[-121.87131,36.99555],[-121.7969,36.93379],[-121.75082,36.89337],[-121.67774,36.83194],[-121.61228,36.77719],[-121.55863,36.7302]]}
}
