{
  "id": 2048444027,
  "type": "Feature",
  "properties": {
    "geom:area": 0,
    "geom:bbox": "-122.394900,37.620810,-121.261820,38.308870",
    "geom:latitude": 38.00225871682872,
    "geom:longitude": -121.86110086425944,
    "src:alt_label": "swim-takeoff",
    "src:geom": "swim",
    "swim:elevations": [
      91,
      516,
      688,
      948,
      1297,
      1688,
      2083,
      2468,
      2984,
      3288,
      3617,
      3859,
      3923,
      4168,
      4417,
      4783,
      5047,
      5094,
      5642,
      5992,
      6366,
      6757,
      7010,
      7010,
      7010,
      7010
    ],
    "swim:geom": "takeoff",
    "swim:timestamps": [
      1790449126,
      1790449156,
      1790449174,
      1790449198,
      1790449249,
      1790449292,
      1790449313,
      1790449337,
      1790449366,
      1790449386,
      1790449410,
      1790449437,
      1790449446,
      1790449472,
      1790449500,
      1790449542,
      1790449565,
      1790449570,
      1790449617,
      1790449645,
      1790449671,
      1790449701,
      1790449766,
      1790449772,
      1790449817,
      1790449861
    ],
    "wof:geomhash": "db71858d58675a449d2e1cfd00401867",
    "wof:id": 2048444027,
    "wof:repo": "sfomuseum-data-flights-2026-09"
  },
  "bbox": [
    -122.3949,
    37.62081,
    -121.26182,
    38.30887
  ],
  "geometry": {"type":"LineString","coordinates":[[-122.37983,37.62081],[-122.3949,37.63555],[-122.38836,37.64664],[-122.36749,37.65477],[-122.31766,37.67459],[-122.25852,37.69917],[-122.22635,37.71287],[-122.1981,37.73613],[-122.16776,37.76968],[-122.14701,37.7924],[-122.12131,37.82049],[-122.09122,37.85411],[-122.08051,37.86595],[-122.04744,37.90233],[-122.01117,37.9418],[-121.95337,38.00544],[-121.91981,38.04127],[-121.91247,38.04731],[-121.81238,38.09533],[-121.75137,38.11848],[-121.69245,38.14101],[-121.62706,38.16706],[-121.48501,38.22246],[-121.47135,38.22773],[-121.36519,38.26894],[-121.26182,38.30887]]}
}
