{
  "id": 2048451353,
  "type": "Feature",
  "properties": {
    "date:cessation_lower": "2026-09-27",
    "date:cessation_upper": "2026-09-27",
    "date:inception_lower": "2026-09-27",
    "date:inception_upper": "2026-09-27",
    "edtf:cessation": "2026-09-27T19:12:14Z",
    "edtf:inception": "2026-09-27T15:07:00Z",
    "flysfo:actual_timestamp": -1,
    "flysfo:airline": "DL",
    "flysfo:base_airline": "",
    "flysfo:base_flight_number": "4175",
    "flysfo:date": "2026-09-27",
    "flysfo:estimated_timestamp": 1790520900,
    "flysfo:event": "D",
    "flysfo:flight_number": "DL640",
    "flysfo:gate": "C7",
    "flysfo:journey": "SFO-ATL",
    "flysfo:scheduled_timestamp": 1790521200,
    "flysfo:timestamp": 1790521200,
    "geom:area": 0,
    "geom:bbox": "-122.370943,33.636518,-84.430686,37.617990",
    "geom:latitude": 35.627254,
    "geom:longitude": -103.4008145,
    "iata:airline": "DL",
    "iata:base_airline": "",
    "icao:aircraft": "B739",
    "icao:airline": "DAL",
    "icao:base_airline": "AMX",
    "lbl:latitude": 37.61799,
    "lbl:longitude": -122.370943,
    "sfomuseum:aircraft_id": 1377564285,
    "sfomuseum:airline_id": 1159284261,
    "sfomuseum:arrival_id": 102526927,
    "sfomuseum:base_flight_id": "20260927-D-AMX-4175",
    "sfomuseum:departure_id": 102527513,
    "sfomuseum:flight_id": "20260927-D-DAL-640",
    "sfomuseum:flight_number": [
      "DAL640",
      "DL640"
    ],
    "sfomuseum:placetype": "flight",
    "src:geom": "flysfo",
    "src:geom_alt": [
      "swim-path",
      "swim-takeoff"
    ],
    "swim:tail_number": "N873DN",
    "wof:belongsto": [
      1947304067,
      102527513,
      1947304663,
      102191575,
      85633793,
      102087579,
      85922583,
      554784711,
      85688637,
      1947304669,
      1947304591,
      102085387
    ],
    "wof:concordances": {
      "swim:flight_ref": "158355154"
    },
    "wof:country": "US",
    "wof:created": 1790612074,
    "wof:geomhash": "8306f5516cededf93440c49d2c7be198",
    "wof:hierarchy": [
      {
        "building_id": 1947304067,
        "campus_id": 102527513,
        "concourse_id": 1947304663,
        "continent_id": 102191575,
        "country_id": 85633793,
        "county_id": 102087579,
        "custom_id": 2048451353,
        "flight_id": 2048451353,
        "locality_id": 85922583,
        "postalcode_id": 554784711,
        "region_id": 85688637,
        "venue_id": 1947304669,
        "wing_id": 1947304591
      },
      {
        "building_id": 1947304067,
        "campus_id": 102527513,
        "concourse_id": 1947304663,
        "continent_id": 102191575,
        "country_id": 85633793,
        "county_id": 102085387,
        "custom_id": 2048451353,
        "flight_id": 2048451353,
        "region_id": 85688637,
        "venue_id": 1947304669,
        "wing_id": 1947304591
      }
    ],
    "wof:id": 2048451353,
    "wof:involves": [
      1159283539,
      1377564285,
      102526927,
      102527513,
      1159284261,
      1947304669
    ],
    "wof:lastmodified": 1790612450,
    "wof:name": "DL640 (SFO-ATL)",
    "wof:parent_id": 1947304669,
    "wof:placetype": "custom",
    "wof:placetype_alt": [
      "flight"
    ],
    "wof:repo": "sfomuseum-data-flights-2026-09",
    "wof:superseded_by": [],
    "wof:supersedes": []
  },
  "bbox": [
    -122.370943,
    33.636518,
    -84.430686,
    37.61799
  ],
  "geometry": {"type":"MultiPoint","coordinates":[[-122.370943,37.61799],[-84.430686,33.636518]]}
}
