{
  "id": 2048446715,
  "type": "Feature",
  "properties": {
    "geom:area": 0,
    "geom:bbox": "-122.345720,37.492070,-121.246020,37.608780",
    "geom:latitude": 37.54228242396599,
    "geom:longitude": -121.8026569239986,
    "src:alt_label": "swim-approach",
    "src:geom": "swim",
    "swim:elevations": [
      4511,
      4215,
      4148,
      3754,
      3442,
      3276,
      3108,
      3022,
      2895,
      2771,
      2563,
      2514,
      2298,
      2199,
      2132,
      1941,
      1739,
      1586,
      1372,
      1217,
      1145,
      1034,
      882,
      820,
      597,
      435,
      396,
      218,
      199,
      93
    ],
    "swim:geom": "approach",
    "swim:timestamps": [
      1790556804,
      1790556836,
      1790556845,
      1790556890,
      1790556926,
      1790556944,
      1790556980,
      1790557016,
      1790557040,
      1790557062,
      1790557098,
      1790557113,
      1790557149,
      1790557167,
      1790557182,
      1790557218,
      1790557251,
      1790557275,
      1790557311,
      1790557344,
      1790557359,
      1790557389,
      1790557428,
      1790557440,
      1790557487,
      1790557523,
      1790557532,
      1790557586,
      1790557592,
      1790557625
    ],
    "wof:geomhash": "0f8490ffdfec2190b04145f97137c381",
    "wof:id": 2048446715,
    "wof:repo": "sfomuseum-data-flights-2026-09"
  },
  "bbox": [
    -122.34572,
    37.49207,
    -121.24602,
    37.60878
  ],
  "geometry": {"type":"LineString","coordinates":[[-121.24602,37.59496],[-121.30756,37.58715],[-121.32464,37.5853],[-121.40919,37.57601],[-121.4757,37.56834],[-121.50851,37.56448],[-121.57279,37.55684],[-121.63165,37.54869],[-121.66838,37.54047],[-121.70233,37.53235],[-121.75858,37.5187],[-121.78036,37.51347],[-121.83179,37.50127],[-121.85734,37.49516],[-121.87895,37.49207],[-121.9311,37.49374],[-121.97805,37.49673],[-122.0121,37.49879],[-122.06261,37.50163],[-122.10587,37.5079],[-122.12258,37.51478],[-122.15496,37.52842],[-122.19462,37.5451],[-122.20657,37.55019],[-122.25147,37.56911],[-122.27964,37.58095],[-122.28597,37.5836],[-122.32116,37.59841],[-122.32491,37.59999],[-122.34572,37.60878]]}
}
