{
  "id": 2048347681,
  "type": "Feature",
  "properties": {
    "geom:area": 0,
    "geom:bbox": "-122.400200,37.630280,-121.244010,38.136140",
    "geom:latitude": 37.84130373403581,
    "geom:longitude": -121.86168044906323,
    "src:alt_label": "swim-takeoff",
    "src:geom": "swim",
    "swim:elevations": [
      288,
      518,
      694,
      1047,
      1151,
      1330,
      2053,
      2487,
      2778,
      3226,
      3692,
      3736,
      4290,
      4633,
      5025,
      5530,
      5698,
      6132,
      6274,
      6692,
      7133,
      314,
      444,
      645,
      1241,
      1415,
      1936,
      2276,
      2867,
      2982,
      3415,
      3536,
      3894,
      4383,
      4788,
      5199,
      5365,
      5676,
      6061,
      6612,
      6707,
      7002,
      7222,
      7468,
      7608,
      7786
    ],
    "swim:geom": "takeoff",
    "swim:timestamps": [
      1789455715,
      1789455746,
      1789455777,
      1789455806,
      1789455816,
      1789455841,
      1789455888,
      1789455916,
      1789455934,
      1789455965,
      1789456017,
      1789456023,
      1789456065,
      1789456094,
      1789456125,
      1789456167,
      1789456181,
      1789456221,
      1789456236,
      1789456278,
      1789456303,
      1789541038,
      1789541053,
      1789541080,
      1789541122,
      1789541142,
      1789541182,
      1789541204,
      1789541249,
      1789541259,
      1789541306,
      1789541318,
      1789541349,
      1789541387,
      1789541413,
      1789541450,
      1789541466,
      1789541494,
      1789541526,
      1789541577,
      1789541586,
      1789541615,
      1789541635,
      1789541659,
      1789541674,
      1789541700
    ],
    "wof:geomhash": "d483577eb7f96d6d304bb83338e1ef28",
    "wof:id": 2048347681,
    "wof:repo": "sfomuseum-data-flights-2026-09"
  },
  "bbox": [
    -122.4002,
    37.63028,
    -121.24401,
    38.13614
  ],
  "geometry": {"type":"LineString","coordinates":[[-122.39509,37.63028],[-122.4002,37.65334],[-122.36823,37.66636],[-122.33202,37.67615],[-122.31909,37.68067],[-122.28438,37.69283],[-122.21518,37.71748],[-122.17596,37.73743],[-122.1492,37.7498],[-122.09792,37.76298],[-121.99763,37.7862],[-121.98527,37.78912],[-121.8977,37.80953],[-121.83275,37.82461],[-121.76221,37.84098],[-121.6642,37.86366],[-121.63041,37.87144],[-121.53431,37.89336],[-121.49594,37.90215],[-121.39056,37.92607],[-121.32582,37.94081],[-122.3972,37.63042],[-122.39889,37.64238],[-122.38021,37.6639],[-122.33499,37.68867],[-122.31013,37.70152],[-122.27093,37.7384],[-122.25504,37.76376],[-122.20754,37.8092],[-122.18987,37.81543],[-122.10755,37.84339],[-122.08492,37.8512],[-122.02393,37.87142],[-121.94968,37.89693],[-121.89668,37.91531],[-121.81941,37.94198],[-121.78601,37.95347],[-121.72498,37.9742],[-121.65345,37.99853],[-121.53738,38.03771],[-121.51651,38.04474],[-121.44867,38.06769],[-121.40087,38.08378],[-121.34325,38.10307],[-121.307,38.11526],[-121.24401,38.13614]]}
}
