{
  "id": 2048339875,
  "type": "Feature",
  "properties": {
    "geom:area": 0,
    "geom:bbox": "-122.558800,36.729720,-122.166830,37.666170",
    "geom:latitude": 37.220399648144344,
    "geom:longitude": -122.45177351778992,
    "src:alt_label": "swim-takeoff",
    "src:geom": "swim",
    "swim:elevations": [
      152,
      496,
      794,
      1133,
      1572,
      2268,
      2409,
      2937,
      3472,
      3627,
      4001,
      4230,
      4640,
      5052,
      5618,
      5702,
      5790,
      5813,
      5892,
      6439,
      6880,
      7095,
      7375,
      7579,
      7679,
      7792,
      8134,
      8438
    ],
    "swim:geom": "takeoff",
    "swim:timestamps": [
      1789370706,
      1789370731,
      1789370751,
      1789370786,
      1789370810,
      1789370844,
      1789370852,
      1789370891,
      1789370916,
      1789370929,
      1789370960,
      1789370977,
      1789371015,
      1789371045,
      1789371087,
      1789371094,
      1789371115,
      1789371139,
      1789371151,
      1789371196,
      1789371236,
      1789371258,
      1789371288,
      1789371309,
      1789371319,
      1789371331,
      1789371366,
      1789371397
    ],
    "wof:geomhash": "509cf76132dc0edffcca0812b254fe7d",
    "wof:id": 2048339875,
    "wof:repo": "sfomuseum-data-flights-2026-09"
  },
  "bbox": [
    -122.5588,
    36.72972,
    -122.16683,
    37.66617
  ],
  "geometry": {"type":"LineString","coordinates":[[-122.38753,37.62381],[-122.40882,37.6328],[-122.42641,37.64033],[-122.46207,37.65621],[-122.49346,37.66617],[-122.53795,37.64913],[-122.54423,37.64093],[-122.55051,37.589],[-122.54987,37.5546],[-122.54994,37.53601],[-122.55173,37.48744],[-122.55276,37.46064],[-122.55444,37.39515],[-122.55552,37.34123],[-122.55744,37.26454],[-122.55773,37.25241],[-122.5588,37.21301],[-122.55537,37.16842],[-122.54627,37.14677],[-122.48404,37.07391],[-122.42322,37.00793],[-122.38883,36.97087],[-122.3413,36.9198],[-122.30866,36.88469],[-122.29305,36.86766],[-122.27333,36.84549],[-122.21759,36.78511],[-122.16683,36.72972]]}
}
