{
  "id": 2048382717,
  "type": "Feature",
  "properties": {
    "geom:area": 0,
    "geom:bbox": "-122.407520,37.626420,-121.250560,37.964560",
    "geom:latitude": 37.830957010742296,
    "geom:longitude": -121.8520904686383,
    "src:alt_label": "swim-takeoff",
    "src:geom": "swim",
    "swim:elevations": [
      183,
      647,
      783,
      1177,
      1418,
      1781,
      2003,
      2174,
      3053,
      3282,
      3914,
      4096,
      4638,
      4928,
      5004,
      5207,
      5450,
      5726,
      5802,
      6258,
      6472,
      6781,
      6963,
      7123
    ],
    "swim:geom": "takeoff",
    "swim:timestamps": [
      1789815645,
      1789815683,
      1789815693,
      1789815737,
      1789815773,
      1789815797,
      1789815811,
      1789815822,
      1789815879,
      1789815903,
      1789815951,
      1789815968,
      1789816017,
      1789816041,
      1789816051,
      1789816088,
      1789816137,
      1789816168,
      1789816176,
      1789816221,
      1789816248,
      1789816283,
      1789816303,
      1789816322
    ],
    "wof:geomhash": "51421620384ebd011ea15e446720f5a0",
    "wof:id": 2048382717,
    "wof:repo": "sfomuseum-data-flights-2026-09"
  },
  "bbox": [
    -122.40752,
    37.62642,
    -121.25056,
    37.96456
  ],
  "geometry": {"type":"LineString","coordinates":[[-122.38817,37.62642],[-122.40752,37.64986],[-122.40181,37.65689],[-122.35741,37.67212],[-122.30991,37.6874],[-122.27575,37.69827],[-122.2548,37.70483],[-122.23858,37.70991],[-122.15785,37.7471],[-122.12399,37.76415],[-122.05462,37.80048],[-122.03001,37.81327],[-121.94486,37.83795],[-121.89917,37.84608],[-121.88027,37.84941],[-121.80627,37.86281],[-121.69975,37.88263],[-121.62648,37.89619],[-121.6073,37.89968],[-121.50212,37.91897],[-121.43504,37.93119],[-121.34919,37.94673],[-121.29641,37.9563],[-121.25056,37.96456]]}
}
