{
  "id": 2048262701,
  "type": "Feature",
  "properties": {
    "geom:area": 0,
    "geom:bbox": "-122.412910,37.627580,-121.251390,38.421920",
    "geom:latitude": 38.01930589018334,
    "geom:longitude": -121.84339955755375,
    "src:alt_label": "swim-takeoff",
    "src:geom": "swim",
    "swim:elevations": [
      183,
      457,
      742,
      1164,
      1394,
      1770,
      2192,
      2683,
      2855,
      3140,
      3208,
      3454,
      3725,
      3977,
      4384,
      4700,
      4999,
      5212,
      5509,
      5710,
      6122,
      6278,
      6568,
      6859,
      6901,
      7248,
      7425
    ],
    "swim:geom": "takeoff",
    "swim:timestamps": [
      1788596995,
      1788597019,
      1788597042,
      1788597081,
      1788597114,
      1788597148,
      1788597175,
      1788597205,
      1788597215,
      1788597233,
      1788597242,
      1788597290,
      1788597317,
      1788597351,
      1788597386,
      1788597411,
      1788597443,
      1788597469,
      1788597506,
      1788597525,
      1788597566,
      1788597581,
      1788597618,
      1788597655,
      1788597662,
      1788597711,
      1788597735
    ],
    "wof:geomhash": "de7302d5eb94ee99221d3cc5a39a50bc",
    "wof:id": 2048262701,
    "wof:repo": "sfomuseum-data-flights-2026-09"
  },
  "bbox": [
    -122.41291,
    37.62758,
    -121.25139,
    38.42192
  ],
  "geometry": {"type":"LineString","coordinates":[[-122.396,37.62758],[-122.41291,37.64166],[-122.40412,37.65878],[-122.36179,37.66922],[-122.31903,37.68197],[-122.26862,37.69944],[-122.22716,37.71444],[-122.19103,37.74287],[-122.18121,37.75372],[-122.16319,37.77386],[-122.15442,37.78379],[-122.10031,37.84367],[-122.06043,37.87762],[-122.004,37.91637],[-121.94037,37.96013],[-121.89703,37.98998],[-121.83935,38.02954],[-121.79165,38.06234],[-121.72012,38.11123],[-121.68188,38.13741],[-121.60246,38.19168],[-121.57257,38.21205],[-121.49922,38.26195],[-121.42381,38.31301],[-121.40956,38.3227],[-121.3048,38.38882],[-121.25139,38.42192]]}
}
