{
  "id": 2048396245,
  "type": "Feature",
  "properties": {
    "geom:area": 0,
    "geom:bbox": "-122.356540,37.460940,-121.262830,37.613260",
    "geom:latitude": 37.53320000165056,
    "geom:longitude": -121.81570785025121,
    "src:alt_label": "swim-approach",
    "src:geom": "swim",
    "swim:elevations": [
      4672,
      4641,
      4546,
      4405,
      4064,
      3963,
      3789,
      3542,
      3342,
      3015,
      2864,
      2647,
      2521,
      2378,
      2190,
      2134,
      2121,
      2030,
      1933,
      1798,
      1657,
      1530,
      1305,
      1190,
      1091,
      920,
      692,
      556,
      472,
      290,
      243,
      68,
      0
    ],
    "swim:geom": "approach",
    "swim:timestamps": [
      1789992177,
      1789992184,
      1789992213,
      1789992248,
      1789992296,
      1789992310,
      1789992338,
      1789992368,
      1789992393,
      1789992444,
      1789992468,
      1789992502,
      1789992519,
      1789992545,
      1789992575,
      1789992622,
      1789992657,
      1789992674,
      1789992714,
      1789992736,
      1789992763,
      1789992784,
      1789992830,
      1789992855,
      1789992874,
      1789992906,
      1789992956,
      1789992983,
      1789993000,
      1789993046,
      1789993060,
      1789993098,
      1789993112
    ],
    "wof:geomhash": "689ea3297132083e56aa5178d7e42750",
    "wof:id": 2048396245,
    "wof:repo": "sfomuseum-data-flights-2026-09"
  },
  "bbox": [
    -122.35654,
    37.46094,
    -121.26283,
    37.61326
  ],
  "geometry": {"type":"LineString","coordinates":[[-121.26283,37.59268],[-121.2771,37.59079],[-121.32785,37.58505],[-121.38696,37.57852],[-121.46124,37.56995],[-121.48346,37.56735],[-121.52517,37.56248],[-121.56985,37.55721],[-121.6083,37.55363],[-121.68406,37.56182],[-121.71082,37.54625],[-121.7319,37.51212],[-121.74242,37.49397],[-121.76701,37.4739],[-121.80846,37.4693],[-121.8724,37.46568],[-121.92173,37.46251],[-121.94475,37.46094],[-121.99482,37.46156],[-122.01866,37.46998],[-122.04727,37.48253],[-122.06864,37.49182],[-122.11467,37.51139],[-122.13829,37.52129],[-122.15606,37.52883],[-122.18564,37.54134],[-122.23216,37.56094],[-122.25681,37.57134],[-122.27161,37.57756],[-122.30591,37.59199],[-122.31674,37.59639],[-122.34595,37.60875],[-122.35654,37.61326]]}
}
