{
  "id": 2048254709,
  "type": "Feature",
  "properties": {
    "geom:area": 0,
    "geom:bbox": "-123.479950,37.629090,-122.400210,37.731420",
    "geom:latitude": 37.69829065829292,
    "geom:longitude": -122.93596671016326,
    "src:alt_label": "swim-takeoff",
    "src:geom": "swim",
    "swim:elevations": [
      245,
      747,
      1011,
      1196,
      1324,
      1541,
      1870,
      2104,
      2350,
      2947,
      3214,
      3407,
      3520,
      3826,
      4063,
      4392,
      4756,
      4875,
      5450,
      5619,
      5783
    ],
    "swim:geom": "takeoff",
    "swim:timestamps": [
      1788570730,
      1788570769,
      1788570802,
      1788570835,
      1788570859,
      1788570886,
      1788570924,
      1788570942,
      1788570960,
      1788571014,
      1788571036,
      1788571078,
      1788571105,
      1788571138,
      1788571160,
      1788571193,
      1788571226,
      1788571238,
      1788571286,
      1788571307,
      1788571330
    ],
    "wof:geomhash": "f942281368b7a0e37866363d0f28921d",
    "wof:id": 2048254709,
    "wof:repo": "sfomuseum-data-flights-2026-09"
  },
  "bbox": [
    -123.47995,
    37.62909,
    -122.40021,
    37.73142
  ],
  "geometry": {"type":"LineString","coordinates":[[-122.40021,37.62909],[-122.43594,37.64485],[-122.46784,37.65903],[-122.50336,37.67352],[-122.53536,37.677],[-122.57474,37.67963],[-122.6356,37.68299],[-122.66584,37.6846],[-122.696,37.68623],[-122.78923,37.69211],[-122.82851,37.69418],[-122.90901,37.69906],[-122.96587,37.70266],[-123.03897,37.70664],[-123.08855,37.7093],[-123.16409,37.71356],[-123.24024,37.71772],[-123.26811,37.7192],[-123.37819,37.72661],[-123.42633,37.72897],[-123.47995,37.73142]]}
}
