{
  "id": 2048477377,
  "type": "Feature",
  "properties": {
    "geom:area": 0,
    "geom:bbox": "-122.387500,37.638889,-83.168333,43.380556",
    "geom:latitude": 41.253059241603886,
    "geom:longitude": -103.00362602413509,
    "src:alt_label": "swim-path",
    "src:geom": "swim",
    "swim:altitudes": [
      "010",
      "021",
      "036",
      "053",
      "073",
      "091",
      "106",
      "115",
      "130",
      "146",
      "161",
      "176",
      "191",
      "201",
      "213",
      "225",
      "235",
      "246",
      "255",
      "260",
      "264",
      "269",
      "274",
      "289",
      "348C",
      "350C",
      "350C",
      "350C",
      "350C",
      "350C",
      "350C",
      "350C",
      "350C",
      "350C",
      "350C",
      "350C",
      "351C",
      "351C",
      "351C",
      "350C",
      "350C",
      "350C",
      "350C",
      "350C",
      "350C",
      "350C",
      "350C",
      "350C",
      "350C",
      "350C",
      "350C",
      "350C",
      "350C",
      "350C",
      "350C",
      "350C",
      "350C",
      "350C",
      "350C",
      "350C",
      "350C",
      "350C",
      "350C",
      "350C",
      "350C",
      "350C",
      "350C",
      "350C",
      "350C",
      "350C",
      "350C",
      "350C",
      "351C",
      "351C",
      "350C",
      "350C",
      "350C",
      "350C",
      "351C",
      "350C",
      "350C",
      "350C",
      "350C",
      "351C",
      "350C",
      "350C",
      "350C",
      "350C",
      "350C",
      "350C",
      "350C",
      "350C",
      "350C",
      "350C",
      "350C",
      "350C",
      "350C",
      "350C",
      "350C",
      "350C",
      "350C",
      "350C",
      "350C",
      "350C",
      "350C",
      "350C",
      "350C",
      "350C",
      "350C",
      "350C",
      "350C",
      "351C",
      "351C",
      "350C",
      "350C",
      "350C",
      "350C",
      "350C",
      "350C",
      "350C",
      "350C",
      "350C",
      "350C",
      "350C",
      "350C",
      "350C",
      "350C",
      "350C",
      "350C",
      "350C",
      "350C",
      "350C",
      "350C",
      "350C",
      "350C",
      "350C",
      "350C",
      "350C",
      "350C",
      "350C",
      "350C",
      "350C",
      "350C",
      "350C",
      "350C",
      "350C",
      "350C",
      "350C",
      "350C",
      "350C",
      "350C",
      "350C",
      "350C",
      "350C",
      "350C",
      "350C",
      "350C",
      "350C",
      "350C",
      "350C",
      "350C",
      "350C",
      "350C",
      "350C",
      "350C",
      "350C",
      "350C",
      "350C",
      "350C",
      "350C",
      "350C",
      "350C",
      "350C",
      "350C",
      "350C",
      "350C",
      "350C",
      "350C",
      "350C",
      "350C",
      "350C",
      "351C",
      "351C",
      "350C",
      "350C",
      "350C",
      "350C",
      "350C",
      "350C",
      "350C",
      "349C",
      "350C",
      "350C",
      "350C",
      "350C",
      "350C",
      "350C",
      "350C",
      "350C",
      "350C",
      "350C",
      "350C",
      "350C",
      "350C",
      "350C",
      "350C",
      "351C",
      "350C",
      "350C",
      "350C",
      "350C",
      "350C",
      "350C",
      "350C",
      "350C",
      "350C",
      "350C",
      "350C",
      "350C",
      "350C",
      "350C",
      "350C",
      "350C",
      "350C",
      "350C",
      "350C",
      "350C",
      "350C",
      "350C",
      "350C",
      "350C",
      "350C",
      "350C",
      "350C",
      "350C",
      "350C",
      "350C",
      "350C",
      "350C",
      "350C",
      "350C",
      "350C",
      "350C",
      "351C",
      "350C",
      "350C",
      "350C",
      "350C",
      "350C",
      "350C",
      "350C",
      "350C",
      "350C",
      "350C",
      "350C",
      "350C",
      "350C",
      "350C",
      "350C",
      "350C",
      "350C",
      "350C",
      "350C",
      "350C",
      "350C",
      "350C",
      "350C",
      "350C",
      "350C",
      "350C",
      "350C",
      "350C",
      "350C",
      "350C",
      "350C",
      "350C",
      "350C",
      "350C",
      "350C",
      "350C",
      "350",
      "345",
      "335",
      "326",
      "316",
      "310C",
      "310C",
      "310C",
      "310C",
      "310C",
      "310C",
      "310C",
      "310C",
      "310C",
      "310C",
      "310C",
      "310C",
      "310C",
      "310C",
      "310C",
      "310C",
      "310C",
      "310C",
      "310C",
      "310C",
      "310C",
      "310C",
      "310C"
    ],
    "swim:geom": "path",
    "swim:speeds": [
      166,
      201,
      233,
      261,
      277,
      290,
      305,
      347,
      363,
      376,
      384,
      390,
      400,
      410,
      420,
      427,
      436,
      445,
      449,
      451,
      455,
      453,
      462,
      465,
      458,
      448,
      446,
      445,
      444,
      443,
      443,
      442,
      442,
      442,
      442,
      442,
      442,
      442,
      441,
      438,
      437,
      434,
      433,
      432,
      431,
      430,
      429,
      430,
      430,
      430,
      430,
      431,
      431,
      431,
      431,
      431,
      430,
      430,
      430,
      429,
      429,
      430,
      431,
      431,
      431,
      431,
      431,
      431,
      432,
      433,
      434,
      436,
      437,
      437,
      436,
      434,
      433,
      433,
      433,
      431,
      430,
      430,
      432,
      432,
      433,
      434,
      434,
      435,
      435,
      435,
      436,
      437,
      437,
      438,
      439,
      440,
      440,
      440,
      440,
      440,
      440,
      440,
      440,
      441,
      441,
      441,
      442,
      444,
      446,
      454,
      455,
      459,
      461,
      463,
      464,
      465,
      465,
      467,
      467,
      468,
      469,
      471,
      472,
      473,
      474,
      476,
      476,
      478,
      479,
      480,
      480,
      481,
      480,
      479,
      479,
      479,
      479,
      479,
      479,
      480,
      480,
      481,
      482,
      483,
      484,
      485,
      485,
      486,
      487,
      488,
      488,
      489,
      489,
      490,
      492,
      494,
      495,
      496,
      497,
      497,
      498,
      500,
      502,
      504,
      506,
      507,
      508,
      509,
      508,
      508,
      509,
      510,
      511,
      510,
      508,
      507,
      504,
      503,
      503,
      504,
      508,
      510,
      512,
      512,
      512,
      514,
      516,
      519,
      520,
      521,
      521,
      521,
      522,
      523,
      525,
      527,
      528,
      529,
      530,
      530,
      530,
      531,
      531,
      531,
      530,
      531,
      529,
      524,
      521,
      520,
      523,
      524,
      525,
      526,
      529,
      528,
      531,
      532,
      532,
      532,
      533,
      533,
      533,
      533,
      533,
      533,
      533,
      533,
      533,
      533,
      533,
      533,
      533,
      533,
      533,
      533,
      533,
      533,
      533,
      533,
      534,
      533,
      533,
      533,
      532,
      529,
      528,
      524,
      523,
      522,
      522,
      521,
      520,
      519,
      519,
      518,
      518,
      517,
      517,
      516,
      516,
      515,
      515,
      515,
      515,
      515,
      514,
      515,
      514,
      515,
      515,
      515,
      516,
      516,
      517,
      516,
      516,
      515,
      515,
      512,
      509,
      507,
      507,
      506,
      507,
      505,
      498,
      500,
      498,
      499,
      501,
      501,
      500,
      499,
      498,
      497,
      496,
      495,
      494,
      493,
      492,
      492,
      492,
      492,
      492,
      491,
      494,
      496
    ],
    "swim:timestamps": [
      1790752567,
      1790752627,
      1790752687,
      1790752747,
      1790752807,
      1790752867,
      1790752927,
      1790752987,
      1790753047,
      1790753107,
      1790753168,
      1790753228,
      1790753288,
      1790753348,
      1790753408,
      1790753468,
      1790753528,
      1790753588,
      1790753648,
      1790753679,
      1790753708,
      1790753739,
      1790753768,
      1790753859,
      1790754219,
      1790754399,
      1790754428,
      1790754459,
      1790754488,
      1790754519,
      1790754548,
      1790754579,
      1790754608,
      1790754639,
      1790754668,
      1790754699,
      1790754728,
      1790754759,
      1790754788,
      1790754819,
      1790754848,
      1790754879,
      1790754908,
      1790754939,
      1790754968,
      1790754999,
      1790755028,
      1790755059,
      1790755088,
      1790755119,
      1790755148,
      1790755179,
      1790755208,
      1790755239,
      1790755268,
      1790755299,
      1790755328,
      1790755359,
      1790755388,
      1790755419,
      1790755480,
      1790755540,
      1790755600,
      1790755660,
      1790755720,
      1790755780,
      1790755840,
      1790755900,
      1790755960,
      1790756020,
      1790756080,
      1790756140,
      1790756200,
      1790756260,
      1790756320,
      1790756380,
      1790756440,
      1790756500,
      1790756560,
      1790756620,
      1790756680,
      1790756740,
      1790756800,
      1790756860,
      1790756920,
      1790756980,
      1790757040,
      1790757100,
      1790757160,
      1790757201,
      1790757220,
      1790757261,
      1790757280,
      1790757321,
      1790757340,
      1790757381,
      1790757400,
      1790757441,
      1790757460,
      1790757501,
      1790757520,
      1790757561,
      1790757580,
      1790757621,
      1790757640,
      1790757681,
      1790757700,
      1790757741,
      1790757760,
      1790757801,
      1790757820,
      1790757861,
      1790757880,
      1790757921,
      1790757940,
      1790757981,
      1790758000,
      1790758041,
      1790758060,
      1790758101,
      1790758120,
      1790758161,
      1790758181,
      1790758221,
      1790758241,
      1790758281,
      1790758301,
      1790758341,
      1790758361,
      1790758401,
      1790758421,
      1790758461,
      1790758481,
      1790758521,
      1790758541,
      1790758581,
      1790758601,
      1790758641,
      1790758661,
      1790758701,
      1790758721,
      1790758761,
      1790758781,
      1790758821,
      1790758841,
      1790758881,
      1790758901,
      1790758941,
      1790759001,
      1790759061,
      1790759121,
      1790759181,
      1790759241,
      1790759302,
      1790759362,
      1790759422,
      1790759482,
      1790759542,
      1790759602,
      1790759662,
      1790759722,
      1790759782,
      1790759842,
      1790759902,
      1790759962,
      1790760022,
      1790760082,
      1790760142,
      1790760202,
      1790760262,
      1790760322,
      1790760382,
      1790760442,
      1790760502,
      1790760562,
      1790760622,
      1790760682,
      1790760742,
      1790760802,
      1790760862,
      1790760922,
      1790760982,
      1790761042,
      1790761102,
      1790761162,
      1790761222,
      1790761282,
      1790761342,
      1790761402,
      1790761462,
      1790761522,
      1790761582,
      1790761642,
      1790761707,
      1790761767,
      1790761827,
      1790761887,
      1790761947,
      1790762007,
      1790762067,
      1790762127,
      1790762187,
      1790762247,
      1790762307,
      1790762367,
      1790762427,
      1790762487,
      1790762547,
      1790762607,
      1790762667,
      1790762727,
      1790762787,
      1790762848,
      1790762908,
      1790762968,
      1790762978,
      1790763028,
      1790763039,
      1790763088,
      1790763148,
      1790763159,
      1790763208,
      1790763219,
      1790763268,
      1790763280,
      1790763328,
      1790763340,
      1790763388,
      1790763400,
      1790763448,
      1790763459,
      1790763508,
      1790763519,
      1790763568,
      1790763579,
      1790763628,
      1790763639,
      1790763688,
      1790763699,
      1790763748,
      1790763759,
      1790763808,
      1790763819,
      1790763868,
      1790763879,
      1790763928,
      1790763939,
      1790763988,
      1790764000,
      1790764048,
      1790764059,
      1790764108,
      1790764120,
      1790764168,
      1790764180,
      1790764228,
      1790764240,
      1790764288,
      1790764300,
      1790764348,
      1790764360,
      1790764408,
      1790764420,
      1790764468,
      1790764480,
      1790764528,
      1790764540,
      1790764588,
      1790764599,
      1790764648,
      1790764662,
      1790764708,
      1790764722,
      1790764768,
      1790764782,
      1790764829,
      1790764842,
      1790764889,
      1790764902,
      1790764962,
      1790765020,
      1790765080,
      1790765140,
      1790765200,
      1790765261,
      1790765309,
      1790765382,
      1790765429,
      1790765500,
      1790765560,
      1790765609,
      1790765680,
      1790765729,
      1790765741,
      1790765789,
      1790765802,
      1790765849,
      1790765862,
      1790765922,
      1790765982,
      1790766040,
      1790766100,
      1790766161,
      1790766210,
      1790766270,
      1790766330,
      1790766390,
      1790766450
    ],
    "wof:geomhash": "57853232e5cf020f216ca64332ae7594",
    "wof:id": 2048477377,
    "wof:repo": "sfomuseum-data-flights-2026-09"
  },
  "bbox": [
    -122.3875,
    37.638888888888886,
    -83.16833333333334,
    43.38055555555555
  ],
  "geometry": {"type":"LineString","coordinates":[[-122.35805555555555,37.638888888888886],[-122.31444444444445,37.67666666666666],[-122.33194444444445,37.736666666666665],[-122.36694444444444,37.80277777777778],[-122.3875,37.87694444444445],[-122.35499999999999,37.94638888888888],[-122.2525,37.9675],[-122.13777777777779,37.990833333333335],[-122.01305555555555,38.01583333333333],[-121.88472222222222,38.04111111111111],[-121.74527777777777,38.062777777777775],[-121.61055555555555,38.08388888888889],[-121.47333333333333,38.105555555555554],[-121.3325,38.1275],[-121.18861111111111,38.14944444444444],[-121.04138888888889,38.17222222222222],[-120.89027777777778,38.195277777777775],[-120.73666666666666,38.218611111111116],[-120.58277777777778,38.24138888888889],[-120.51138888888889,38.249722222222225],[-120.42527777777778,38.264722222222225],[-120.34416666666667,38.274166666666666],[-120.26305555555555,38.288333333333334],[-120.02916666666667,38.31944444444445],[-119.07277777777777,38.45333333333333],[-118.60583333333332,38.51611111111111],[-118.51444444444445,38.52833333333333],[-118.45416666666667,38.53611111111111],[-118.36027777777777,38.54833333333333],[-118.28,38.558611111111105],[-118.20527777777778,38.56805555555556],[-118.12444444444444,38.57833333333333],[-118.06083333333333,38.58638888888889],[-117.96944444444445,38.59777777777778],[-117.90555555555557,38.605555555555554],[-117.81416666666667,38.61694444444444],[-117.75,38.625],[-117.65777777777778,38.63638888888889],[-117.59583333333333,38.64388888888889],[-117.505,38.65472222222222],[-117.44250000000001,38.66222222222222],[-117.35222222222221,38.67305555555555],[-117.28972222222222,38.68055555555555],[-117.19972222222222,38.69333333333333],[-117.13861111111112,38.70305555555556],[-117.05055555555555,38.71666666666667],[-116.9888888888889,38.725833333333334],[-116.90055555555556,38.73888888888889],[-116.83805555555556,38.74805555555556],[-116.77833333333334,38.75694444444444],[-116.68583333333333,38.77055555555555],[-116.6275,38.77916666666667],[-116.53472222222221,38.7925],[-116.47500000000001,38.80138888888889],[-116.38305555555554,38.81444444444444],[-116.32416666666666,38.82277777777778],[-116.2325,38.836111111111116],[-116.17333333333333,38.84444444444445],[-116.08166666666666,38.8575],[-116.02388888888889,38.86555555555556],[-115.87166666666666,38.88666666666666],[-115.72027777777778,38.9075],[-115.56972222222223,38.92805555555555],[-115.41666666666667,38.94888888888889],[-115.26388888888889,38.96944444444445],[-115.11333333333333,38.98916666666667],[-114.96166666666667,39.009166666666665],[-114.8086111111111,39.02916666666667],[-114.65611111111112,39.04861111111111],[-114.50277777777778,39.06805555555556],[-114.34972222222221,39.08722222222222],[-114.19555555555556,39.10638888888889],[-114.04027777777777,39.12555555555556],[-113.88555555555556,39.144444444444446],[-113.73222222222222,39.16277777777778],[-113.57972222222222,39.18083333333333],[-113.42750000000001,39.19888888888889],[-113.27194444444444,39.21666666666667],[-113.11944444444444,39.23416666666667],[-112.96777777777778,39.25138888888889],[-112.81388888888888,39.26861111111111],[-112.6613888888889,39.285555555555554],[-112.48944444444444,39.31111111111111],[-112.3475,39.35611111111111],[-112.20444444444445,39.40416666666667],[-112.0611111111111,39.45194444444445],[-111.9175,39.499722222222225],[-111.77444444444444,39.54694444444444],[-111.63222222222221,39.593611111111116],[-111.53666666666666,39.625],[-111.48833333333333,39.64083333333333],[-111.39194444444445,39.6725],[-111.34277777777777,39.68833333333333],[-111.24583333333334,39.719722222222224],[-111.22111111111111,39.72777777777778],[-111.09916666666666,39.76722222222222],[-111.06805555555555,39.77722222222222],[-110.95083333333334,39.81472222222222],[-110.92194444444445,39.823888888888895],[-110.80416666666666,39.861666666666665],[-110.77472222222222,39.87083333333334],[-110.65722222222223,39.90833333333333],[-110.62777777777777,39.91777777777777],[-110.50972222222222,39.955000000000005],[-110.4786111111111,39.96472222222223],[-110.36194444444443,40.001666666666665],[-110.3325,40.01083333333333],[-110.21138888888889,40.04861111111111],[-110.17916666666667,40.058611111111105],[-110.0586111111111,40.096111111111114],[-110.02694444444444,40.10583333333334],[-109.90333333333334,40.14388888888889],[-109.87083333333332,40.153888888888886],[-109.74638888888889,40.19222222222222],[-109.71277777777777,40.2025],[-109.58972222222222,40.24],[-109.55472222222222,40.25055555555556],[-109.43027777777779,40.28861111111111],[-109.39611111111111,40.29888888888889],[-109.26833333333333,40.337500000000006],[-109.23611111111111,40.34722222222222],[-109.1086111111111,40.385555555555555],[-109.07527777777777,40.39527777777778],[-108.94611111111111,40.43388888888889],[-108.91194444444444,40.443888888888885],[-108.7825,40.48222222222223],[-108.73944444444444,40.495],[-108.6525,40.520833333333336],[-108.5786111111111,40.5425],[-108.48722222222223,40.56916666666667],[-108.42111111111112,40.58833333333334],[-108.29083333333332,40.62638888888889],[-108.25555555555556,40.63666666666666],[-108.13027777777778,40.672777777777775],[-108.0925,40.683611111111105],[-107.96694444444445,40.719722222222224],[-107.92944444444444,40.73027777777778],[-107.8,40.76722222222222],[-107.7625,40.77777777777778],[-107.66638888888889,40.805277777777775],[-107.59805555555555,40.824444444444445],[-107.50194444444445,40.85166666666667],[-107.4325,40.87111111111111],[-107.33305555555555,40.89888888888889],[-107.26416666666667,40.918055555555554],[-107.1538888888889,40.94888888888889],[-107.09555555555555,40.965],[-106.9875,40.995],[-106.82777777777777,41.038888888888884],[-106.655,41.08583333333333],[-106.48833333333333,41.13138888888889],[-106.315,41.17777777777778],[-106.14500000000001,41.223333333333336],[-105.97527777777778,41.26833333333333],[-105.80444444444444,41.31333333333333],[-105.63083333333333,41.35888888888889],[-105.45861111111111,41.40361111111111],[-105.28611111111111,41.448055555555555],[-105.1125,41.4925],[-104.93861111111111,41.53666666666666],[-104.76388888888889,41.58083333333334],[-104.58722222222222,41.625],[-104.37638888888888,41.677499999999995],[-104.19777777777779,41.72138888888889],[-104.01944444444445,41.765277777777776],[-103.83999999999999,41.808611111111105],[-103.66194444444444,41.85166666666667],[-103.4825,41.89333333333333],[-103.29805555555555,41.92055555555555],[-103.10972222222222,41.94694444444444],[-102.92555555555556,41.97222222222222],[-102.73833333333333,41.99777777777778],[-102.55083333333333,42.022777777777776],[-102.36416666666666,42.047777777777775],[-102.17750000000001,42.07222222222222],[-102.01583333333333,42.093333333333334],[-101.83194444444445,42.11666666666667],[-101.64555555555556,42.140277777777776],[-101.46111111111111,42.16305555555555],[-101.27166666666666,42.186388888888885],[-101.08472222222221,42.20888888888889],[-100.8938888888889,42.23166666666667],[-100.70333333333333,42.25416666666667],[-100.51555555555555,42.27611111111111],[-100.32388888888889,42.297777777777775],[-100.13027777777778,42.31944444444445],[-99.9388888888889,42.34055555555556],[-99.74472222222222,42.36194444444445],[-99.54388888888889,42.38333333333333],[-99.34777777777778,42.40361111111111],[-99.15444444444445,42.42388888888889],[-98.95777777777778,42.443888888888885],[-98.76194444444444,42.46333333333334],[-98.56833333333333,42.487500000000004],[-98.37055555555555,42.515],[-98.17500000000001,42.54194444444444],[-97.9775,42.56861111111112],[-97.77972222222222,42.59527777777778],[-97.58444444444444,42.62083333333334],[-97.3863888888889,42.64666666666667],[-97.18777777777778,42.67222222222222],[-96.99916666666667,42.69583333333333],[-96.8,42.720555555555556],[-96.60555555555555,42.74472222222222],[-96.4075,42.76861111111111],[-96.20972222222223,42.79222222222222],[-96.01638888888888,42.815],[-95.82194444444444,42.837500000000006],[-95.6275,42.85944444444445],[-95.43194444444445,42.88138888888889],[-95.23722222222223,42.90277777777778],[-95.04305555555555,42.92388888888889],[-94.84333333333333,42.945277777777775],[-94.6463888888889,42.965833333333336],[-94.41861111111112,42.989444444444445],[-94.41694444444445,42.98861111111111],[-94.21861111111112,43.00972222222222],[-94.21833333333333,43.00972222222222],[-94.01861111111111,43.029444444444444],[-93.81527777777778,43.049166666666665],[-93.81916666666666,43.04888888888889],[-93.61611111111111,43.06805555555556],[-93.61611111111111,43.06805555555556],[-93.41666666666667,43.08694444444445],[-93.41666666666667,43.08694444444445],[-93.21222222222222,43.09805555555556],[-93.21583333333334,43.09805555555556],[-93.01222222222222,43.10277777777778],[-93.01222222222222,43.10277777777778],[-92.81,43.10777777777778],[-92.81,43.10777777777778],[-92.60583333333332,43.11194444444445],[-92.60944444444443,43.11194444444445],[-92.40305555555557,43.115833333333335],[-92.40305555555557,43.115833333333335],[-92.24027777777778,43.118611111111115],[-92.19972222222222,43.119166666666665],[-92.03694444444444,43.121944444444445],[-91.99638888888889,43.1225],[-91.83305555555555,43.124722222222225],[-91.79333333333334,43.125277777777775],[-91.63055555555555,43.12722222222222],[-91.58805555555556,43.12777777777778],[-91.42416666666666,43.129444444444445],[-91.38416666666667,43.13],[-91.22277777777778,43.13138888888889],[-91.18277777777779,43.13166666666667],[-91.02333333333333,43.132777777777775],[-90.98472222222222,43.13305555555556],[-90.82638888888889,43.13388888888889],[-90.78833333333333,43.13388888888889],[-90.63027777777778,43.13444444444444],[-90.5886111111111,43.13444444444444],[-90.4325,43.135],[-90.39222222222223,43.135],[-90.20972222222223,43.135],[-90.17722222222223,43.135],[-90.015,43.13444444444444],[-89.98166666666667,43.13444444444444],[-89.82111111111111,43.13388888888889],[-89.78583333333333,43.13388888888889],[-89.62666666666667,43.132777777777775],[-89.59166666666667,43.132777777777775],[-89.43916666666667,43.1325],[-89.39666666666668,43.13138888888889],[-89.245,43.13],[-89.2025,43.129444444444445],[-89.05055555555555,43.128055555555555],[-89.01,43.1275],[-88.8561111111111,43.124722222222225],[-88.81444444444445,43.125277777777775],[-88.66194444444444,43.12222222222222],[-88.62138888888889,43.1225],[-88.46805555555555,43.11833333333333],[-88.42611111111111,43.11944444444445],[-88.26666666666667,43.1175],[-88.23277777777778,43.11833333333333],[-88.07444444444444,43.12416666666667],[-88.03999999999999,43.125],[-87.84861111111111,43.13055555555555],[-87.6575,43.13611111111111],[-87.46694444444445,43.14111111111111],[-87.26166666666667,43.146388888888886],[-87.07055555555556,43.15083333333333],[-86.87805555555555,43.155],[-86.72638888888889,43.15888888888889],[-86.49916666666667,43.1625],[-86.34916666666666,43.165],[-86.11749999999999,43.16861111111111],[-85.95944444444444,43.17361111111111],[-85.80499999999999,43.181666666666665],[-85.575,43.19277777777778],[-85.42444444444445,43.2],[-85.38388888888889,43.20194444444445],[-85.235,43.20861111111111],[-85.19805555555556,43.21055555555556],[-85.05,43.216944444444444],[-85.00972222222222,43.218611111111116],[-84.82222222222222,43.22666666666667],[-84.63527777777779,43.23416666666667],[-84.44805555555556,43.242222222222225],[-84.26416666666667,43.26277777777778],[-84.07833333333333,43.282777777777774],[-83.91638888888889,43.29972222222222],[-83.73,43.31916666666667],[-83.5436111111111,43.339444444444446],[-83.35638888888889,43.36027777777778],[-83.16833333333334,43.38055555555555]]}
}
