{
  "id": 2048339903,
  "type": "Feature",
  "properties": {
    "geom:area": 0,
    "geom:bbox": "-122.407830,37.627250,-121.287270,37.991170",
    "geom:latitude": 37.93249130176452,
    "geom:longitude": -121.96306978622398,
    "src:alt_label": "swim-takeoff",
    "src:geom": "swim",
    "swim:elevations": [
      122,
      276,
      790,
      944,
      1149,
      1390,
      1711,
      2150,
      2410,
      2704,
      3238,
      3286,
      3518,
      3977,
      4119,
      4523,
      4685,
      5201,
      5473,
      5727,
      5953,
      6145,
      6374,
      6727,
      6932,
      7240,
      7412,
      7579,
      7917
    ],
    "swim:geom": "takeoff",
    "swim:timestamps": [
      1789428387,
      1789428401,
      1789428442,
      1789428453,
      1789428483,
      1789428507,
      1789428534,
      1789428565,
      1789428583,
      1789428604,
      1789428654,
      1789428663,
      1789428678,
      1789428718,
      1789428730,
      1789428763,
      1789428781,
      1789428834,
      1789428864,
      1789428890,
      1789428915,
      1789428936,
      1789428960,
      1789429005,
      1789429036,
      1789429077,
      1789429097,
      1789429115,
      1789429154
    ],
    "wof:geomhash": "9f0f6b8a4a28fe70ba0ab119dc1ebdd1",
    "wof:id": 2048339903,
    "wof:repo": "sfomuseum-data-flights-2026-09"
  },
  "bbox": [
    -122.40783,
    37.62725,
    -121.28727,
    37.99117
  ],
  "geometry": {"type":"LineString","coordinates":[[-122.39533,37.62725],[-122.40783,37.63344],[-122.39929,37.66502],[-122.39023,37.67164],[-122.3659,37.69367],[-122.34628,37.71499],[-122.33827,37.74672],[-122.35629,37.78382],[-122.36783,37.80598],[-122.38018,37.83222],[-122.3839,37.9031],[-122.37912,37.91623],[-122.36279,37.93521],[-122.29307,37.9596],[-122.26991,37.96422],[-122.20554,37.97675],[-122.16924,37.98356],[-122.05698,37.9884],[-121.99295,37.98895],[-121.93354,37.98933],[-121.8765,37.98973],[-121.8278,37.99003],[-121.77206,37.99023],[-121.66434,37.99052],[-121.58949,37.99078],[-121.48378,37.99109],[-121.43314,37.99111],[-121.38671,37.99117],[-121.28727,37.99102]]}
}
