{
  "id": 2048262803,
  "type": "Feature",
  "properties": {
    "geom:area": 0,
    "geom:bbox": "-123.491490,37.555440,-122.396250,37.663350",
    "geom:latitude": 37.58834366608769,
    "geom:longitude": -122.93541613635443,
    "src:alt_label": "swim-takeoff",
    "src:geom": "swim",
    "swim:elevations": [
      183,
      558,
      897,
      1068,
      1328,
      1704,
      2020,
      2496,
      2837,
      3157,
      3350,
      3451,
      3486,
      4009,
      4204,
      4458,
      4783,
      5155,
      5257,
      5618,
      5819,
      6081,
      6446,
      6545
    ],
    "swim:geom": "takeoff",
    "swim:timestamps": [
      1788596932,
      1788596964,
      1788596996,
      1788597019,
      1788597051,
      1788597081,
      1788597107,
      1788597148,
      1788597175,
      1788597205,
      1788597223,
      1788597238,
      1788597242,
      1788597293,
      1788597317,
      1788597351,
      1788597383,
      1788597418,
      1788597428,
      1788597465,
      1788597488,
      1788597525,
      1788597563,
      1788597574
    ],
    "wof:geomhash": "4c3acb24a3d01462df5fea8cf0c9d92b",
    "wof:id": 2048262803,
    "wof:repo": "sfomuseum-data-flights-2026-09"
  },
  "bbox": [
    -123.49149,
    37.55544,
    -122.39625,
    37.66335
  ],
  "geometry": {"type":"LineString","coordinates":[[-122.39625,37.62758],[-122.42572,37.64001],[-122.45635,37.65248],[-122.48013,37.66335],[-122.51999,37.66057],[-122.55299,37.63892],[-122.58444,37.62239],[-122.63971,37.59973],[-122.68263,37.59524],[-122.73248,37.59121],[-122.76334,37.58881],[-122.78985,37.58678],[-122.79715,37.58622],[-122.8934,37.57928],[-122.9401,37.57622],[-123.00759,37.57307],[-123.07708,37.5702],[-123.14972,37.56656],[-123.17136,37.56547],[-123.2503,37.56234],[-123.30062,37.56108],[-123.38411,37.55866],[-123.4677,37.55607],[-123.49149,37.55544]]}
}
