{
  "id": 2048386837,
  "type": "Feature",
  "properties": {
    "geom:area": 0,
    "geom:bbox": "-122.355430,37.428350,-121.253870,37.612710",
    "geom:latitude": 37.53492427686772,
    "geom:longitude": -121.81158847018082,
    "src:alt_label": "swim-approach",
    "src:geom": "swim",
    "swim:elevations": [
      4602,
      4421,
      4387,
      4176,
      4038,
      3711,
      3368,
      3248,
      3047,
      2950,
      2856,
      2559,
      2435,
      2438,
      2438,
      2180,
      2136,
      2134,
      2134,
      2096,
      1806,
      1795,
      1622,
      1524,
      1449,
      1204,
      985,
      965,
      734,
      679,
      545,
      351,
      256,
      152,
      0
    ],
    "swim:geom": "approach",
    "swim:timestamps": [
      1789914930,
      1789914983,
      1789915015,
      1789915037,
      1789915050,
      1789915088,
      1789915126,
      1789915144,
      1789915198,
      1789915225,
      1789915235,
      1789915283,
      1789915308,
      1789915327,
      1789915353,
      1789915404,
      1789915422,
      1789915449,
      1789915494,
      1789915505,
      1789915557,
      1789915560,
      1789915590,
      1789915624,
      1789915654,
      1789915693,
      1789915738,
      1789915744,
      1789915795,
      1789915805,
      1789915838,
      1789915883,
      1789915905,
      1789915931,
      1789915962
    ],
    "wof:geomhash": "def49b27dfe0bca93e89e1f1758fd9fd",
    "wof:id": 2048386837,
    "wof:repo": "sfomuseum-data-flights-2026-09"
  },
  "bbox": [
    -122.35543,
    37.42835,
    -121.25387,
    37.61271
  ],
  "geometry": {"type":"LineString","coordinates":[[-121.25387,37.59401],[-121.3564,37.58191],[-121.41134,37.57564],[-121.44431,37.57181],[-121.46516,37.56935],[-121.52219,37.56274],[-121.5767,37.56391],[-121.60045,37.57259],[-121.67611,37.58584],[-121.71464,37.58924],[-121.72774,37.59048],[-121.77357,37.5636],[-121.77519,37.53752],[-121.77664,37.51769],[-121.77847,37.49075],[-121.81317,37.44614],[-121.8305,37.43348],[-121.86443,37.42835],[-121.91985,37.42835],[-121.93134,37.43311],[-121.98619,37.45662],[-121.98934,37.45794],[-122.02097,37.47155],[-122.05631,37.48662],[-122.08677,37.4994],[-122.12841,37.51727],[-122.17245,37.53579],[-122.17845,37.53831],[-122.22309,37.55713],[-122.23155,37.56071],[-122.25916,37.57239],[-122.29515,37.5873],[-122.31219,37.59462],[-122.33225,37.60311],[-122.35543,37.61271]]}
}
