{
  "id": 2048426277,
  "type": "Feature",
  "properties": {
    "geom:area": 0,
    "geom:bbox": "-122.416667,29.457778,-90.215000,38.516944",
    "geom:latitude": 34.70733694359308,
    "geom:longitude": -104.00918892290095,
    "src:alt_label": "swim-path",
    "src:geom": "swim",
    "swim:altitudes": [
      "007",
      "015",
      "026",
      "035",
      "041",
      "059",
      "082",
      "106",
      "117",
      "139",
      "157",
      "175",
      "191",
      "207",
      "223",
      "239",
      "251",
      "263",
      "275",
      "283",
      "293",
      "302",
      "309",
      "317",
      "329",
      "330",
      "330",
      "334",
      "342",
      "350C",
      "350C",
      "350C",
      "350C",
      "350C",
      "350C",
      "350C",
      "350C",
      "350C",
      "350C",
      "350C",
      "350C",
      "350C",
      "350C",
      "350C",
      "350C",
      "350C",
      "350C",
      "350C",
      "350C",
      "350C",
      "350C",
      "350C",
      "350C",
      "350C",
      "350C",
      "350C",
      "350C",
      "350C",
      "350C",
      "350C",
      "350C",
      "350C",
      "350C",
      "350C",
      "350C",
      "350C",
      "350C",
      "350C",
      "350C",
      "350C",
      "350C",
      "350C",
      "350C",
      "350C",
      "350C",
      "350C",
      "350C",
      "350C",
      "350C",
      "350C",
      "350C",
      "350C",
      "350C",
      "350C",
      "350C",
      "350C",
      "350C",
      "350C",
      "350C",
      "350C",
      "350C",
      "350C",
      "350C",
      "350C",
      "350C",
      "350C",
      "350C",
      "350C",
      "350C",
      "350C",
      "350C",
      "350C",
      "350C",
      "350C",
      "350C",
      "350C",
      "350C",
      "350C",
      "350C",
      "350C",
      "350C",
      "350C",
      "350C",
      "350C",
      "350C",
      "350C",
      "350C",
      "350C",
      "350C",
      "350C",
      "350C",
      "350C",
      "350C",
      "350C",
      "350C",
      "350C",
      "350C",
      "350C",
      "350C",
      "350C",
      "350C",
      "350C",
      "350C",
      "350C",
      "350C",
      "350C",
      "350C",
      "350C",
      "350C",
      "350C",
      "350C",
      "350C",
      "350C",
      "350C",
      "350C",
      "350C",
      "350C",
      "350C",
      "350C",
      "350C",
      "350C",
      "350C",
      "350C",
      "350C",
      "350C",
      "350C",
      "350C",
      "350C",
      "350C",
      "350C",
      "350C",
      "350C",
      "350C",
      "350C",
      "350C",
      "350C",
      "350C",
      "350C",
      "350C",
      "350C",
      "350C",
      "350C",
      "350C",
      "350C",
      "350C",
      "350C",
      "350C",
      "350C",
      "350C",
      "350C",
      "350C",
      "350C",
      "350C",
      "350C",
      "350C",
      "350C",
      "350C",
      "350C",
      "350C",
      "350C",
      "350C",
      "350C",
      "350C",
      "350C",
      "350C",
      "350C",
      "350C",
      "350C",
      "350C",
      "350C",
      "350C",
      "350C",
      "350C",
      "350C",
      "350C",
      "350C",
      "350C",
      "350C",
      "350C",
      "350C",
      "350C",
      "350C",
      "350C",
      "350C",
      "350C",
      "350C",
      "350C",
      "350C",
      "350C",
      "350C",
      "350C",
      "350C",
      "350C",
      "350C",
      "350C",
      "350C",
      "350C",
      "350C",
      "350C",
      "350C",
      "350C",
      "350C",
      "350C",
      "350C",
      "350C",
      "350C",
      "350C",
      "350C",
      "350C",
      "350C",
      "350C",
      "350C",
      "350C",
      "350C",
      "350C",
      "350C",
      "350C",
      "350C",
      "350C",
      "350C",
      "350C",
      "350C",
      "350C",
      "350C",
      "350C",
      "350C",
      "350C",
      "350C",
      "350C",
      "350C",
      "350C",
      "350C",
      "350C",
      "350C",
      "350C",
      "350C",
      "350C",
      "350C",
      "350C",
      "350C",
      "350C",
      "350C",
      "350C",
      "350C",
      "350C",
      "350C",
      "350C",
      "350C",
      "350C",
      "350C",
      "350C",
      "350C",
      "350C",
      "350C",
      "350C",
      "350C",
      "350C",
      "350C",
      "350C",
      "350C",
      "350C",
      "350C",
      "350C",
      "348",
      "345",
      "339",
      "335",
      "330",
      "325",
      "316",
      "310",
      "298",
      "288",
      "269",
      "250",
      "225",
      "204",
      "181",
      "158",
      "142",
      "140",
      "122",
      "105",
      "097",
      "093",
      "084",
      "080",
      "063",
      "063",
      "052",
      "052",
      "048",
      "045",
      "036",
      "034",
      "023",
      "016",
      "014",
      "008",
      "006",
      "002",
      "009",
      "025",
      "051",
      "087",
      "110",
      "129",
      "152",
      "173",
      "191",
      "222",
      "237",
      "250",
      "300C",
      "300C",
      "300C",
      "300C",
      "300",
      "300",
      "300",
      "300",
      "300",
      "300",
      "300",
      "300",
      "297",
      "272",
      "250",
      "228",
      "207",
      "201",
      "184",
      "175",
      "166",
      "155",
      "146",
      "139",
      "133",
      "126",
      "119",
      "115",
      "108",
      "103",
      "097",
      "093",
      "086",
      "081",
      "075",
      "070",
      "065",
      "060",
      "059",
      "060",
      "060",
      "060",
      "060",
      "059",
      "054",
      "050",
      "050",
      "050",
      "050",
      "050",
      "050",
      "050",
      "050",
      "050",
      "050",
      "044",
      "041",
      "040",
      "036",
      "033",
      "026",
      "023",
      "017",
      "015",
      "010",
      "008",
      "004"
    ],
    "swim:geom": "path",
    "swim:speeds": [
      178,
      191,
      193,
      201,
      222,
      284,
      297,
      304,
      344,
      351,
      366,
      377,
      390,
      402,
      406,
      417,
      427,
      434,
      440,
      444,
      454,
      459,
      462,
      466,
      469,
      468,
      467,
      468,
      466,
      465,
      463,
      464,
      464,
      463,
      462,
      461,
      459,
      457,
      458,
      456,
      455,
      453,
      453,
      453,
      453,
      452,
      452,
      452,
      452,
      452,
      456,
      458,
      460,
      461,
      461,
      461,
      461,
      460,
      461,
      462,
      463,
      463,
      462,
      462,
      462,
      459,
      461,
      460,
      461,
      460,
      459,
      458,
      458,
      457,
      457,
      457,
      457,
      457,
      455,
      455,
      453,
      453,
      452,
      452,
      452,
      452,
      453,
      454,
      455,
      456,
      456,
      456,
      457,
      457,
      458,
      458,
      457,
      457,
      456,
      456,
      455,
      455,
      454,
      453,
      452,
      451,
      450,
      450,
      450,
      450,
      451,
      454,
      451,
      453,
      452,
      452,
      451,
      452,
      451,
      452,
      451,
      451,
      450,
      450,
      449,
      450,
      448,
      449,
      449,
      450,
      450,
      450,
      451,
      451,
      453,
      452,
      454,
      456,
      456,
      458,
      458,
      458,
      458,
      458,
      458,
      459,
      459,
      460,
      460,
      461,
      461,
      460,
      460,
      459,
      458,
      458,
      456,
      455,
      454,
      453,
      454,
      457,
      455,
      457,
      456,
      457,
      457,
      457,
      458,
      457,
      457,
      457,
      457,
      457,
      457,
      458,
      460,
      462,
      464,
      465,
      466,
      467,
      468,
      469,
      470,
      471,
      472,
      472,
      471,
      471,
      470,
      470,
      470,
      471,
      471,
      472,
      472,
      472,
      473,
      473,
      473,
      474,
      474,
      475,
      476,
      478,
      479,
      480,
      480,
      481,
      481,
      482,
      482,
      482,
      483,
      483,
      483,
      483,
      483,
      483,
      482,
      482,
      481,
      479,
      478,
      479,
      481,
      481,
      481,
      481,
      481,
      481,
      481,
      481,
      481,
      481,
      481,
      482,
      483,
      484,
      486,
      492,
      489,
      491,
      490,
      492,
      491,
      492,
      491,
      492,
      491,
      491,
      492,
      485,
      493,
      491,
      494,
      493,
      494,
      493,
      494,
      494,
      494,
      494,
      495,
      495,
      495,
      495,
      494,
      494,
      494,
      494,
      494,
      494,
      495,
      495,
      495,
      495,
      495,
      495,
      495,
      495,
      495,
      495,
      494,
      494,
      494,
      493,
      493,
      493,
      492,
      492,
      491,
      491,
      491,
      491,
      491,
      489,
      489,
      489,
      485,
      479,
      477,
      463,
      440,
      425,
      405,
      392,
      384,
      370,
      373,
      362,
      335,
      295,
      297,
      271,
      273,
      270,
      271,
      263,
      267,
      234,
      234,
      219,
      222,
      191,
      161,
      163,
      156,
      160,
      159,
      160,
      218,
      265,
      273,
      310,
      355,
      361,
      378,
      397,
      418,
      420,
      426,
      413,
      415,
      415,
      414,
      413,
      412,
      412,
      412,
      412,
      412,
      411,
      410,
      410,
      416,
      417,
      412,
      403,
      393,
      388,
      380,
      374,
      361,
      358,
      350,
      349,
      336,
      330,
      315,
      309,
      294,
      290,
      290,
      290,
      291,
      290,
      281,
      285,
      280,
      283,
      283,
      283,
      270,
      272,
      239,
      241,
      239,
      240,
      238,
      239,
      241,
      240,
      196,
      188,
      180,
      184,
      177,
      180,
      179,
      179,
      179,
      175,
      176,
      167,
      156,
      125,
      130,
      125
    ],
    "swim:timestamps": [
      1790260578,
      1790260595,
      1790260638,
      1790260661,
      1790260710,
      1790260770,
      1790260830,
      1790260890,
      1790260950,
      1790261010,
      1790261070,
      1790261130,
      1790261191,
      1790261251,
      1790261311,
      1790261371,
      1790261431,
      1790261491,
      1790261551,
      1790261608,
      1790261671,
      1790261731,
      1790261788,
      1790261848,
      1790261912,
      1790261972,
      1790262029,
      1790262092,
      1790262152,
      1790262209,
      1790262272,
      1790262332,
      1790262389,
      1790262452,
      1790262509,
      1790262569,
      1790262629,
      1790262693,
      1790262750,
      1790262810,
      1790262870,
      1790262930,
      1790262993,
      1790263050,
      1790263110,
      1790263173,
      1790263233,
      1790263290,
      1790263350,
      1790263410,
      1790263470,
      1790263531,
      1790263591,
      1790263651,
      1790263711,
      1790263771,
      1790263831,
      1790263891,
      1790264071,
      1790264131,
      1790264191,
      1790264252,
      1790264312,
      1790264372,
      1790264432,
      1790264445,
      1790264492,
      1790264505,
      1790264552,
      1790264565,
      1790264625,
      1790264672,
      1790264686,
      1790264732,
      1790264746,
      1790264806,
      1790264852,
      1790264866,
      1790264912,
      1790264926,
      1790264973,
      1790264986,
      1790265033,
      1790265046,
      1790265093,
      1790265106,
      1790265166,
      1790265213,
      1790265226,
      1790265286,
      1790265333,
      1790265346,
      1790265393,
      1790265406,
      1790265453,
      1790265467,
      1790265513,
      1790265527,
      1790265573,
      1790265587,
      1790265633,
      1790265647,
      1790265693,
      1790265707,
      1790265767,
      1790265827,
      1790265887,
      1790265947,
      1790266007,
      1790266067,
      1790266127,
      1790266159,
      1790266188,
      1790266219,
      1790266248,
      1790266279,
      1790266308,
      1790266339,
      1790266368,
      1790266399,
      1790266428,
      1790266459,
      1790266488,
      1790266520,
      1790266548,
      1790266580,
      1790266608,
      1790266640,
      1790266668,
      1790266700,
      1790266728,
      1790266760,
      1790266788,
      1790266820,
      1790266848,
      1790266880,
      1790266908,
      1790267000,
      1790267029,
      1790267060,
      1790267089,
      1790267120,
      1790267149,
      1790267181,
      1790267209,
      1790267241,
      1790267269,
      1790267301,
      1790267361,
      1790267421,
      1790267481,
      1790267541,
      1790267601,
      1790267661,
      1790267721,
      1790267781,
      1790267842,
      1790267902,
      1790267962,
      1790268022,
      1790268082,
      1790268106,
      1790268142,
      1790268167,
      1790268202,
      1790268227,
      1790268262,
      1790268287,
      1790268322,
      1790268347,
      1790268382,
      1790268407,
      1790268442,
      1790268467,
      1790268503,
      1790268527,
      1790268563,
      1790268587,
      1790268623,
      1790268647,
      1790268683,
      1790268707,
      1790268743,
      1790268767,
      1790268803,
      1790268827,
      1790268863,
      1790268888,
      1790268923,
      1790268948,
      1790268983,
      1790269008,
      1790269043,
      1790269068,
      1790269103,
      1790269128,
      1790269164,
      1790269188,
      1790269224,
      1790269248,
      1790269284,
      1790269308,
      1790269344,
      1790269368,
      1790269404,
      1790269428,
      1790269464,
      1790269488,
      1790269524,
      1790269549,
      1790269584,
      1790269609,
      1790269644,
      1790269669,
      1790269704,
      1790269729,
      1790269764,
      1790269789,
      1790269849,
      1790269909,
      1790269969,
      1790270029,
      1790270089,
      1790270149,
      1790270210,
      1790270270,
      1790270330,
      1790270390,
      1790270450,
      1790270510,
      1790270570,
      1790270630,
      1790270690,
      1790270750,
      1790270810,
      1790270870,
      1790270931,
      1790270991,
      1790271051,
      1790271111,
      1790271171,
      1790271188,
      1790271231,
      1790271248,
      1790271291,
      1790271308,
      1790271351,
      1790271380,
      1790271411,
      1790271440,
      1790271471,
      1790271500,
      1790271531,
      1790271561,
      1790271591,
      1790271621,
      1790271652,
      1790271681,
      1790271712,
      1790271741,
      1790271772,
      1790271801,
      1790271832,
      1790271861,
      1790271892,
      1790271918,
      1790271952,
      1790271978,
      1790272012,
      1790272038,
      1790272072,
      1790272098,
      1790272132,
      1790272159,
      1790272192,
      1790272219,
      1790272252,
      1790272279,
      1790272313,
      1790272339,
      1790272373,
      1790272433,
      1790272459,
      1790272493,
      1790272519,
      1790272553,
      1790272579,
      1790272613,
      1790272639,
      1790272673,
      1790272699,
      1790272733,
      1790272760,
      1790272793,
      1790272820,
      1790272853,
      1790272880,
      1790272913,
      1790272940,
      1790272973,
      1790273000,
      1790273034,
      1790273060,
      1790273120,
      1790273180,
      1790273240,
      1790273300,
      1790273361,
      1790273421,
      1790273472,
      1790273481,
      1790273541,
      1790273592,
      1790273646,
      1790273661,
      1790273700,
      1790273721,
      1790273772,
      1790273781,
      1790273832,
      1790273841,
      1790273880,
      1790273901,
      1790273940,
      1790273961,
      1790274022,
      1790274061,
      1790274082,
      1790274121,
      1790274142,
      1790274202,
      1790289896,
      1790289956,
      1790290016,
      1790290076,
      1790290137,
      1790290197,
      1790290257,
      1790290317,
      1790290377,
      1790290497,
      1790290557,
      1790290617,
      1790290918,
      1790291038,
      1790291098,
      1790291158,
      1790291218,
      1790291278,
      1790291338,
      1790291399,
      1790291459,
      1790291519,
      1790291579,
      1790291639,
      1790291699,
      1790291759,
      1790291819,
      1790291879,
      1790291939,
      1790291951,
      1790292000,
      1790292030,
      1790292060,
      1790292090,
      1790292120,
      1790292153,
      1790292180,
      1790292213,
      1790292240,
      1790292267,
      1790292300,
      1790292327,
      1790292360,
      1790292387,
      1790292420,
      1790292447,
      1790292480,
      1790292516,
      1790292540,
      1790292576,
      1790292600,
      1790292636,
      1790292660,
      1790292691,
      1790292721,
      1790292757,
      1790292781,
      1790292811,
      1790292841,
      1790292871,
      1790292901,
      1790292931,
      1790292961,
      1790292991,
      1790293021,
      1790293054,
      1790293081,
      1790293108,
      1790293141,
      1790293174,
      1790293234,
      1790293261,
      1790293294,
      1790293322,
      1790293355,
      1790293382,
      1790293415,
      1790293442,
      1790293472
    ],
    "wof:geomhash": "0b854212bfcbe2cc0b1d726aa640e3f7",
    "wof:id": 2048426277,
    "wof:repo": "sfomuseum-data-flights-2026-09"
  },
  "bbox": [
    -122.41666666666667,
    29.45777777777778,
    -90.215,
    38.51694444444444
  ],
  "geometry": {"type":"LineString","coordinates":[[-122.39777777777779,37.62833333333333],[-122.41666666666667,37.65],[-122.37972222222221,37.66416666666667],[-122.35,37.68333333333333],[-122.31333333333333,37.68555555555555],[-122.20916666666668,37.72027777777778],[-122.12249999999999,37.765277777777776],[-122.03083333333333,37.81166666666666],[-121.9213888888889,37.840833333333336],[-121.8,37.86333333333334],[-121.67527777777778,37.88666666666666],[-121.54472222222222,37.91027777777778],[-121.41277777777778,37.93472222222222],[-121.27555555555556,37.96],[-121.13666666666667,37.985],[-120.96333333333334,38.01277777777778],[-120.81694444444445,38.035],[-120.66694444444445,38.058055555555555],[-120.515,38.08111111111111],[-120.3786111111111,38.100833333333334],[-120.2025,38.128055555555555],[-120.04083333333332,38.151666666666664],[-119.89972222222222,38.170833333333334],[-119.73722222222223,38.19416666666666],[-119.5525,38.22222222222222],[-119.41944444444445,38.240833333333335],[-119.25111111111111,38.26361111111111],[-119.08805555555556,38.28722222222222],[-118.92694444444444,38.30916666666666],[-118.76694444444445,38.33027777777778],[-118.60777777777777,38.352222222222224],[-118.41361111111112,38.3775],[-118.26222222222222,38.3975],[-118.0925,38.41972222222222],[-117.93972222222223,38.43944444444444],[-117.81222222222222,38.45527777777778],[-117.65027777777779,38.47555555555556],[-117.45666666666666,38.499722222222225],[-117.32972222222222,38.515277777777776],[-117.16555555555556,38.51694444444444],[-117.00333333333333,38.51222222222222],[-116.84388888888888,38.507222222222225],[-116.68027777777779,38.501666666666665],[-116.52,38.49638888888889],[-116.35888888888888,38.49055555555556],[-116.19888888888889,38.484722222222224],[-116.03777777777778,38.478611111111114],[-115.87916666666666,38.47222222222222],[-115.71805555555555,38.465833333333336],[-115.55777777777777,38.45916666666667],[-115.39694444444446,38.45194444444445],[-115.23861111111111,38.44472222222222],[-115.07638888888889,38.43722222222222],[-114.91083333333334,38.42944444444444],[-114.74805555555555,38.421388888888885],[-114.58583333333333,38.413333333333334],[-114.4238888888889,38.40472222222222],[-114.265,38.38388888888889],[-113.79527777777777,38.27305555555555],[-113.63916666666667,38.23583333333333],[-113.48305555555555,38.198055555555555],[-113.32527777777777,38.15972222222222],[-113.17166666666667,38.121944444444445],[-113.01583333333333,38.08388888888889],[-112.85833333333333,38.04472222222222],[-112.82833333333333,38.03722222222222],[-112.70305555555557,38.00611111111111],[-112.67222222222223,37.99861111111111],[-112.54666666666667,37.966944444444444],[-112.51583333333333,37.95916666666667],[-112.36055555555555,37.92027777777778],[-112.23916666666666,37.88944444444444],[-112.20777777777778,37.88166666666667],[-112.08638888888889,37.85027777777778],[-112.05611111111111,37.8425],[-111.90194444444445,37.80611111111111],[-111.77944444444444,37.778055555555554],[-111.74861111111112,37.77111111111111],[-111.62444444444444,37.74277777777778],[-111.59444444444443,37.73583333333333],[-111.47361111111111,37.70805555555556],[-111.44333333333334,37.700833333333335],[-111.32055555555556,37.6725],[-111.29027777777777,37.66555555555556],[-111.17055555555557,37.6375],[-111.13944444444445,37.63027777777778],[-110.98555555555555,37.594166666666666],[-110.86444444444444,37.565555555555555],[-110.835,37.55833333333333],[-110.68055555555556,37.52194444444444],[-110.55694444444444,37.492222222222225],[-110.52694444444444,37.485],[-110.40527777777778,37.45583333333334],[-110.37472222222222,37.44833333333333],[-110.25222222222222,37.41861111111111],[-110.2225,37.41138888888889],[-110.09944444444444,37.38138888888889],[-110.06416666666667,37.37277777777778],[-109.94833333333334,37.344166666666666],[-109.91166666666668,37.33527777777778],[-109.7925,37.30583333333333],[-109.76194444444444,37.29805555555556],[-109.64888888888889,37.269999999999996],[-109.61055555555555,37.260555555555555],[-109.46027777777778,37.223055555555554],[-109.3111111111111,37.18555555555555],[-109.1613888888889,37.1475],[-109.01277777777777,37.11],[-108.86305555555555,37.07138888888889],[-108.71305555555556,37.033055555555556],[-108.56527777777778,36.99444444444445],[-108.49,36.975],[-108.41583333333334,36.955555555555556],[-108.35805555555555,36.94027777777777],[-108.26666666666667,36.91638888888889],[-108.20527777777778,36.900277777777774],[-108.11777777777777,36.87694444444445],[-108.06055555555555,36.86194444444445],[-107.96861111111112,36.837500000000006],[-107.9113888888889,36.82222222222222],[-107.81944444444444,36.797777777777775],[-107.7611111111111,36.782222222222224],[-107.6725,36.75833333333333],[-107.61333333333333,36.742222222222225],[-107.52527777777777,36.718611111111116],[-107.46611111111112,36.7025],[-107.37777777777777,36.67861111111111],[-107.32277777777777,36.66361111111111],[-107.23138888888889,36.63861111111111],[-107.17583333333334,36.623333333333335],[-107.08361111111111,36.59805555555556],[-107.02694444444444,36.5825],[-106.93527777777778,36.55694444444444],[-106.875,36.54055555555556],[-106.785,36.51555555555556],[-106.72611111111111,36.49916666666667],[-106.6388888888889,36.474722222222226],[-106.40527777777778,36.40888888888889],[-106.33749999999999,36.38972222222222],[-106.25333333333333,36.365833333333335],[-106.18194444444445,36.345555555555556],[-106.11166666666666,36.32555555555556],[-106.03222222222222,36.30277777777778],[-105.96138888888889,36.2825],[-105.89027777777778,36.26638888888889],[-105.80583333333333,36.246944444444445],[-105.73555555555555,36.23111111111111],[-105.64861111111112,36.21138888888889],[-105.50972222222222,36.17972222222222],[-105.35888888888888,36.144999999999996],[-105.20527777777778,36.10916666666667],[-105.05305555555556,36.073888888888895],[-104.90194444444445,36.038333333333334],[-104.75222222222222,36.00277777777778],[-104.60138888888888,35.966944444444444],[-104.44944444444445,35.93083333333333],[-104.29916666666666,35.89472222222222],[-104.14972222222222,35.85861111111111],[-104.00333333333333,35.823055555555555],[-103.85222222222221,35.78583333333333],[-103.70222222222222,35.74916666666667],[-103.66111111111111,35.74],[-103.55416666666666,35.712500000000006],[-103.51222222222222,35.70166666666667],[-103.40305555555557,35.67472222222222],[-103.3625,35.66444444444444],[-103.25333333333333,35.63722222222222],[-103.21305555555556,35.62861111111111],[-103.10222222222221,35.59916666666667],[-103.06416666666667,35.59],[-102.95361111111112,35.56166666666666],[-102.88694444444445,35.54472222222222],[-102.80611111111111,35.52388888888889],[-102.73694444444445,35.50611111111111],[-102.65611111111112,35.48555555555556],[-102.5886111111111,35.46805555555556],[-102.52527777777777,35.45166666666667],[-102.43833333333333,35.42916666666667],[-102.375,35.41277777777778],[-102.28444444444445,35.38944444444444],[-102.2238888888889,35.37361111111111],[-102.13361111111112,35.35],[-102.07194444444444,35.33388888888889],[-101.98138888888889,35.309999999999995],[-101.89833333333334,35.28805555555555],[-101.82888888888888,35.26972222222222],[-101.74305555555556,35.24666666666667],[-101.68166666666667,35.22833333333333],[-101.59416666666667,35.19472222222222],[-101.54472222222222,35.175555555555555],[-101.44916666666667,35.138888888888886],[-101.40222222222222,35.12083333333334],[-101.31444444444445,35.086666666666666],[-101.25722222222223,35.06444444444444],[-101.16861111111112,35.03],[-101.11166666666666,35.007777777777775],[-101.02361111111111,34.97361111111111],[-100.9675,34.95166666666667],[-100.88138888888888,34.91777777777777],[-100.82388888888889,34.89527777777778],[-100.7363888888889,34.86083333333333],[-100.67888888888889,34.838055555555556],[-100.5911111111111,34.80333333333333],[-100.53555555555555,34.78111111111111],[-100.44500000000001,34.74527777777778],[-100.38805555555557,34.722500000000004],[-100.28861111111111,34.68277777777777],[-100.24166666666667,34.663888888888884],[-100.14111111111112,34.62361111111111],[-100.095,34.60527777777778],[-99.99666666666667,34.56527777777777],[-99.94416666666667,34.54416666666666],[-99.84888888888888,34.505833333333335],[-99.79972222222221,34.48583333333333],[-99.70333333333333,34.446666666666665],[-99.64916666666667,34.42444444444444],[-99.55777777777777,34.38722222222222],[-99.50305555555556,34.365],[-99.3561111111111,34.30472222222222],[-99.21194444444444,34.245],[-99.06694444444445,34.18527777777778],[-98.92222222222223,34.125],[-98.77388888888889,34.06305555555555],[-98.6325,34.00388888888889],[-98.4888888888889,33.94444444444444],[-98.34333333333333,33.885555555555555],[-98.20111111111112,33.82638888888889],[-98.0586111111111,33.76277777777778],[-97.91722222222222,33.7],[-97.77583333333334,33.6375],[-97.63444444444445,33.57472222222223],[-97.49277777777777,33.51138888888889],[-97.35055555555554,33.4475],[-97.20833333333334,33.38333333333333],[-97.06722222222221,33.319722222222225],[-96.92416666666666,33.25472222222222],[-96.78444444444445,33.19083333333333],[-96.67055555555557,33.13861111111111],[-96.52833333333334,33.07333333333334],[-96.38694444444445,33.00805555555556],[-96.24666666666667,32.94333333333333],[-96.18916666666667,32.91583333333333],[-96.10222222222221,32.876111111111115],[-96.0675,32.85888888888889],[-95.96027777777778,32.80972222222222],[-95.92555555555556,32.7925],[-95.81944444444444,32.74388888888889],[-95.75416666666666,32.712500000000006],[-95.67722222222223,32.67722222222222],[-95.61333333333333,32.64666666666667],[-95.53611111111111,32.61027777777778],[-95.4713888888889,32.57916666666667],[-95.39444444444445,32.543055555555554],[-95.31527777777778,32.50555555555555],[-95.23194444444445,32.465833333333336],[-95.18611111111112,32.443888888888885],[-95.09888888888888,32.40222222222222],[-95.04416666666667,32.37583333333333],[-94.95444444444445,32.33277777777778],[-94.90166666666667,32.30722222222222],[-94.81027777777777,32.26361111111111],[-94.7611111111111,32.23972222222222],[-94.67166666666667,32.19638888888888],[-94.61972222222222,32.171388888888885],[-94.53,32.128055555555555],[-94.47666666666667,32.10194444444445],[-94.38861111111112,32.05888888888889],[-94.33666666666666,32.03361111111111],[-94.24861111111112,31.990277777777777],[-94.2063888888889,31.96944444444444],[-94.1086111111111,31.921666666666667],[-94.06666666666666,31.90083333333333],[-93.98222222222222,31.859444444444446],[-93.92750000000001,31.8325],[-93.84277777777777,31.790555555555557],[-93.77333333333333,31.75611111111111],[-93.705,31.72222222222222],[-93.635,31.6875],[-93.56333333333333,31.651944444444442],[-93.47972222222222,31.610000000000003],[-93.42555555555556,31.58277777777778],[-93.28805555555556,31.51388888888889],[-93.2038888888889,31.47138888888889],[-93.15027777777779,31.444444444444446],[-93.06694444444445,31.40222222222222],[-93.0125,31.37472222222222],[-92.92916666666667,31.3325],[-92.87527777777777,31.30527777777778],[-92.79222222222222,31.262777777777778],[-92.73777777777778,31.235277777777778],[-92.6575,31.194166666666668],[-92.60194444444444,31.16583333333333],[-92.52472222222222,31.12611111111111],[-92.43805555555556,31.081666666666667],[-92.39083333333333,31.0575],[-92.31083333333333,31.01638888888889],[-92.25555555555556,30.98777777777778],[-92.17805555555556,30.9475],[-92.12055555555555,30.91777777777778],[-92.04333333333334,30.87777777777778],[-91.9875,30.848888888888887],[-91.90916666666668,30.808055555555555],[-91.85666666666665,30.780833333333334],[-91.7275,30.71333333333333],[-91.61,30.64388888888889],[-91.49861111111112,30.555],[-91.40277777777779,30.47861111111111],[-91.3111111111111,30.405277777777776],[-91.22333333333333,30.334999999999997],[-91.14694444444446,30.271666666666665],[-91.13527777777779,30.264166666666668],[-91.05083333333333,30.19611111111111],[-90.97055555555556,30.150555555555552],[-90.88222222222221,30.131666666666668],[-90.86361111111111,30.127222222222223],[-90.80361111111111,30.11277777777778],[-90.78472222222221,30.110555555555557],[-90.70111111111112,30.091388888888886],[-90.70138888888889,30.092777777777776],[-90.61999999999999,30.074444444444445],[-90.61833333333333,30.075],[-90.55777777777777,30.06222222222222],[-90.54277777777777,30.05888888888889],[-90.4888888888889,30.045555555555556],[-90.47500000000001,30.043055555555558],[-90.41333333333334,30.028055555555554],[-90.37222222222222,30.01722222222222],[-90.3625,30.016111111111112],[-90.32472222222222,30.005277777777778],[-90.31416666666667,30.004166666666666],[-90.26,29.99138888888889],[-90.24916666666667,29.988611111111112],[-90.215,29.954722222222223],[-90.28333333333333,29.925],[-90.36888888888888,29.90888888888889],[-90.46222222222222,29.891944444444444],[-90.57249999999999,29.871944444444445],[-90.68583333333333,29.85138888888889],[-90.815,29.82638888888889],[-90.89166666666668,29.74361111111111],[-91.0175,29.552500000000002],[-91.14027777777778,29.515555555555554],[-91.27472222222222,29.51],[-91.94500000000001,29.481111111111108],[-92.21083333333334,29.468888888888888],[-92.3436111111111,29.46222222222222],[-92.47500000000001,29.45777777777778],[-92.60472222222222,29.46388888888889],[-92.73583333333333,29.46972222222222],[-92.86722222222221,29.47583333333333],[-92.99916666666667,29.481666666666666],[-93.13027777777778,29.487222222222222],[-93.26222222222222,29.4925],[-93.39222222222223,29.497500000000002],[-93.525,29.5025],[-93.65583333333333,29.50722222222222],[-93.7875,29.511944444444445],[-93.92027777777778,29.516666666666666],[-94.0525,29.52111111111111],[-94.18027777777779,29.525555555555556],[-94.21888888888888,29.52583333333333],[-94.31722222222221,29.539166666666667],[-94.37277777777777,29.56222222222222],[-94.42611111111111,29.585277777777776],[-94.4775,29.60638888888889],[-94.52972222222222,29.629444444444445],[-94.58027777777778,29.65],[-94.62777777777777,29.671666666666667],[-94.67833333333334,29.693055555555556],[-94.72361111111111,29.7125],[-94.76277777777777,29.72861111111111],[-94.81277777777777,29.75027777777778],[-94.85194444444444,29.766666666666666],[-94.89555555555556,29.785555555555558],[-94.93666666666667,29.801944444444445],[-94.97777777777777,29.820555555555554],[-95.01888888888888,29.836944444444445],[-95.06027777777777,29.85527777777778],[-95.11055555555555,29.875],[-95.14500000000001,29.881944444444446],[-95.19777777777779,29.891666666666666],[-95.2325,29.891388888888887],[-95.29166666666667,29.891944444444444],[-95.32138888888889,29.891944444444444],[-95.37138888888889,29.890833333333333],[-95.40694444444445,29.892222222222223],[-95.46027777777778,29.8925],[-95.48472222222222,29.8925],[-95.53027777777778,29.8925],[-95.56,29.892222222222223],[-95.60749999999999,29.891111111111112],[-95.63694444444445,29.892222222222223],[-95.68444444444445,29.891666666666666],[-95.71333333333334,29.892222222222223],[-95.7475,29.91],[-95.74444444444444,29.93027777777778],[-95.72972222222222,29.95861111111111],[-95.71027777777778,29.967499999999998],[-95.68416666666667,29.977777777777778],[-95.6588888888889,29.989444444444445],[-95.62444444444444,29.993333333333336],[-95.56666666666666,29.9925],[-95.54416666666667,29.993055555555557],[-95.50861111111111,29.99361111111111],[-95.48861111111111,29.993055555555557],[-95.45305555555557,29.99277777777778],[-95.43666666666667,29.993333333333336],[-95.40972222222223,29.993055555555557],[-95.39583333333334,29.993333333333336],[-95.37333333333332,29.99388888888889]]}
}
