{
  "id": 2048426261,
  "type": "Feature",
  "properties": {
    "geom:area": 0,
    "geom:bbox": "-122.400160,37.627470,-121.250650,38.165010",
    "geom:latitude": 37.99070862692679,
    "geom:longitude": -121.93895992551876,
    "src:alt_label": "swim-takeoff",
    "src:geom": "swim",
    "swim:elevations": [
      337,
      478,
      951,
      1030,
      1156,
      1248,
      1364,
      1728,
      1977,
      2065,
      2496,
      2872,
      3139,
      3288,
      3598,
      3739,
      4123,
      4366,
      4729,
      4967,
      5209,
      5353,
      5578,
      5848,
      6125,
      6402,
      6616,
      6752,
      6902
    ],
    "swim:geom": "takeoff",
    "swim:timestamps": [
      1790318157,
      1790318169,
      1790318213,
      1790318224,
      1790318250,
      1790318275,
      1790318295,
      1790318322,
      1790318340,
      1790318346,
      1790318380,
      1790318416,
      1790318445,
      1790318467,
      1790318512,
      1790318536,
      1790318569,
      1790318593,
      1790318637,
      1790318664,
      1790318688,
      1790318708,
      1790318737,
      1790318771,
      1790318806,
      1790318846,
      1790318877,
      1790318899,
      1790318925
    ],
    "wof:geomhash": "ca9b330f684cab53cb907992abeaa4c3",
    "wof:id": 2048426261,
    "wof:repo": "sfomuseum-data-flights-2026-09"
  },
  "bbox": [
    -122.40016,
    37.62747,
    -121.25065,
    38.16501
  ],
  "geometry": {"type":"LineString","coordinates":[[-122.3943,37.62747],[-122.40016,37.63468],[-122.38538,37.66505],[-122.3793,37.67234],[-122.36269,37.69286],[-122.34433,37.71569],[-122.33583,37.73862],[-122.34919,37.77056],[-122.36007,37.79149],[-122.36363,37.79852],[-122.38382,37.83979],[-122.38215,37.88911],[-122.37025,37.9286],[-122.33747,37.94932],[-122.24725,37.96794],[-122.19599,37.97834],[-122.12319,37.99327],[-122.06891,38.00427],[-121.97027,38.02415],[-121.9055,38.03709],[-121.84892,38.04829],[-121.8025,38.05741],[-121.73124,38.07149],[-121.64688,38.08809],[-121.55873,38.10537],[-121.45809,38.12494],[-121.37717,38.14058],[-121.31906,38.15182],[-121.25065,38.16501]]}
}
