{
  "id": 2048402777,
  "type": "Feature",
  "properties": {
    "geom:area": 0,
    "geom:bbox": "-122.864900,37.385070,-122.056180,38.492280",
    "geom:latitude": 37.78856129090604,
    "geom:longitude": -122.46759286860264,
    "src:alt_label": "swim-approach",
    "src:geom": "swim",
    "swim:elevations": [
      7374,
      7269,
      6930,
      6732,
      6339,
      6234,
      6048,
      5874,
      5436,
      5327,
      5000,
      4760,
      4525,
      4463,
      4194,
      3983,
      3780,
      3418,
      3384,
      3353,
      3330,
      3353,
      3353,
      3353,
      3311,
      3150,
      3017,
      2855,
      2377,
      2286,
      2204,
      2074,
      1924,
      1831,
      1829,
      1839,
      1604,
      1496,
      1220,
      1219,
      1219,
      1148,
      971,
      908,
      908,
      914,
      675,
      502,
      319,
      111,
      86
    ],
    "swim:geom": "approach",
    "swim:timestamps": [
      1790068348,
      1790068360,
      1790068397,
      1790068417,
      1790068460,
      1790068471,
      1790068491,
      1790068510,
      1790068558,
      1790068571,
      1790068606,
      1790068632,
      1790068656,
      1790068665,
      1790068693,
      1790068718,
      1790068740,
      1790068791,
      1790068800,
      1790068832,
      1790068853,
      1790068884,
      1790068916,
      1790068942,
      1790068973,
      1790069000,
      1790069023,
      1790069051,
      1790069127,
      1790069145,
      1790069169,
      1790069192,
      1790069217,
      1790069244,
      1790069273,
      1790069293,
      1790069326,
      1790069342,
      1790069391,
      1790069428,
      1790069449,
      1790069476,
      1790069517,
      1790069531,
      1790069568,
      1790069591,
      1790069635,
      1790069651,
      1790069673,
      1790069723,
      1790069733
    ],
    "wof:geomhash": "ef2e072e9aeb96bc638c9d459570dea6",
    "wof:id": 2048402777,
    "wof:repo": "sfomuseum-data-flights-2026-09"
  },
  "bbox": [
    -122.8649,
    37.38507,
    -122.05618,
    38.49228
  ],
  "geometry": {"type":"LineString","coordinates":[[-122.8649,38.49228],[-122.85696,38.47037],[-122.8317,38.40102],[-122.81773,38.36265],[-122.78963,38.28559],[-122.782,38.26452],[-122.76894,38.22849],[-122.75876,38.19452],[-122.7345,38.11122],[-122.72789,38.08862],[-122.71027,38.02739],[-122.6976,37.98344],[-122.68619,37.94423],[-122.68167,37.92877],[-122.65761,37.88599],[-122.62496,37.85419],[-122.5969,37.82739],[-122.53065,37.76471],[-122.52017,37.75479],[-122.48329,37.71993],[-122.45972,37.69803],[-122.42886,37.66927],[-122.39962,37.64158],[-122.37518,37.61845],[-122.35077,37.5879],[-122.33718,37.55855],[-122.32325,37.53441],[-122.31112,37.50368],[-122.28489,37.42933],[-122.26194,37.42125],[-122.23304,37.41111],[-122.20696,37.40211],[-122.179,37.39231],[-122.14789,37.38507],[-122.11398,37.39184],[-122.09158,37.39706],[-122.07078,37.42167],[-122.06299,37.43463],[-122.05618,37.47414],[-122.08671,37.49621],[-122.10602,37.50574],[-122.13187,37.5165],[-122.1698,37.53239],[-122.18305,37.5379],[-122.21529,37.55189],[-122.2338,37.56179],[-122.26822,37.57618],[-122.2811,37.58147],[-122.2999,37.5892],[-122.33865,37.60574],[-122.34709,37.60928]]}
}
