{
  "id": 2048439551,
  "type": "Feature",
  "properties": {
    "geom:area": 0,
    "geom:bbox": "-122.350000,37.406944,-122.083333,37.601389",
    "geom:latitude": 37.497955827079664,
    "geom:longitude": -122.21974750616816,
    "src:alt_label": "swim-path",
    "src:geom": "swim",
    "swim:altitudes": [
      "095",
      "091",
      "085",
      "074",
      "070",
      "062",
      "060",
      "060",
      "058",
      "052",
      "043",
      "039",
      "035",
      "031",
      "024",
      "021",
      "016",
      "012",
      "008",
      "005"
    ],
    "swim:geom": "path",
    "swim:speeds": [
      245,
      240,
      231,
      226,
      225,
      238,
      236,
      234,
      223,
      224,
      211,
      207,
      193,
      196,
      180,
      169,
      163,
      163,
      147,
      148
    ],
    "swim:timestamps": [
      1790476303,
      1790476339,
      1790476363,
      1790476423,
      1790476459,
      1790476483,
      1790476519,
      1790476543,
      1790476579,
      1790476603,
      1790476663,
      1790476700,
      1790476723,
      1790476760,
      1790476783,
      1790476820,
      1790476843,
      1790476880,
      1790476903,
      1790476940
    ],
    "wof:geomhash": "f5ffab2806d7891adc28b549e70aac08",
    "wof:id": 2048439551,
    "wof:repo": "sfomuseum-data-flights-2026-09"
  },
  "bbox": [
    -122.35,
    37.40694444444444,
    -122.08333333333333,
    37.60138888888889
  ],
  "geometry": {"type":"LineString","coordinates":[[-122.35,37.6],[-122.33777777777777,37.564166666666665],[-122.31666666666666,37.53333333333333],[-122.28333333333333,37.46666666666667],[-122.27055555555556,37.44833333333333],[-122.23333333333333,37.43333333333333],[-122.19694444444445,37.4225],[-122.15,37.416666666666664],[-122.11916666666666,37.40694444444444],[-122.08333333333333,37.43333333333333],[-122.11666666666666,37.483333333333334],[-122.13166666666666,37.504444444444445],[-122.16666666666667,37.516666666666666],[-122.18555555555555,37.53777777777778],[-122.21666666666667,37.55],[-122.23916666666666,37.561388888888885],[-122.26666666666667,37.56666666666667],[-122.28916666666666,37.5825],[-122.31666666666666,37.6],[-122.33388888888888,37.60138888888889]]}
}
