{
  "id": 2048431067,
  "type": "Feature",
  "properties": {
    "geom:area": 0,
    "geom:bbox": "-122.354480,37.440720,-121.255820,37.637270",
    "geom:latitude": 37.550600145593904,
    "geom:longitude": -121.80791663695665,
    "src:alt_label": "swim-approach",
    "src:geom": "swim",
    "swim:elevations": [
      4900,
      4594,
      4514,
      4299,
      4091,
      3978,
      3800,
      3490,
      3351,
      3352,
      3235,
      3084,
      3048,
      3048,
      3048,
      2941,
      2772,
      2744,
      2743,
      2743,
      2743,
      2743,
      2712,
      2548,
      2424,
      2065,
      1943,
      1829,
      1786,
      1482,
      1409,
      1199,
      955,
      829,
      793,
      558,
      441,
      280,
      243,
      49
    ],
    "swim:geom": "approach",
    "swim:timestamps": [
      1790340352,
      1790340383,
      1790340393,
      1790340414,
      1790340435,
      1790340446,
      1790340464,
      1790340497,
      1790340515,
      1790340548,
      1790340591,
      1790340619,
      1790340643,
      1790340660,
      1790340702,
      1790340739,
      1790340760,
      1790340772,
      1790340785,
      1790340832,
      1790340858,
      1790340884,
      1790340924,
      1790340944,
      1790340960,
      1790341005,
      1790341024,
      1790341046,
      1790341075,
      1790341131,
      1790341146,
      1790341181,
      1790341223,
      1790341252,
      1790341260,
      1790341302,
      1790341333,
      1790341370,
      1790341383,
      1790341434
    ],
    "wof:geomhash": "51f1ef8b05924715891ff57c0c435226",
    "wof:id": 2048431067,
    "wof:repo": "sfomuseum-data-flights-2026-09"
  },
  "bbox": [
    -122.35448,
    37.44072,
    -121.25582,
    37.63727
  ],
  "geometry": {"type":"LineString","coordinates":[[-121.25582,37.59376],[-121.31635,37.5865],[-121.33411,37.58456],[-121.37458,37.57999],[-121.41299,37.57554],[-121.43463,37.57298],[-121.46825,37.56902],[-121.52751,37.56214],[-121.56118,37.55823],[-121.6159,37.55201],[-121.67506,37.57481],[-121.70589,37.59412],[-121.73274,37.61093],[-121.75052,37.62225],[-121.80215,37.63727],[-121.8388,37.61505],[-121.83543,37.59298],[-121.82709,37.58138],[-121.81786,37.56891],[-121.78526,37.52444],[-121.76749,37.49856],[-121.77161,37.47125],[-121.80466,37.44072],[-121.8304,37.44269],[-121.85016,37.44935],[-121.90715,37.46789],[-121.92942,37.47546],[-121.95642,37.48431],[-121.99202,37.49593],[-122.05963,37.51786],[-122.07649,37.52333],[-122.11752,37.53667],[-122.1675,37.55295],[-122.19847,37.56276],[-122.20685,37.56563],[-122.24844,37.57907],[-122.27601,37.58723],[-122.30634,37.59621],[-122.31619,37.59928],[-122.35448,37.61233]]}
}
