{
  "id": 2048309639,
  "type": "Feature",
  "properties": {
    "geom:area": 0,
    "geom:bbox": "-122.345150,37.430000,-121.271410,37.608510",
    "geom:latitude": 37.53479812528242,
    "geom:longitude": -121.81474724228542,
    "src:alt_label": "swim-approach",
    "src:geom": "swim",
    "swim:elevations": [
      4816,
      4652,
      4564,
      4156,
      3995,
      3790,
      3553,
      3495,
      3426,
      3165,
      3049,
      3048,
      3048,
      2910,
      2714,
      2666,
      2546,
      2438,
      2438,
      2349,
      2223,
      2129,
      2024,
      1835,
      1763,
      1568,
      1432,
      1377,
      1267,
      1219,
      1127,
      1002,
      885,
      778,
      674,
      633,
      522,
      400,
      250,
      123,
      79
    ],
    "swim:geom": "approach",
    "swim:timestamps": [
      1789115002,
      1789115030,
      1789115040,
      1789115084,
      1789115108,
      1789115147,
      1789115184,
      1789115196,
      1789115205,
      1789115246,
      1789115266,
      1789115280,
      1789115326,
      1789115355,
      1789115390,
      1789115398,
      1789115414,
      1789115434,
      1789115460,
      1789115497,
      1789115522,
      1789115562,
      1789115586,
      1789115618,
      1789115664,
      1789115697,
      1789115722,
      1789115734,
      1789115758,
      1789115782,
      1789115808,
      1789115830,
      1789115865,
      1789115889,
      1789115916,
      1789115927,
      1789115953,
      1789115987,
      1789116024,
      1789116056,
      1789116071
    ],
    "wof:geomhash": "ab6ebd42599dcf15759f2ad1213258b9",
    "wof:id": 2048309639,
    "wof:repo": "sfomuseum-data-flights-2026-09"
  },
  "bbox": [
    -122.34515,
    37.43,
    -121.27141,
    37.60851
  ],
  "geometry": {"type":"LineString","coordinates":[[-121.27141,37.59175],[-121.31671,37.58652],[-121.33282,37.58478],[-121.40017,37.5772],[-121.43644,37.57286],[-121.49399,37.56606],[-121.54678,37.55984],[-121.5633,37.55801],[-121.5757,37.55664],[-121.63131,37.5497],[-121.65905,37.55605],[-121.67678,37.56225],[-121.73357,37.58225],[-121.7713,37.59245],[-121.80798,37.56989],[-121.80962,37.56174],[-121.80715,37.54281],[-121.80277,37.51916],[-121.79728,37.48937],[-121.80039,37.44775],[-121.82599,37.43],[-121.87646,37.43696],[-121.9073,37.44636],[-121.94648,37.45844],[-121.99893,37.47418],[-122.0339,37.48474],[-122.05984,37.49256],[-122.0719,37.49621],[-122.09714,37.50365],[-122.11941,37.51317],[-122.143,37.52344],[-122.16308,37.53184],[-122.19164,37.54384],[-122.21087,37.55204],[-122.23273,37.5612],[-122.24056,37.56453],[-122.26083,37.573],[-122.28627,37.58378],[-122.31268,37.59479],[-122.33495,37.6043],[-122.34515,37.60851]]}
}
