{
  "id": 2048408167,
  "type": "Feature",
  "properties": {
    "geom:area": 0,
    "geom:bbox": "-122.553170,36.718940,-122.297720,37.668940",
    "geom:latitude": 37.22595107947329,
    "geom:longitude": -122.48403363319184,
    "src:alt_label": "swim-takeoff",
    "src:geom": "swim",
    "swim:elevations": [
      183,
      548,
      729,
      1082,
      1517,
      1600,
      1676,
      2312,
      2376,
      2442,
      2866,
      3102,
      3263,
      3621,
      3831,
      4291,
      4438,
      4975,
      5441,
      5747,
      5901,
      6346,
      6432,
      6688,
      7069,
      7565,
      7809,
      7936
    ],
    "swim:geom": "takeoff",
    "swim:timestamps": [
      1790102876,
      1790102905,
      1790102927,
      1790102955,
      1790102994,
      1790103003,
      1790103009,
      1790103055,
      1790103058,
      1790103062,
      1790103089,
      1790103103,
      1790103127,
      1790103176,
      1790103195,
      1790103235,
      1790103247,
      1790103287,
      1790103325,
      1790103351,
      1790103365,
      1790103415,
      1790103424,
      1790103451,
      1790103489,
      1790103538,
      1790103567,
      1790103580
    ],
    "wof:geomhash": "2008f5c14cf86d64fc776376de9937a5",
    "wof:id": 2048408167,
    "wof:repo": "sfomuseum-data-flights-2026-09"
  },
  "bbox": [
    -122.55317,
    36.71894,
    -122.29772,
    37.66894
  ],
  "geometry": {"type":"LineString","coordinates":[[-122.38347,37.62239],[-122.40643,37.6318],[-122.42671,37.64071],[-122.45694,37.65398],[-122.50728,37.66894],[-122.52049,37.66595],[-122.52882,37.6623],[-122.54541,37.61067],[-122.54254,37.60622],[-122.53969,37.60183],[-122.52066,37.56949],[-122.51025,37.55139],[-122.49228,37.5202],[-122.48377,37.44362],[-122.48934,37.4122],[-122.50201,37.34227],[-122.50608,37.32044],[-122.51925,37.24959],[-122.53235,37.17879],[-122.54119,37.1308],[-122.54632,37.1032],[-122.55317,37.00439],[-122.54664,36.98741],[-122.51259,36.93722],[-122.45645,36.87136],[-122.37204,36.79094],[-122.32067,36.74118],[-122.29772,36.71894]]}
}
