{
  "id": 2048301869,
  "type": "Feature",
  "properties": {
    "geom:area": 0,
    "geom:bbox": "-122.761260,37.371180,-122.060720,38.491100",
    "geom:latitude": 37.7852481002923,
    "geom:longitude": -122.44982271626724,
    "src:alt_label": "swim-approach",
    "src:geom": "swim",
    "swim:elevations": [
      8122,
      7781,
      7420,
      7111,
      6550,
      6512,
      6226,
      5882,
      5331,
      5161,
      4703,
      4607,
      4197,
      3631,
      3426,
      3367,
      3353,
      3353,
      3353,
      3353,
      3291,
      3207,
      3022,
      2893,
      2735,
      2357,
      2183,
      2133,
      2042,
      1980,
      1890,
      1830,
      1699,
      1520,
      1357,
      1252,
      1250,
      989,
      881,
      819,
      597,
      559,
      335,
      303,
      152,
      47
    ],
    "swim:geom": "approach",
    "swim:timestamps": [
      1789040910,
      1789040944,
      1789040977,
      1789041005,
      1789041058,
      1789041062,
      1789041090,
      1789041123,
      1789041177,
      1789041193,
      1789041237,
      1789041247,
      1789041286,
      1789041340,
      1789041364,
      1789041391,
      1789041421,
      1789041476,
      1789041500,
      1789041535,
      1789041567,
      1789041586,
      1789041621,
      1789041643,
      1789041665,
      1789041714,
      1789041738,
      1789041759,
      1789041800,
      1789041820,
      1789041860,
      1789041882,
      1789041913,
      1789041943,
      1789041978,
      1789042004,
      1789042022,
      1789042069,
      1789042100,
      1789042110,
      1789042165,
      1789042170,
      1789042227,
      1789042235,
      1789042280,
      1789042304
    ],
    "wof:geomhash": "a737d145cb8f1bfdf4bec11de7b2ecd4",
    "wof:id": 2048301869,
    "wof:repo": "sfomuseum-data-flights-2026-09"
  },
  "bbox": [
    -122.76126,
    37.37118,
    -122.06072,
    38.4911
  ],
  "geometry": {"type":"LineString","coordinates":[[-122.65682,38.4911],[-122.68111,38.43301],[-122.70489,38.37441],[-122.72475,38.32719],[-122.76011,38.23718],[-122.76126,38.23018],[-122.75539,38.18202],[-122.73778,38.1241],[-122.71226,38.0333],[-122.7046,38.00673],[-122.68413,37.93609],[-122.67962,37.92146],[-122.64023,37.86842],[-122.56835,37.80084],[-122.5383,37.77208],[-122.50541,37.7409],[-122.46973,37.70737],[-122.41194,37.65319],[-122.38954,37.63209],[-122.35803,37.59937],[-122.34009,37.56458],[-122.32962,37.54342],[-122.30735,37.50781],[-122.29254,37.48405],[-122.27893,37.46181],[-122.24888,37.41237],[-122.23343,37.38797],[-122.20979,37.37502],[-122.1552,37.37204],[-122.13033,37.37118],[-122.08982,37.38668],[-122.07546,37.40431],[-122.06072,37.43089],[-122.06685,37.45823],[-122.08239,37.48636],[-122.09892,37.50322],[-122.11476,37.51145],[-122.15834,37.52987],[-122.18632,37.54165],[-122.19559,37.54558],[-122.24362,37.56578],[-122.24802,37.56768],[-122.2945,37.58714],[-122.30038,37.58967],[-122.3335,37.6036],[-122.35168,37.61127]]}
}
