{
  "id": 2048262965,
  "type": "Feature",
  "properties": {
    "geom:area": 0,
    "geom:bbox": "-122.526520,37.626690,-121.307060,38.085300",
    "geom:latitude": 37.91875926206936,
    "geom:longitude": -122.01262538361186,
    "src:alt_label": "swim-takeoff",
    "src:geom": "swim",
    "swim:elevations": [
      183,
      561,
      771,
      1217,
      1714,
      1854,
      2411,
      2937,
      3261,
      3436,
      3715,
      4042,
      4242,
      4478,
      4607,
      5148,
      5448,
      5478,
      5958,
      5987,
      6392,
      6537,
      6629,
      6994,
      7164,
      7370
    ],
    "swim:geom": "takeoff",
    "swim:timestamps": [
      1788618440,
      1788618467,
      1788618487,
      1788618546,
      1788618594,
      1788618604,
      1788618643,
      1788618682,
      1788618712,
      1788618739,
      1788618758,
      1788618799,
      1788618836,
      1788618860,
      1788618872,
      1788618922,
      1788618957,
      1788618962,
      1788619016,
      1788619020,
      1788619073,
      1788619091,
      1788619102,
      1788619138,
      1788619159,
      1788619182
    ],
    "wof:geomhash": "836b701ef5bac3f2dbded582771d893d",
    "wof:id": 2048262965,
    "wof:repo": "sfomuseum-data-flights-2026-09"
  },
  "bbox": [
    -122.52652,
    37.62669,
    -121.30706,
    38.0853
  ],
  "geometry": {"type":"LineString","coordinates":[[-122.394,37.62669],[-122.41681,37.63634],[-122.43372,37.64394],[-122.4942,37.6697],[-122.52548,37.71757],[-122.52517,37.73048],[-122.52652,37.78367],[-122.48229,37.82168],[-122.4328,37.83715],[-122.38531,37.85127],[-122.34948,37.86075],[-122.2705,37.88181],[-122.19181,37.90349],[-122.13695,37.91817],[-122.11075,37.92513],[-121.99304,37.95608],[-121.91148,37.97725],[-121.89906,37.98051],[-121.75965,38.00913],[-121.74972,38.01082],[-121.60773,38.03463],[-121.56031,38.04284],[-121.53029,38.04803],[-121.42968,38.06492],[-121.37175,38.07453],[-121.30706,38.0853]]}
}
