{
  "id": 2048437169,
  "type": "Feature",
  "properties": {
    "geom:area": 0,
    "geom:bbox": "-123.199560,37.439170,-122.145350,38.448690",
    "geom:latitude": 37.888985908050465,
    "geom:longitude": -122.59319550593628,
    "src:alt_label": "swim-approach",
    "src:geom": "swim",
    "swim:elevations": [
      7498,
      7308,
      7247,
      7163,
      7018,
      6725,
      6574,
      6341,
      6218,
      5940,
      5792,
      5638,
      5435,
      5161,
      4965,
      4678,
      4578,
      4436,
      4293,
      4081,
      3805,
      3538,
      3464,
      3351,
      3353,
      3353,
      3353,
      3353,
      3353,
      3235,
      2976,
      2657,
      2565,
      2392,
      1873,
      1840,
      1712,
      1421,
      1348,
      1220,
      1219,
      952,
      914,
      854,
      690,
      603,
      486,
      351,
      185,
      66,
      0
    ],
    "swim:geom": "approach",
    "swim:timestamps": [
      1790413312,
      1790413334,
      1790413343,
      1790413351,
      1790413368,
      1790413400,
      1790413418,
      1790413446,
      1790413459,
      1790413489,
      1790413523,
      1790413557,
      1790413577,
      1790413612,
      1790413638,
      1790413675,
      1790413688,
      1790413705,
      1790413729,
      1790413759,
      1790413795,
      1790413826,
      1790413834,
      1790413861,
      1790413869,
      1790413904,
      1790413945,
      1790413973,
      1790413976,
      1790414000,
      1790414020,
      1790414048,
      1790414056,
      1790414072,
      1790414127,
      1790414130,
      1790414144,
      1790414187,
      1790414198,
      1790414229,
      1790414257,
      1790414305,
      1790414334,
      1790414359,
      1790414395,
      1790414413,
      1790414439,
      1790414474,
      1790414512,
      1790414541,
      1790414555
    ],
    "wof:geomhash": "7e73acd4a4c119a6b80cb533fec813ef",
    "wof:id": 2048437169,
    "wof:repo": "sfomuseum-data-flights-2026-09"
  },
  "bbox": [
    -123.19956,
    37.43917,
    -122.14535,
    38.44869
  ],
  "geometry": {"type":"LineString","coordinates":[[-123.19956,38.44869],[-123.1549,38.42526],[-123.13611,38.41545],[-123.11994,38.40764],[-123.08479,38.38925],[-123.01944,38.35547],[-122.98522,38.33768],[-122.93019,38.3091],[-122.90357,38.2953],[-122.84512,38.26499],[-122.78512,38.22811],[-122.75266,38.17456],[-122.7428,38.14231],[-122.72592,38.08228],[-122.71387,38.0401],[-122.69672,37.98037],[-122.69065,37.95968],[-122.6829,37.93308],[-122.66635,37.89714],[-122.62919,37.85782],[-122.58347,37.81466],[-122.54366,37.77739],[-122.53432,37.76861],[-122.50292,37.73885],[-122.49328,37.72971],[-122.45424,37.69294],[-122.40817,37.6496],[-122.37829,37.62152],[-122.37529,37.61868],[-122.35645,37.59565],[-122.34682,37.57417],[-122.33191,37.54593],[-122.32685,37.53726],[-122.3173,37.52142],[-122.28285,37.46773],[-122.28076,37.4648],[-122.26749,37.45449],[-122.21661,37.43917],[-122.2042,37.43986],[-122.1709,37.44924],[-122.15211,37.46999],[-122.14535,37.51214],[-122.16755,37.53085],[-122.19181,37.54153],[-122.22648,37.55625],[-122.24331,37.56336],[-122.26562,37.57276],[-122.29439,37.58487],[-122.32547,37.59787],[-122.34966,37.60802],[-122.36094,37.61288]]}
}
