{
  "id": 2048236871,
  "type": "Feature",
  "properties": {
    "date:cessation_lower": "1970-01-01",
    "date:cessation_upper": "1970-01-01",
    "date:inception_lower": "2026-09-02",
    "date:inception_upper": "2026-09-02",
    "edtf:cessation": "1970-01-01T00:00:00Z",
    "edtf:inception": "2026-09-02T01:59:50-07:00",
    "flysfo:actual_timestamp": -1,
    "flysfo:airline": "UA",
    "flysfo:base_airline": "",
    "flysfo:base_flight_number": "7531",
    "flysfo:date": "2026-09-02",
    "flysfo:estimated_timestamp": 1788361740,
    "flysfo:event": "D",
    "flysfo:flight_number": "UA599",
    "flysfo:gate": "F13",
    "flysfo:journey": "SFO-IAD",
    "flysfo:scheduled_timestamp": 1788361800,
    "flysfo:timestamp": 1788361800,
    "geom:area": 0,
    "geom:bbox": "-122.370943,37.617990,-77.453702,38.949246",
    "geom:latitude": 38.283618000000004,
    "geom:longitude": -99.9123225,
    "iata:airline": "UA",
    "iata:base_airline": "",
    "icao:aircraft": "B789",
    "icao:airline": "UAL",
    "icao:base_airline": "DLH",
    "lbl:latitude": 37.620534,
    "lbl:longitude": -122.388506,
    "sfomuseum:aircraft_id": 1159293215,
    "sfomuseum:airline_id": 1159285413,
    "sfomuseum:arrival_id": 102528817,
    "sfomuseum:base_flight_id": "20260902-D-DLH-7531",
    "sfomuseum:departure_id": 102527513,
    "sfomuseum:flight_id": "20260902-D-UAL-599",
    "sfomuseum:flight_number": [
      "UAL599",
      "UA599"
    ],
    "sfomuseum:placetype": "flight",
    "src:geom": "flysfo",
    "src:geom_alt": [
      "swim-takeoff"
    ],
    "swim:tail_number": "N22995",
    "wof:belongsto": [
      1947304067,
      102527513,
      1947304451,
      102191575,
      85633793,
      102087579,
      85922583,
      554784711,
      85688637,
      1947304459,
      1947304447,
      102085387
    ],
    "wof:country": "US",
    "wof:created": 1788452175,
    "wof:geomhash": "1c4ce661f6692034a082b31062a17f5e",
    "wof:hierarchy": [
      {
        "building_id": 1947304067,
        "campus_id": 102527513,
        "concourse_id": 1947304451,
        "continent_id": 102191575,
        "country_id": 85633793,
        "county_id": 102087579,
        "custom_id": 2048236871,
        "flight_id": 2048236871,
        "locality_id": 85922583,
        "postalcode_id": 554784711,
        "region_id": 85688637,
        "venue_id": 1947304459,
        "wing_id": 1947304447
      },
      {
        "building_id": 1947304067,
        "campus_id": 102527513,
        "concourse_id": 1947304451,
        "continent_id": 102191575,
        "country_id": 85633793,
        "county_id": 102085387,
        "custom_id": 2048236871,
        "flight_id": 2048236871,
        "region_id": 85688637,
        "venue_id": 1947304459,
        "wing_id": 1947304447
      }
    ],
    "wof:id": 2048236871,
    "wof:involves": [
      1159286015,
      1159293215,
      102528817,
      102527513,
      1159285413,
      1947304459
    ],
    "wof:lastmodified": 1788452293,
    "wof:name": "UA599 (SFO-IAD)",
    "wof:parent_id": 1947304459,
    "wof:placetype": "custom",
    "wof:placetype_alt": [
      "flight"
    ],
    "wof:repo": "sfomuseum-data-flights-2026-09",
    "wof:superseded_by": [],
    "wof:supersedes": []
  },
  "bbox": [
    -122.370943,
    37.61799,
    -77.453702,
    38.949246
  ],
  "geometry": {"type":"MultiPoint","coordinates":[[-122.370943,37.61799],[-77.453702,38.949246]]}
}
