{
  "id": 2048364011,
  "type": "Feature",
  "properties": {
    "geom:area": 0,
    "geom:bbox": "-122.545230,36.720760,-121.439990,37.658910",
    "geom:latitude": 37.20925471528573,
    "geom:longitude": -122.0660817334214,
    "src:alt_label": "swim-takeoff",
    "src:geom": "swim",
    "swim:elevations": [
      152,
      273,
      732,
      807,
      1607,
      1687,
      1964,
      2404,
      2702,
      3338,
      3370,
      3926,
      4213,
      4666,
      4754,
      5424,
      5623,
      5993,
      6314,
      6570,
      6743,
      7259,
      7304,
      7678,
      7983,
      8174,
      8429,
      8637,
      8843
    ],
    "swim:geom": "takeoff",
    "swim:timestamps": [
      1789668418,
      1789668426,
      1789668478,
      1789668482,
      1789668537,
      1789668541,
      1789668557,
      1789668583,
      1789668603,
      1789668656,
      1789668660,
      1789668718,
      1789668739,
      1789668777,
      1789668783,
      1789668839,
      1789668860,
      1789668897,
      1789668928,
      1789668950,
      1789668964,
      1789669017,
      1789669024,
      1789669069,
      1789669105,
      1789669131,
      1789669164,
      1789669193,
      1789669218
    ],
    "wof:geomhash": "b2127ba7710bf5ba0f12c4b2a48faec4",
    "wof:id": 2048364011,
    "wof:repo": "sfomuseum-data-flights-2026-09"
  },
  "bbox": [
    -122.54523,
    36.72076,
    -121.43999,
    37.65891
  ],
  "geometry": {"type":"LineString","coordinates":[[-122.39317,37.62644],[-122.3994,37.62927],[-122.45333,37.65191],[-122.4582,37.6539],[-122.5324,37.65891],[-122.53659,37.65489],[-122.54523,37.63646],[-122.53378,37.60383],[-122.52107,37.57925],[-122.48343,37.5081],[-122.47967,37.50257],[-122.39323,37.43046],[-122.3583,37.40462],[-122.29376,37.35686],[-122.28223,37.34837],[-122.18433,37.2762],[-122.14603,37.24783],[-122.07602,37.19591],[-122.01664,37.1517],[-121.97601,37.12156],[-121.94892,37.1015],[-121.8448,37.02392],[-121.83107,37.01365],[-121.74158,36.94687],[-121.66875,36.89357],[-121.61589,36.85361],[-121.54921,36.80364],[-121.48982,36.75791],[-121.43999,36.72076]]}
}
