{
  "id": 2048457495,
  "type": "Feature",
  "properties": {
    "geom:area": 0,
    "geom:bbox": "-122.316667,33.919444,-118.483333,37.600000",
    "geom:latitude": 35.4876445025464,
    "geom:longitude": -120.62701721652473,
    "src:alt_label": "swim-path",
    "src:geom": "swim",
    "swim:altitudes": [
      "022",
      "027",
      "043",
      "053",
      "077",
      "106",
      "125",
      "159",
      "191",
      "216",
      "240",
      "260",
      "275",
      "293",
      "312",
      "320",
      "329",
      "348",
      "361",
      "372",
      "380C",
      "380C",
      "380C",
      "380C",
      "380C",
      "380C",
      "380C",
      "380C",
      "379",
      "370",
      "360",
      "351",
      "341",
      "331",
      "322",
      "312",
      "295",
      "281",
      "272",
      "262",
      "250",
      "239",
      "228",
      "217",
      "206",
      "193",
      "190",
      "180",
      "170",
      "158",
      "148",
      "137",
      "126",
      "115",
      "106",
      "102",
      "100",
      "091",
      "079",
      "073",
      "066",
      "060",
      "054",
      "049",
      "044",
      "039",
      "033",
      "028",
      "022",
      "019",
      "014",
      "011",
      "006"
    ],
    "swim:geom": "path",
    "swim:speeds": [
      214,
      232,
      267,
      262,
      289,
      301,
      355,
      357,
      352,
      354,
      359,
      370,
      385,
      398,
      398,
      402,
      421,
      422,
      417,
      413,
      413,
      414,
      414,
      413,
      412,
      412,
      412,
      414,
      415,
      413,
      399,
      403,
      405,
      394,
      394,
      391,
      379,
      371,
      368,
      362,
      360,
      352,
      352,
      344,
      344,
      339,
      332,
      319,
      321,
      318,
      320,
      316,
      318,
      313,
      316,
      290,
      279,
      261,
      242,
      244,
      233,
      231,
      220,
      223,
      217,
      216,
      208,
      207,
      193,
      183,
      156,
      149,
      150
    ],
    "swim:timestamps": [
      1790652098,
      1790652121,
      1790652159,
      1790652181,
      1790652241,
      1790652301,
      1790652361,
      1790652422,
      1790652482,
      1790652542,
      1790652602,
      1790652657,
      1790652717,
      1790652777,
      1790652837,
      1790652897,
      1790652957,
      1790653019,
      1790653078,
      1790653138,
      1790653200,
      1790653260,
      1790653318,
      1790653378,
      1790653438,
      1790653498,
      1790653558,
      1790653620,
      1790653678,
      1790653738,
      1790653798,
      1790653858,
      1790653918,
      1790653979,
      1790654039,
      1790654099,
      1790654159,
      1790654193,
      1790654219,
      1790654241,
      1790654279,
      1790654301,
      1790654339,
      1790654361,
      1790654399,
      1790654421,
      1790654459,
      1790654481,
      1790654519,
      1790654541,
      1790654579,
      1790654601,
      1790654639,
      1790654661,
      1790654699,
      1790654727,
      1790654759,
      1790654787,
      1790654841,
      1790654880,
      1790654901,
      1790654940,
      1790654961,
      1790655000,
      1790655021,
      1790655060,
      1790655081,
      1790655120,
      1790655141,
      1790655180,
      1790655202,
      1790655240,
      1790655262
    ],
    "wof:geomhash": "70c55a493342c3efb58e049ab60b6914",
    "wof:id": 2048457495,
    "wof:repo": "sfomuseum-data-flights-2026-09"
  },
  "bbox": [
    -122.31666666666666,
    33.919444444444444,
    -118.48333333333333,
    37.6
  ],
  "geometry": {"type":"LineString","coordinates":[[-118.48333333333333,33.95],[-118.51333333333334,33.94277777777778],[-118.56666666666666,33.93333333333333],[-118.59833333333333,33.93583333333333],[-118.69055555555556,33.92833333333333],[-118.79055555555556,33.919999999999995],[-118.90583333333333,33.919444444444444],[-119.02472222222222,33.92916666666667],[-119.12694444444443,33.97916666666667],[-119.22027777777778,34.04111111111111],[-119.30027777777778,34.115],[-119.38333333333334,34.191111111111105],[-119.47166666666666,34.27222222222222],[-119.56194444444444,34.35527777777778],[-119.65138888888889,34.437777777777775],[-119.7275,34.50666666666667],[-119.82333333333332,34.593611111111116],[-119.9363888888889,34.69638888888888],[-120.01472222222222,34.76722222222222],[-120.10749999999999,34.850833333333334],[-120.2075,34.940555555555555],[-120.30222222222221,35.025277777777774],[-120.39416666666668,35.1075],[-120.48833333333333,35.19166666666666],[-120.585,35.27722222222222],[-120.68166666666667,35.362500000000004],[-120.77833333333334,35.44833333333333],[-120.88138888888888,35.551944444444445],[-120.95361111111112,35.629444444444445],[-121.03999999999999,35.721944444444446],[-121.12277777777777,35.81055555555555],[-121.20666666666666,35.9],[-121.29138888888889,35.990833333333335],[-121.37194444444444,36.07777777777778],[-121.44444444444444,36.17055555555555],[-121.51555555555555,36.26166666666666],[-121.58611111111111,36.35138888888889],[-121.63333333333334,36.4],[-121.6538888888889,36.437777777777775],[-121.68333333333334,36.46666666666667],[-121.71944444444445,36.521388888888886],[-121.75,36.56666666666667],[-121.78472222222221,36.603611111111114],[-121.81666666666666,36.65],[-121.84722222222221,36.68222222222222],[-121.88333333333334,36.71666666666667],[-121.90083333333334,36.76555555555556],[-121.91666666666667,36.81666666666667],[-121.92527777777778,36.85138888888889],[-121.93333333333334,36.9],[-121.94861111111112,36.9375],[-121.96666666666667,36.983333333333334],[-121.98027777777779,37.02222222222222],[-122,37.06666666666667],[-122.01305555555555,37.105555555555554],[-122.03333333333333,37.15],[-122.04305555555555,37.18222222222222],[-122.06666666666666,37.21666666666667],[-122.08333333333333,37.28333333333333],[-122.09555555555555,37.315555555555555],[-122.1,37.35],[-122.11972222222222,37.3775],[-122.13333333333334,37.4],[-122.13972222222223,37.43583333333333],[-122.15,37.46666666666667],[-122.15916666666668,37.493611111111115],[-122.16666666666667,37.516666666666666],[-122.19166666666668,37.54194444444444],[-122.21666666666667,37.55],[-122.25083333333333,37.56638888888889],[-122.28333333333333,37.583333333333336],[-122.29833333333333,37.58638888888889],[-122.31666666666666,37.6]]}
}
