{
  "id": 2048435209,
  "type": "Feature",
  "properties": {
    "geom:area": 0,
    "geom:bbox": "-122.549310,36.777340,-121.542930,37.667820",
    "geom:latitude": 37.24418195694733,
    "geom:longitude": -122.11399933171475,
    "src:alt_label": "swim-takeoff",
    "src:geom": "swim",
    "swim:elevations": [
      183,
      372,
      691,
      1229,
      1470,
      2025,
      2301,
      2854,
      3175,
      3643,
      3984,
      4267,
      4969,
      5366,
      5580,
      5991,
      6143,
      6465,
      6691,
      6993,
      7228,
      7483,
      7559,
      7764,
      8261,
      8317,
      8364,
      8605,
      8654,
      8796
    ],
    "swim:geom": "takeoff",
    "swim:timestamps": [
      1790333365,
      1790333379,
      1790333403,
      1790333455,
      1790333479,
      1790333513,
      1790333529,
      1790333562,
      1790333588,
      1790333632,
      1790333658,
      1790333680,
      1790333744,
      1790333786,
      1790333809,
      1790333839,
      1790333864,
      1790333899,
      1790333924,
      1790333959,
      1790333984,
      1790334012,
      1790334022,
      1790334045,
      1790334106,
      1790334115,
      1790334124,
      1790334162,
      1790334169,
      1790334192
    ],
    "wof:geomhash": "2f7348ed7a66c4e7ef42bccbc3de2e62",
    "wof:id": 2048435209,
    "wof:repo": "sfomuseum-data-flights-2026-09"
  },
  "bbox": [
    -122.54931,
    36.77734,
    -121.54293,
    37.66782
  ],
  "geometry": {"type":"LineString","coordinates":[[-122.398,37.62853],[-122.41038,37.63404],[-122.43118,37.64362],[-122.48371,37.66602],[-122.51685,37.66782],[-122.54931,37.63836],[-122.54826,37.6184],[-122.52623,37.57832],[-122.50698,37.54787],[-122.46907,37.48939],[-122.4335,37.46025],[-122.4014,37.4363],[-122.30411,37.36463],[-122.2387,37.31628],[-122.20063,37.28816],[-122.15089,37.25176],[-122.11048,37.22141],[-122.05099,37.17768],[-122.00785,37.14526],[-121.94774,37.10057],[-121.90327,37.06743],[-121.85355,37.03025],[-121.83646,37.01746],[-121.79617,36.98703],[-121.69075,36.90114],[-121.67643,36.88941],[-121.66004,36.87552],[-121.59388,36.82054],[-121.58148,36.81007],[-121.54293,36.77734]]}
}
