{
  "id": 2048444753,
  "type": "Feature",
  "properties": {
    "geom:area": 0,
    "geom:bbox": "-122.357360,37.469530,-121.251510,37.613820",
    "geom:latitude": 37.54097800354542,
    "geom:longitude": -121.81207702531592,
    "src:alt_label": "swim-approach",
    "src:geom": "swim",
    "swim:elevations": [
      4690,
      4495,
      4379,
      3993,
      3970,
      3748,
      3727,
      3692,
      3471,
      3443,
      3435,
      3294,
      3084,
      3048,
      2935,
      2751,
      2583,
      2460,
      2291,
      2270,
      2134,
      2127,
      1941,
      1829,
      1829,
      1829,
      1786,
      1595,
      1357,
      1138,
      1099,
      849,
      749,
      699,
      520,
      428,
      281,
      268,
      70,
      0
    ],
    "swim:geom": "approach",
    "swim:timestamps": [
      1790548675,
      1790548700,
      1790548715,
      1790548765,
      1790548768,
      1790548798,
      1790548801,
      1790548807,
      1790548839,
      1790548854,
      1790548860,
      1790548897,
      1790548934,
      1790548940,
      1790548964,
      1790548994,
      1790549018,
      1790549040,
      1790549067,
      1790549070,
      1790549109,
      1790549133,
      1790549160,
      1790549216,
      1790549222,
      1790549245,
      1790549263,
      1790549292,
      1790549325,
      1790549361,
      1790549370,
      1790549422,
      1790549443,
      1790549449,
      1790549487,
      1790549509,
      1790549546,
      1790549552,
      1790549602,
      1790549614
    ],
    "wof:geomhash": "a0b16f9435f93818ab2416a8e672d975",
    "wof:id": 2048444753,
    "wof:repo": "sfomuseum-data-flights-2026-09"
  },
  "bbox": [
    -122.35736,
    37.46953,
    -121.25151,
    37.61382
  ],
  "geometry": {"type":"LineString","coordinates":[[-121.25151,37.59427],[-121.2949,37.58857],[-121.31981,37.58585],[-121.40648,37.57616],[-121.41154,37.57558],[-121.46279,37.56967],[-121.46786,37.56907],[-121.47795,37.5679],[-121.53141,37.56159],[-121.55536,37.55877],[-121.5647,37.55762],[-121.62012,37.55102],[-121.67122,37.54383],[-121.6793,37.54573],[-121.71028,37.55703],[-121.74903,37.56714],[-121.77777,37.55507],[-121.78683,37.53177],[-121.79657,37.50352],[-121.79857,37.50066],[-121.84561,37.48357],[-121.8785,37.48089],[-121.9161,37.47764],[-121.99148,37.47029],[-121.99919,37.46953],[-122.02769,37.47524],[-122.04781,37.48328],[-122.0771,37.4955],[-122.10937,37.50912],[-122.14357,37.52355],[-122.1521,37.52717],[-122.20017,37.54752],[-122.21934,37.55559],[-122.2248,37.55789],[-122.26044,37.5729],[-122.27893,37.58066],[-122.3069,37.59246],[-122.31134,37.5943],[-122.34884,37.6101],[-122.35736,37.61382]]}
}
