{
  "id": 2048351929,
  "type": "Feature",
  "properties": {
    "geom:area": 0,
    "geom:bbox": "-122.364150,37.491210,-121.270470,37.614950",
    "geom:latitude": 37.54244593287174,
    "geom:longitude": -121.82411491562789,
    "src:alt_label": "swim-approach",
    "src:geom": "swim",
    "swim:elevations": [
      4893,
      4673,
      4537,
      3904,
      3709,
      3462,
      3202,
      3116,
      2893,
      2725,
      2633,
      2442,
      2379,
      2280,
      2101,
      1951,
      1876,
      1688,
      1586,
      1392,
      1205,
      1161,
      1036,
      846,
      696,
      533,
      381,
      307,
      202,
      90,
      0
    ],
    "swim:geom": "approach",
    "swim:timestamps": [
      1789556818,
      1789556838,
      1789556851,
      1789556908,
      1789556926,
      1789556951,
      1789556995,
      1789557018,
      1789557047,
      1789557076,
      1789557108,
      1789557135,
      1789557148,
      1789557168,
      1789557203,
      1789557238,
      1789557253,
      1789557286,
      1789557300,
      1789557348,
      1789557387,
      1789557398,
      1789557432,
      1789557467,
      1789557496,
      1789557529,
      1789557568,
      1789557586,
      1789557617,
      1789557647,
      1789557675
    ],
    "wof:geomhash": "cc88287041ef33f2a555da127f961fa9",
    "wof:id": 2048351929,
    "wof:repo": "sfomuseum-data-flights-2026-09"
  },
  "bbox": [
    -122.36415,
    37.49121,
    -121.27047,
    37.61495
  ],
  "geometry": {"type":"LineString","coordinates":[[-121.27047,37.59174],[-121.30824,37.58711],[-121.33231,37.58454],[-121.43991,37.57248],[-121.4727,37.56851],[-121.51705,37.56335],[-121.59528,37.55436],[-121.63193,37.54916],[-121.67566,37.53891],[-121.71876,37.52861],[-121.76138,37.51826],[-121.79749,37.50951],[-121.81446,37.5055],[-121.83864,37.49961],[-121.88356,37.49121],[-121.92761,37.49379],[-121.9465,37.49494],[-121.9872,37.49715],[-122.0044,37.49807],[-122.06404,37.50179],[-122.11066,37.50968],[-122.12176,37.51517],[-122.15979,37.53081],[-122.19783,37.54636],[-122.2268,37.5587],[-122.25894,37.57222],[-122.29031,37.58542],[-122.30307,37.59074],[-122.32445,37.59976],[-122.34412,37.60809],[-122.36415,37.61495]]}
}
