{
  "id": 2048342665,
  "type": "Feature",
  "properties": {
    "geom:area": 0,
    "geom:bbox": "-122.359050,37.450250,-121.281440,37.612110",
    "geom:latitude": 37.5310310088537,
    "geom:longitude": -121.8288013313948,
    "src:alt_label": "swim-approach",
    "src:geom": "swim",
    "swim:elevations": [
      4667,
      4403,
      4046,
      3964,
      3552,
      3291,
      3158,
      3040,
      2741,
      2613,
      2530,
      2293,
      2215,
      2131,
      2048,
      1915,
      1829,
      1829,
      1500,
      1164,
      975,
      832,
      613,
      544,
      382,
      296,
      211,
      173,
      0
    ],
    "swim:geom": "approach",
    "swim:timestamps": [
      1789505577,
      1789505602,
      1789505638,
      1789505646,
      1789505686,
      1789505721,
      1789505758,
      1789505774,
      1789505813,
      1789505834,
      1789505857,
      1789505905,
      1789505917,
      1789505961,
      1789505989,
      1789506004,
      1789506052,
      1789506061,
      1789506105,
      1789506138,
      1789506161,
      1789506195,
      1789506236,
      1789506253,
      1789506298,
      1789506325,
      1789506350,
      1789506366,
      1789506405
    ],
    "wof:geomhash": "6c9e4116898668b3790a1cc62415abe7",
    "wof:id": 2048342665,
    "wof:repo": "sfomuseum-data-flights-2026-09"
  },
  "bbox": [
    -122.35905,
    37.45025,
    -121.28144,
    37.61211
  ],
  "geometry": {"type":"LineString","coordinates":[[-121.28144,37.59019],[-121.33081,37.58463],[-121.40115,37.57667],[-121.41627,37.57493],[-121.49388,37.56584],[-121.56011,37.55809],[-121.62556,37.55013],[-121.65079,37.54445],[-121.71431,37.52934],[-121.74779,37.52127],[-121.7823,37.51291],[-121.82906,37.47291],[-121.83894,37.46136],[-121.90102,37.45027],[-121.94318,37.45025],[-121.96446,37.45084],[-122.02961,37.47311],[-122.0416,37.47821],[-122.09705,37.5017],[-122.13754,37.51876],[-122.16443,37.53016],[-122.20205,37.54604],[-122.24221,37.56291],[-122.25622,37.56883],[-122.28805,37.58223],[-122.306,37.58976],[-122.32246,37.59662],[-122.33339,37.60126],[-122.35905,37.61211]]}
}
