{
  "id": 2048377313,
  "type": "Feature",
  "properties": {
    "geom:area": 0,
    "geom:bbox": "-122.358860,37.491820,-121.259550,37.615290",
    "geom:latitude": 37.546393382880176,
    "geom:longitude": -121.81435133998345,
    "src:alt_label": "swim-approach",
    "src:geom": "swim",
    "swim:elevations": [
      4974,
      4907,
      4613,
      4332,
      3838,
      3715,
      3525,
      3254,
      3198,
      3137,
      2946,
      2832,
      2641,
      2525,
      2496,
      2334,
      2133,
      2018,
      1964,
      1829,
      1682,
      1540,
      1409,
      1328,
      1183,
      927,
      760,
      679,
      497,
      437,
      334,
      150,
      53,
      0
    ],
    "swim:geom": "approach",
    "swim:timestamps": [
      1789845508,
      1789845514,
      1789845545,
      1789845580,
      1789845627,
      1789845640,
      1789845658,
      1789845688,
      1789845697,
      1789845720,
      1789845765,
      1789845789,
      1789845816,
      1789845835,
      1789845866,
      1789845893,
      1789845927,
      1789845958,
      1789845977,
      1789846016,
      1789846045,
      1789846074,
      1789846097,
      1789846112,
      1789846142,
      1789846195,
      1789846226,
      1789846245,
      1789846281,
      1789846293,
      1789846323,
      1789846371,
      1789846397,
      1789846410
    ],
    "wof:geomhash": "642ea3c567747187b3a85f17a3c97429",
    "wof:id": 2048377313,
    "wof:repo": "sfomuseum-data-flights-2026-09"
  },
  "bbox": [
    -122.35886,
    37.49182,
    -121.25955,
    37.61529
  ],
  "geometry": {"type":"LineString","coordinates":[[-121.25955,37.59319],[-121.26977,37.59174],[-121.32252,37.58569],[-121.37655,37.57977],[-121.44897,37.57135],[-121.46822,37.56907],[-121.49542,37.56593],[-121.54058,37.56067],[-121.55318,37.55918],[-121.58786,37.55511],[-121.65417,37.54384],[-121.68774,37.5358],[-121.72626,37.52644],[-121.7533,37.52008],[-121.79509,37.51012],[-121.83262,37.50103],[-121.87768,37.49182],[-121.92136,37.49193],[-121.94566,37.49261],[-121.99295,37.49649],[-122.02426,37.5064],[-122.05389,37.51604],[-122.07723,37.52369],[-122.09349,37.52901],[-122.1241,37.53895],[-122.17733,37.55613],[-122.20818,37.56612],[-122.22707,37.57229],[-122.26206,37.58356],[-122.27338,37.58676],[-122.29738,37.59375],[-122.33366,37.60422],[-122.35209,37.61133],[-122.35886,37.61529]]}
}
