{
  "id": 2048252221,
  "type": "Feature",
  "properties": {
    "geom:area": 0,
    "geom:bbox": "-123.481660,37.163770,-122.412080,37.666740",
    "geom:latitude": 37.431519011022466,
    "geom:longitude": -122.94713797383963,
    "src:alt_label": "swim-takeoff",
    "src:geom": "swim",
    "swim:elevations": [
      406,
      634,
      985,
      1019,
      1073,
      1396,
      1559,
      1726,
      1986,
      2088,
      2552,
      2967,
      3115,
      3250,
      3333,
      3410,
      3556,
      3654,
      3756,
      3965,
      4160,
      4493,
      4740,
      4881,
      5043,
      5092
    ],
    "swim:geom": "takeoff",
    "swim:timestamps": [
      1788561414,
      1788561433,
      1788561478,
      1788561489,
      1788561496,
      1788561536,
      1788561551,
      1788561566,
      1788561591,
      1788561600,
      1788561642,
      1788561684,
      1788561701,
      1788561746,
      1788561776,
      1788561793,
      1788561837,
      1788561863,
      1788561884,
      1788561914,
      1788561942,
      1788561984,
      1788562016,
      1788562042,
      1788562071,
      1788562081
    ],
    "wof:geomhash": "6f5a69ccdead936926ec6ee229c48547",
    "wof:id": 2048252221,
    "wof:repo": "sfomuseum-data-flights-2026-09"
  },
  "bbox": [
    -123.48166,
    37.16377,
    -122.41208,
    37.66674
  ],
  "geometry": {"type":"LineString","coordinates":[[-122.41208,37.63416],[-122.42862,37.64178],[-122.47389,37.66186],[-122.48678,37.66599],[-122.49701,37.66674],[-122.5482,37.64624],[-122.5665,37.63435],[-122.58516,37.6225],[-122.61667,37.60217],[-122.62808,37.59477],[-122.68358,37.56219],[-122.74375,37.53261],[-122.76948,37.52001],[-122.83895,37.48597],[-122.88991,37.46116],[-122.9206,37.44611],[-123.0021,37.40609],[-123.0521,37.38148],[-123.0936,37.36093],[-123.1542,37.33064],[-123.21061,37.30197],[-123.29327,37.25878],[-123.35622,37.22571],[-123.40748,37.19984],[-123.46693,37.17089],[-123.48166,37.16377]]}
}
