{
  "id": 2048421487,
  "type": "Feature",
  "properties": {
    "geom:area": 0,
    "geom:bbox": "-159.316667,21.983333,-122.083333,37.605000",
    "geom:latitude": 29.66587720062806,
    "geom:longitude": -140.1722573271449,
    "src:alt_label": "swim-path",
    "src:geom": "swim",
    "swim:altitudes": [
      "006C",
      "028C",
      "053C",
      "087C",
      "111C",
      "132C",
      "158C",
      "180C",
      "199C",
      "218C",
      "249C",
      "265C",
      "277C",
      "289C",
      "312C",
      "323C",
      "333C",
      "346C",
      "359C",
      "370",
      "370",
      "370",
      "370",
      "370",
      "370",
      "370",
      "370",
      "370",
      "370",
      "370",
      "370",
      "370",
      "370",
      "370",
      "370",
      "370",
      "370",
      "370",
      "370",
      "370",
      "370",
      "370",
      "370",
      "370",
      "370",
      "370",
      "370",
      "370",
      "370C",
      "370C",
      "370C",
      "370C",
      "370C",
      "370C",
      "370",
      "370C",
      "370",
      "370C",
      "370C",
      "370",
      "369",
      "360",
      "356C",
      "350",
      "346C",
      "341",
      "337C",
      "331",
      "327C",
      "321",
      "317C",
      "312",
      "302",
      "298C",
      "292",
      "288C",
      "283",
      "279C",
      "273",
      "269C",
      "263",
      "258C",
      "252",
      "246C",
      "232",
      "225C",
      "213",
      "191",
      "182",
      "172",
      "162",
      "152",
      "142",
      "136",
      "132",
      "122",
      "112",
      "102C",
      "100",
      "096",
      "082",
      "080",
      "080",
      "080",
      "080",
      "080",
      "071",
      "047",
      "040",
      "039",
      "032",
      "023",
      "016",
      "009",
      "004",
      "003"
    ],
    "swim:geom": "path",
    "swim:speeds": [
      130,
      190,
      240,
      270,
      290,
      330,
      340,
      350,
      370,
      380,
      410,
      420,
      440,
      450,
      470,
      480,
      490,
      490,
      480,
      480,
      480,
      490,
      490,
      490,
      490,
      490,
      490,
      490,
      490,
      490,
      490,
      490,
      490,
      490,
      490,
      490,
      490,
      490,
      490,
      490,
      490,
      490,
      500,
      500,
      500,
      500,
      500,
      500,
      481,
      482,
      482,
      483,
      483,
      484,
      490,
      483,
      480,
      482,
      475,
      460,
      464,
      459,
      470,
      457,
      450,
      458,
      450,
      460,
      460,
      464,
      470,
      473,
      473,
      480,
      473,
      480,
      472,
      470,
      472,
      470,
      470,
      460,
      435,
      440,
      427,
      430,
      413,
      352,
      341,
      350,
      365,
      367,
      365,
      355,
      358,
      352,
      335,
      321,
      265,
      257,
      266,
      255,
      259,
      259,
      256,
      259,
      258,
      226,
      177,
      170,
      161,
      152,
      143,
      123,
      130,
      126
    ],
    "swim:timestamps": [
      1790290087,
      1790290147,
      1790290207,
      1790290267,
      1790290327,
      1790290387,
      1790290447,
      1790290507,
      1790290567,
      1790290627,
      1790290748,
      1790290807,
      1790290867,
      1790290928,
      1790291048,
      1790291108,
      1790291168,
      1790291228,
      1790291288,
      1790291348,
      1790291408,
      1790291469,
      1790291529,
      1790291589,
      1790291649,
      1790291709,
      1790291768,
      1790291829,
      1790291889,
      1790291949,
      1790292009,
      1790292069,
      1790292129,
      1790292189,
      1790292249,
      1790292310,
      1790292370,
      1790292429,
      1790292490,
      1790292550,
      1790292610,
      1790292670,
      1790292730,
      1790292790,
      1790292850,
      1790292910,
      1790292940,
      1790293000,
      1790304431,
      1790304491,
      1790304551,
      1790304611,
      1790304671,
      1790304731,
      1790304756,
      1790304791,
      1790304816,
      1790304851,
      1790304911,
      1790304936,
      1790304971,
      1790305032,
      1790305056,
      1790305092,
      1790305117,
      1790305152,
      1790305176,
      1790305212,
      1790305237,
      1790305272,
      1790305297,
      1790305332,
      1790305392,
      1790305417,
      1790305452,
      1790305477,
      1790305512,
      1790305537,
      1790305572,
      1790305597,
      1790305632,
      1790305657,
      1790305692,
      1790305717,
      1790305752,
      1790305777,
      1790305812,
      1790305933,
      1790305993,
      1790306053,
      1790306113,
      1790306173,
      1790306233,
      1790306265,
      1790306293,
      1790306349,
      1790306409,
      1790306473,
      1790306529,
      1790306589,
      1790306649,
      1790306714,
      1790306774,
      1790306834,
      1790306883,
      1790306894,
      1790306954,
      1790307074,
      1790307129,
      1790307194,
      1790307244,
      1790307310,
      1790307369,
      1790307429,
      1790307484,
      1790307495
    ],
    "wof:geomhash": "3a7351bf0263877f314f39c77826c67e",
    "wof:id": 2048421487,
    "wof:repo": "sfomuseum-data-flights-2026-09"
  },
  "bbox": [
    -159.31666666666666,
    21.983333333333334,
    -122.08333333333333,
    37.605000000000004
  ],
  "geometry": {"type":"LineString","coordinates":[[-159.31666666666666,21.983333333333334],[-159.26666666666668,22],[-159.2,22.016666666666666],[-159.13333333333333,22.033333333333335],[-159.05,22.05],[-158.95,22.066666666666666],[-158.85,22.1],[-158.75,22.116666666666667],[-158.65,22.133333333333333],[-158.53333333333333,22.166666666666668],[-158.3,22.216666666666665],[-158.18333333333334,22.266666666666666],[-158.06666666666666,22.3],[-157.93333333333334,22.35],[-157.66666666666666,22.433333333333334],[-157.53333333333333,22.466666666666665],[-157.4,22.516666666666666],[-157.26666666666668,22.566666666666666],[-157.11666666666667,22.616666666666667],[-156.98333333333332,22.65],[-156.85,22.7],[-156.71666666666667,22.733333333333334],[-156.56666666666666,22.783333333333335],[-156.43333333333334,22.833333333333332],[-156.3,22.866666666666667],[-156.16666666666666,22.916666666666668],[-156.01666666666668,22.966666666666665],[-155.88333333333333,23],[-155.75,23.05],[-155.6,23.083333333333332],[-155.46666666666667,23.133333333333333],[-155.31666666666666,23.183333333333334],[-155.18333333333334,23.216666666666665],[-155.05,23.266666666666666],[-154.9,23.316666666666666],[-154.76666666666668,23.35],[-154.61666666666667,23.4],[-154.48333333333332,23.433333333333334],[-154.33333333333334,23.483333333333334],[-154.2,23.516666666666666],[-154.05,23.566666666666666],[-153.91666666666666,23.616666666666667],[-153.76666666666668,23.65],[-153.63333333333333,23.7],[-153.48333333333332,23.733333333333334],[-153.35,23.783333333333335],[-153.26666666666668,23.816666666666666],[-153.13333333333333,23.883333333333333],[-126.53666666666666,35.586666666666666],[-126.38027777777778,35.63194444444444],[-126.22500000000001,35.67666666666666],[-126.07249999999999,35.72555555555556],[-125.93166666666667,35.79555555555555],[-125.7911111111111,35.86555555555556],[-125.75,35.9],[-125.64888888888889,35.93611111111111],[-125.6,35.96666666666667],[-125.50861111111111,36.00527777777778],[-125.38611111111112,36.089444444444446],[-125.35,36.11666666666667],[-125.31222222222222,36.20333333333333],[-125.23861111111111,36.31583333333333],[-125.21666666666667,36.36666666666667],[-125.16583333333334,36.427499999999995],[-125.13333333333334,36.46666666666667],[-125.09194444444444,36.5425],[-125.05,36.56666666666667],[-125.01888888888888,36.656388888888884],[-124.98333333333333,36.68333333333333],[-124.94527777777778,36.772777777777776],[-124.9,36.8],[-124.815,36.84305555555556],[-124.65583333333333,36.8775],[-124.58333333333333,36.88333333333333],[-124.49833333333333,36.91277777777778],[-124.43333333333334,36.916666666666664],[-124.34138888888889,36.94694444444444],[-124.26666666666667,36.95],[-124.18361111111112,36.981388888888894],[-124.11666666666666,36.983333333333334],[-124.02583333333334,37.015],[-123.96666666666667,37.016666666666666],[-123.8786111111111,37.04666666666667],[-123.81666666666666,37.05],[-123.73472222222222,37.077222222222225],[-123.66666666666667,37.083333333333336],[-123.59666666666666,37.10638888888889],[-123.56138888888889,37.25527777777778],[-123.66611111111112,37.223055555555554],[-123.66972222222223,37.132222222222225],[-123.5625,37.09166666666667],[-123.44055555555556,37.12],[-123.31888888888888,37.14944444444444],[-123.25,37.166666666666664],[-123.20194444444445,37.17777777777778],[-123.08333333333333,37.2],[-122.96666666666667,37.233333333333334],[-122.86083333333333,37.25805555555556],[-122.76666666666667,37.28333333333333],[-122.68333333333334,37.3],[-122.58333333333333,37.28333333333333],[-122.50194444444445,37.26694444444444],[-122.43055555555556,37.293055555555554],[-122.43194444444445,37.365],[-122.4,37.416666666666664],[-122.38972222222223,37.418055555555554],[-122.30083333333333,37.42583333333333],[-122.13388888888889,37.43055555555555],[-122.08333333333333,37.46666666666667],[-122.11888888888888,37.50972222222222],[-122.16666666666667,37.53333333333333],[-122.21666666666667,37.55],[-122.26666666666667,37.56666666666667],[-122.3,37.583333333333336],[-122.33333333333333,37.6],[-122.3425,37.605000000000004]]}
}
