{
  "id": 2048408763,
  "type": "Feature",
  "properties": {
    "geom:area": 0,
    "geom:bbox": "-122.537060,36.725860,-121.446880,37.666280",
    "geom:latitude": 37.20944090808904,
    "geom:longitude": -122.06630394653332,
    "src:alt_label": "swim-takeoff",
    "src:geom": "swim",
    "swim:elevations": [
      289,
      450,
      894,
      1131,
      1322,
      1344,
      1495,
      1783,
      2053,
      2657,
      3221,
      3460,
      3651,
      3711,
      4162,
      4333,
      4761,
      5111,
      5408,
      5462,
      5709,
      5894,
      5955,
      6414,
      6616,
      6815,
      7115,
      7347,
      7605,
      7759,
      7869,
      8082
    ],
    "swim:geom": "takeoff",
    "swim:timestamps": [
      1790117157,
      1790117171,
      1790117211,
      1790117235,
      1790117269,
      1790117272,
      1790117298,
      1790117333,
      1790117351,
      1790117387,
      1790117423,
      1790117456,
      1790117487,
      1790117496,
      1790117543,
      1790117559,
      1790117600,
      1790117633,
      1790117666,
      1790117672,
      1790117695,
      1790117723,
      1790117732,
      1790117780,
      1790117805,
      1790117833,
      1790117869,
      1790117899,
      1790117938,
      1790117956,
      1790117978,
      1790118002
    ],
    "wof:geomhash": "9bcd5806cf8f51955abcaa090e8e3772",
    "wof:id": 2048408763,
    "wof:repo": "sfomuseum-data-flights-2026-09"
  },
  "bbox": [
    -122.53706,
    36.72586,
    -121.44688,
    37.66628
  ],
  "geometry": {"type":"LineString","coordinates":[[-122.39344,37.62652],[-122.4037,37.63085],[-122.435,37.64437],[-122.45418,37.65221],[-122.4841,37.66518],[-122.48723,37.66628],[-122.51891,37.66365],[-122.53706,37.6258],[-122.52769,37.60304],[-122.50387,37.55844],[-122.48377,37.51341],[-122.45187,37.47365],[-122.40555,37.43958],[-122.39146,37.42918],[-122.3139,37.37179],[-122.28634,37.35143],[-122.21558,37.29916],[-122.15653,37.25559],[-122.09818,37.21235],[-122.08733,37.20429],[-122.04584,37.17345],[-121.99284,37.13399],[-121.97576,37.1213],[-121.88444,37.05315],[-121.8381,37.01857],[-121.78357,36.97771],[-121.71316,36.92496],[-121.65419,36.88068],[-121.57679,36.82237],[-121.54141,36.79456],[-121.49508,36.76248],[-121.44688,36.72586]]}
}
