{
  "id": 2048270727,
  "type": "Feature",
  "properties": {
    "geom:area": 0,
    "geom:bbox": "-122.547970,36.726870,-122.184840,37.669100",
    "geom:latitude": 37.22427163416858,
    "geom:longitude": -122.44346918213213,
    "src:alt_label": "swim-takeoff",
    "src:geom": "swim",
    "swim:elevations": [
      347,
      557,
      716,
      1319,
      1367,
      1784,
      2412,
      2927,
      3354,
      3735,
      3996,
      4460,
      4662,
      5320,
      5687,
      6079,
      6376,
      6693,
      6869,
      7265,
      7515,
      7732,
      8195,
      8431,
      8704
    ],
    "swim:geom": "takeoff",
    "swim:timestamps": [
      1788723281,
      1788723305,
      1788723336,
      1788723387,
      1788723399,
      1788723434,
      1788723474,
      1788723502,
      1788723536,
      1788723568,
      1788723583,
      1788723616,
      1788723632,
      1788723680,
      1788723711,
      1788723744,
      1788723770,
      1788723800,
      1788723814,
      1788723852,
      1788723877,
      1788723900,
      1788723946,
      1788723976,
      1788724008
    ],
    "wof:geomhash": "cc76710438c893aee31e56ec4d350568",
    "wof:id": 2048270727,
    "wof:repo": "sfomuseum-data-flights-2026-09"
  },
  "bbox": [
    -122.54797,
    36.72687,
    -122.18484,
    37.6691
  ],
  "geometry": {"type":"LineString","coordinates":[[-122.39134,37.62594],[-122.40998,37.63355],[-122.43936,37.64632],[-122.4986,37.6691],[-122.51506,37.66822],[-122.54797,37.63663],[-122.52737,37.5875],[-122.50901,37.55185],[-122.48456,37.50702],[-122.48022,37.45802],[-122.48489,37.43444],[-122.49512,37.3822],[-122.50009,37.35552],[-122.51479,37.27481],[-122.52459,37.22103],[-122.53542,37.16232],[-122.53641,37.11422],[-122.50336,37.06483],[-122.48163,37.04286],[-122.42543,36.98367],[-122.38723,36.94303],[-122.35286,36.90599],[-122.28218,36.8304],[-122.23484,36.78027],[-122.18484,36.72687]]}
}
