{
  "id": 2048431133,
  "type": "Feature",
  "properties": {
    "geom:area": 0,
    "geom:bbox": "-123.495620,36.972620,-122.154630,37.611510",
    "geom:latitude": 37.29353410462937,
    "geom:longitude": -122.74579880142097,
    "src:alt_label": "swim-approach",
    "src:geom": "swim",
    "swim:elevations": [
      5988,
      5807,
      5596,
      5193,
      5063,
      4926,
      4802,
      4561,
      4327,
      4267,
      3993,
      3724,
      3430,
      3316,
      3180,
      3048,
      3017,
      2894,
      2835,
      2686,
      2654,
      2488,
      2438,
      2367,
      2280,
      2137,
      2100,
      1981,
      1725,
      1645,
      1438,
      1272,
      1234,
      866,
      797,
      611,
      666,
      395,
      350,
      155,
      150,
      9
    ],
    "swim:geom": "approach",
    "swim:timestamps": [
      1790346297,
      1790346318,
      1790346340,
      1790346384,
      1790346396,
      1790346410,
      1790346422,
      1790346446,
      1790346471,
      1790346483,
      1790346529,
      1790346558,
      1790346591,
      1790346604,
      1790346618,
      1790346656,
      1790346678,
      1790346712,
      1790346728,
      1790346772,
      1790346780,
      1790346830,
      1790346843,
      1790346864,
      1790346888,
      1790346926,
      1790346942,
      1790346970,
      1790347013,
      1790347037,
      1790347098,
      1790347134,
      1790347140,
      1790347192,
      1790347211,
      1790347255,
      1790347262,
      1790347317,
      1790347326,
      1790347376,
      1790347380,
      1790347416
    ],
    "wof:geomhash": "6df2126e9379396e7cc48bf8ae7f85d2",
    "wof:id": 2048431133,
    "wof:repo": "sfomuseum-data-flights-2026-09"
  },
  "bbox": [
    -123.49562,
    36.97262,
    -122.15463,
    37.61151
  ],
  "geometry": {"type":"LineString","coordinates":[[-123.49562,36.97262],[-123.4569,36.99634],[-123.41626,37.02135],[-123.33659,37.06994],[-123.3157,37.08272],[-123.29178,37.09736],[-123.26871,37.11141],[-123.22676,37.13706],[-123.18267,37.16381],[-123.1624,37.17611],[-123.0757,37.20741],[-123.0171,37.22137],[-122.95233,37.23667],[-122.92818,37.24236],[-122.90005,37.249],[-122.82723,37.26612],[-122.78898,37.27506],[-122.73204,37.28834],[-122.70479,37.29483],[-122.63162,37.31173],[-122.61847,37.31477],[-122.53638,37.33381],[-122.51575,37.33857],[-122.48183,37.34638],[-122.44155,37.35567],[-122.38111,37.36954],[-122.35622,37.37526],[-122.31284,37.38529],[-122.25302,37.41198],[-122.22184,37.42946],[-122.16704,37.47566],[-122.15463,37.50569],[-122.15625,37.50989],[-122.18636,37.53894],[-122.20152,37.54595],[-122.23661,37.56057],[-122.24259,37.56275],[-122.28436,37.58042],[-122.29101,37.58327],[-122.32909,37.59947],[-122.332,37.6007],[-122.35767,37.61151]]}
}
