{
  "id": 2048296829,
  "type": "Feature",
  "properties": {
    "geom:area": 0,
    "geom:bbox": "-123.480300,37.680120,-122.588980,37.730990",
    "geom:latitude": 37.70600913273842,
    "geom:longitude": -123.03461330057472,
    "src:alt_label": "swim-takeoff",
    "src:geom": "swim",
    "swim:elevations": [
      1451,
      2090,
      2139,
      2189,
      2220,
      2255,
      3111,
      3201,
      4440,
      5357,
      5563,
      5675,
      5697
    ],
    "swim:geom": "takeoff",
    "swim:timestamps": [
      1788999242,
      1788999314,
      1788999317,
      1788999320,
      1788999323,
      1788999326,
      1788999415,
      1788999424,
      1788999553,
      1788999658,
      1788999688,
      1788999718,
      1788999721
    ],
    "wof:geomhash": "ebc1118aed10aa73c99a6a4d1aff9cf0",
    "wof:id": 2048296829,
    "wof:repo": "sfomuseum-data-flights-2026-09"
  },
  "bbox": [
    -123.4803,
    37.68012,
    -122.58898,
    37.73099
  ],
  "geometry": {"type":"LineString","coordinates":[[-122.58898,37.68012],[-122.70913,37.68766],[-122.71427,37.68798],[-122.7194,37.68826],[-122.72452,37.68857],[-122.72958,37.68887],[-122.88492,37.69757],[-122.90137,37.69837],[-123.14381,37.71241],[-123.35085,37.7239],[-123.41103,37.72722],[-123.47384,37.73063],[-123.4803,37.73099]]}
}
