{
  "id": 2048253229,
  "type": "Feature",
  "properties": {
    "geom:area": 0,
    "geom:bbox": "-122.546810,36.724750,-121.447170,37.666550",
    "geom:latitude": 37.20964306569411,
    "geom:longitude": -122.06832923809408,
    "src:alt_label": "swim-takeoff",
    "src:geom": "swim",
    "swim:elevations": [
      274,
      838,
      1281,
      1673,
      2042,
      2220,
      2627,
      3175,
      3335,
      3534,
      3645,
      4054,
      4295,
      4514,
      4780,
      5085,
      5386,
      5617,
      6218,
      6520,
      6775,
      6895,
      7234,
      7452,
      7822,
      7958,
      8171,
      8412
    ],
    "swim:geom": "takeoff",
    "swim:timestamps": [
      1788534743,
      1788534791,
      1788534855,
      1788534894,
      1788534926,
      1788534938,
      1788534967,
      1788535012,
      1788535039,
      1788535071,
      1788535091,
      1788535118,
      1788535142,
      1788535161,
      1788535183,
      1788535213,
      1788535241,
      1788535262,
      1788535313,
      1788535339,
      1788535370,
      1788535384,
      1788535423,
      1788535451,
      1788535498,
      1788535517,
      1788535545,
      1788535582
    ],
    "wof:geomhash": "89369e3d5090ba93838b940f640a0500",
    "wof:id": 2048253229,
    "wof:repo": "sfomuseum-data-flights-2026-09"
  },
  "bbox": [
    -122.54681,
    36.72475,
    -121.44717,
    37.66655
  ],
  "geometry": {"type":"LineString","coordinates":[[-122.40039,37.63186],[-122.44396,37.64972],[-122.51645,37.66655],[-122.54681,37.62985],[-122.53006,37.59099],[-122.52178,37.57631],[-122.50348,37.54271],[-122.47016,37.48853],[-122.43532,37.4601],[-122.38617,37.42472],[-122.35427,37.40159],[-122.31111,37.36958],[-122.27173,37.34033],[-122.23941,37.31641],[-122.2015,37.28851],[-122.1487,37.24963],[-122.09775,37.21199],[-122.06038,37.18426],[-121.96834,37.11583],[-121.91938,37.07941],[-121.86188,37.03643],[-121.83536,37.01658],[-121.76101,36.96091],[-121.70841,36.92154],[-121.61453,36.85064],[-121.57814,36.82373],[-121.52052,36.78146],[-121.44717,36.72475]]}
}
