{
  "id": 2048474373,
  "type": "Feature",
  "properties": {
    "geom:area": 0,
    "geom:bbox": "-122.754167,37.433333,-112.026111,40.939722",
    "geom:latitude": 39.81978920019577,
    "geom:longitude": -118.08625975268299,
    "src:alt_label": "swim-path",
    "src:geom": "swim",
    "swim:altitudes": [
      "061",
      "084",
      "081",
      "096",
      "112",
      "131",
      "148",
      "169",
      "188",
      "205",
      "225",
      "240",
      "252",
      "276",
      "287",
      "299",
      "310",
      "321",
      "332",
      "341",
      "350",
      "357",
      "360C",
      "360C",
      "360C",
      "360C",
      "360C",
      "360C",
      "360C",
      "360C",
      "360C",
      "360C",
      "360C",
      "360C",
      "360C",
      "360C",
      "360C",
      "360C",
      "360C",
      "360C",
      "360C",
      "360C",
      "360C",
      "360C",
      "360C",
      "360C",
      "360C",
      "360C",
      "360C",
      "360C",
      "360C",
      "360C",
      "360C",
      "360C",
      "360C",
      "360C",
      "360C",
      "360C",
      "360C",
      "360C",
      "360C",
      "360C",
      "360C",
      "360C",
      "360C",
      "360C",
      "360C",
      "360C",
      "360C",
      "360C",
      "360C",
      "360C",
      "360C",
      "360C",
      "360C",
      "360C",
      "360C",
      "360C",
      "360C",
      "360",
      "360",
      "360",
      "360",
      "355",
      "344",
      "318",
      "280",
      "248",
      "224",
      "217",
      "209",
      "186",
      "175",
      "153",
      "152",
      "134",
      "118",
      "110",
      "111C",
      "111C",
      "108C",
      "094",
      "080",
      "067",
      "054",
      "042",
      "031",
      "023",
      "024",
      "014",
      "015",
      "007",
      "001"
    ],
    "swim:geom": "path",
    "swim:speeds": [
      210,
      269,
      266,
      286,
      347,
      383,
      394,
      404,
      412,
      419,
      424,
      431,
      439,
      451,
      453,
      455,
      454,
      453,
      446,
      445,
      444,
      445,
      440,
      437,
      437,
      435,
      433,
      434,
      432,
      432,
      432,
      432,
      433,
      433,
      434,
      433,
      433,
      434,
      435,
      436,
      438,
      439,
      439,
      439,
      439,
      438,
      437,
      437,
      436,
      436,
      436,
      436,
      436,
      436,
      437,
      437,
      436,
      436,
      435,
      435,
      436,
      435,
      435,
      434,
      434,
      433,
      433,
      434,
      434,
      435,
      435,
      435,
      435,
      436,
      436,
      436,
      436,
      439,
      439,
      437,
      437,
      437,
      437,
      437,
      437,
      445,
      457,
      460,
      441,
      408,
      405,
      402,
      350,
      336,
      339,
      303,
      288,
      266,
      271,
      268,
      267,
      266,
      261,
      243,
      232,
      224,
      221,
      190,
      195,
      158,
      167,
      140,
      136
    ],
    "swim:timestamps": [
      1790805183,
      1790805249,
      1790805257,
      1790805317,
      1790805377,
      1790805437,
      1790805497,
      1790805557,
      1790805617,
      1790805677,
      1790805737,
      1790805797,
      1790805858,
      1790805978,
      1790806038,
      1790806098,
      1790806158,
      1790806218,
      1790806278,
      1790806338,
      1790806398,
      1790806450,
      1790806510,
      1790806578,
      1790806630,
      1790806639,
      1790806699,
      1790806750,
      1790806759,
      1790806810,
      1790806819,
      1790806879,
      1790806930,
      1790806939,
      1790806990,
      1790806999,
      1790807059,
      1790807119,
      1790807171,
      1790807179,
      1790807231,
      1790807291,
      1790807299,
      1790807351,
      1790807360,
      1790807420,
      1790807471,
      1790807480,
      1790807531,
      1790807540,
      1790807591,
      1790807651,
      1790807660,
      1790807720,
      1790807771,
      1790807780,
      1790807832,
      1790807840,
      1790807892,
      1790807900,
      1790807960,
      1790808012,
      1790808020,
      1790808072,
      1790808081,
      1790808141,
      1790808192,
      1790808252,
      1790808312,
      1790808372,
      1790808432,
      1790808493,
      1790808553,
      1790808613,
      1790808673,
      1790808733,
      1790808793,
      1790808913,
      1790808973,
      1790809093,
      1790809153,
      1790809213,
      1790809274,
      1790809334,
      1790809394,
      1790809454,
      1790809514,
      1790809574,
      1790809634,
      1790809665,
      1790809694,
      1790809754,
      1790809809,
      1790809864,
      1790809874,
      1790809929,
      1790809989,
      1790810049,
      1790810055,
      1790810115,
      1790810175,
      1790810235,
      1790810295,
      1790810349,
      1790810404,
      1790810475,
      1790810535,
      1790810584,
      1790810595,
      1790810649,
      1790810655,
      1790810709,
      1790810775
    ],
    "wof:geomhash": "f11b97ec82c160e8110e4b8b29c11cd3",
    "wof:id": 2048474373,
    "wof:repo": "sfomuseum-data-flights-2026-09"
  },
  "bbox": [
    -122.75416666666666,
    37.43333333333333,
    -112.0261111111111,
    40.939722222222215
  ],
  "geometry": {"type":"LineString","coordinates":[[-112.0261111111111,40.84388888888889],[-112.09888888888888,40.89666666666667],[-112.09222222222222,40.89361111111111],[-112.19,40.92194444444444],[-112.30388888888889,40.939722222222215],[-112.43583333333333,40.902499999999996],[-112.57083333333333,40.86555555555556],[-112.71583333333334,40.85194444444445],[-112.86833333333333,40.842222222222226],[-113.02027777777778,40.8425],[-113.20694444444445,40.84277777777778],[-113.36749999999999,40.84277777777778],[-113.5275,40.84277777777778],[-113.8586111111111,40.84166666666667],[-114.02388888888889,40.84055555555556],[-114.19083333333333,40.839444444444446],[-114.35833333333333,40.83777777777778],[-114.51694444444445,40.836111111111116],[-114.67944444444444,40.83416666666667],[-114.8411111111111,40.823055555555555],[-115.00194444444445,40.805],[-115.13027777777778,40.791666666666664],[-115.28666666666666,40.7725],[-115.47361111111111,40.750277777777775],[-115.59916666666666,40.73555555555556],[-115.63111111111111,40.731388888888894],[-115.78555555555555,40.71277777777778],[-115.91055555555556,40.696666666666665],[-115.94027777777778,40.693888888888885],[-116.06555555555555,40.678888888888885],[-116.09555555555555,40.67472222222222],[-116.25305555555556,40.655277777777776],[-116.37722222222222,40.63944444444444],[-116.40805555555556,40.635555555555555],[-116.53472222222221,40.61944444444445],[-116.56361111111111,40.615833333333335],[-116.71611111111112,40.596111111111114],[-116.8711111111111,40.575],[-116.99027777777778,40.54416666666666],[-117.01833333333333,40.534166666666664],[-117.13166666666666,40.49277777777778],[-117.30499999999999,40.42944444444444],[-117.3025,40.43055555555555],[-117.44694444444445,40.37722222222222],[-117.44694444444445,40.37722222222222],[-117.58888888888889,40.32472222222223],[-117.73166666666667,40.27166666666667],[-117.73027777777779,40.27222222222222],[-117.84805555555555,40.22833333333333],[-117.87194444444444,40.21944444444445],[-117.99138888888889,40.17472222222222],[-118.1613888888889,40.11055555555556],[-118.15666666666667,40.112500000000004],[-118.29694444444445,40.05916666666666],[-118.44361111111111,40.00472222222222],[-118.44361111111111,40.00472222222222],[-118.59222222222222,39.967777777777776],[-118.58999999999999,39.96805555555556],[-118.74166666666667,39.93194444444444],[-118.73944444444444,39.93222222222222],[-118.88861111111112,39.896388888888886],[-119.03944444444444,39.859722222222224],[-119.03833333333333,39.859722222222224],[-119.18833333333333,39.823055555555555],[-119.21611111111112,39.81638888888889],[-119.36277777777777,39.780277777777776],[-119.48277777777778,39.75055555555556],[-119.63055555555555,39.71388888888889],[-119.78083333333333,39.67611111111111],[-119.92833333333334,39.638888888888886],[-120.07666666666667,39.60138888888889],[-120.22888888888889,39.5625],[-120.37944444444443,39.52388888888889],[-120.52694444444444,39.48583333333333],[-120.67444444444445,39.447222222222216],[-120.82194444444444,39.40888888888889],[-120.97166666666666,39.36944444444445],[-121.22833333333334,39.234722222222224],[-121.34944444444444,39.15694444444444],[-121.56444444444445,39.01833333333333],[-121.7075,38.925555555555555],[-121.82416666666666,38.849444444444444],[-121.94500000000001,38.77055555555555],[-122.06305555555555,38.69305555555555],[-122.19361111111111,38.606944444444444],[-122.31361111111111,38.527499999999996],[-122.43666666666667,38.44583333333333],[-122.56194444444444,38.36194444444445],[-122.67833333333334,38.284166666666664],[-122.73333333333333,38.233333333333334],[-122.75416666666666,38.19194444444444],[-122.72611111111111,38.08388888888889],[-122.7,37.983333333333334],[-122.66666666666667,37.9],[-122.66861111111112,37.897777777777776],[-122.6,37.833333333333336],[-122.53333333333333,37.766666666666666],[-122.46666666666667,37.7],[-122.47277777777778,37.71027777777778],[-122.41305555555556,37.65416666666667],[-122.35972222222222,37.595],[-122.32111111111111,37.528055555555554],[-122.27888888888889,37.46333333333334],[-122.2,37.43333333333333],[-122.13333333333334,37.45],[-122.09666666666666,37.50388888888889],[-122.15555555555557,37.53361111111111],[-122.21666666666667,37.55],[-122.21805555555555,37.55555555555555],[-122.28333333333333,37.583333333333336],[-122.27416666666666,37.57888888888889],[-122.31666666666666,37.6],[-122.36083333333333,37.615]]}
}
