{
  "id": 2048254381,
  "type": "Feature",
  "properties": {
    "geom:area": 0,
    "geom:bbox": "-122.563660,37.632440,-121.482720,38.514720",
    "geom:latitude": 38.07633694900671,
    "geom:longitude": -122.09656005858061,
    "src:alt_label": "swim-takeoff",
    "src:geom": "swim",
    "swim:elevations": [
      408,
      554,
      831,
      1160,
      1351,
      1862,
      2049,
      2578,
      2884,
      3214,
      3452,
      3503,
      3949,
      4047,
      4594,
      4654,
      4874,
      5284,
      5311,
      5502,
      5583,
      5987,
      6084,
      6335,
      6500,
      6795,
      6872,
      7125,
      7554,
      7620
    ],
    "swim:geom": "takeoff",
    "swim:timestamps": [
      1788552441,
      1788552450,
      1788552499,
      1788552528,
      1788552547,
      1788552595,
      1788552607,
      1788552654,
      1788552678,
      1788552711,
      1788552747,
      1788552759,
      1788552804,
      1788552816,
      1788552866,
      1788552871,
      1788552892,
      1788552927,
      1788552930,
      1788552950,
      1788552960,
      1788553004,
      1788553022,
      1788553053,
      1788553071,
      1788553107,
      1788553114,
      1788553146,
      1788553195,
      1788553204
    ],
    "wof:geomhash": "dea8577e0a9db5c6fe052e1eea1a667e",
    "wof:id": 2048254381,
    "wof:repo": "sfomuseum-data-flights-2026-09"
  },
  "bbox": [
    -122.56366,
    37.63244,
    -121.48272,
    38.51472
  ],
  "geometry": {"type":"LineString","coordinates":[[-122.40786,37.63244],[-122.41663,37.63614],[-122.46883,37.65865],[-122.50657,37.67529],[-122.53148,37.68608],[-122.56223,37.7371],[-122.56366,37.75263],[-122.54528,37.81101],[-122.51347,37.83184],[-122.46816,37.86063],[-122.41361,37.89519],[-122.39411,37.90769],[-122.31604,37.95789],[-122.29448,37.97179],[-122.20165,38.03168],[-122.19252,38.03752],[-122.15145,38.06385],[-122.08264,38.10774],[-122.07666,38.11158],[-122.03712,38.13673],[-122.01699,38.14944],[-121.92452,38.20821],[-121.88616,38.23262],[-121.81827,38.27573],[-121.77796,38.30118],[-121.6935,38.35452],[-121.67884,38.36377],[-121.60298,38.41161],[-121.49949,38.49746],[-121.48272,38.51472]]}
}
