{
  "id": 2048454475,
  "type": "Feature",
  "properties": {
    "geom:area": 0,
    "geom:bbox": "-122.344722,37.491667,-87.850000,42.157500",
    "geom:latitude": 39.930533442762346,
    "geom:longitude": -105.09969377368472,
    "src:alt_label": "swim-path",
    "src:geom": "swim",
    "swim:altitudes": [
      "028",
      "035",
      "045",
      "049",
      "075",
      "121",
      "139",
      "162",
      "183",
      "201",
      "219",
      "234",
      "245",
      "264",
      "277",
      "281",
      "289",
      "293",
      "299",
      "306",
      "315",
      "317",
      "325",
      "330",
      "336",
      "340C",
      "340C",
      "340C",
      "340C",
      "340C",
      "340C",
      "340C",
      "340C",
      "340C",
      "340C",
      "340C",
      "340C",
      "340C",
      "340C",
      "340C",
      "340C",
      "340C",
      "340C",
      "340C",
      "340C",
      "340C",
      "340C",
      "340C",
      "340C",
      "340C",
      "340C",
      "340C",
      "340C",
      "340C",
      "340C",
      "340C",
      "340C",
      "340C",
      "340C",
      "340C",
      "340C",
      "340C",
      "340C",
      "340C",
      "340C",
      "340C",
      "340C",
      "340C",
      "340C",
      "340C",
      "340C",
      "340C",
      "340C",
      "340C",
      "340",
      "335",
      "330",
      "325",
      "316",
      "306",
      "297",
      "287",
      "280C",
      "280C",
      "280C",
      "280C",
      "280C",
      "280C",
      "280C",
      "280C",
      "280C",
      "280C",
      "280C",
      "280C",
      "280C",
      "280C",
      "280C",
      "280C",
      "280C",
      "280C",
      "280C",
      "280C",
      "280C",
      "280C",
      "280C",
      "280C",
      "280C",
      "280C",
      "280C",
      "280C",
      "280C",
      "280C",
      "280C",
      "280C",
      "280C",
      "280C",
      "280C",
      "280C",
      "280C",
      "280C",
      "280C",
      "280C",
      "280C",
      "280C",
      "280C",
      "280C",
      "280C",
      "280C",
      "280C",
      "280C",
      "280C",
      "280C",
      "280C",
      "280C",
      "280C",
      "280C",
      "280C",
      "280C",
      "280C",
      "280C",
      "280C",
      "280C",
      "280C",
      "280C",
      "280C",
      "280C",
      "280",
      "281",
      "289",
      "294",
      "300C",
      "300C",
      "300C",
      "300C",
      "300",
      "300",
      "305",
      "309",
      "314",
      "319C",
      "320C",
      "320C",
      "320C",
      "320C",
      "320C",
      "320C",
      "320C",
      "320C",
      "320C",
      "320C",
      "320C",
      "320C",
      "320C",
      "320C",
      "320C",
      "320C",
      "320C",
      "320C",
      "320C",
      "320C",
      "320C",
      "320C",
      "320C",
      "320C",
      "320C",
      "320C",
      "320C",
      "320C",
      "320C",
      "320C",
      "320C",
      "320C",
      "320C",
      "320C",
      "321",
      "327",
      "335",
      "338",
      "343",
      "346",
      "357",
      "360C",
      "360C",
      "360C",
      "360C",
      "360C",
      "360C",
      "360C",
      "360C",
      "360C",
      "360C",
      "360C",
      "360C",
      "360C",
      "360C",
      "360C",
      "360C",
      "360C",
      "360C",
      "360C",
      "360C",
      "360C",
      "360C",
      "360C",
      "360C",
      "360C",
      "360C",
      "360C",
      "360C",
      "360C",
      "360C",
      "360C",
      "360C",
      "360C",
      "360C",
      "360C",
      "360C",
      "360C",
      "360C",
      "360C",
      "360C",
      "360C",
      "360C",
      "360C",
      "360C",
      "360C",
      "360C",
      "360C",
      "360C",
      "360C",
      "360C",
      "360C",
      "360C",
      "360C",
      "360C",
      "360C",
      "360C",
      "360C",
      "360C",
      "360C",
      "360C",
      "360C",
      "360C",
      "360C",
      "360C",
      "360C",
      "360C",
      "360C",
      "360C",
      "360C",
      "360C",
      "360C",
      "360C",
      "360C",
      "360C",
      "360C",
      "360C",
      "360C",
      "360C",
      "360C",
      "360C",
      "360C",
      "360C",
      "360C",
      "360C",
      "360C",
      "360C",
      "360C",
      "360C",
      "360C",
      "360C",
      "360C",
      "360C",
      "360C",
      "359C",
      "360C",
      "360C",
      "360C",
      "360C",
      "360C",
      "360C",
      "360C",
      "360C",
      "360C",
      "360C",
      "360C",
      "360C",
      "360C",
      "360C",
      "360C",
      "360C",
      "360C",
      "360C",
      "360C",
      "360C",
      "360C",
      "360C",
      "360C",
      "360C",
      "360C",
      "360C",
      "360",
      "355",
      "345",
      "336",
      "320",
      "294",
      "288",
      "274",
      "270",
      "259",
      "250",
      "240",
      "229",
      "219",
      "210",
      "202",
      "192",
      "184",
      "173",
      "165",
      "157",
      "148",
      "141",
      "132",
      "125",
      "116",
      "111",
      "101",
      "099",
      "092",
      "087",
      "080",
      "072",
      "065",
      "056",
      "051",
      "045",
      "040",
      "034",
      "029",
      "022",
      "019",
      "014",
      "011",
      "006",
      "003"
    ],
    "swim:geom": "path",
    "swim:speeds": [
      207,
      229,
      267,
      265,
      281,
      329,
      365,
      384,
      386,
      398,
      404,
      416,
      426,
      433,
      435,
      441,
      440,
      441,
      443,
      442,
      444,
      443,
      444,
      443,
      443,
      443,
      442,
      443,
      439,
      439,
      437,
      434,
      435,
      433,
      433,
      432,
      431,
      430,
      429,
      429,
      428,
      428,
      427,
      426,
      425,
      425,
      425,
      425,
      424,
      424,
      423,
      423,
      422,
      422,
      421,
      420,
      420,
      420,
      419,
      419,
      418,
      418,
      418,
      419,
      423,
      423,
      424,
      424,
      423,
      423,
      422,
      421,
      421,
      417,
      416,
      415,
      415,
      420,
      425,
      431,
      432,
      432,
      433,
      435,
      435,
      421,
      416,
      414,
      413,
      413,
      416,
      418,
      419,
      418,
      416,
      414,
      414,
      414,
      413,
      415,
      414,
      415,
      416,
      416,
      416,
      416,
      416,
      406,
      406,
      405,
      404,
      403,
      402,
      402,
      401,
      401,
      400,
      400,
      399,
      398,
      398,
      398,
      398,
      398,
      399,
      399,
      398,
      397,
      395,
      392,
      390,
      407,
      390,
      402,
      390,
      396,
      391,
      395,
      391,
      395,
      391,
      393,
      391,
      393,
      390,
      393,
      388,
      393,
      387,
      392,
      389,
      392,
      392,
      392,
      393,
      392,
      393,
      392,
      392,
      392,
      394,
      393,
      394,
      393,
      393,
      393,
      390,
      393,
      386,
      389,
      384,
      389,
      383,
      387,
      382,
      383,
      381,
      381,
      381,
      380,
      382,
      380,
      382,
      381,
      382,
      381,
      381,
      381,
      379,
      381,
      378,
      380,
      379,
      380,
      379,
      380,
      379,
      380,
      379,
      380,
      380,
      379,
      379,
      377,
      379,
      374,
      374,
      372,
      371,
      370,
      371,
      369,
      370,
      367,
      368,
      367,
      368,
      370,
      368,
      375,
      374,
      374,
      373,
      374,
      373,
      374,
      373,
      374,
      373,
      374,
      373,
      373,
      372,
      371,
      371,
      370,
      370,
      370,
      370,
      370,
      370,
      371,
      371,
      371,
      372,
      372,
      372,
      372,
      371,
      371,
      368,
      371,
      370,
      377,
      378,
      379,
      379,
      393,
      393,
      392,
      390,
      388,
      387,
      386,
      385,
      383,
      382,
      381,
      379,
      378,
      379,
      380,
      380,
      377,
      375,
      375,
      380,
      380,
      379,
      378,
      378,
      379,
      382,
      383,
      385,
      386,
      388,
      388,
      389,
      390,
      392,
      395,
      397,
      397,
      399,
      399,
      403,
      409,
      413,
      417,
      422,
      424,
      425,
      425,
      425,
      424,
      424,
      424,
      425,
      427,
      428,
      429,
      430,
      431,
      432,
      432,
      433,
      434,
      434,
      434,
      433,
      432,
      431,
      443,
      455,
      456,
      475,
      473,
      477,
      463,
      445,
      439,
      425,
      421,
      408,
      405,
      391,
      389,
      384,
      385,
      374,
      370,
      357,
      354,
      342,
      341,
      327,
      327,
      317,
      309,
      284,
      279,
      265,
      270,
      263,
      230,
      232,
      222,
      219,
      209,
      208,
      193,
      182,
      150,
      154,
      148,
      143
    ],
    "swim:timestamps": [
      1790621805,
      1790621832,
      1790621871,
      1790621892,
      1790621953,
      1790622073,
      1790622133,
      1790622193,
      1790622253,
      1790622313,
      1790622373,
      1790622433,
      1790622493,
      1790622554,
      1790622614,
      1790622631,
      1790622674,
      1790622692,
      1790622734,
      1790622752,
      1790622794,
      1790622812,
      1790622854,
      1790622884,
      1790622914,
      1790622944,
      1790622974,
      1790623004,
      1790623034,
      1790623064,
      1790623094,
      1790623124,
      1790623155,
      1790623184,
      1790623215,
      1790623244,
      1790623275,
      1790623304,
      1790623335,
      1790623364,
      1790623395,
      1790623425,
      1790623455,
      1790623485,
      1790623515,
      1790623545,
      1790623575,
      1790623605,
      1790623635,
      1790623665,
      1790623695,
      1790623725,
      1790623756,
      1790623785,
      1790623816,
      1790623845,
      1790623876,
      1790623905,
      1790623936,
      1790623965,
      1790623996,
      1790624025,
      1790624056,
      1790624085,
      1790624116,
      1790624146,
      1790624176,
      1790624206,
      1790624236,
      1790624266,
      1790624296,
      1790624326,
      1790624357,
      1790624386,
      1790624417,
      1790624446,
      1790624477,
      1790624506,
      1790624566,
      1790624626,
      1790624686,
      1790624746,
      1790624806,
      1790624866,
      1790624927,
      1790624987,
      1790625047,
      1790625107,
      1790625167,
      1790625227,
      1790625287,
      1790625347,
      1790625407,
      1790625467,
      1790625527,
      1790625587,
      1790625648,
      1790625708,
      1790625732,
      1790625768,
      1790625792,
      1790625828,
      1790625852,
      1790625888,
      1790625912,
      1790625948,
      1790625972,
      1790626008,
      1790626032,
      1790626068,
      1790626092,
      1790626152,
      1790626212,
      1790626272,
      1790626332,
      1790626393,
      1790626453,
      1790626513,
      1790626573,
      1790626633,
      1790626693,
      1790626753,
      1790626813,
      1790626873,
      1790626933,
      1790626993,
      1790627053,
      1790627114,
      1790627174,
      1790627234,
      1790627294,
      1790627316,
      1790627354,
      1790627376,
      1790627414,
      1790627436,
      1790627474,
      1790627496,
      1790627534,
      1790627556,
      1790627594,
      1790627616,
      1790627654,
      1790627677,
      1790627714,
      1790627737,
      1790627774,
      1790627797,
      1790627834,
      1790627857,
      1790627895,
      1790627917,
      1790627955,
      1790627977,
      1790628015,
      1790628037,
      1790628075,
      1790628097,
      1790628135,
      1790628157,
      1790628195,
      1790628217,
      1790628255,
      1790628277,
      1790628315,
      1790628337,
      1790628375,
      1790628398,
      1790628435,
      1790628458,
      1790628495,
      1790628518,
      1790628555,
      1790628578,
      1790628616,
      1790628638,
      1790628676,
      1790628698,
      1790628736,
      1790628758,
      1790628796,
      1790628818,
      1790628856,
      1790628878,
      1790628916,
      1790628938,
      1790628976,
      1790628998,
      1790629036,
      1790629058,
      1790629096,
      1790629118,
      1790629156,
      1790629179,
      1790629216,
      1790629239,
      1790629276,
      1790629299,
      1790629337,
      1790629359,
      1790629419,
      1790629457,
      1790629479,
      1790629517,
      1790629539,
      1790629577,
      1790629599,
      1790629637,
      1790629659,
      1790629697,
      1790629719,
      1790629757,
      1790629779,
      1790629829,
      1790629839,
      1790629889,
      1790629900,
      1790629949,
      1790629960,
      1790630009,
      1790630070,
      1790630080,
      1790630130,
      1790630140,
      1790630190,
      1790630200,
      1790630250,
      1790630260,
      1790630310,
      1790630320,
      1790630370,
      1790630380,
      1790630430,
      1790630440,
      1790630500,
      1790630550,
      1790630560,
      1790630610,
      1790630621,
      1790630670,
      1790630681,
      1790630730,
      1790630741,
      1790630801,
      1790630851,
      1790630861,
      1790630911,
      1790630921,
      1790630971,
      1790630981,
      1790631041,
      1790631091,
      1790631101,
      1790631161,
      1790631221,
      1790631283,
      1790631341,
      1790631403,
      1790631463,
      1790631522,
      1790631582,
      1790631642,
      1790631702,
      1790631762,
      1790631822,
      1790631882,
      1790631942,
      1790632002,
      1790632062,
      1790632123,
      1790632183,
      1790632243,
      1790632303,
      1790632363,
      1790632423,
      1790632483,
      1790632543,
      1790632603,
      1790632663,
      1790632723,
      1790632783,
      1790632844,
      1790632904,
      1790632964,
      1790633024,
      1790633084,
      1790633144,
      1790633204,
      1790633264,
      1790633324,
      1790633384,
      1790633444,
      1790633504,
      1790633564,
      1790633625,
      1790633685,
      1790633745,
      1790633805,
      1790633865,
      1790633925,
      1790633985,
      1790634045,
      1790634105,
      1790634165,
      1790634225,
      1790634286,
      1790634346,
      1790634406,
      1790634466,
      1790634526,
      1790634586,
      1790634646,
      1790634706,
      1790634766,
      1790634826,
      1790634886,
      1790634946,
      1790635007,
      1790635067,
      1790635127,
      1790635187,
      1790635247,
      1790635307,
      1790635367,
      1790635427,
      1790635487,
      1790635532,
      1790635547,
      1790635574,
      1790635607,
      1790635634,
      1790635667,
      1790635689,
      1790635728,
      1790635754,
      1790635788,
      1790635809,
      1790635848,
      1790635868,
      1790635908,
      1790635928,
      1790635968,
      1790635988,
      1790636028,
      1790636049,
      1790636088,
      1790636109,
      1790636148,
      1790636169,
      1790636208,
      1790636229,
      1790636268,
      1790636289,
      1790636328,
      1790636349,
      1790636409,
      1790636449,
      1790636469,
      1790636509,
      1790636529,
      1790636569,
      1790636595,
      1790636629,
      1790636655,
      1790636689,
      1790636715,
      1790636749
    ],
    "wof:geomhash": "98f11b2f4dfc5db042ef9e6f1247f3c7",
    "wof:id": 2048454475,
    "wof:repo": "sfomuseum-data-flights-2026-09"
  },
  "bbox": [
    -122.34472222222222,
    37.49166666666667,
    -87.85,
    42.1575
  ],
  "geometry": {"type":"LineString","coordinates":[[-87.85,42.016666666666666],[-87.87222222222222,42.032222222222224],[-87.91666666666667,42.06666666666667],[-87.94083333333333,42.08444444444444],[-88.01472222222222,42.13972222222222],[-88.21444444444445,42.1575],[-88.34472222222222,42.13361111111111],[-88.48277777777778,42.10805555555556],[-88.61138888888888,42.08388888888889],[-88.75472222222223,42.056666666666665],[-88.90277777777779,42.04111111111111],[-89.05888888888889,42.03194444444444],[-89.18472222222222,42.02444444444444],[-89.37888888888888,42.0125],[-89.54277777777777,42.00222222222222],[-89.59222222222222,41.9975],[-89.70666666666666,41.99166666666667],[-89.75694444444444,41.986666666666665],[-89.83749999999999,41.98305555555556],[-89.92333333333333,41.975833333333334],[-90.05361111111111,41.968611111111116],[-90.08833333333332,41.96361111111111],[-90.21833333333333,41.956944444444446],[-90.28666666666666,41.950833333333335],[-90.38138888888888,41.94555555555555],[-90.45083333333334,41.93944444444444],[-90.545,41.93388888888889],[-90.58138888888888,41.92944444444444],[-90.70722222222223,41.92194444444444],[-90.77444444444444,41.915277777777774],[-90.86805555555554,41.91027777777778],[-90.9025,41.907777777777774],[-91.03055555555555,41.89805555555556],[-91.09388888888888,41.893055555555556],[-91.19027777777778,41.885555555555555],[-91.255,41.88027777777778],[-91.31777777777778,41.875277777777775],[-91.41472222222222,41.8675],[-91.50916666666667,41.86],[-91.57249999999999,41.855000000000004],[-91.66555555555556,41.84722222222222],[-91.72972222222222,41.841944444444444],[-91.8236111111111,41.83527777777778],[-91.8875,41.83166666666667],[-91.98277777777778,41.82638888888889],[-92.04638888888888,41.82277777777778],[-92.10805555555555,41.81888888888889],[-92.20305555555557,41.81333333333333],[-92.2961111111111,41.80777777777777],[-92.35944444444443,41.80416666666667],[-92.45277777777778,41.79833333333333],[-92.51833333333333,41.79416666666666],[-92.6086111111111,41.78861111111111],[-92.67222222222223,41.78444444444444],[-92.76527777777778,41.77833333333333],[-92.83805555555556,41.77388888888889],[-92.92083333333333,41.76861111111111],[-92.99388888888889,41.76361111111111],[-93.07583333333334,41.75805555555556],[-93.14666666666668,41.753055555555555],[-93.22972222222222,41.7475],[-93.30111111111111,41.74277777777778],[-93.38416666666667,41.736666666666665],[-93.45527777777778,41.72527777777778],[-93.51388888888889,41.71138888888889],[-93.60527777777777,41.69027777777777],[-93.665,41.67611111111111],[-93.75555555555556,41.65472222222222],[-93.81444444444445,41.64083333333333],[-93.90361111111112,41.61972222222222],[-93.96083333333334,41.60611111111111],[-94.04972222222221,41.585],[-94.10805555555555,41.571111111111115],[-94.19666666666667,41.55],[-94.25361111111111,41.53611111111111],[-94.335,41.516666666666666],[-94.4,41.50083333333333],[-94.4825,41.48083333333334],[-94.63138888888888,41.44444444444444],[-94.78388888888888,41.40694444444444],[-94.93694444444445,41.368611111111115],[-95.08777777777777,41.33111111111111],[-95.24027777777778,41.29333333333333],[-95.39277777777778,41.255],[-95.54805555555555,41.21555555555556],[-95.69055555555556,41.178888888888885],[-95.83444444444444,41.14361111111111],[-95.98388888888888,41.10861111111111],[-96.13472222222222,41.07222222222222],[-96.28083333333333,41.03666666666666],[-96.42750000000001,41.00111111111111],[-96.57472222222222,40.965],[-96.72277777777778,40.92861111111111],[-96.87305555555555,40.90861111111111],[-97.02222222222223,40.89111111111111],[-97.17277777777778,40.873333333333335],[-97.32222222222222,40.85527777777778],[-97.46083333333334,40.83861111111111],[-97.51833333333333,40.8325],[-97.6111111111111,40.82027777777778],[-97.66916666666667,40.81444444444444],[-97.76305555555555,40.80138888888889],[-97.82249999999999,40.79388888888889],[-97.91361111111112,40.7825],[-97.97305555555556,40.775],[-98.06388888888888,40.76361111111111],[-98.12138888888889,40.756388888888885],[-98.21083333333334,40.74472222222222],[-98.26861111111111,40.73722222222222],[-98.35833333333333,40.72555555555556],[-98.41416666666667,40.718333333333334],[-98.53277777777778,40.70277777777778],[-98.70805555555556,40.67944444444444],[-98.85222222222221,40.66027777777778],[-98.99777777777778,40.64083333333333],[-99.13944444444445,40.62138888888889],[-99.28805555555556,40.600833333333334],[-99.43055555555556,40.58111111111111],[-99.57194444444444,40.56111111111111],[-99.71555555555555,40.54083333333333],[-99.85694444444444,40.52055555555555],[-100.00166666666667,40.500277777777775],[-100.14250000000001,40.49333333333333],[-100.28805555555556,40.48638888888889],[-100.43416666666667,40.47888888888889],[-100.58,40.471944444444446],[-100.7225,40.464444444444446],[-100.87027777777777,40.456944444444446],[-101.01277777777777,40.44583333333333],[-101.12666666666667,40.434999999999995],[-101.29527777777777,40.41861111111111],[-101.35083333333333,40.41166666666666],[-101.43555555555555,40.405],[-101.49055555555556,40.3975],[-101.57583333333334,40.39111111111111],[-101.63277777777778,40.38333333333333],[-101.71805555555555,40.37694444444445],[-101.77277777777778,40.370555555555555],[-101.8586111111111,40.36277777777778],[-101.91472222222222,40.355555555555554],[-101.99888888888889,40.348333333333336],[-102.05333333333333,40.34277777777778],[-102.1125,40.336666666666666],[-102.19527777777778,40.32694444444445],[-102.27972222222222,40.31916666666667],[-102.335,40.311388888888885],[-102.41916666666667,40.30416666666667],[-102.47500000000001,40.29694444444444],[-102.5586111111111,40.28916666666667],[-102.61388888888888,40.28138888888889],[-102.69972222222222,40.27388888888889],[-102.75527777777778,40.26694444444444],[-102.82805555555555,40.26],[-102.8963888888889,40.251666666666665],[-102.96944444444445,40.244166666666665],[-103.03861111111111,40.234722222222224],[-103.11027777777777,40.22833333333333],[-103.18027777777779,40.21888888888889],[-103.24944444444445,40.21277777777778],[-103.32166666666666,40.20277777777778],[-103.39277777777778,40.19611111111111],[-103.46361111111112,40.18722222222222],[-103.53333333333333,40.17972222222222],[-103.60527777777777,40.17027777777778],[-103.6738888888889,40.16305555555555],[-103.7461111111111,40.15361111111111],[-103.81138888888889,40.14694444444444],[-103.88222222222221,40.1375],[-103.94833333333334,40.13055555555555],[-104.01888888888888,40.12166666666667],[-104.085,40.11388888888889],[-104.15722222222223,40.10472222222222],[-104.21944444444445,40.097500000000004],[-104.29138888888889,40.088055555555556],[-104.3561111111111,40.080555555555556],[-104.4263888888889,40.07083333333334],[-104.51666666666667,40.06055555555555],[-104.55972222222222,40.05416666666667],[-104.65361111111112,40.043055555555554],[-104.69333333333334,40.03638888888889],[-104.78833333333333,40.02583333333333],[-104.83444444444444,40.01888888888889],[-104.92277777777778,40.00861111111111],[-104.97111111111111,40.00111111111111],[-105.05749999999999,39.99111111111111],[-105.08277777777778,39.987500000000004],[-105.19305555555556,39.973333333333336],[-105.21888888888888,39.969722222222224],[-105.32805555555555,39.95527777777778],[-105.35277777777777,39.95166666666667],[-105.46166666666667,39.9375],[-105.48666666666666,39.93388888888889],[-105.595,39.919444444444444],[-105.62249999999999,39.913888888888884],[-105.73083333333334,39.901111111111106],[-105.78388888888888,39.89388888888889],[-105.86638888888888,39.8825],[-105.92,39.87305555555555],[-106.00083333333333,39.86388888888889],[-106.05388888888889,39.85611111111111],[-106.1875,39.83777777777778],[-106.26861111111111,39.82611111111112],[-106.32138888888889,39.81861111111112],[-106.39944444444446,39.8075],[-106.45472222222223,39.79805555555556],[-106.53305555555555,39.788333333333334],[-106.58611111111111,39.78055555555555],[-106.66694444444445,39.772777777777776],[-106.71694444444445,39.766666666666666],[-106.8,39.757222222222225],[-106.84833333333333,39.75111111111111],[-106.92777777777778,39.74166666666667],[-106.97805555555556,39.734722222222224],[-107.05888888888889,39.72555555555556],[-107.10833333333333,39.71805555555556],[-107.2125,39.706944444444446],[-107.23944444444444,39.70277777777778],[-107.345,39.690555555555555],[-107.3711111111111,39.68694444444444],[-107.47944444444444,39.67388888888889],[-107.61888888888888,39.656388888888884],[-107.63805555555557,39.653055555555554],[-107.75055555555555,39.63944444444444],[-107.76888888888888,39.63583333333333],[-107.88444444444445,39.62222222222222],[-107.90222222222222,39.618611111111115],[-108.01888888888888,39.60472222222222],[-108.0363888888889,39.6025],[-108.125,39.590833333333336],[-108.16805555555555,39.58527777777778],[-108.25861111111111,39.57333333333334],[-108.29972222222221,39.56777777777778],[-108.38861111111112,39.55611111111111],[-108.4325,39.55027777777777],[-108.56361111111111,39.5325],[-108.67,39.51833333333333],[-108.6975,39.51444444444444],[-108.80194444444444,39.5],[-108.80444444444444,39.499722222222225],[-108.9363888888889,39.48444444444444],[-108.9363888888889,39.48444444444444],[-109.06833333333333,39.47],[-109.07083333333333,39.469722222222224],[-109.20222222222222,39.45472222222222],[-109.33416666666666,39.439722222222215],[-109.33416666666666,39.439722222222215],[-109.46666666666667,39.42444444444444],[-109.46861111111112,39.42444444444444],[-109.59944444444444,39.409166666666664],[-109.59916666666666,39.409166666666664],[-109.72944444444444,39.39388888888889],[-109.86055555555555,39.37861111111111],[-109.86055555555555,39.37861111111111],[-109.99583333333334,39.362500000000004],[-110.12944444444443,39.344166666666666],[-110.28944444444444,39.32277777777778],[-110.39527777777778,39.308055555555555],[-110.56194444444444,39.29722222222222],[-110.70111111111112,39.291666666666664],[-110.81222222222222,39.28444444444444],[-110.95,39.27361111111111],[-111.08749999999999,39.263333333333335],[-111.22555555555556,39.25194444444445],[-111.36888888888888,39.24],[-111.50416666666666,39.22972222222222],[-111.64083333333333,39.219166666666666],[-111.77472222222222,39.20888888888889],[-111.9088888888889,39.190555555555555],[-112.03999999999999,39.166666666666664],[-112.17111111111112,39.14388888888889],[-112.30277777777778,39.12083333333334],[-112.43444444444445,39.097500000000004],[-112.56722222222221,39.07416666666667],[-112.69777777777779,39.050555555555555],[-112.8261111111111,39.027499999999996],[-112.955,39.00388888888889],[-113.08888888888889,38.97972222222222],[-113.22083333333333,38.95527777777778],[-113.34861111111111,38.93138888888889],[-113.47944444444444,38.90694444444444],[-113.61083333333333,38.8825],[-113.7425,38.8575],[-113.90055555555556,38.827222222222225],[-114.03305555555555,38.801944444444445],[-114.16666666666667,38.77611111111111],[-114.30055555555555,38.75],[-114.43305555555555,38.72416666666667],[-114.56722222222221,38.6975],[-114.70222222222222,38.670833333333334],[-114.835,38.644444444444446],[-114.97194444444445,38.61666666666667],[-115.10833333333333,38.58916666666667],[-115.21861111111112,38.56722222222223],[-115.37916666666666,38.534166666666664],[-115.51722222222222,38.505],[-115.6538888888889,38.477222222222224],[-115.79222222222222,38.44833333333333],[-115.93194444444445,38.41888888888889],[-116.07694444444444,38.38805555555555],[-116.21833333333333,38.35805555555556],[-116.365,38.32805555555556],[-116.51166666666667,38.30305555555555],[-116.6575,38.278055555555554],[-116.80472222222222,38.25277777777778],[-116.95055555555555,38.2275],[-117.09555555555555,38.202222222222225],[-117.23805555555556,38.176944444444445],[-117.3775,38.151944444444446],[-117.52277777777778,38.126111111111115],[-117.67083333333333,38.099444444444444],[-117.8175,38.073055555555555],[-117.96722222222222,38.04527777777778],[-118.11416666666666,38.018055555555556],[-118.26166666666667,37.990833333333335],[-118.4113888888889,37.962500000000006],[-118.55833333333334,37.934999999999995],[-118.70722222222223,37.906666666666666],[-118.85805555555555,37.88527777777778],[-119.00777777777778,37.86805555555556],[-119.15722222222223,37.85055555555556],[-119.30777777777777,37.833333333333336],[-119.45805555555556,37.81527777777777],[-119.60583333333332,37.797777777777775],[-119.76,37.778888888888886],[-119.91722222222222,37.75972222222222],[-120.07666666666667,37.740833333333335],[-120.21666666666667,37.71666666666667],[-120.23944444444444,37.72027777777778],[-120.33333333333333,37.71666666666667],[-120.40444444444445,37.69944444444444],[-120.48333333333333,37.68333333333333],[-120.55777777777777,37.68138888888889],[-120.63333333333334,37.666666666666664],[-120.70555555555556,37.663888888888884],[-120.78333333333333,37.65],[-120.84722222222221,37.64694444444444],[-120.91666666666667,37.63333333333333],[-120.98166666666667,37.630833333333335],[-121.05,37.61666666666667],[-121.11388888888888,37.613055555555555],[-121.16666666666667,37.6],[-121.23194444444445,37.59666666666667],[-121.3,37.583333333333336],[-121.35472222222222,37.58222222222223],[-121.41666666666667,37.56666666666667],[-121.47361111111111,37.568333333333335],[-121.53333333333333,37.56666666666667],[-121.58611111111111,37.555277777777775],[-121.65,37.55],[-121.69166666666668,37.53472222222222],[-121.75,37.516666666666666],[-121.78805555555556,37.511944444444445],[-121.83333333333333,37.5],[-121.87833333333333,37.49166666666667],[-121.93333333333334,37.5],[-122.01666666666667,37.5],[-122.04583333333333,37.513333333333335],[-122.08333333333333,37.53333333333333],[-122.11722222222221,37.53638888888889],[-122.15,37.55],[-122.18444444444445,37.55833333333333],[-122.21666666666667,37.56666666666667],[-122.24638888888889,37.57833333333333],[-122.28333333333333,37.583333333333336],[-122.29722222222222,37.593611111111116],[-122.33333333333333,37.6],[-122.34472222222222,37.60805555555556]]}
}
