{
  "id": 2048434887,
  "type": "Feature",
  "properties": {
    "geom:area": 0,
    "geom:bbox": "-122.627500,32.626667,-104.461667,39.062500",
    "geom:latitude": 35.48202784332412,
    "geom:longitude": -113.94490535414738,
    "src:alt_label": "swim-path",
    "src:geom": "swim",
    "swim:altitudes": [
      "006",
      "017",
      "032",
      "042",
      "069",
      "092",
      "110",
      "121",
      "144",
      "164",
      "182",
      "200",
      "216",
      "231",
      "247",
      "248",
      "263",
      "276",
      "290",
      "304",
      "319",
      "331",
      "346",
      "347",
      "350C",
      "350C",
      "350C",
      "350C",
      "350C",
      "350C",
      "350C",
      "350C",
      "350C",
      "350C",
      "350C",
      "350C",
      "350C",
      "350C",
      "350C",
      "350C",
      "350C",
      "350C",
      "350C",
      "350C",
      "350C",
      "350C",
      "350C",
      "350C",
      "350C",
      "350C",
      "350C",
      "350C",
      "350",
      "350",
      "350",
      "343",
      "315",
      "290",
      "265",
      "242",
      "218",
      "186",
      "173",
      "150",
      "134",
      "127",
      "115",
      "110",
      "104",
      "101",
      "091",
      "086",
      "071",
      "066",
      "060",
      "060",
      "060",
      "060",
      "060",
      "060",
      "054",
      "049",
      "034",
      "024",
      "018",
      "014",
      "008",
      "005",
      "004",
      "021",
      "044",
      "072",
      "101",
      "113",
      "131",
      "153",
      "173",
      "191",
      "202",
      "216",
      "230",
      "230",
      "238",
      "253",
      "264",
      "275",
      "288",
      "303",
      "316",
      "327",
      "335",
      "347",
      "357",
      "366",
      "370C",
      "370C",
      "370C",
      "370C",
      "370C",
      "370C",
      "370C",
      "370C",
      "370C",
      "370C",
      "370C",
      "370C",
      "370C",
      "370C",
      "370C",
      "370C",
      "370C",
      "370C",
      "370C",
      "370C",
      "370C",
      "370C",
      "370C",
      "370C",
      "370C",
      "370C",
      "370C",
      "370C",
      "370C",
      "370C",
      "370C",
      "370C",
      "370C",
      "370C",
      "370C",
      "370C",
      "370C",
      "370C",
      "370C",
      "370C",
      "370C",
      "370C",
      "370C",
      "370C",
      "370C",
      "370C",
      "370C",
      "370C",
      "370C",
      "370C",
      "370C",
      "370C",
      "370C",
      "370C",
      "370C",
      "370C",
      "370C",
      "370C",
      "370C",
      "370C",
      "370C",
      "370C",
      "370C",
      "370C",
      "370C",
      "370",
      "368",
      "363",
      "360C",
      "360C",
      "360C",
      "355",
      "350C",
      "350C",
      "350",
      "344",
      "334",
      "325",
      "318",
      "313",
      "308",
      "303",
      "296",
      "287",
      "277",
      "270C",
      "269",
      "259",
      "250",
      "250",
      "249",
      "231",
      "195",
      "179",
      "160",
      "144",
      "139C",
      "139C",
      "139C",
      "136",
      "121",
      "120",
      "120",
      "114",
      "110",
      "103",
      "100",
      "099",
      "100",
      "099",
      "100",
      "092",
      "089",
      "090",
      "089",
      "088",
      "081",
      "071",
      "065",
      "063"
    ],
    "swim:geom": "path",
    "swim:speeds": [
      153,
      175,
      221,
      227,
      257,
      269,
      309,
      324,
      379,
      395,
      414,
      433,
      445,
      461,
      466,
      466,
      470,
      474,
      478,
      479,
      479,
      484,
      485,
      485,
      481,
      481,
      482,
      483,
      484,
      485,
      486,
      487,
      487,
      487,
      488,
      488,
      487,
      486,
      486,
      484,
      484,
      482,
      482,
      481,
      480,
      479,
      479,
      478,
      478,
      478,
      478,
      478,
      478,
      477,
      476,
      473,
      472,
      471,
      472,
      464,
      444,
      414,
      409,
      377,
      381,
      378,
      363,
      350,
      325,
      306,
      293,
      281,
      285,
      284,
      274,
      253,
      239,
      234,
      237,
      215,
      193,
      189,
      193,
      174,
      171,
      163,
      156,
      143,
      160,
      223,
      269,
      275,
      279,
      345,
      381,
      393,
      416,
      419,
      431,
      446,
      453,
      456,
      458,
      468,
      482,
      492,
      498,
      497,
      490,
      492,
      496,
      494,
      492,
      490,
      488,
      490,
      491,
      492,
      493,
      494,
      494,
      494,
      494,
      493,
      491,
      490,
      489,
      489,
      489,
      490,
      490,
      491,
      491,
      491,
      491,
      491,
      490,
      490,
      490,
      490,
      490,
      489,
      489,
      489,
      489,
      489,
      488,
      488,
      488,
      487,
      486,
      486,
      485,
      485,
      485,
      484,
      484,
      484,
      483,
      483,
      483,
      484,
      484,
      484,
      485,
      484,
      486,
      485,
      486,
      485,
      486,
      485,
      485,
      485,
      485,
      485,
      486,
      486,
      486,
      486,
      486,
      483,
      481,
      482,
      481,
      481,
      482,
      482,
      483,
      484,
      484,
      486,
      494,
      500,
      500,
      502,
      503,
      503,
      503,
      496,
      492,
      487,
      479,
      442,
      431,
      422,
      396,
      378,
      376,
      373,
      333,
      322,
      282,
      276,
      280,
      275,
      270,
      269,
      268,
      267,
      259,
      262,
      246,
      243,
      239,
      241,
      234,
      234,
      233,
      208,
      209,
      166,
      169,
      169
    ],
    "swim:timestamps": [
      1790363634,
      1790363680,
      1790363713,
      1790363740,
      1790363800,
      1790363860,
      1790363920,
      1790363975,
      1790364040,
      1790364095,
      1790364161,
      1790364221,
      1790364275,
      1790364341,
      1790364395,
      1790364401,
      1790364455,
      1790364515,
      1790364576,
      1790364636,
      1790364696,
      1790364756,
      1790364816,
      1790364822,
      1790364876,
      1790364882,
      1790364942,
      1790364996,
      1790365002,
      1790365062,
      1790365122,
      1790365177,
      1790365242,
      1790365297,
      1790365357,
      1790365417,
      1790365423,
      1790365477,
      1790365483,
      1790365537,
      1790365543,
      1790365597,
      1790365603,
      1790365657,
      1790365663,
      1790365723,
      1790365777,
      1790365838,
      1790365898,
      1790365958,
      1790366018,
      1790366078,
      1790366138,
      1790366198,
      1790366258,
      1790366318,
      1790366378,
      1790366439,
      1790366499,
      1790366559,
      1790366619,
      1790366692,
      1790366739,
      1790366813,
      1790366859,
      1790366873,
      1790366919,
      1790366933,
      1790366979,
      1790366993,
      1790367039,
      1790367053,
      1790367100,
      1790367113,
      1790367160,
      1790367172,
      1790367220,
      1790367234,
      1790367280,
      1790367294,
      1790367340,
      1790367353,
      1790367414,
      1790367474,
      1790367520,
      1790367534,
      1790367581,
      1790367593,
      1790371463,
      1790371523,
      1790371583,
      1790371644,
      1790371704,
      1790371764,
      1790371824,
      1790371884,
      1790371944,
      1790372004,
      1790372064,
      1790372124,
      1790372185,
      1790372245,
      1790372305,
      1790372365,
      1790372425,
      1790372485,
      1790372545,
      1790372605,
      1790372662,
      1790372722,
      1790372785,
      1790372845,
      1790372906,
      1790372966,
      1790373026,
      1790373082,
      1790373146,
      1790373202,
      1790373263,
      1790373323,
      1790373383,
      1790373443,
      1790373507,
      1790373563,
      1790373623,
      1790373683,
      1790373743,
      1790373803,
      1790373863,
      1790373891,
      1790373924,
      1790373951,
      1790373984,
      1790374011,
      1790374044,
      1790374071,
      1790374104,
      1790374131,
      1790374164,
      1790374191,
      1790374224,
      1790374251,
      1790374284,
      1790374311,
      1790374344,
      1790374371,
      1790374404,
      1790374431,
      1790374464,
      1790374492,
      1790374524,
      1790374552,
      1790374585,
      1790374612,
      1790374645,
      1790374672,
      1790374732,
      1790374765,
      1790374792,
      1790374825,
      1790374852,
      1790374885,
      1790374912,
      1790374945,
      1790374972,
      1790375005,
      1790375032,
      1790375065,
      1790375092,
      1790375125,
      1790375152,
      1790375185,
      1790375213,
      1790375245,
      1790375273,
      1790375306,
      1790375333,
      1790375366,
      1790375393,
      1790375426,
      1790375453,
      1790375486,
      1790375513,
      1790375546,
      1790375573,
      1790375633,
      1790375693,
      1790375753,
      1790375813,
      1790375873,
      1790375934,
      1790375994,
      1790376054,
      1790376114,
      1790376174,
      1790376234,
      1790376294,
      1790376354,
      1790376414,
      1790376474,
      1790376534,
      1790376594,
      1790376654,
      1790376715,
      1790376775,
      1790376835,
      1790376955,
      1790377015,
      1790377075,
      1790377135,
      1790377195,
      1790377255,
      1790377315,
      1790377375,
      1790377445,
      1790377505,
      1790377565,
      1790377616,
      1790377625,
      1790377676,
      1790377691,
      1790377736,
      1790377757,
      1790377796,
      1790377805,
      1790377856,
      1790377916,
      1790377937,
      1790377976,
      1790377997,
      1790378036,
      1790378105,
      1790378157,
      1790378217
    ],
    "wof:geomhash": "44ad476e161dc9b2ce7c3ad1009599ac",
    "wof:id": 2048434887,
    "wof:repo": "sfomuseum-data-flights-2026-09"
  },
  "bbox": [
    -122.6275,
    32.626666666666665,
    -104.46166666666667,
    39.0625
  ],
  "geometry": {"type":"LineString","coordinates":[[-122.38333333333334,37.61666666666667],[-122.4213888888889,37.6375],[-122.46666666666667,37.65],[-122.49055555555556,37.66694444444444],[-122.57249999999999,37.64277777777778],[-122.6275,37.59027777777778],[-122.61833333333333,37.51027777777778],[-122.60916666666667,37.41888888888889],[-122.59666666666666,37.30833333333333],[-122.58527777777778,37.20333333333333],[-122.57249999999999,37.083333333333336],[-122.53666666666666,36.96944444444445],[-122.46194444444444,36.867222222222225],[-122.3775,36.75194444444445],[-122.29833333333333,36.64361111111111],[-122.29555555555555,36.63972222222222],[-122.21694444444445,36.531666666666666],[-122.13361111111112,36.41694444444444],[-122.05,36.30138888888889],[-121.96666666666667,36.18583333333333],[-121.88472222222222,36.07194444444445],[-121.78166666666667,35.968333333333334],[-121.64888888888889,35.88472222222222],[-121.64694444444446,35.88333333333333],[-121.52083333333333,35.80361111111111],[-121.51638888888888,35.80083333333333],[-121.3875,35.71944444444445],[-121.26,35.638333333333335],[-121.2575,35.63666666666666],[-121.12555555555555,35.552499999999995],[-120.99333333333334,35.472500000000004],[-120.8625,35.396388888888886],[-120.72416666666666,35.316111111111105],[-120.5961111111111,35.240833333333335],[-120.46277777777777,35.16277777777778],[-120.33027777777778,35.08444444444444],[-120.30055555555555,35.066944444444445],[-120.19944444444445,35.007222222222225],[-120.17,34.98972222222222],[-120.06805555555555,34.92916666666667],[-120.03888888888889,34.911944444444444],[-119.93694444444445,34.850833333333334],[-119.90805555555556,34.83361111111111],[-119.80749999999999,34.77305555555555],[-119.77638888888889,34.754444444444445],[-119.64722222222223,34.67722222222222],[-119.54583333333333,34.61611111111111],[-119.39805555555556,34.526666666666664],[-119.26916666666666,34.44833333333333],[-119.14,34.36972222222222],[-119.01055555555556,34.29055555555556],[-118.8825,34.21194444444445],[-118.75305555555556,34.132222222222225],[-118.62583333333333,34.05333333333333],[-118.49694444444445,33.97361111111111],[-118.375,33.888888888888886],[-118.25694444444444,33.7975],[-118.15972222222223,33.72361111111111],[-118.04305555555555,33.63444444444444],[-117.92944444444444,33.54722222222222],[-117.8261111111111,33.45805555555556],[-117.7,33.333333333333336],[-117.63861111111112,33.28388888888889],[-117.51666666666667,33.166666666666664],[-117.47722222222222,33.11527777777778],[-117.45,33.083333333333336],[-117.40416666666667,33.01888888888889],[-117.38333333333334,33],[-117.345,32.940555555555555],[-117.33333333333333,32.916666666666664],[-117.29222222222222,32.87083333333334],[-117.28333333333333,32.85],[-117.24194444444444,32.80416666666667],[-117.23333333333333,32.78333333333333],[-117.18055555555556,32.7525],[-117.15,32.75],[-117.10027777777778,32.750277777777775],[-117.06666666666666,32.75],[-117.02361111111111,32.74861111111111],[-117,32.75],[-116.96222222222222,32.73444444444444],[-116.96666666666667,32.71666666666667],[-117,32.68333333333333],[-117.06666666666666,32.7],[-117.09472222222222,32.71055555555556],[-117.11666666666666,32.71666666666667],[-117.14500000000001,32.722500000000004],[-117.16666666666667,32.733333333333334],[-117.2,32.736111111111114],[-117.26194444444444,32.750277777777775],[-117.3425,32.76444444444444],[-117.37444444444444,32.70166666666667],[-117.30083333333333,32.658055555555556],[-117.20305555555557,32.6275],[-117.08222222222221,32.626666666666665],[-116.95833333333334,32.66277777777778],[-116.79833333333333,32.67361111111111],[-116.71083333333334,32.75888888888889],[-116.66611111111112,32.848333333333336],[-116.60888888888888,32.965],[-116.54888888888888,33.08416666666667],[-116.48666666666666,33.20194444444445],[-116.42527777777778,33.31916666666667],[-116.33666666666666,33.42638888888889],[-116.20722222222223,33.50472222222222],[-116.07249999999999,33.585],[-115.92333333333333,33.64472222222222],[-115.77444444444444,33.70583333333334],[-115.62222222222222,33.769999999999996],[-115.46916666666667,33.83527777777778],[-115.32972222222222,33.89388888888889],[-115.18305555555555,33.955555555555556],[-115.03833333333333,34.01583333333333],[-114.8913888888889,34.07666666666667],[-114.74583333333334,34.136944444444445],[-114.6,34.19694444444444],[-114.45083333333334,34.257777777777775],[-114.30083333333333,34.31888888888889],[-114.1538888888889,34.37861111111111],[-114.0038888888889,34.439166666666665],[-113.85249999999999,34.500277777777775],[-113.70361111111112,34.559999999999995],[-113.53999999999999,34.625],[-113.39305555555556,34.68333333333333],[-113.24444444444444,34.74194444444444],[-113.09777777777778,34.79972222222222],[-112.94777777777779,34.85861111111111],[-112.80055555555555,34.91583333333333],[-112.65138888888889,34.973888888888894],[-112.59666666666666,34.995],[-112.50416666666666,35.03055555555555],[-112.44805555555556,35.05222222222222],[-112.35444444444444,35.088055555555556],[-112.29527777777777,35.11083333333333],[-112.20527777777778,35.14527777777778],[-112.14750000000001,35.1675],[-112.05333333333333,35.20333333333333],[-111.99583333333334,35.225],[-111.9038888888889,35.26],[-111.8436111111111,35.2825],[-111.7525,35.316944444444445],[-111.69277777777778,35.339444444444446],[-111.60249999999999,35.373333333333335],[-111.54222222222222,35.395833333333336],[-111.45166666666667,35.42972222222222],[-111.36888888888888,35.46055555555556],[-111.30805555555555,35.48305555555556],[-111.2175,35.51694444444444],[-111.15666666666667,35.53916666666667],[-111.06638888888888,35.57277777777778],[-111.00638888888889,35.594722222222224],[-110.91222222222223,35.62916666666667],[-110.85416666666666,35.650277777777774],[-110.7611111111111,35.68444444444444],[-110.70527777777778,35.70472222222222],[-110.61055555555555,35.73916666666667],[-110.46055555555556,35.79361111111111],[-110.405,35.81388888888888],[-110.31027777777777,35.84777777777778],[-110.25527777777778,35.8675],[-110.15805555555556,35.90222222222222],[-110.10444444444444,35.921388888888885],[-110.00972222222222,35.95527777777778],[-109.95305555555557,35.97555555555556],[-109.85944444444443,36.00888888888889],[-109.79888888888888,36.03],[-109.70527777777778,36.06305555555555],[-109.64250000000001,36.085],[-109.55055555555555,36.1175],[-109.49222222222222,36.13805555555555],[-109.39805555555556,36.17111111111111],[-109.33833333333332,36.19194444444444],[-109.24305555555556,36.225],[-109.18527777777778,36.245],[-109.08749999999999,36.278888888888886],[-109.02694444444444,36.29972222222222],[-108.93111111111112,36.3325],[-108.86861111111111,36.35416666666667],[-108.80805555555555,36.374722222222225],[-108.71694444444445,36.40611111111111],[-108.65861111111111,36.439166666666665],[-108.58111111111111,36.48638888888889],[-108.5261111111111,36.52027777777778],[-108.4475,36.56888888888889],[-108.39416666666668,36.60194444444445],[-108.2625,36.683055555555555],[-108.1325,36.76583333333333],[-107.99638888888889,36.84583333333334],[-107.85722222222222,36.919999999999995],[-107.70611111111111,36.980000000000004],[-107.55,37.026944444444446],[-107.40166666666667,37.093611111111116],[-107.25194444444445,37.1625],[-107.09972222222221,37.2325],[-106.95027777777779,37.30083333333333],[-106.79472222222222,37.37111111111111],[-106.64361111111111,37.439166666666665],[-106.48972222222223,37.50833333333333],[-106.33666666666666,37.57666666666667],[-106.185,37.644444444444446],[-106.03055555555555,37.71277777777778],[-105.88194444444444,37.778055555555554],[-105.73333333333333,37.84305555555556],[-105.59888888888888,37.901944444444446],[-105.46444444444445,37.96055555555556],[-105.33416666666666,38.01638888888889],[-105.085,38.12361111111111],[-104.96666666666667,38.174166666666665],[-104.85055555555554,38.223888888888894],[-104.735,38.2725],[-104.64888888888889,38.33583333333333],[-104.64472222222223,38.42444444444444],[-104.60777777777777,38.50138888888889],[-104.57,38.57166666666667],[-104.52,38.664722222222224],[-104.48416666666667,38.73416666666667],[-104.46861111111112,38.81027777777778],[-104.465,38.861666666666665],[-104.46416666666667,38.88361111111111],[-104.46277777777777,38.93472222222222],[-104.46388888888889,38.96388888888889],[-104.46166666666667,39.006388888888885],[-104.47555555555556,39.03916666666667],[-104.51333333333334,39.05],[-104.54027777777777,39.05361111111111],[-104.59722222222221,39.0625],[-104.66916666666667,39.04805555555556],[-104.68555555555555,39.01888888888889],[-104.68555555555555,38.98583333333333],[-104.68472222222222,38.955555555555556],[-104.68555555555555,38.927499999999995],[-104.68777777777778,38.86083333333333],[-104.68583333333333,38.82805555555556],[-104.68611111111112,38.782777777777774]]}
}
