{
  "id": 2048356425,
  "type": "Feature",
  "properties": {
    "geom:area": 0,
    "geom:bbox": "-122.400180,37.631050,-121.245600,38.426030",
    "geom:latitude": 38.020944131224304,
    "geom:longitude": -121.82744462863992,
    "src:alt_label": "swim-takeoff",
    "src:geom": "swim",
    "swim:elevations": [
      324,
      715,
      876,
      1072,
      1533,
      1886,
      1992,
      2557,
      2899,
      3237,
      3392,
      3558,
      3826,
      4393,
      4526,
      4842,
      4974,
      5152,
      5484,
      5877,
      6215,
      6257,
      6720,
      6901,
      7031,
      7209
    ],
    "swim:geom": "takeoff",
    "swim:timestamps": [
      1789569534,
      1789569568,
      1789569581,
      1789569604,
      1789569658,
      1789569688,
      1789569696,
      1789569739,
      1789569760,
      1789569790,
      1789569819,
      1789569845,
      1789569880,
      1789569928,
      1789569959,
      1789569987,
      1789570001,
      1789570022,
      1789570061,
      1789570095,
      1789570138,
      1789570141,
      1789570192,
      1789570217,
      1789570235,
      1789570261
    ],
    "wof:geomhash": "7b6df20e4a438d6d54778c975a553e2d",
    "wof:id": 2048356425,
    "wof:repo": "sfomuseum-data-flights-2026-09"
  },
  "bbox": [
    -122.40018,
    37.63105,
    -121.2456,
    38.42603
  ],
  "geometry": {"type":"LineString","coordinates":[[-122.40018,37.63105],[-122.39621,37.65926],[-122.38439,37.6661],[-122.35673,37.6748],[-122.2805,37.6981],[-122.23439,37.71216],[-122.22116,37.71657],[-122.17378,37.76166],[-122.15011,37.78466],[-122.11246,37.81321],[-122.07259,37.842],[-122.03332,37.87003],[-121.97585,37.91151],[-121.89663,37.96974],[-121.84375,38.00783],[-121.79254,38.0447],[-121.76728,38.06287],[-121.72868,38.09092],[-121.65476,38.14354],[-121.58756,38.19189],[-121.50442,38.25376],[-121.49849,38.25811],[-121.39569,38.33165],[-121.34261,38.3659],[-121.3033,38.39046],[-121.2456,38.42603]]}
}
