{
  "id": 2048458451,
  "type": "Feature",
  "properties": {
    "geom:area": 0,
    "geom:bbox": "-123.168270,37.422040,-122.124900,38.409450",
    "geom:latitude": 37.82954048147958,
    "geom:longitude": -122.58112931361896,
    "src:alt_label": "swim-approach",
    "src:geom": "swim",
    "swim:elevations": [
      7394,
      7055,
      6865,
      6623,
      6292,
      5882,
      5642,
      5192,
      4897,
      4593,
      4337,
      4211,
      4071,
      3835,
      3612,
      3521,
      3419,
      3412,
      3353,
      3353,
      3353,
      3296,
      3033,
      2902,
      2523,
      2293,
      1793,
      1643,
      1340,
      1219,
      1219,
      1070,
      973,
      925,
      849,
      575,
      443,
      390,
      193,
      124,
      260
    ],
    "swim:geom": "approach",
    "swim:timestamps": [
      1790659644,
      1790659675,
      1790659693,
      1790659717,
      1790659747,
      1790659787,
      1790659809,
      1790659852,
      1790659882,
      1790659912,
      1790659942,
      1790659969,
      1790659984,
      1790660007,
      1790660029,
      1790660041,
      1790660068,
      1790660071,
      1790660110,
      1790660149,
      1790660173,
      1790660210,
      1790660243,
      1790660261,
      1790660297,
      1790660321,
      1790660365,
      1790660378,
      1790660405,
      1790660435,
      1790660474,
      1790660516,
      1790660549,
      1790660564,
      1790660582,
      1790660637,
      1790660665,
      1790660677,
      1790660726,
      1790660741,
      1790660773
    ],
    "wof:geomhash": "7cfa273e5db2adef547748bfee64c478",
    "wof:id": 2048458451,
    "wof:repo": "sfomuseum-data-flights-2026-09"
  },
  "bbox": [
    -123.16827,
    37.42204,
    -122.1249,
    38.40945
  ],
  "geometry": {"type":"LineString","coordinates":[[-123.16827,38.40945],[-123.11709,38.3572],[-123.08777,38.32685],[-123.04881,38.28686],[-123.0004,38.23751],[-122.9367,38.17203],[-122.90294,38.13721],[-122.83693,38.06934],[-122.79215,38.02283],[-122.74777,37.97676],[-122.70426,37.93151],[-122.66731,37.89364],[-122.64656,37.8734],[-122.61423,37.84327],[-122.58365,37.81475],[-122.56739,37.79954],[-122.53232,37.76678],[-122.52861,37.76327],[-122.48203,37.71876],[-122.43542,37.67547],[-122.40678,37.64832],[-122.36347,37.60647],[-122.33616,37.5642],[-122.32314,37.54198],[-122.29811,37.49908],[-122.2824,37.47151],[-122.23163,37.43938],[-122.215,37.43301],[-122.17794,37.42204],[-122.14459,37.43591],[-122.1249,37.47078],[-122.14156,37.50714],[-122.16748,37.52997],[-122.17991,37.53845],[-122.19799,37.54667],[-122.2507,37.56874],[-122.27558,37.57926],[-122.28533,37.58337],[-122.32389,37.59957],[-122.33579,37.60458],[-122.36039,37.61515]]}
}
