{
  "id": 2048444817,
  "type": "Feature",
  "properties": {
    "geom:area": 0,
    "geom:bbox": "-122.358800,37.434240,-121.293290,37.614230",
    "geom:latitude": 37.52128662065928,
    "geom:longitude": -121.83042202077813,
    "src:alt_label": "swim-approach",
    "src:geom": "swim",
    "swim:elevations": [
      4538,
      4414,
      4319,
      4130,
      4012,
      3832,
      3574,
      3268,
      2833,
      2492,
      2427,
      2296,
      2143,
      2134,
      2134,
      2134,
      2112,
      1831,
      1829,
      1766,
      1711,
      1612,
      1500,
      1363,
      1237,
      1127,
      952,
      933,
      821,
      701,
      607,
      456,
      332,
      189,
      161,
      0
    ],
    "swim:geom": "approach",
    "swim:timestamps": [
      1790537634,
      1790537649,
      1790537662,
      1790537687,
      1790537705,
      1790537733,
      1790537786,
      1790537837,
      1790537898,
      1790537936,
      1790537954,
      1790537983,
      1790538017,
      1790538053,
      1790538062,
      1790538086,
      1790538098,
      1790538144,
      1790538162,
      1790538207,
      1790538226,
      1790538243,
      1790538263,
      1790538286,
      1790538311,
      1790538334,
      1790538376,
      1790538379,
      1790538407,
      1790538443,
      1790538465,
      1790538498,
      1790538532,
      1790538569,
      1790538573,
      1790538612
    ],
    "wof:geomhash": "54d658985d9069b08dcfc5b6d827e0e2",
    "wof:id": 2048444817,
    "wof:repo": "sfomuseum-data-flights-2026-09"
  },
  "bbox": [
    -122.3588,
    37.43424,
    -121.29329,
    37.61423
  ],
  "geometry": {"type":"LineString","coordinates":[[-121.29329,37.58872],[-121.32184,37.58555],[-121.34527,37.58308],[-121.39091,37.57818],[-121.42291,37.57444],[-121.4703,37.56895],[-121.5545,37.55897],[-121.6257,37.55036],[-121.68995,37.51656],[-121.70884,37.47757],[-121.71999,37.46081],[-121.75555,37.45007],[-121.80002,37.445],[-121.8463,37.44005],[-121.85792,37.43897],[-121.88886,37.43581],[-121.90342,37.43424],[-121.95994,37.44621],[-121.98044,37.45459],[-122.0306,37.47563],[-122.0505,37.48405],[-122.06748,37.49128],[-122.08644,37.49949],[-122.10762,37.50836],[-122.12955,37.5176],[-122.14877,37.52582],[-122.18252,37.54],[-122.18486,37.541],[-122.20609,37.54997],[-122.23288,37.56135],[-122.24944,37.56817],[-122.2746,37.5788],[-122.30026,37.58964],[-122.32702,37.6009],[-122.3299,37.60212],[-122.3588,37.61423]]}
}
