{
  "id": 2048480239,
  "type": "Feature",
  "properties": {
    "geom:area": 0,
    "geom:bbox": "-122.469167,26.076389,-80.180000,37.706111",
    "geom:latitude": 33.20269852174358,
    "geom:longitude": -100.48677294064728,
    "src:alt_label": "swim-path",
    "src:geom": "swim",
    "swim:altitudes": [
      "023",
      "038",
      "048",
      "070",
      "097",
      "112",
      "112",
      "120",
      "121",
      "123",
      "136",
      "152",
      "164",
      "167",
      "179",
      "182",
      "206",
      "210",
      "231",
      "233",
      "244",
      "245",
      "255",
      "268",
      "281",
      "290",
      "308",
      "310",
      "315",
      "327",
      "330",
      "330",
      "330",
      "330",
      "330",
      "330",
      "330",
      "330",
      "330",
      "330",
      "333",
      "342",
      "350C",
      "350C",
      "350C",
      "350C",
      "350C",
      "350C",
      "350C",
      "350C",
      "350C",
      "350C",
      "350C",
      "350C",
      "350C",
      "350C",
      "350C",
      "350C",
      "350C",
      "350C",
      "350C",
      "350C",
      "350C",
      "350C",
      "350C",
      "350C",
      "350C",
      "350C",
      "350C",
      "350C",
      "350C",
      "350C",
      "350C",
      "350C",
      "350C",
      "350C",
      "350C",
      "350C",
      "350C",
      "350C",
      "350C",
      "350C",
      "350C",
      "350C",
      "350C",
      "350C",
      "350C",
      "350C",
      "350C",
      "350C",
      "350C",
      "350C",
      "350C",
      "350C",
      "350C",
      "350C",
      "350C",
      "350C",
      "350C",
      "350C",
      "350C",
      "350C",
      "350C",
      "350C",
      "350C",
      "350C",
      "350C",
      "350C",
      "350C",
      "350C",
      "350C",
      "350C",
      "350C",
      "350C",
      "350C",
      "350C",
      "350C",
      "350C",
      "350C",
      "350C",
      "350C",
      "350C",
      "350C",
      "350C",
      "350C",
      "350C",
      "350C",
      "350C",
      "350C",
      "350C",
      "350C",
      "350C",
      "350C",
      "350C",
      "350C",
      "350C",
      "350C",
      "350C",
      "350C",
      "350C",
      "350C",
      "350C",
      "350C",
      "350C",
      "350C",
      "350C",
      "350C",
      "350C",
      "350C",
      "350C",
      "350C",
      "350C",
      "350C",
      "350C",
      "350C",
      "350C",
      "350C",
      "350C",
      "350C",
      "350C",
      "350C",
      "350C",
      "350C",
      "350C",
      "350C",
      "350C",
      "350C",
      "350C",
      "350C",
      "350C",
      "350C",
      "350C",
      "350C",
      "350C",
      "350C",
      "350C",
      "350C",
      "350C",
      "350C",
      "350C",
      "350C",
      "350C",
      "350C",
      "350C",
      "350C",
      "350C",
      "350C",
      "350C",
      "350C",
      "350C",
      "350C",
      "350C",
      "350C",
      "350C",
      "350C",
      "350C",
      "350C",
      "350C",
      "350C",
      "350C",
      "350C",
      "350C",
      "350C",
      "350C",
      "350C",
      "350C",
      "350C",
      "350C",
      "350C",
      "350C",
      "350C",
      "350C",
      "350C",
      "350C",
      "350C",
      "350C",
      "350C",
      "350C",
      "350C",
      "350",
      "355",
      "360",
      "364",
      "370C",
      "370C",
      "370C",
      "370C",
      "370C",
      "370C",
      "370C",
      "370C",
      "370C",
      "370C",
      "370C",
      "370C",
      "370C",
      "370C",
      "370C",
      "370C",
      "370C",
      "370C",
      "370C",
      "370C",
      "370C",
      "370C",
      "370C",
      "370C",
      "370C",
      "370C",
      "370C",
      "370C",
      "370C",
      "370C",
      "370C",
      "370C",
      "370C",
      "370C",
      "370C",
      "370C",
      "370C",
      "370C",
      "370C",
      "370C",
      "370C",
      "370C",
      "370C",
      "370C",
      "370C",
      "370C",
      "370C",
      "370C",
      "370C",
      "370C",
      "370C",
      "370C",
      "370C",
      "370C",
      "370C",
      "370C",
      "370C",
      "370C",
      "370C",
      "370C",
      "370C",
      "370C",
      "370C",
      "370C",
      "370C",
      "370C",
      "370C",
      "370C",
      "370C",
      "370C",
      "370C",
      "370C",
      "370C",
      "370C",
      "370C",
      "370C",
      "370C",
      "370C",
      "370C",
      "370C",
      "370C",
      "370C",
      "370C",
      "370C",
      "370C",
      "370C",
      "370C",
      "370C",
      "370C",
      "370C",
      "370C",
      "370C",
      "370C",
      "370C",
      "370C",
      "370C",
      "370C",
      "370C",
      "370C",
      "370C",
      "370C",
      "370C",
      "370C",
      "370C",
      "370C",
      "370C",
      "370C",
      "370C",
      "370C",
      "370C",
      "370C",
      "370C",
      "370C",
      "370C",
      "370C",
      "370C",
      "370C",
      "370C",
      "370C",
      "370C",
      "370C",
      "370C",
      "370C",
      "370C",
      "370C",
      "370C",
      "370C",
      "370C",
      "370C",
      "370C",
      "370C",
      "370C",
      "370C",
      "370C",
      "370C",
      "370C",
      "370C",
      "370C",
      "370C",
      "370C",
      "370C",
      "370C",
      "370C",
      "370C",
      "370C",
      "370C",
      "370C",
      "370C",
      "370C",
      "370C",
      "370C",
      "370C",
      "370C",
      "370C",
      "370C",
      "370C",
      "370C",
      "370C",
      "370C",
      "370C",
      "370C",
      "370C",
      "370C",
      "370C",
      "370C",
      "370C",
      "370C",
      "370C",
      "370C",
      "370C",
      "370C",
      "370C",
      "370C",
      "370C",
      "370C",
      "370C",
      "370C",
      "370C",
      "370C",
      "370C",
      "370C",
      "370C",
      "370C",
      "370C",
      "370C",
      "370",
      "368",
      "362",
      "359",
      "353",
      "349",
      "344",
      "340",
      "332",
      "330",
      "323",
      "321",
      "313",
      "311",
      "305",
      "301",
      "291",
      "281",
      "269",
      "259",
      "251",
      "239",
      "229",
      "213",
      "193",
      "174",
      "155",
      "142",
      "133",
      "114",
      "100",
      "094",
      "085",
      "074",
      "070",
      "070",
      "062",
      "052",
      "039",
      "027",
      "019",
      "011",
      "010",
      "003"
    ],
    "swim:geom": "path",
    "swim:speeds": [
      167,
      180,
      265,
      291,
      299,
      324,
      321,
      375,
      371,
      336,
      358,
      383,
      418,
      407,
      424,
      420,
      414,
      425,
      385,
      406,
      387,
      391,
      404,
      405,
      417,
      423,
      436,
      458,
      458,
      477,
      477,
      475,
      474,
      472,
      472,
      470,
      468,
      467,
      466,
      466,
      467,
      468,
      468,
      468,
      468,
      468,
      468,
      467,
      467,
      474,
      479,
      480,
      480,
      482,
      483,
      483,
      483,
      484,
      478,
      476,
      476,
      476,
      477,
      482,
      482,
      481,
      484,
      482,
      488,
      482,
      484,
      482,
      484,
      483,
      484,
      482,
      482,
      483,
      487,
      487,
      488,
      488,
      488,
      489,
      489,
      484,
      484,
      484,
      483,
      481,
      482,
      480,
      481,
      480,
      481,
      479,
      480,
      478,
      478,
      475,
      471,
      470,
      469,
      468,
      467,
      466,
      466,
      466,
      466,
      466,
      467,
      468,
      468,
      469,
      473,
      475,
      478,
      479,
      479,
      480,
      481,
      482,
      481,
      481,
      481,
      482,
      482,
      483,
      485,
      489,
      491,
      491,
      490,
      488,
      487,
      488,
      490,
      492,
      495,
      498,
      503,
      513,
      518,
      520,
      509,
      505,
      503,
      500,
      498,
      497,
      496,
      497,
      498,
      501,
      502,
      502,
      503,
      503,
      503,
      503,
      502,
      501,
      500,
      500,
      499,
      497,
      496,
      495,
      494,
      493,
      493,
      492,
      492,
      491,
      490,
      490,
      489,
      489,
      489,
      488,
      488,
      488,
      488,
      487,
      486,
      486,
      486,
      485,
      485,
      485,
      486,
      485,
      485,
      485,
      485,
      485,
      485,
      485,
      486,
      486,
      487,
      490,
      492,
      492,
      492,
      492,
      492,
      492,
      492,
      491,
      490,
      489,
      489,
      488,
      488,
      489,
      489,
      485,
      482,
      480,
      481,
      482,
      492,
      494,
      494,
      495,
      495,
      495,
      494,
      493,
      491,
      490,
      489,
      489,
      488,
      490,
      489,
      490,
      490,
      490,
      489,
      490,
      489,
      490,
      491,
      491,
      495,
      490,
      492,
      489,
      489,
      488,
      486,
      488,
      488,
      489,
      489,
      489,
      489,
      488,
      487,
      487,
      487,
      487,
      487,
      487,
      487,
      487,
      487,
      487,
      487,
      487,
      487,
      486,
      486,
      485,
      485,
      485,
      485,
      485,
      486,
      485,
      485,
      485,
      485,
      484,
      484,
      484,
      485,
      485,
      486,
      486,
      486,
      487,
      486,
      488,
      486,
      490,
      487,
      491,
      488,
      491,
      492,
      488,
      492,
      489,
      492,
      489,
      490,
      489,
      486,
      484,
      484,
      480,
      477,
      473,
      473,
      470,
      470,
      471,
      471,
      472,
      472,
      471,
      470,
      469,
      464,
      460,
      457,
      456,
      451,
      450,
      447,
      447,
      447,
      440,
      438,
      437,
      438,
      439,
      441,
      443,
      445,
      446,
      447,
      432,
      434,
      430,
      433,
      429,
      433,
      429,
      426,
      430,
      432,
      450,
      452,
      459,
      463,
      463,
      461,
      462,
      460,
      461,
      459,
      458,
      458,
      457,
      458,
      455,
      454,
      455,
      453,
      451,
      448,
      452,
      456,
      456,
      456,
      457,
      458,
      458,
      455,
      454,
      452,
      452,
      450,
      449,
      448,
      447,
      445,
      442,
      441,
      437,
      433,
      433,
      430,
      430,
      428,
      428,
      428,
      428,
      428,
      428,
      428,
      423,
      417,
      416,
      415,
      415,
      415,
      417,
      419,
      419,
      422,
      424,
      429,
      429,
      432,
      434,
      436,
      435,
      431,
      427,
      413,
      408,
      406,
      410,
      411,
      415,
      417,
      407,
      394,
      382,
      370,
      358,
      351,
      339,
      317,
      286,
      278,
      273,
      265,
      245,
      232,
      221,
      219,
      201,
      166,
      144,
      143,
      147
    ],
    "swim:timestamps": [
      1790784410,
      1790784482,
      1790784542,
      1790784602,
      1790784662,
      1790784710,
      1790784722,
      1790784770,
      1790784782,
      1790784788,
      1790784848,
      1790784909,
      1790784962,
      1790784969,
      1790785022,
      1790785029,
      1790785082,
      1790785089,
      1790785143,
      1790785149,
      1790785203,
      1790785209,
      1790785263,
      1790785329,
      1790785389,
      1790785443,
      1790785570,
      1790785623,
      1790785690,
      1790785750,
      1790785810,
      1790785864,
      1790785930,
      1790785984,
      1790785990,
      1790786050,
      1790786111,
      1790786171,
      1790786231,
      1790786291,
      1790786351,
      1790786411,
      1790786471,
      1790786525,
      1790786531,
      1790786591,
      1790786651,
      1790786705,
      1790786712,
      1790786772,
      1790786832,
      1790786885,
      1790786892,
      1790786952,
      1790787012,
      1790787065,
      1790787072,
      1790787132,
      1790787185,
      1790787246,
      1790787312,
      1790787373,
      1790787433,
      1790787448,
      1790787508,
      1790787553,
      1790787568,
      1790787613,
      1790787628,
      1790787673,
      1790787688,
      1790787733,
      1790787748,
      1790787853,
      1790787868,
      1790787914,
      1790787974,
      1790787989,
      1790788034,
      1790788049,
      1790788094,
      1790788109,
      1790788169,
      1790788214,
      1790788229,
      1790788274,
      1790788289,
      1790788349,
      1790788409,
      1790788454,
      1790788469,
      1790788515,
      1790788529,
      1790788575,
      1790788590,
      1790788635,
      1790788650,
      1790788695,
      1790788710,
      1790788755,
      1790788770,
      1790788815,
      1790788830,
      1790788875,
      1790788890,
      1790788935,
      1790788950,
      1790788995,
      1790789010,
      1790789055,
      1790789070,
      1790789115,
      1790789130,
      1790789191,
      1790789251,
      1790789311,
      1790789371,
      1790789431,
      1790789491,
      1790789551,
      1790789611,
      1790789671,
      1790789731,
      1790789792,
      1790789852,
      1790789912,
      1790789972,
      1790790032,
      1790790092,
      1790790152,
      1790790212,
      1790790272,
      1790790332,
      1790790392,
      1790790453,
      1790790513,
      1790790573,
      1790790633,
      1790790693,
      1790790753,
      1790790813,
      1790790873,
      1790790933,
      1790790993,
      1790791054,
      1790791114,
      1790791174,
      1790791234,
      1790791294,
      1790791354,
      1790791414,
      1790791474,
      1790791534,
      1790791594,
      1790791621,
      1790791654,
      1790791681,
      1790791715,
      1790791741,
      1790791775,
      1790791802,
      1790791835,
      1790791862,
      1790791895,
      1790791922,
      1790791955,
      1790791982,
      1790792015,
      1790792054,
      1790792075,
      1790792114,
      1790792135,
      1790792174,
      1790792195,
      1790792234,
      1790792255,
      1790792294,
      1790792315,
      1790792354,
      1790792376,
      1790792414,
      1790792436,
      1790792475,
      1790792496,
      1790792535,
      1790792556,
      1790792595,
      1790792616,
      1790792655,
      1790792676,
      1790792715,
      1790792736,
      1790792775,
      1790792796,
      1790792835,
      1790792856,
      1790792895,
      1790792916,
      1790792955,
      1790792977,
      1790793015,
      1790793075,
      1790793135,
      1790793195,
      1790793256,
      1790793316,
      1790793376,
      1790793436,
      1790793496,
      1790793556,
      1790793616,
      1790793676,
      1790793736,
      1790793796,
      1790793856,
      1790793917,
      1790793977,
      1790794037,
      1790794097,
      1790794157,
      1790794217,
      1790794277,
      1790794337,
      1790794397,
      1790794457,
      1790794517,
      1790794577,
      1790794638,
      1790794698,
      1790794758,
      1790794818,
      1790794878,
      1790794903,
      1790794938,
      1790794963,
      1790794998,
      1790795023,
      1790795058,
      1790795083,
      1790795118,
      1790795143,
      1790795178,
      1790795203,
      1790795238,
      1790795263,
      1790795299,
      1790795323,
      1790795359,
      1790795384,
      1790795419,
      1790795444,
      1790795479,
      1790795504,
      1790795539,
      1790795564,
      1790795599,
      1790795624,
      1790795659,
      1790795684,
      1790795719,
      1790795744,
      1790795779,
      1790795804,
      1790795839,
      1790795864,
      1790795899,
      1790795924,
      1790795959,
      1790795985,
      1790796019,
      1790796045,
      1790796080,
      1790796105,
      1790796140,
      1790796165,
      1790796200,
      1790796225,
      1790796260,
      1790796285,
      1790796320,
      1790796345,
      1790796380,
      1790796405,
      1790796440,
      1790796465,
      1790796500,
      1790796525,
      1790796560,
      1790796585,
      1790796620,
      1790796646,
      1790796680,
      1790796706,
      1790796740,
      1790796773,
      1790796801,
      1790796833,
      1790796861,
      1790796894,
      1790796921,
      1790796954,
      1790796981,
      1790797006,
      1790797014,
      1790797041,
      1790797074,
      1790797101,
      1790797134,
      1790797194,
      1790797247,
      1790797307,
      1790797367,
      1790797434,
      1790797494,
      1790797554,
      1790797607,
      1790797615,
      1790797675,
      1790797735,
      1790797795,
      1790797848,
      1790797855,
      1790797908,
      1790797975,
      1790798035,
      1790798095,
      1790798155,
      1790798208,
      1790798275,
      1790798325,
      1790798396,
      1790798445,
      1790798516,
      1790798576,
      1790798626,
      1790798696,
      1790798756,
      1790798816,
      1790798876,
      1790798936,
      1790798996,
      1790799056,
      1790799117,
      1790799177,
      1790799237,
      1790799297,
      1790799306,
      1790799357,
      1790799366,
      1790799417,
      1790799426,
      1790799477,
      1790799486,
      1790799537,
      1790799546,
      1790799597,
      1790799606,
      1790799657,
      1790799666,
      1790799726,
      1790799777,
      1790799786,
      1790799838,
      1790799846,
      1790799898,
      1790799958,
      1790799967,
      1790800018,
      1790800027,
      1790800078,
      1790800087,
      1790800147,
      1790800207,
      1790800258,
      1790800267,
      1790800318,
      1790800327,
      1790800378,
      1790800387,
      1790800438,
      1790800447,
      1790800507,
      1790800559,
      1790800568,
      1790800619,
      1790800628,
      1790800679,
      1790800688,
      1790800739,
      1790800748,
      1790800808,
      1790800859,
      1790800868,
      1790800928,
      1790800979,
      1790800988,
      1790801039,
      1790801060,
      1790801099,
      1790801120,
      1790801159,
      1790801180,
      1790801219,
      1790801241,
      1790801279,
      1790801301,
      1790801340,
      1790801361,
      1790801400,
      1790801421,
      1790801460,
      1790801481,
      1790801520,
      1790801541,
      1790801580,
      1790801601,
      1790801640,
      1790801661,
      1790801700,
      1790801721,
      1790801760,
      1790801781,
      1790801820,
      1790801841,
      1790801901,
      1790801962,
      1790802022,
      1790802082,
      1790802142,
      1790802202,
      1790802262,
      1790802322,
      1790802382,
      1790802442,
      1790802502,
      1790802541,
      1790802572,
      1790802632,
      1790802692,
      1790802753,
      1790802807,
      1790802873,
      1790802934,
      1790802994,
      1790803054,
      1790803115,
      1790803175,
      1790803236,
      1790803296,
      1790803356,
      1790803362,
      1790803422
    ],
    "wof:geomhash": "69cfb18eff8f12bea408c91d5f6329e1",
    "wof:id": 2048480239,
    "wof:repo": "sfomuseum-data-flights-2026-09"
  },
  "bbox": [
    -122.46916666666667,
    26.07638888888889,
    -80.18,
    37.70611111111111
  ],
  "geometry": {"type":"LineString","coordinates":[[-122.36666666666666,37.666666666666664],[-122.38027777777778,37.70611111111111],[-122.43972222222223,37.67972222222222],[-122.45416666666667,37.6],[-122.46916666666667,37.515],[-122.41666666666667,37.45],[-122.4063888888889,37.45027777777778],[-122.3,37.4],[-122.29722222222222,37.40333333333333],[-122.2825,37.39361111111111],[-122.14777777777779,37.367222222222225],[-122.00472222222223,37.34166666666667],[-121.88444444444445,37.32055555555556],[-121.86138888888888,37.312777777777775],[-121.73416666666667,37.290277777777774],[-121.71527777777779,37.28444444444444],[-121.59222222222222,37.26111111111111],[-121.57333333333332,37.25555555555555],[-121.46333333333334,37.234722222222224],[-121.4413888888889,37.230000000000004],[-121.33222222222221,37.20805555555556],[-121.31277777777777,37.20388888888889],[-121.19666666666667,37.18],[-121.03833333333333,37.144444444444446],[-120.89305555555556,37.11694444444444],[-120.7725,37.09111111111111],[-120.45027777777779,37.11083333333333],[-120.32,37.12305555555555],[-120.12805555555555,37.14361111111111],[-119.95833333333334,37.16083333333333],[-119.79527777777777,37.17583333333333],[-119.65916666666668,37.18888888888888],[-119.4675,37.20722222222223],[-119.33138888888888,37.22027777777778],[-119.30444444444444,37.223055555555554],[-119.15055555555556,37.237500000000004],[-118.99,37.25222222222222],[-118.82888888888888,37.26694444444444],[-118.67,37.280833333333334],[-118.50638888888889,37.293055555555554],[-118.34333333333333,37.30555555555555],[-118.18277777777779,37.31722222222223],[-118.02055555555556,37.32916666666667],[-117.85749999999999,37.340833333333336],[-117.85749999999999,37.340833333333336],[-117.69555555555556,37.35194444444445],[-117.53388888888888,37.36277777777778],[-117.37194444444444,37.37416666666667],[-117.37194444444444,37.37416666666667],[-117.22444444444444,37.33027777777778],[-117.12777777777777,37.221111111111114],[-117.0325,37.11027777777778],[-117.0325,37.11027777777778],[-116.93777777777778,36.99944444444444],[-116.84388888888888,36.888888888888886],[-116.75,36.777499999999996],[-116.75,36.777499999999996],[-116.65555555555557,36.66555555555556],[-116.53027777777778,36.58083333333334],[-116.38305555555554,36.521388888888886],[-116.215,36.453611111111115],[-116.08916666666666,36.40333333333333],[-115.94361111111111,36.344166666666666],[-115.9088888888889,36.33027777777778],[-115.76444444444445,36.269999999999996],[-115.64833333333334,36.223888888888894],[-115.61999999999999,36.20916666666667],[-115.505,36.164722222222224],[-115.44444444444444,36.138888888888886],[-115.33027777777778,36.09277777777778],[-115.29916666666666,36.07944444444445],[-115.18138888888889,36.03138888888889],[-115.15222222222222,36.01833333333333],[-114.88722222222223,35.90833333333333],[-114.8586111111111,35.89555555555555],[-114.74166666666667,35.846944444444446],[-114.59638888888888,35.78611111111111],[-114.56555555555555,35.77361111111111],[-114.4475,35.72277777777778],[-114.41722222222222,35.70944444444445],[-114.30027777777778,35.65972222222222],[-114.27027777777778,35.64694444444444],[-114.12805555555555,35.58638888888889],[-114.0125,35.53666666666666],[-113.98805555555556,35.52611111111111],[-113.85888888888888,35.49],[-113.83333333333333,35.484722222222224],[-113.6725,35.45166666666667],[-113.51527777777778,35.41916666666666],[-113.38527777777779,35.39194444444444],[-113.35527777777777,35.38583333333333],[-113.22194444444445,35.35805555555556],[-113.20027777777779,35.35333333333333],[-113.06027777777777,35.32416666666667],[-113.04083333333332,35.32],[-112.93444444444445,35.2975],[-112.88777777777779,35.28722222222222],[-112.74305555555556,35.25611111111111],[-112.7075,35.24861111111111],[-112.61777777777777,35.22944444444445],[-112.55555555555556,35.21611111111111],[-112.46222222222222,35.19583333333333],[-112.40111111111112,35.1825],[-112.3086111111111,35.16277777777778],[-112.25222222222222,35.150555555555556],[-112.15861111111111,35.13],[-112.09694444444445,35.11638888888889],[-112.00555555555556,35.09583333333334],[-111.94833333333334,35.08305555555556],[-111.83972222222222,35.05888888888889],[-111.79277777777777,35.04833333333333],[-111.68722222222223,35.025],[-111.65666666666667,35.01833333333333],[-111.5025,34.98305555555556],[-111.34555555555555,34.9475],[-111.18916666666667,34.91222222222222],[-111.0325,34.876111111111115],[-110.87305555555555,34.8525],[-110.70916666666668,34.850833333333334],[-110.54555555555555,34.848333333333336],[-110.38444444444445,34.84583333333334],[-110.22277777777778,34.843333333333334],[-110.06138888888889,34.84055555555556],[-109.89861111111112,34.83722222222222],[-109.73722222222223,34.83416666666667],[-109.57333333333332,34.83027777777778],[-109.41055555555556,34.82666666666667],[-109.24861111111112,34.823055555555555],[-109.085,34.81888888888889],[-108.91916666666667,34.81444444444444],[-108.75472222222223,34.809999999999995],[-108.58749999999999,34.805],[-108.42611111111111,34.8],[-108.25972222222222,34.794444444444444],[-108.07944444444443,34.78861111111111],[-107.91583333333334,34.782777777777774],[-107.74972222222222,34.776666666666664],[-107.585,34.77305555555555],[-107.40333333333334,34.791666666666664],[-107.235,34.81222222222222],[-107.06583333333333,34.835],[-106.89500000000001,34.85888888888889],[-106.72944444444444,34.88333333333333],[-106.55138888888888,34.90972222222222],[-106.37583333333333,34.91083333333333],[-106.20694444444445,34.88472222222222],[-106.0525,34.861111111111114],[-105.88333333333334,34.835],[-105.73972222222223,34.812777777777775],[-105.57583333333334,34.786944444444444],[-105.41361111111112,34.76138888888889],[-105.25,34.735],[-105.05277777777778,34.70333333333333],[-104.88583333333334,34.67611111111111],[-104.82416666666666,34.66611111111111],[-104.71861111111112,34.64861111111111],[-104.6575,34.63861111111111],[-104.55361111111111,34.62138888888889],[-104.49194444444444,34.611111111111114],[-104.38861111111112,34.593611111111116],[-104.32694444444444,34.583333333333336],[-104.22583333333334,34.566111111111105],[-104.16416666666667,34.55555555555555],[-104.06333333333333,34.538333333333334],[-104.00027777777778,34.527499999999996],[-103.90305555555557,34.51083333333333],[-103.83916666666666,34.5],[-103.74,34.48277777777778],[-103.64416666666668,34.465833333333336],[-103.57916666666667,34.45444444444445],[-103.48222222222222,34.43722222222222],[-103.41833333333334,34.42611111111111],[-103.32166666666666,34.40888888888889],[-103.25555555555556,34.39722222222222],[-103.16055555555556,34.38027777777778],[-103.09694444444445,34.36888888888889],[-103.00194444444445,34.35166666666667],[-102.93805555555556,34.34027777777778],[-102.8436111111111,34.323055555555555],[-102.77777777777777,34.31111111111111],[-102.68222222222222,34.29361111111111],[-102.61888888888888,34.28194444444444],[-102.52333333333333,34.26444444444444],[-102.46138888888889,34.25277777777778],[-102.36722222222221,34.23527777777778],[-102.3025,34.223333333333336],[-102.2075,34.205555555555556],[-102.14472222222223,34.19361111111111],[-102.05083333333333,34.17583333333333],[-101.98666666666666,34.163888888888884],[-101.8611111111111,34.14],[-101.82972222222222,34.13388888888889],[-101.70527777777778,34.11],[-101.67027777777778,34.10333333333333],[-101.54722222222222,34.07944444444445],[-101.51527777777778,34.07333333333334],[-101.39027777777778,34.049166666666665],[-101.35527777777777,34.04222222222222],[-101.23194444444445,34.018055555555556],[-101.1975,34.01111111111111],[-101.07333333333332,33.986666666666665],[-100.90972222222223,33.95444444444445],[-100.74861111111112,33.92222222222222],[-100.62027777777777,33.89611111111111],[-100.42805555555556,33.85722222222223],[-100.26777777777778,33.824444444444445],[-100.13972222222223,33.79805555555556],[-99.98111111111112,33.765277777777776],[-99.82138888888889,33.731944444444444],[-99.66027777777778,33.698055555555555],[-99.50277777777778,33.66444444444444],[-99.34305555555555,33.63055555555555],[-99.1875,33.59722222222222],[-99.02944444444444,33.56333333333333],[-98.87027777777777,33.52861111111111],[-98.71194444444444,33.49388888888889],[-98.55472222222222,33.45944444444445],[-98.40194444444445,33.425555555555555],[-98.27722222222222,33.3975],[-98.09444444444443,33.35666666666667],[-97.93944444444445,33.32166666666667],[-97.7825,33.28638888888889],[-97.62472222222222,33.25],[-97.46694444444445,33.21333333333334],[-97.30555555555556,33.17611111111111],[-97.14583333333334,33.13916666666667],[-96.985,33.10138888888889],[-96.82638888888889,33.064166666666665],[-96.66916666666667,33.02638888888889],[-96.5111111111111,32.98861111111111],[-96.35638888888889,32.95138888888889],[-96.20138888888889,32.913888888888884],[-96.14055555555557,32.89805555555556],[-96.04722222222222,32.87638888888889],[-95.99638888888889,32.863055555555555],[-95.88916666666667,32.83777777777778],[-95.83972222222222,32.825],[-95.73527777777778,32.79972222222222],[-95.68527777777778,32.78611111111111],[-95.58055555555555,32.76138888888889],[-95.53055555555555,32.74805555555556],[-95.42500000000001,32.722500000000004],[-95.37472222222222,32.70916666666667],[-95.27027777777778,32.68388888888889],[-95.21861111111112,32.67027777777778],[-95.12444444444444,32.64694444444444],[-95.0611111111111,32.63055555555555],[-94.96972222222223,32.60777777777778],[-94.90777777777778,32.590833333333336],[-94.81638888888888,32.56888888888889],[-94.7525,32.552499999999995],[-94.66305555555556,32.529444444444444],[-94.59555555555555,32.511944444444445],[-94.51027777777777,32.49],[-94.44055555555556,32.471944444444446],[-94.35805555555555,32.45027777777778],[-94.28777777777778,32.43194444444444],[-94.20333333333333,32.41],[-94.13361111111112,32.391666666666666],[-94.02277777777778,32.36277777777778],[-93.98055555555555,32.35166666666667],[-93.86999999999999,32.322500000000005],[-93.82638888888889,32.31083333333333],[-93.71833333333333,32.282222222222224],[-93.67500000000001,32.270833333333336],[-93.56722222222221,32.24194444444444],[-93.51527777777778,32.22805555555556],[-93.41666666666667,32.20138888888889],[-93.36166666666666,32.18666666666666],[-93.26361111111112,32.16027777777778],[-93.2088888888889,32.14555555555555],[-93.11916666666666,32.12111111111111],[-93.05666666666666,32.10416666666667],[-92.96777777777778,32.080000000000005],[-92.90722222222223,32.06333333333333],[-92.81555555555555,32.03805555555555],[-92.75638888888889,32.02194444444444],[-92.66444444444446,31.996666666666666],[-92.60583333333332,31.980555555555554],[-92.51305555555555,31.954722222222223],[-92.455,31.93861111111111],[-92.36277777777777,31.912777777777777],[-92.30305555555556,31.89611111111111],[-92.21027777777778,31.87027777777778],[-92.15277777777779,31.85388888888889],[-92.05888888888889,31.82777777777778],[-91.99861111111112,31.810833333333335],[-91.90972222222223,31.785555555555558],[-91.84861111111111,31.768055555555556],[-91.75805555555556,31.7425],[-91.6975,31.724999999999998],[-91.60583333333332,31.698888888888888],[-91.54583333333333,31.68166666666667],[-91.455,31.655555555555555],[-91.40361111111112,31.634444444444444],[-91.30416666666666,31.612222222222222],[-91.28194444444445,31.60138888888889],[-91.15277777777779,31.56833333333333],[-91.1,31.547777777777778],[-90.99916666666667,31.52361111111111],[-90.94861111111112,31.503611111111113],[-90.85,31.479999999999997],[-90.80972222222222,31.468055555555555],[-90.79722222222222,31.459444444444443],[-90.69833333333334,31.435],[-90.61472222222221,31.40722222222222],[-90.54527777777777,31.39],[-90.46527777777779,31.364444444444445],[-90.31361111111111,31.318055555555556],[-90.20277777777778,31.297500000000003],[-90.0461111111111,31.278888888888886],[-89.89166666666668,31.260277777777777],[-89.72666666666667,31.239444444444445],[-89.54333333333334,31.21638888888889],[-89.39250000000001,31.19611111111111],[-89.2786111111111,31.183888888888887],[-89.24222222222222,31.178611111111113],[-89.09305555555555,31.15888888888889],[-88.94194444444445,31.140833333333333],[-88.79138888888889,31.121111111111112],[-88.66805555555555,31.104722222222225],[-88.63972222222223,31.101111111111113],[-88.51916666666666,31.084999999999997],[-88.33805555555556,31.060833333333335],[-88.215,31.04416666666667],[-88.0586111111111,31.022777777777776],[-87.90944444444445,31.002222222222223],[-87.77638888888889,30.983888888888888],[-87.61805555555554,30.961666666666666],[-87.50138888888888,30.94527777777778],[-87.33194444444445,30.921111111111113],[-87.21916666666667,30.904999999999998],[-87.04722222222222,30.880277777777778],[-86.9063888888889,30.859444444444446],[-86.78083333333333,30.84111111111111],[-86.61083333333333,30.825],[-86.46916666666667,30.821666666666665],[-86.32972222222222,30.81861111111111],[-86.18805555555556,30.815555555555555],[-86.04388888888889,30.811944444444446],[-85.89944444444446,30.808055555555555],[-85.75666666666666,30.80388888888889],[-85.61055555555555,30.799722222222226],[-85.46638888888889,30.795555555555556],[-85.32,30.792222222222225],[-85.19250000000001,30.839444444444442],[-85.18833333333333,30.841388888888886],[-85.06916666666666,30.893055555555556],[-85.065,30.896666666666665],[-84.94666666666667,30.946666666666665],[-84.94166666666668,30.950277777777778],[-84.82194444444444,31.001666666666665],[-84.81888888888888,31.001944444444444],[-84.7275,31.04388888888889],[-84.69027777777778,31.053611111111113],[-84.57055555555556,31.009444444444444],[-84.56333333333333,31.003055555555555],[-84.48833333333333,30.90222222222222],[-84.48194444444445,30.89388888888889],[-84.4025,30.78527777777778],[-84.33027777777778,30.685277777777777],[-84.32333333333332,30.676944444444445],[-84.25222222222222,30.577222222222222],[-84.24694444444445,30.56722222222222],[-84.16861111111112,30.460555555555555],[-84.0911111111111,30.353611111111114],[-84.09138888888889,30.353333333333335],[-84.01444444444445,30.24638888888889],[-84.01388888888889,30.245555555555555],[-83.9375,30.13888888888889],[-83.9375,30.13888888888889],[-83.86166666666666,30.030555555555555],[-83.78611111111111,29.924722222222222],[-83.71083333333334,29.82027777777778],[-83.71111111111111,29.819444444444443],[-83.6388888888889,29.711388888888887],[-83.63805555555557,29.709722222222222],[-83.56722222222221,29.600833333333334],[-83.5675,29.6],[-83.50888888888889,29.511666666666667],[-83.48083333333334,29.46861111111111],[-83.4088888888889,29.358055555555556],[-83.35249999999999,29.271944444444443],[-83.33777777777777,29.249166666666667],[-83.28222222222222,29.164166666666667],[-83.26805555555555,29.142777777777777],[-83.21138888888889,29.05638888888889],[-83.1975,29.035],[-83.15555555555557,28.97138888888889],[-83.12722222222222,28.928055555555556],[-83.05805555555555,28.821944444444444],[-83.00277777777778,28.736944444444447],[-82.98972222222223,28.716666666666665],[-82.92111111111112,28.611111111111114],[-82.86722222222221,28.528333333333332],[-82.85388888888889,28.50777777777778],[-82.80055555555555,28.425],[-82.78694444444444,28.403888888888886],[-82.73416666666667,28.321944444444444],[-82.70722222222223,28.280277777777776],[-82.66722222222222,28.21861111111111],[-82.64166666666668,28.178611111111113],[-82.60083333333333,28.114722222222223],[-82.57472222222222,28.073888888888888],[-82.53472222222221,28.010555555555555],[-82.51722222222222,27.96722222222222],[-82.51194444444444,27.922222222222224],[-82.505,27.854444444444447],[-82.49777777777778,27.784722222222225],[-82.49305555555556,27.740833333333335],[-82.48527777777778,27.671944444444446],[-82.48055555555555,27.624444444444446],[-82.47305555555556,27.55527777777778],[-82.46722222222222,27.509722222222223],[-82.45694444444445,27.439444444444444],[-82.44916666666667,27.391388888888887],[-82.43305555555555,27.297500000000003],[-82.42916666666667,27.275],[-82.41250000000001,27.17888888888889],[-82.40861111111111,27.154722222222222],[-82.39333333333335,27.05777777777778],[-82.38972222222223,27.034166666666668],[-82.37833333333333,26.964444444444442],[-82.36666666666666,26.918055555555558],[-82.33611111111111,26.807222222222222],[-82.28888888888889,26.703055555555554],[-82.21444444444445,26.59361111111111],[-82.11583333333333,26.5125],[-82.03611111111111,26.453333333333333],[-81.90805555555556,26.395],[-81.7786111111111,26.37388888888889],[-81.65555555555557,26.356944444444444],[-81.53416666666666,26.340277777777775],[-81.41805555555555,26.324444444444445],[-81.30583333333333,26.308611111111112],[-81.2286111111111,26.297222222222224],[-81.17444444444445,26.288333333333334],[-81.09055555555555,26.229166666666664],[-81.00694444444444,26.176111111111112],[-80.91944444444445,26.15694444444444],[-80.84388888888888,26.13888888888889],[-80.7575,26.106944444444444],[-80.67888888888889,26.080833333333334],[-80.59972222222221,26.0775],[-80.53027777777778,26.078055555555554],[-80.46055555555556,26.078333333333333],[-80.39111111111112,26.078611111111112],[-80.32888888888888,26.07777777777778],[-80.27666666666667,26.0775],[-80.23194444444445,26.077222222222222],[-80.22611111111111,26.07638888888889],[-80.18,26.077222222222222]]}
}
