{
  "id": 2048453481,
  "type": "Feature",
  "properties": {
    "geom:area": 0,
    "geom:bbox": "-122.527222,37.633333,-102.831667,48.704444",
    "geom:latitude": 43.4700780551722,
    "geom:longitude": -112.9365308557309,
    "src:alt_label": "swim-path",
    "src:geom": "swim",
    "swim:altitudes": [
      "006",
      "015",
      "032",
      "040",
      "062",
      "082",
      "104",
      "113",
      "130",
      "152",
      "170",
      "190",
      "205",
      "220",
      "234",
      "249",
      "261",
      "272",
      "283",
      "295",
      "302",
      "308",
      "317",
      "330C",
      "330C",
      "330C",
      "330C",
      "330C",
      "330C",
      "330C",
      "330C",
      "330C",
      "330C",
      "330C",
      "330C",
      "330C",
      "330C",
      "330C",
      "330C",
      "330C",
      "330C",
      "330C",
      "330C",
      "330C",
      "330C",
      "330C",
      "330C",
      "330C",
      "330C",
      "330C",
      "330C",
      "330C",
      "330C",
      "330C",
      "330C",
      "330C",
      "330C",
      "330C",
      "330C",
      "330C",
      "330C",
      "330C",
      "330C",
      "336",
      "338",
      "345",
      "350C",
      "350C",
      "350C",
      "350C",
      "350C",
      "350C",
      "350C",
      "350C",
      "350C",
      "350C",
      "350C",
      "350C",
      "350C",
      "350C",
      "350C",
      "350C",
      "350C",
      "350C",
      "350C",
      "350C",
      "350C",
      "350C",
      "350C",
      "350C",
      "350C",
      "350C",
      "350C",
      "350C",
      "350C",
      "350C",
      "350C",
      "350C",
      "350C",
      "350C",
      "350C",
      "350C",
      "350C",
      "350C",
      "350C",
      "350C",
      "350C",
      "350C",
      "350C",
      "350C",
      "350C",
      "350C",
      "350C",
      "350C",
      "350C",
      "350C",
      "350C",
      "350C",
      "350C",
      "350C",
      "350C",
      "350C",
      "350C",
      "350C",
      "350C",
      "350C",
      "350C",
      "350C",
      "350C",
      "350C",
      "350C",
      "350C",
      "350C",
      "350C",
      "350C",
      "350C",
      "350C",
      "350C",
      "350C",
      "350C",
      "350C",
      "350C",
      "350C",
      "350C",
      "350C",
      "350C",
      "350C",
      "350C",
      "350C",
      "350C",
      "350C",
      "350C"
    ],
    "swim:geom": "path",
    "swim:speeds": [
      168,
      167,
      174,
      240,
      262,
      292,
      298,
      349,
      390,
      406,
      426,
      441,
      461,
      476,
      492,
      505,
      518,
      533,
      545,
      550,
      552,
      556,
      559,
      559,
      557,
      555,
      556,
      555,
      556,
      555,
      557,
      556,
      558,
      560,
      559,
      558,
      557,
      557,
      556,
      555,
      555,
      555,
      555,
      555,
      555,
      555,
      555,
      554,
      554,
      553,
      552,
      552,
      552,
      551,
      552,
      551,
      552,
      550,
      550,
      550,
      549,
      547,
      544,
      539,
      549,
      554,
      556,
      555,
      554,
      553,
      552,
      552,
      552,
      552,
      552,
      552,
      553,
      553,
      552,
      550,
      548,
      546,
      544,
      543,
      541,
      539,
      537,
      535,
      533,
      530,
      529,
      529,
      529,
      530,
      531,
      531,
      531,
      532,
      532,
      532,
      532,
      532,
      532,
      531,
      532,
      533,
      535,
      537,
      539,
      541,
      541,
      542,
      541,
      541,
      541,
      541,
      541,
      541,
      541,
      542,
      542,
      543,
      543,
      543,
      543,
      543,
      544,
      544,
      544,
      544,
      543,
      543,
      542,
      542,
      542,
      542,
      542,
      542,
      542,
      542,
      542,
      542,
      542,
      542,
      542,
      541,
      542,
      541,
      542,
      541,
      541,
      540
    ],
    "swim:timestamps": [
      1790547740,
      1790547762,
      1790547822,
      1790547882,
      1790547942,
      1790548002,
      1790548062,
      1790548122,
      1790548182,
      1790548242,
      1790548303,
      1790548363,
      1790548423,
      1790548483,
      1790548543,
      1790548603,
      1790548663,
      1790548723,
      1790548783,
      1790548843,
      1790548889,
      1790548903,
      1790548963,
      1790549024,
      1790549069,
      1790549084,
      1790549129,
      1790549144,
      1790549204,
      1790549250,
      1790549264,
      1790549310,
      1790549324,
      1790549384,
      1790549430,
      1790549444,
      1790549490,
      1790549504,
      1790549550,
      1790549610,
      1790549624,
      1790549670,
      1790549685,
      1790549730,
      1790549745,
      1790549790,
      1790549805,
      1790549850,
      1790549865,
      1790549925,
      1790549971,
      1790549985,
      1790550031,
      1790550045,
      1790550091,
      1790550105,
      1790550151,
      1790550211,
      1790550271,
      1790550331,
      1790550391,
      1790550451,
      1790550511,
      1790550571,
      1790550631,
      1790550692,
      1790550752,
      1790550812,
      1790550872,
      1790550932,
      1790550992,
      1790551052,
      1790551112,
      1790551172,
      1790551232,
      1790551292,
      1790551352,
      1790551413,
      1790551473,
      1790551533,
      1790551593,
      1790551653,
      1790551713,
      1790551773,
      1790551833,
      1790551893,
      1790551953,
      1790552013,
      1790552073,
      1790552133,
      1790552194,
      1790552254,
      1790552314,
      1790552374,
      1790552434,
      1790552494,
      1790552554,
      1790552614,
      1790552674,
      1790552734,
      1790552794,
      1790552854,
      1790552915,
      1790552975,
      1790553035,
      1790553095,
      1790553155,
      1790553215,
      1790553275,
      1790553335,
      1790553395,
      1790553455,
      1790553515,
      1790553575,
      1790553635,
      1790553696,
      1790553756,
      1790553816,
      1790553876,
      1790553936,
      1790553996,
      1790554056,
      1790554116,
      1790554176,
      1790554236,
      1790554296,
      1790554356,
      1790554417,
      1790554477,
      1790554537,
      1790554597,
      1790554657,
      1790554680,
      1790554717,
      1790554740,
      1790554777,
      1790554800,
      1790554837,
      1790554860,
      1790554897,
      1790554920,
      1790554957,
      1790554980,
      1790555017,
      1790555040,
      1790555077,
      1790555100,
      1790555137,
      1790555160,
      1790555198,
      1790555220,
      1790555258
    ],
    "wof:geomhash": "7931d91595a0e8b2ee47cf389658b6e4",
    "wof:id": 2048453481,
    "wof:repo": "sfomuseum-data-flights-2026-09"
  },
  "bbox": [
    -122.52722222222222,
    37.63333333333333,
    -102.83166666666666,
    48.70444444444445
  ],
  "geometry": {"type":"LineString","coordinates":[[-122.4,37.63333333333333],[-122.41027777777778,37.63361111111111],[-122.46527777777779,37.657222222222224],[-122.52333333333333,37.69027777777777],[-122.52722222222222,37.76305555555555],[-122.47916666666667,37.82361111111111],[-122.3913888888889,37.8675],[-122.30333333333333,37.928888888888885],[-122.20333333333333,37.99805555555556],[-122.095,38.072500000000005],[-121.98361111111112,38.15],[-121.86361111111111,38.23083333333334],[-121.74194444444444,38.314166666666665],[-121.615,38.400555555555556],[-121.48055555555555,38.48638888888889],[-121.34055555555555,38.580555555555556],[-121.19638888888889,38.680277777777775],[-121.05194444444444,38.780277777777776],[-120.90555555555557,38.88111111111111],[-120.75861111111111,38.981944444444444],[-120.66444444444446,39.04555555555555],[-120.60972222222222,39.08361111111111],[-120.45777777777778,39.18694444444444],[-120.30694444444444,39.288888888888884],[-120.21277777777777,39.35055555555556],[-120.1563888888889,39.39],[-120.06222222222222,39.45277777777778],[-120.03055555555555,39.474444444444444],[-119.87888888888888,39.57555555555556],[-119.75777777777778,39.655],[-119.72500000000001,39.677499999999995],[-119.60388888888889,39.75611111111111],[-119.57194444444444,39.77833333333333],[-119.41583333333334,39.88055555555555],[-119.29416666666667,39.96],[-119.26222222222222,39.98083333333334],[-119.14083333333333,40.05972222222222],[-119.1086111111111,40.08083333333334],[-118.98583333333333,40.16027777777778],[-118.83083333333333,40.26],[-118.79777777777778,40.28111111111111],[-118.67527777777778,40.35944444444445],[-118.64250000000001,40.38027777777778],[-118.5213888888889,40.4575],[-118.48805555555556,40.478611111111114],[-118.36333333333333,40.5575],[-118.33222222222221,40.577222222222225],[-118.20916666666668,40.654444444444444],[-118.17583333333334,40.675555555555555],[-118.01777777777778,40.77472222222222],[-117.89666666666668,40.85],[-117.86194444444443,40.87166666666667],[-117.7388888888889,40.94833333333333],[-117.70527777777778,40.969166666666666],[-117.58166666666666,41.04527777777778],[-117.5461111111111,41.06722222222223],[-117.42361111111111,41.14222222222222],[-117.26666666666667,41.23833333333334],[-117.1086111111111,41.334722222222226],[-116.94805555555556,41.431666666666665],[-116.78972222222222,41.526944444444446],[-116.63111111111111,41.621944444444445],[-116.47305555555556,41.715833333333336],[-116.31638888888888,41.808611111111105],[-116.15805555555556,41.90222222222222],[-115.995,41.9975],[-115.83222222222221,42.0925],[-115.67111111111112,42.18611111111111],[-115.5075,42.280277777777776],[-115.34444444444443,42.37388888888889],[-115.17916666666667,42.46805555555556],[-115.01666666666667,42.56027777777778],[-114.85111111111111,42.653888888888886],[-114.6863888888889,42.74611111111111],[-114.53472222222221,42.83083333333334],[-114.35499999999999,42.93055555555555],[-114.20055555555555,43.01583333333333],[-114.03277777777778,43.10777777777778],[-113.84333333333333,43.21138888888889],[-113.67527777777778,43.30222222222222],[-113.50861111111111,43.39222222222222],[-113.34055555555555,43.48222222222223],[-113.1738888888889,43.571111111111115],[-113.00694444444444,43.65972222222222],[-112.84027777777777,43.7475],[-112.67305555555556,43.835],[-112.50833333333334,43.920833333333334],[-112.33972222222222,44.00833333333333],[-112.17666666666668,44.092222222222226],[-112.00944444444444,44.17805555555555],[-111.84416666666667,44.26222222222222],[-111.6763888888889,44.346944444444446],[-111.51083333333334,44.430277777777775],[-111.34833333333333,44.51166666666666],[-111.18166666666667,44.594722222222224],[-111.01361111111112,44.67777777777778],[-110.8425,44.761944444444445],[-110.67305555555556,44.844722222222224],[-110.50083333333333,44.928888888888885],[-110.32944444444443,45.01138888888889],[-110.1575,45.09388888888889],[-109.96472222222222,45.18611111111111],[-109.79138888888889,45.268055555555556],[-109.61694444444444,45.35027777777778],[-109.4413888888889,45.4325],[-109.26444444444445,45.515],[-109.08444444444444,45.59805555555556],[-108.90555555555557,45.680277777777775],[-108.72638888888889,45.76222222222222],[-108.54805555555555,45.85055555555556],[-108.37722222222222,45.94305555555555],[-108.20833333333334,46.03444444444444],[-108.03666666666666,46.126666666666665],[-107.86305555555555,46.21944444444445],[-107.69,46.311388888888885],[-107.51666666666667,46.402499999999996],[-107.3436111111111,46.49333333333333],[-107.16888888888889,46.58444444444444],[-106.99472222222222,46.67444444444444],[-106.82111111111111,46.763888888888886],[-106.64333333333335,46.85472222222222],[-106.46638888888889,46.94444444444444],[-106.28972222222222,47.03388888888889],[-106.12333333333332,47.117222222222225],[-105.94277777777778,47.20722222222223],[-105.76333333333334,47.295833333333334],[-105.5825,47.38472222222222],[-105.40472222222223,47.471944444444446],[-105.21972222222223,47.561388888888885],[-105.03833333333333,47.64888888888889],[-104.85833333333333,47.73527777777778],[-104.6738888888889,47.823055555555555],[-104.6036111111111,47.85638888888889],[-104.48916666666666,47.91027777777778],[-104.41805555555555,47.94361111111111],[-104.30222222222221,47.99805555555556],[-104.23388888888888,48.03],[-104.11861111111111,48.08361111111111],[-104.04944444444445,48.11555555555556],[-103.93166666666667,48.169999999999995],[-103.86027777777777,48.20305555555556],[-103.745,48.255833333333335],[-103.6763888888889,48.28861111111111],[-103.56222222222222,48.34638888888889],[-103.49361111111111,48.38111111111111],[-103.38111111111111,48.43694444444444],[-103.3111111111111,48.47166666666667],[-103.19805555555556,48.526944444444446],[-103.13055555555555,48.55972222222222],[-103.01555555555555,48.61555555555556],[-102.94638888888889,48.649166666666666],[-102.83166666666666,48.70444444444445]]}
}
