{
  "id": 2048318175,
  "type": "Feature",
  "properties": {
    "geom:area": 0,
    "geom:bbox": "-122.353020,37.569290,-122.218280,37.611860",
    "geom:latitude": 37.59009477428232,
    "geom:longitude": -122.28582725777541,
    "src:alt_label": "swim-approach",
    "src:geom": "swim",
    "swim:elevations": [
      723,
      598,
      459,
      457,
      354,
      219,
      56
    ],
    "swim:geom": "approach",
    "swim:timestamps": [
      1789233286,
      1789233309,
      1789233353,
      1789233380,
      1789233409,
      1789233425,
      1789233455
    ],
    "wof:geomhash": "6ebda0c7b27a4c7017f2a38bc66138a1",
    "wof:id": 2048318175,
    "wof:repo": "sfomuseum-data-flights-2026-09"
  },
  "bbox": [
    -122.35302,
    37.56929,
    -122.21828,
    37.61186
  ],
  "geometry": {"type":"LineString","coordinates":[[-122.21828,37.56929],[-122.23924,37.57609],[-122.27497,37.58692],[-122.29641,37.59335],[-122.31906,37.59956],[-122.33104,37.60325],[-122.35302,37.61186]]}
}
