{
  "id": 2048378845,
  "type": "Feature",
  "properties": {
    "date:inception_lower": "2026-09-19",
    "date:inception_upper": "2026-09-19",
    "edtf:cessation": "",
    "edtf:inception": "2026-09-19",
    "flysfo:actual_timestamp": -1,
    "flysfo:airline": "UA",
    "flysfo:date": "2026-09-19",
    "flysfo:estimated_timestamp": 1789886700,
    "flysfo:event": "A",
    "flysfo:flight_number": "UA3797",
    "flysfo:gate": "",
    "flysfo:journey": "RDU-SFO",
    "flysfo:scheduled_timestamp": 1789886700,
    "flysfo:timestamp": 1789886700,
    "geom:area": 0,
    "geom:bbox": "-122.370943,35.876323,-78.790399,37.617990",
    "geom:latitude": 36.7471565,
    "geom:longitude": -100.580671,
    "iata:airline": "UA",
    "icao:airline": "UAL",
    "lbl:latitude": 37.61799,
    "lbl:longitude": -122.370943,
    "sfomuseum:airline_id": 1159285413,
    "sfomuseum:arrival_id": 102527513,
    "sfomuseum:departure_id": 102528779,
    "sfomuseum:flight_id": "20260919-A-UAL-3797",
    "sfomuseum:flight_number": [
      "UAL3797",
      "UA3797"
    ],
    "sfomuseum:placetype": "flight",
    "src:geom": "flysfo",
    "wof:belongsto": [],
    "wof:country": "US",
    "wof:created": 1789920490,
    "wof:geomhash": "e1d14091bb010ff3febce3dc78c1c8b4",
    "wof:hierarchy": [
      {
        "custom_id": 2048378845,
        "flight_id": 2048378845
      }
    ],
    "wof:id": 2048378845,
    "wof:involves": [
      102527513,
      102528779,
      1159285413,
      -1
    ],
    "wof:lastmodified": 1789920490,
    "wof:name": "UA3797 (RDU-SFO)",
    "wof:parent_id": -1,
    "wof:placetype": "custom",
    "wof:placetype_alt": [
      "flight"
    ],
    "wof:repo": "sfomuseum-data-flights-2026-09",
    "wof:superseded_by": [],
    "wof:supersedes": []
  },
  "bbox": [
    -122.370943,
    35.876323,
    -78.790399,
    37.61799
  ],
  "geometry": {"type":"MultiPoint","coordinates":[[-78.790399,35.876323],[-122.370943,37.61799]]}
}
