{
  "id": 2048254977,
  "type": "Feature",
  "properties": {
    "geom:area": 0,
    "geom:bbox": "-122.526010,37.626450,-122.240570,38.511360",
    "geom:latitude": 38.04576992771939,
    "geom:longitude": -122.38580786403642,
    "src:alt_label": "swim-takeoff",
    "src:geom": "swim",
    "swim:elevations": [
      334,
      557,
      733,
      964,
      1123,
      1394,
      1700,
      2480,
      2864,
      3048,
      3225,
      3348,
      3520,
      3882,
      4073,
      4481,
      5008,
      5549,
      5837,
      6168,
      6394,
      6907,
      7253,
      7315,
      7315
    ],
    "swim:geom": "takeoff",
    "swim:timestamps": [
      1788548933,
      1788548948,
      1788548966,
      1788548998,
      1788549021,
      1788549053,
      1788549070,
      1788549114,
      1788549140,
      1788549168,
      1788549206,
      1788549224,
      1788549240,
      1788549268,
      1788549285,
      1788549324,
      1788549349,
      1788549379,
      1788549398,
      1788549441,
      1788549457,
      1788549506,
      1788549536,
      1788549564,
      1788549585
    ],
    "wof:geomhash": "a2a67a70a03cb99b6d3a6d81a8b73f3f",
    "wof:id": 2048254977,
    "wof:repo": "sfomuseum-data-flights-2026-09"
  },
  "bbox": [
    -122.52601,
    37.62645,
    -122.24057,
    38.51136
  ],
  "geometry": {"type":"LineString","coordinates":[[-122.39278,37.62645],[-122.40295,37.63087],[-122.41622,37.63669],[-122.44191,37.6476],[-122.46501,37.65735],[-122.50409,37.67545],[-122.51945,37.69094],[-122.52601,37.74711],[-122.52569,37.78217],[-122.51052,37.81779],[-122.48478,37.86674],[-122.47113,37.89279],[-122.45874,37.91635],[-122.43589,37.9603],[-122.42213,37.98712],[-122.38865,38.05149],[-122.36641,38.09365],[-122.33839,38.14707],[-122.32098,38.18086],[-122.28021,38.25952],[-122.26414,38.28973],[-122.24057,38.38274],[-122.26933,38.43415],[-122.30063,38.47863],[-122.32378,38.51136]]}
}
