{
  "id": 2048258905,
  "type": "Feature",
  "properties": {
    "geom:area": 0,
    "geom:bbox": "-123.499250,37.070320,-122.095390,37.613110",
    "geom:latitude": 37.30651126209235,
    "geom:longitude": -122.682780929057,
    "src:alt_label": "swim-approach",
    "src:geom": "swim",
    "swim:elevations": [
      5905,
      5761,
      5378,
      5180,
      5027,
      4758,
      4463,
      4216,
      3987,
      3630,
      3317,
      3050,
      3048,
      3048,
      3017,
      2905,
      2759,
      2589,
      2442,
      2438,
      2438,
      2438,
      2438,
      2200,
      2025,
      1853,
      1829,
      1829,
      1829,
      1733,
      1570,
      1327,
      1219,
      1219,
      1219,
      1065,
      922,
      832,
      675,
      559,
      411,
      379,
      186,
      122,
      9
    ],
    "swim:geom": "approach",
    "swim:timestamps": [
      1788675229,
      1788675245,
      1788675287,
      1788675308,
      1788675325,
      1788675354,
      1788675386,
      1788675412,
      1788675436,
      1788675478,
      1788675508,
      1788675537,
      1788675551,
      1788675594,
      1788675609,
      1788675649,
      1788675667,
      1788675694,
      1788675718,
      1788675724,
      1788675756,
      1788675789,
      1788675831,
      1788675868,
      1788675892,
      1788675919,
      1788675952,
      1788675973,
      1788676009,
      1788676040,
      1788676068,
      1788676098,
      1788676131,
      1788676164,
      1788676173,
      1788676203,
      1788676233,
      1788676288,
      1788676318,
      1788676345,
      1788676376,
      1788676385,
      1788676433,
      1788676451,
      1788676475
    ],
    "wof:geomhash": "9b01387c08c0b0a2eef40d5f44c1b3df",
    "wof:id": 2048258905,
    "wof:repo": "sfomuseum-data-flights-2026-09"
  },
  "bbox": [
    -123.49925,
    37.07032,
    -122.09539,
    37.61311
  ],
  "geometry": {"type":"LineString","coordinates":[[-123.49925,37.07032],[-123.46456,37.08047],[-123.37548,37.10709],[-123.33099,37.12029],[-123.29464,37.13108],[-123.23375,37.14909],[-123.16835,37.16848],[-123.11584,37.18383],[-123.06766,37.19784],[-122.98495,37.22227],[-122.92677,37.23917],[-122.87083,37.25535],[-122.84447,37.26189],[-122.7689,37.27962],[-122.74477,37.28533],[-122.68495,37.29921],[-122.65878,37.30524],[-122.61999,37.31454],[-122.58532,37.31678],[-122.57659,37.31616],[-122.53145,37.31344],[-122.48447,37.3107],[-122.42565,37.31517],[-122.37571,37.32632],[-122.34314,37.33354],[-122.30669,37.3418],[-122.26196,37.35239],[-122.23408,37.35896],[-122.18655,37.37023],[-122.14762,37.3799],[-122.12592,37.39981],[-122.11095,37.42623],[-122.09539,37.45452],[-122.1031,37.48232],[-122.10887,37.48898],[-122.12784,37.51079],[-122.15189,37.52696],[-122.2032,37.5488],[-122.23133,37.56065],[-122.25514,37.57067],[-122.28307,37.58238],[-122.28994,37.58526],[-122.32523,37.60016],[-122.33851,37.60582],[-122.35616,37.61311]]}
}
