{
  "id": 2048240965,
  "type": "Feature",
  "properties": {
    "geom:area": 0,
    "geom:bbox": "-122.468830,36.731740,-121.885100,37.612020",
    "geom:latitude": 37.24138432615674,
    "geom:longitude": -122.17768965213604,
    "src:alt_label": "swim-approach",
    "src:geom": "swim",
    "swim:elevations": [
      5436,
      5234,
      5057,
      4700,
      4435,
      4122,
      3895,
      3839,
      3571,
      3545,
      3211,
      3103,
      3015,
      2874,
      2738,
      2622,
      2564,
      2438,
      2438,
      2438,
      2438,
      2438,
      2342,
      2318,
      2011,
      1848,
      1829,
      1829,
      1829,
      1808,
      1642,
      1550,
      1436,
      1372,
      1219,
      1219,
      1203,
      965,
      914,
      914,
      862,
      777,
      605,
      478,
      357,
      301,
      180,
      54,
      118
    ],
    "swim:geom": "approach",
    "swim:timestamps": [
      1788473816,
      1788473836,
      1788473853,
      1788473888,
      1788473920,
      1788473953,
      1788473987,
      1788473996,
      1788474028,
      1788474031,
      1788474083,
      1788474107,
      1788474124,
      1788474151,
      1788474180,
      1788474202,
      1788474214,
      1788474263,
      1788474298,
      1788474316,
      1788474340,
      1788474367,
      1788474388,
      1788474391,
      1788474430,
      1788474457,
      1788474500,
      1788474529,
      1788474555,
      1788474567,
      1788474588,
      1788474622,
      1788474650,
      1788474662,
      1788474711,
      1788474725,
      1788474765,
      1788474797,
      1788474836,
      1788474857,
      1788474896,
      1788474913,
      1788474958,
      1788474988,
      1788475018,
      1788475030,
      1788475066,
      1788475105,
      1788475120
    ],
    "wof:geomhash": "95388c0e52ca8623bae08d0a4424c64a",
    "wof:id": 2048240965,
    "wof:repo": "sfomuseum-data-flights-2026-09"
  },
  "bbox": [
    -122.46883,
    36.73174,
    -121.8851,
    37.61202
  ],
  "geometry": {"type":"LineString","coordinates":[[-121.8851,36.73174],[-121.9004,36.76393],[-121.90809,36.79145],[-121.92398,36.84818],[-121.93776,36.89768],[-121.95184,36.94782],[-121.97052,36.99705],[-121.97532,37.00961],[-121.99573,37.05212],[-121.99882,37.05545],[-122.05752,37.10857],[-122.08454,37.1325],[-122.1035,37.14923],[-122.14164,37.16601],[-122.18594,37.17682],[-122.21915,37.1847],[-122.23763,37.18912],[-122.31326,37.20709],[-122.36532,37.21948],[-122.39269,37.2261],[-122.43011,37.23515],[-122.46118,37.25579],[-122.46877,37.27974],[-122.46883,37.28331],[-122.43627,37.31749],[-122.39843,37.32326],[-122.34069,37.33125],[-122.30106,37.34127],[-122.26611,37.35056],[-122.25056,37.3563],[-122.22446,37.36706],[-122.18305,37.38411],[-122.15118,37.39728],[-122.13826,37.4026],[-122.10165,37.43607],[-122.09479,37.44783],[-122.08234,37.48331],[-122.1036,37.5036],[-122.13623,37.51839],[-122.15427,37.52584],[-122.18806,37.54011],[-122.20305,37.54647],[-122.23986,37.56192],[-122.26299,37.57148],[-122.28634,37.58116],[-122.29544,37.5852],[-122.32153,37.59619],[-122.35063,37.6084],[-122.36221,37.61202]]}
}
