{
  "id": 2048458139,
  "type": "Feature",
  "properties": {
    "geom:area": 0,
    "geom:bbox": "-122.356860,36.724740,-121.880820,37.611080",
    "geom:latitude": 37.21060104561444,
    "geom:longitude": -122.08561715706095,
    "src:alt_label": "swim-approach",
    "src:geom": "swim",
    "swim:elevations": [
      5890,
      5817,
      5679,
      5577,
      5161,
      4839,
      4571,
      4542,
      4242,
      4191,
      3821,
      3600,
      3416,
      3218,
      2930,
      2845,
      2540,
      2448,
      2212,
      2076,
      1827,
      1676,
      1294,
      1218,
      1219,
      1219,
      1135,
      1023,
      915,
      821,
      812,
      587,
      509,
      394,
      373,
      239,
      194,
      39,
      15
    ],
    "swim:geom": "approach",
    "swim:timestamps": [
      1790590941,
      1790590950,
      1790591002,
      1790591017,
      1790591063,
      1790591097,
      1790591128,
      1790591147,
      1790591188,
      1790591196,
      1790591247,
      1790591276,
      1790591298,
      1790591329,
      1790591367,
      1790591380,
      1790591427,
      1790591440,
      1790591468,
      1790591492,
      1790591531,
      1790591557,
      1790591608,
      1790591624,
      1790591651,
      1790591674,
      1790591724,
      1790591748,
      1790591768,
      1790591789,
      1790591793,
      1790591839,
      1790591855,
      1790591877,
      1790591884,
      1790591919,
      1790591930,
      1790591967,
      1790591971
    ],
    "wof:geomhash": "0579842acd1cb977030077b4001f1208",
    "wof:id": 2048458139,
    "wof:repo": "sfomuseum-data-flights-2026-09"
  },
  "bbox": [
    -122.35686,
    36.72474,
    -121.88082,
    37.61108
  ],
  "geometry": {"type":"LineString","coordinates":[[-121.88082,36.72474],[-121.88799,36.73558],[-121.91143,36.80333],[-121.9161,36.82034],[-121.93156,36.87596],[-121.94362,36.91789],[-121.95455,36.95619],[-121.96304,36.97769],[-121.98019,37.02145],[-121.98354,37.02979],[-122.02662,37.07081],[-122.05717,37.09106],[-122.07863,37.10755],[-122.09806,37.13611],[-122.1204,37.17136],[-122.12809,37.18309],[-122.15588,37.22591],[-122.16213,37.23809],[-122.15566,37.26597],[-122.14189,37.28787],[-122.11979,37.32254],[-122.11251,37.34795],[-122.10771,37.39825],[-122.10974,37.41489],[-122.11955,37.43979],[-122.1283,37.46258],[-122.14609,37.50802],[-122.15837,37.52651],[-122.17703,37.53538],[-122.19651,37.54372],[-122.20042,37.54534],[-122.24595,37.56448],[-122.26235,37.57143],[-122.28149,37.57938],[-122.28722,37.58171],[-122.31577,37.59384],[-122.32455,37.59749],[-122.35385,37.6098],[-122.35686,37.61108]]}
}
