{
  "id": 2048259071,
  "type": "Feature",
  "properties": {
    "geom:area": 0,
    "geom:bbox": "-122.763810,37.522870,-122.054000,38.449780",
    "geom:latitude": 37.84048998858635,
    "geom:longitude": -122.45957542965557,
    "src:alt_label": "swim-approach",
    "src:geom": "swim",
    "swim:elevations": [
      7559,
      7368,
      7315,
      7124,
      6635,
      6286,
      6054,
      5838,
      5557,
      5459,
      5128,
      4868,
      4631,
      4511,
      4328,
      4062,
      3827,
      3721,
      3418,
      3421,
      3229,
      3200,
      3142,
      2619,
      2326,
      2134,
      1946,
      1670,
      1524,
      1524,
      1489,
      1403,
      1253,
      1131,
      1032,
      987,
      795,
      693,
      515,
      429,
      304,
      183,
      91,
      0
    ],
    "swim:geom": "approach",
    "swim:timestamps": [
      1788605508,
      1788605533,
      1788605551,
      1788605586,
      1788605631,
      1788605663,
      1788605691,
      1788605722,
      1788605758,
      1788605769,
      1788605815,
      1788605849,
      1788605877,
      1788605895,
      1788605920,
      1788605961,
      1788605992,
      1788606006,
      1788606057,
      1788606067,
      1788606117,
      1788606125,
      1788606153,
      1788606233,
      1788606263,
      1788606293,
      1788606321,
      1788606355,
      1788606414,
      1788606420,
      1788606474,
      1788606493,
      1788606531,
      1788606562,
      1788606595,
      1788606618,
      1788606655,
      1788606678,
      1788606715,
      1788606744,
      1788606775,
      1788606807,
      1788606821,
      1788606845
    ],
    "wof:geomhash": "400b9d46311e6309305b91fd9943edd0",
    "wof:id": 2048259071,
    "wof:repo": "sfomuseum-data-flights-2026-09"
  },
  "bbox": [
    -122.76381,
    37.52287,
    -122.054,
    38.44978
  ],
  "geometry": {"type":"LineString","coordinates":[[-122.70914,38.44978],[-122.71832,38.41353],[-122.72434,38.38986],[-122.73739,38.33967],[-122.75429,38.27509],[-122.76381,38.22831],[-122.75661,38.18851],[-122.74448,38.14536],[-122.73049,38.0971],[-122.72565,38.08091],[-122.70733,38.01837],[-122.69415,37.97285],[-122.68302,37.93413],[-122.67544,37.91086],[-122.65328,37.88042],[-122.60735,37.83682],[-122.57106,37.80321],[-122.5548,37.78802],[-122.49665,37.73319],[-122.48567,37.72294],[-122.41426,37.69934],[-122.40155,37.69649],[-122.36428,37.68803],[-122.26566,37.66637],[-122.22985,37.65953],[-122.19281,37.65059],[-122.16295,37.64034],[-122.13134,37.62461],[-122.10188,37.58087],[-122.09625,37.57734],[-122.054,37.54281],[-122.05962,37.52813],[-122.09383,37.52287],[-122.12268,37.53393],[-122.15248,37.54597],[-122.17246,37.5539],[-122.20604,37.5653],[-122.22697,37.572],[-122.25976,37.58266],[-122.28339,37.58983],[-122.30809,37.59678],[-122.33225,37.60383],[-122.34267,37.60736],[-122.36019,37.61568]]}
}
