{
  "id": 2048453151,
  "type": "Feature",
  "properties": {
    "date:cessation_lower": "2026-09-28",
    "date:cessation_upper": "2026-09-28",
    "date:inception_lower": "2026-09-27",
    "date:inception_upper": "2026-09-27",
    "edtf:cessation": "2026-09-28T02:30:31Z",
    "edtf:inception": "2026-09-27T22:51:00Z",
    "flysfo:actual_timestamp": -1,
    "flysfo:airline": "UA",
    "flysfo:base_airline": "",
    "flysfo:base_flight_number": "9389",
    "flysfo:date": "2026-09-27",
    "flysfo:estimated_timestamp": 1790546520,
    "flysfo:event": "D",
    "flysfo:flight_number": "UA433",
    "flysfo:gate": "D10",
    "flysfo:journey": "SFO-BNA",
    "flysfo:scheduled_timestamp": 1790544300,
    "flysfo:timestamp": 1790546520,
    "geom:area": 0,
    "geom:bbox": "-122.370943,36.126387,-86.676652,37.617990",
    "geom:latitude": 36.8721885,
    "geom:longitude": -104.5237975,
    "iata:airline": "UA",
    "iata:base_airline": "",
    "icao:airline": "UAL",
    "icao:base_airline": "ANZ",
    "lbl:latitude": 37.617908,
    "lbl:longitude": -122.381084,
    "sfomuseum:airline_id": 1159285413,
    "sfomuseum:arrival_id": 102525035,
    "sfomuseum:base_flight_id": "20260927-D-ANZ-9389",
    "sfomuseum:departure_id": 102527513,
    "sfomuseum:flight_id": "20260927-D-UAL-433",
    "sfomuseum:flight_number": [
      "UAL433",
      "UA433"
    ],
    "sfomuseum:placetype": "flight",
    "src:geom": "flysfo",
    "src:geom_alt": [
      "swim-path"
    ],
    "wof:belongsto": [
      1947304067,
      102527513,
      1947304595,
      102191575,
      85633793,
      102087579,
      85922583,
      554784711,
      85688637,
      1947304603,
      1947304591,
      102085387
    ],
    "wof:concordances": {
      "swim:flight_ref": "158388145"
    },
    "wof:country": "US",
    "wof:created": 1790612278,
    "wof:geomhash": "36f645f844d4838b633d7fed3f06d4a5",
    "wof:hierarchy": [
      {
        "building_id": 1947304067,
        "campus_id": 102527513,
        "concourse_id": 1947304595,
        "continent_id": 102191575,
        "country_id": 85633793,
        "county_id": 102087579,
        "custom_id": 2048453151,
        "flight_id": 2048453151,
        "locality_id": 85922583,
        "postalcode_id": 554784711,
        "region_id": 85688637,
        "venue_id": 1947304603,
        "wing_id": 1947304591
      },
      {
        "building_id": 1947304067,
        "campus_id": 102527513,
        "concourse_id": 1947304595,
        "continent_id": 102191575,
        "country_id": 85633793,
        "county_id": 102085387,
        "custom_id": 2048453151,
        "flight_id": 2048453151,
        "region_id": 85688637,
        "venue_id": 1947304603,
        "wing_id": 1947304591
      }
    ],
    "wof:id": 2048453151,
    "wof:involves": [
      102525035,
      102527513,
      1159285413,
      1947304603,
      1159283697
    ],
    "wof:lastmodified": 1790612468,
    "wof:name": "UA433 (SFO-BNA)",
    "wof:parent_id": 1947304603,
    "wof:placetype": "custom",
    "wof:placetype_alt": [
      "flight"
    ],
    "wof:repo": "sfomuseum-data-flights-2026-09",
    "wof:superseded_by": [],
    "wof:supersedes": []
  },
  "bbox": [
    -122.370943,
    36.126387,
    -86.676652,
    37.61799
  ],
  "geometry": {"type":"MultiPoint","coordinates":[[-122.370943,37.61799],[-86.676652,36.126387]]}
}
