{
  "id": 2048452941,
  "type": "Feature",
  "properties": {
    "geom:area": 0,
    "geom:bbox": "-122.541111,34.197778,-118.358611,37.661667",
    "geom:latitude": 35.83721866960924,
    "geom:longitude": -120.57658240185614,
    "src:alt_label": "swim-path",
    "src:geom": "swim",
    "swim:altitudes": [
      "022",
      "038",
      "039",
      "063",
      "065",
      "089",
      "088",
      "114",
      "140",
      "163",
      "185",
      "199",
      "217",
      "233",
      "248",
      "263",
      "278",
      "293",
      "307",
      "309C",
      "310C",
      "310C",
      "310C",
      "310C",
      "310C",
      "311C",
      "310C",
      "309C",
      "310C",
      "306",
      "297",
      "286",
      "276",
      "261",
      "240",
      "220",
      "198",
      "181",
      "157",
      "139",
      "122",
      "113",
      "110",
      "102",
      "087",
      "072",
      "060",
      "060",
      "051",
      "041",
      "040",
      "031",
      "022",
      "013",
      "007"
    ],
    "swim:geom": "path",
    "swim:speeds": [
      145,
      186,
      185,
      257,
      241,
      295,
      258,
      286,
      343,
      366,
      385,
      402,
      408,
      418,
      433,
      440,
      450,
      450,
      450,
      466,
      457,
      455,
      451,
      450,
      451,
      452,
      452,
      451,
      451,
      452,
      436,
      434,
      423,
      422,
      414,
      397,
      397,
      384,
      382,
      370,
      360,
      342,
      325,
      294,
      286,
      278,
      277,
      236,
      230,
      228,
      217,
      198,
      177,
      142,
      142
    ],
    "swim:timestamps": [
      1790534866,
      1790534927,
      1790534947,
      1790534991,
      1790535007,
      1790535047,
      1790535068,
      1790535128,
      1790535188,
      1790535248,
      1790535308,
      1790535368,
      1790535428,
      1790535488,
      1790535548,
      1790535608,
      1790535669,
      1790535729,
      1790535789,
      1790535849,
      1790535909,
      1790535969,
      1790536033,
      1790536089,
      1790536149,
      1790536209,
      1790536273,
      1790536330,
      1790536390,
      1790536450,
      1790536510,
      1790536570,
      1790536630,
      1790536690,
      1790536750,
      1790536810,
      1790536871,
      1790536931,
      1790536991,
      1790537051,
      1790537111,
      1790537136,
      1790537171,
      1790537231,
      1790537291,
      1790537351,
      1790537412,
      1790537472,
      1790537532,
      1790537587,
      1790537652,
      1790537707,
      1790537767,
      1790537827,
      1790537892
    ],
    "wof:geomhash": "746995ebc2963dd60bb86fd263d00c69",
    "wof:id": 2048452941,
    "wof:repo": "sfomuseum-data-flights-2026-09"
  },
  "bbox": [
    -122.5411111111111,
    34.19777777777777,
    -118.3586111111111,
    37.66166666666666
  ],
  "geometry": {"type":"LineString","coordinates":[[-122.41666666666667,37.63333333333333],[-122.46666666666667,37.65],[-122.47888888888889,37.66166666666666],[-122.53333333333333,37.65],[-122.5411111111111,37.63666666666666],[-122.51666666666667,37.583333333333336],[-122.51361111111112,37.55472222222222],[-122.47083333333333,37.47888888888889],[-122.37666666666667,37.405833333333334],[-122.28388888888888,37.32972222222222],[-122.19083333333333,37.24916666666667],[-122.09222222222222,37.16777777777777],[-121.99277777777777,37.084722222222226],[-121.89166666666668,37],[-121.78861111111111,36.910555555555554],[-121.68083333333334,36.82166666666667],[-121.57333333333332,36.72972222222222],[-121.46694444444445,36.63916666666667],[-121.36027777777777,36.54944444444444],[-121.25138888888888,36.45944444444445],[-121.14722222222223,36.36805555555556],[-121.04444444444444,36.268055555555556],[-120.94416666666667,36.16972222222222],[-120.85,36.077222222222225],[-120.75055555555555,35.97944444444445],[-120.65083333333334,35.88111111111111],[-120.55111111111111,35.782222222222224],[-120.45611111111111,35.687777777777775],[-120.36138888888888,35.593611111111116],[-120.26055555555556,35.496944444444445],[-120.165,35.405],[-120.06,35.303888888888885],[-119.96638888888889,35.21361111111111],[-119.87444444444444,35.12416666666667],[-119.78388888888888,35.03638888888889],[-119.69666666666667,34.95166666666667],[-119.5911111111111,34.88444444444444],[-119.48583333333333,34.81944444444445],[-119.38388888888889,34.756388888888885],[-119.28388888888888,34.69444444444444],[-119.1863888888889,34.63361111111111],[-119.13333333333334,34.6],[-119.0886111111111,34.573055555555555],[-119.02111111111111,34.51305555555555],[-118.96694444444445,34.447222222222216],[-118.915,34.38361111111111],[-118.8411111111111,34.336666666666666],[-118.77555555555556,34.29833333333333],[-118.71194444444444,34.260555555555555],[-118.65,34.233333333333334],[-118.58333333333333,34.20111111111111],[-118.51666666666667,34.2],[-118.45,34.2],[-118.4,34.2],[-118.3586111111111,34.19777777777777]]}
}
