{
  "id": 2048235665,
  "type": "Feature",
  "properties": {
    "geom:area": 0,
    "geom:bbox": "-122.390530,37.625250,-121.249300,37.964810",
    "geom:latitude": 37.8341908500377,
    "geom:longitude": -121.8408557440346,
    "src:alt_label": "swim-takeoff",
    "src:geom": "swim",
    "swim:elevations": [
      183,
      675,
      778,
      898,
      1394,
      1996,
      2279,
      2728,
      2955,
      3260,
      3260,
      3561,
      3761,
      3993,
      4428,
      4752,
      4861,
      5302,
      5342,
      5689,
      5949
    ],
    "swim:geom": "takeoff",
    "swim:timestamps": [
      1788346907,
      1788346975,
      1788346994,
      1788347011,
      1788347051,
      1788347091,
      1788347113,
      1788347155,
      1788347173,
      1788347216,
      1788347221,
      1788347274,
      1788347293,
      1788347318,
      1788347359,
      1788347391,
      1788347405,
      1788347456,
      1788347460,
      1788347515,
      1788347549
    ],
    "wof:geomhash": "b7fe264bfb77a74324f66a51b6d8e227",
    "wof:id": 2048235665,
    "wof:repo": "sfomuseum-data-flights-2026-09"
  },
  "bbox": [
    -122.39053,
    37.62525,
    -121.2493,
    37.96481
  ],
  "geometry": {"type":"LineString","coordinates":[[-122.39053,37.62525],[-122.37537,37.66749],[-122.35048,37.67508],[-122.3263,37.68135],[-122.26664,37.69898],[-122.20699,37.72079],[-122.17643,37.73646],[-122.11473,37.76874],[-122.08884,37.78255],[-122.02266,37.81711],[-122.01426,37.82139],[-121.90458,37.8445],[-121.8622,37.85238],[-121.80739,37.86272],[-121.71268,37.88052],[-121.63944,37.89412],[-121.60552,37.90032],[-121.48107,37.92294],[-121.47128,37.92468],[-121.33432,37.94953],[-121.2493,37.96481]]}
}
