{
  "id": 2048433889,
  "type": "Feature",
  "properties": {
    "geom:area": 0,
    "geom:bbox": "-122.400340,37.625140,-122.238060,37.969860",
    "geom:latitude": 37.82527736357847,
    "geom:longitude": -122.35135711857829,
    "src:alt_label": "swim-takeoff",
    "src:geom": "swim",
    "swim:elevations": [
      183,
      738,
      1029,
      1432,
      1497,
      1852,
      2596,
      3079,
      3233,
      3469
    ],
    "swim:geom": "takeoff",
    "swim:timestamps": [
      1790380989,
      1790381031,
      1790381054,
      1790381117,
      1790381132,
      1790381172,
      1790381232,
      1790381276,
      1790381306,
      1790381355
    ],
    "wof:geomhash": "3b681b802291f94817fc54734d5b280a",
    "wof:id": 2048433889,
    "wof:repo": "sfomuseum-data-flights-2026-09"
  },
  "bbox": [
    -122.40034,
    37.62514,
    -122.23806,
    37.96986
  ],
  "geometry": {"type":"LineString","coordinates":[[-122.39028,37.62514],[-122.40034,37.6523],[-122.38614,37.66845],[-122.34273,37.71835],[-122.33655,37.73518],[-122.357,37.78364],[-122.38628,37.86121],[-122.37755,37.92213],[-122.33591,37.95052],[-122.23806,37.96986]]}
}
