{
  "id": 2048436443,
  "type": "Feature",
  "properties": {
    "geom:area": 0,
    "geom:bbox": "-122.359980,37.468530,-121.771240,37.615560",
    "geom:latitude": 37.527723131267024,
    "geom:longitude": -122.06786920822488,
    "src:alt_label": "swim-approach",
    "src:geom": "swim",
    "swim:elevations": [
      2506,
      2286,
      2182,
      2159,
      2060,
      2047,
      1933,
      1819,
      1753,
      1715,
      1532,
      1322,
      1284,
      1204,
      1160,
      1095,
      925,
      853,
      707,
      623,
      457,
      427,
      374,
      278,
      118,
      0
    ],
    "swim:geom": "approach",
    "swim:timestamps": [
      1790443838,
      1790443886,
      1790443911,
      1790443917,
      1790443950,
      1790443953,
      1790443993,
      1790444026,
      1790444035,
      1790444041,
      1790444074,
      1790444127,
      1790444131,
      1790444146,
      1790444158,
      1790444173,
      1790444217,
      1790444236,
      1790444269,
      1790444287,
      1790444331,
      1790444342,
      1790444357,
      1790444381,
      1790444420,
      1790444454
    ],
    "wof:geomhash": "a420761d858f136fe0b6032f4a78a1d4",
    "wof:id": 2048436443,
    "wof:repo": "sfomuseum-data-flights-2026-09"
  },
  "bbox": [
    -122.35998,
    37.46853,
    -121.77124,
    37.61556
  ],
  "geometry": {"type":"LineString","coordinates":[[-121.77124,37.4828],[-121.82749,37.46853],[-121.86147,37.47422],[-121.86909,37.47545],[-121.90769,37.48132],[-121.91211,37.48194],[-121.95791,37.48916],[-121.9947,37.49674],[-122.00434,37.49983],[-122.01065,37.50186],[-122.04735,37.51385],[-122.10059,37.53121],[-122.10395,37.53223],[-122.11778,37.53661],[-122.12834,37.54007],[-122.14132,37.54435],[-122.17836,37.55663],[-122.1943,37.56152],[-122.22133,37.57021],[-122.23573,37.57498],[-122.26993,37.58556],[-122.27822,37.58796],[-122.29035,37.59154],[-122.30884,37.59705],[-122.33969,37.60625],[-122.35998,37.61556]]}
}
