{
  "id": 2048427997,
  "type": "Feature",
  "properties": {
    "geom:area": 0,
    "geom:bbox": "-121.556000,37.558790,-121.256470,37.593850",
    "geom:latitude": 37.57616232883562,
    "geom:longitude": -121.40621513222635,
    "src:alt_label": "swim-approach",
    "src:geom": "swim",
    "swim:elevations": [
      5114,
      4736,
      4365,
      4021,
      3714,
      3536,
      3295
    ],
    "swim:geom": "approach",
    "swim:timestamps": [
      1790350685,
      1790350721,
      1790350758,
      1790350796,
      1790350826,
      1790350843,
      1790350866
    ],
    "wof:geomhash": "3d2118c9144a58804b077e07d38f0c0c",
    "wof:id": 2048427997,
    "wof:repo": "sfomuseum-data-flights-2026-09"
  },
  "bbox": [
    -121.556,
    37.55879,
    -121.25647,
    37.59385
  ],
  "geometry": {"type":"LineString","coordinates":[[-121.25647,37.59385],[-121.31906,37.58591],[-121.38157,37.57903],[-121.44477,37.57188],[-121.49277,37.56616],[-121.51972,37.563],[-121.556,37.55879]]}
}
