{
  "id": 2048266961,
  "type": "Feature",
  "properties": {
    "geom:area": 0,
    "geom:bbox": "-122.339970,37.429080,-121.246870,38.486220",
    "geom:latitude": 37.95505221606249,
    "geom:longitude": -121.84120970042387,
    "src:alt_label": "swim-approach",
    "src:geom": "swim",
    "swim:elevations": [
      2437,
      2306,
      2209,
      2031,
      1879,
      1829,
      1749,
      1493,
      1428,
      1171,
      1098,
      899,
      816,
      654,
      528,
      396,
      273,
      184,
      118,
      3369,
      3471,
      3594,
      3775,
      4076,
      4297,
      4516,
      4572
    ],
    "swim:geom": "approach",
    "swim:timestamps": [
      1788678021,
      1788678052,
      1788678069,
      1788678117,
      1788678145,
      1788678173,
      1788678197,
      1788678224,
      1788678250,
      1788678290,
      1788678308,
      1788678347,
      1788678366,
      1788678407,
      1788678438,
      1788678470,
      1788678501,
      1788678532,
      1788678541,
      1788763978,
      1788764002,
      1788764031,
      1788764062,
      1788764091,
      1788764113,
      1788764134,
      1788764169
    ],
    "wof:geomhash": "ead6db85021fad1bc836adc5596a1373",
    "wof:id": 2048266961,
    "wof:repo": "sfomuseum-data-flights-2026-09"
  },
  "bbox": [
    -122.33997,
    37.42908,
    -121.24687,
    38.48622
  ],
  "geometry": {"type":"LineString","coordinates":[[-121.8198,37.42908],[-121.86198,37.42967],[-121.88452,37.4306],[-121.94582,37.44024],[-121.97918,37.45341],[-122.01159,37.46774],[-122.03954,37.47966],[-122.07076,37.49282],[-122.09771,37.5042],[-122.13738,37.52092],[-122.15473,37.5284],[-122.19082,37.54359],[-122.20668,37.5502],[-122.23875,37.56375],[-122.26164,37.57334],[-122.28643,37.58383],[-122.30939,37.59359],[-122.33289,37.60337],[-122.33997,37.60637],[-121.42037,38.48622],[-121.4019,38.4524],[-121.37757,38.40785],[-121.3495,38.35657],[-121.32178,38.30591],[-121.30095,38.26783],[-121.28066,38.23053],[-121.24687,38.16816]]}
}
