{
  "id": 2048291303,
  "type": "Feature",
  "properties": {
    "date:inception_lower": "2026-09-09",
    "date:inception_upper": "2026-09-09",
    "edtf:cessation": "",
    "edtf:inception": "2026-09-09",
    "flysfo:actual_timestamp": -1,
    "flysfo:airline": "LH",
    "flysfo:base_airline": "",
    "flysfo:base_flight_number": "3530",
    "flysfo:date": "2026-09-09",
    "flysfo:estimated_timestamp": 1789009440,
    "flysfo:event": "A",
    "flysfo:flight_number": "LH9394",
    "flysfo:gate": "D12",
    "flysfo:journey": "KOA-SFO",
    "flysfo:scheduled_timestamp": 1789009920,
    "flysfo:timestamp": 1789009920,
    "geom:area": 0,
    "geom:bbox": "-156.035060,19.732444,-122.370943,37.617990",
    "geom:latitude": 28.675217,
    "geom:longitude": -139.2030015,
    "iata:airline": "LH",
    "iata:base_airline": "",
    "icao:airline": "DLH",
    "icao:base_airline": "ACA",
    "lbl:latitude": 37.618249,
    "lbl:longitude": -122.381477,
    "sfomuseum:airline_id": 1159286015,
    "sfomuseum:arrival_id": 102527513,
    "sfomuseum:base_flight_id": "20260909-A-ACA-3530",
    "sfomuseum:departure_id": 102532939,
    "sfomuseum:flight_id": "20260909-A-DLH-9394",
    "sfomuseum:flight_number": [
      "DLH9394",
      "LH9394"
    ],
    "sfomuseum:placetype": "flight",
    "src:geom": "flysfo",
    "wof:belongsto": [
      1947304067,
      102527513,
      1947304595,
      102191575,
      85633793,
      102087579,
      85922583,
      554784711,
      85688637,
      1947304631,
      1947304591,
      102085387
    ],
    "wof:country": "US",
    "wof:created": 1789056342,
    "wof:geomhash": "d5ad4a83d3d679d1b3fe86e419b08d84",
    "wof:hierarchy": [
      {
        "building_id": 1947304067,
        "campus_id": 102527513,
        "concourse_id": 1947304595,
        "continent_id": 102191575,
        "country_id": 85633793,
        "county_id": 102087579,
        "custom_id": 2048291303,
        "flight_id": 2048291303,
        "locality_id": 85922583,
        "postalcode_id": 554784711,
        "region_id": 85688637,
        "venue_id": 1947304631,
        "wing_id": 1947304591
      },
      {
        "building_id": 1947304067,
        "campus_id": 102527513,
        "concourse_id": 1947304595,
        "continent_id": 102191575,
        "country_id": 85633793,
        "county_id": 102085387,
        "custom_id": 2048291303,
        "flight_id": 2048291303,
        "region_id": 85688637,
        "venue_id": 1947304631,
        "wing_id": 1947304591
      }
    ],
    "wof:id": 2048291303,
    "wof:involves": [
      102527513,
      102532939,
      1159286015,
      1947304631,
      1159283597
    ],
    "wof:lastmodified": 1789056342,
    "wof:name": "LH9394 (KOA-SFO)",
    "wof:parent_id": 1947304631,
    "wof:placetype": "custom",
    "wof:placetype_alt": [
      "flight"
    ],
    "wof:repo": "sfomuseum-data-flights-2026-09",
    "wof:superseded_by": [],
    "wof:supersedes": []
  },
  "bbox": [
    -156.03506,
    19.732444,
    -122.370943,
    37.61799
  ],
  "geometry": {"type":"MultiPoint","coordinates":[[-156.03506,19.732444],[-122.370943,37.61799]]}
}
