{
  "id": 2048457977,
  "type": "Feature",
  "properties": {
    "geom:area": 0,
    "geom:bbox": "-123.830833,37.372778,-122.131944,45.670000",
    "geom:latitude": 41.27394256247628,
    "geom:longitude": -123.05076814654224,
    "src:alt_label": "swim-path",
    "src:geom": "swim",
    "swim:altitudes": [
      "006",
      "020",
      "037",
      "046",
      "071",
      "081",
      "115",
      "131",
      "152",
      "173",
      "195",
      "213",
      "230",
      "244",
      "257",
      "271",
      "283",
      "296",
      "308",
      "319",
      "330C",
      "330C",
      "330C",
      "330C",
      "331C",
      "330C",
      "330C",
      "330C",
      "330C",
      "330C",
      "330C",
      "330C",
      "330C",
      "330C",
      "330C",
      "330C",
      "330C",
      "330C",
      "331C",
      "330C",
      "330C",
      "330C",
      "330C",
      "330C",
      "330C",
      "330C",
      "331C",
      "331C",
      "331C",
      "330C",
      "330C",
      "330C",
      "330C",
      "330C",
      "331",
      "331",
      "330",
      "330",
      "321",
      "310",
      "290",
      "269",
      "249",
      "230",
      "212",
      "193",
      "183",
      "171",
      "157",
      "153",
      "140",
      "137",
      "123",
      "119",
      "113",
      "110C",
      "110",
      "110C",
      "109C",
      "094",
      "079",
      "068",
      "060",
      "057",
      "046",
      "040",
      "040",
      "036",
      "034",
      "029",
      "027",
      "026",
      "023",
      "015",
      "009",
      "008",
      "002",
      "001"
    ],
    "swim:geom": "path",
    "swim:speeds": [
      158,
      179,
      226,
      243,
      272,
      271,
      291,
      349,
      383,
      400,
      415,
      426,
      442,
      457,
      473,
      483,
      501,
      507,
      514,
      518,
      523,
      523,
      523,
      524,
      525,
      525,
      525,
      524,
      525,
      525,
      526,
      530,
      524,
      525,
      524,
      523,
      522,
      522,
      521,
      516,
      512,
      511,
      510,
      493,
      473,
      473,
      478,
      492,
      492,
      504,
      506,
      506,
      507,
      509,
      510,
      511,
      512,
      513,
      514,
      517,
      513,
      495,
      475,
      457,
      439,
      428,
      425,
      424,
      411,
      413,
      391,
      393,
      365,
      365,
      338,
      331,
      296,
      292,
      269,
      266,
      262,
      258,
      245,
      241,
      227,
      216,
      219,
      189,
      188,
      172,
      176,
      179,
      178,
      163,
      131,
      135,
      134,
      135
    ],
    "swim:timestamps": [
      1790617649,
      1790617695,
      1790617733,
      1790617755,
      1790617799,
      1790617815,
      1790617875,
      1790617935,
      1790617996,
      1790618056,
      1790618116,
      1790618176,
      1790618236,
      1790618296,
      1790618356,
      1790618416,
      1790618476,
      1790618536,
      1790618596,
      1790618656,
      1790618716,
      1790618777,
      1790618837,
      1790618897,
      1790618957,
      1790619017,
      1790619077,
      1790619137,
      1790619192,
      1790619252,
      1790619312,
      1790619372,
      1790619437,
      1790619492,
      1790619552,
      1790619558,
      1790619618,
      1790619673,
      1790619733,
      1790619793,
      1790619858,
      1790619913,
      1790619973,
      1790620038,
      1790620093,
      1790620153,
      1790620218,
      1790620279,
      1790620334,
      1790620399,
      1790620454,
      1790620514,
      1790620579,
      1790620634,
      1790620699,
      1790620706,
      1790620766,
      1790620826,
      1790620886,
      1790620946,
      1790621006,
      1790621067,
      1790621127,
      1790621187,
      1790621247,
      1790621307,
      1790621325,
      1790621367,
      1790621409,
      1790621427,
      1790621469,
      1790621487,
      1790621530,
      1790621547,
      1790621589,
      1790621607,
      1790621649,
      1790621667,
      1790621728,
      1790621788,
      1790621848,
      1790621908,
      1790621950,
      1790621968,
      1790622028,
      1790622070,
      1790622088,
      1790622130,
      1790622148,
      1790622190,
      1790622208,
      1790622251,
      1790622268,
      1790622328,
      1790622371,
      1790622388,
      1790622431,
      1790622449
    ],
    "wof:geomhash": "4676457ed138ad89808794db21711ab9",
    "wof:id": 2048457977,
    "wof:repo": "sfomuseum-data-flights-2026-09"
  },
  "bbox": [
    -123.83083333333333,
    37.37277777777778,
    -122.13194444444444,
    45.669999999999995
  ],
  "geometry": {"type":"LineString","coordinates":[[-122.6,45.59666666666667],[-122.64194444444445,45.61222222222222],[-122.69861111111112,45.62722222222222],[-122.72722222222222,45.638888888888886],[-122.79777777777778,45.66444444444444],[-122.82333333333332,45.669999999999995],[-122.89444444444445,45.62027777777778],[-122.9075,45.52861111111111],[-122.92694444444444,45.42388888888889],[-122.94972222222222,45.31583333333333],[-122.97194444444445,45.20138888888889],[-122.99916666666667,45.08833333333334],[-123.02833333333334,44.96638888888889],[-123.05805555555555,44.839444444444446],[-123.08805555555556,44.71055555555556],[-123.11888888888888,44.57638888888889],[-123.13416666666667,44.436388888888885],[-123.12888888888888,44.296388888888885],[-123.12388888888889,44.15222222222222],[-123.11944444444444,44.026944444444446],[-123.11416666666666,43.87972222222222],[-123.10916666666667,43.733333333333334],[-123.10388888888889,43.58722222222222],[-123.09888888888888,43.44138888888889],[-123.0936111111111,43.29388888888889],[-123.0886111111111,43.14888888888889],[-123.08388888888888,43.00388888888889],[-123.0786111111111,42.85583333333334],[-123.07388888888889,42.724444444444444],[-123.06777777777778,42.57916666666667],[-123.06333333333333,42.433055555555555],[-123.05972222222222,42.28611111111111],[-123.05388888888889,42.112500000000004],[-123.05027777777778,41.99638888888889],[-123.04583333333333,41.853611111111114],[-123.04472222222222,41.82472222222223],[-123.03999999999999,41.67972222222222],[-123.0363888888889,41.564166666666665],[-123.03222222222222,41.420833333333334],[-123.02722222222222,41.263333333333335],[-123.02277777777778,41.11694444444444],[-123.01861111111111,40.97416666666667],[-123.01944444444445,40.831944444444446],[-123.0925,40.71555555555556],[-123.23083333333334,40.64],[-123.38555555555556,40.564166666666665],[-123.53111111111112,40.49],[-123.64888888888889,40.38472222222222],[-123.76277777777777,40.27611111111111],[-123.83083333333333,40.14833333333333],[-123.78944444444444,40.0125],[-123.71333333333334,39.882777777777775],[-123.63972222222223,39.755833333333335],[-123.56361111111111,39.625],[-123.48861111111111,39.495555555555555],[-123.48805555555556,39.49444444444445],[-123.40555555555557,39.35138888888889],[-123.33083333333333,39.22138888888889],[-123.25527777777778,39.08916666666667],[-123.18027777777779,38.9575],[-123.10583333333332,38.82666666666667],[-123.03361111111111,38.698611111111106],[-122.96472222222222,38.5775],[-122.89916666666667,38.46055555555556],[-122.83694444444444,38.34861111111111],[-122.77666666666667,38.24027777777778],[-122.75,38.2],[-122.73916666666666,38.12694444444445],[-122.71666666666667,38.03333333333333],[-122.70666666666666,38.015277777777776],[-122.68333333333334,37.93333333333333],[-122.67611111111111,37.91138888888889],[-122.61666666666666,37.833333333333336],[-122.58694444444444,37.818333333333335],[-122.53333333333333,37.766666666666666],[-122.51,37.74527777777778],[-122.46666666666667,37.7],[-122.44111111111111,37.68055555555555],[-122.37972222222221,37.62277777777778],[-122.33777777777777,37.558055555555555],[-122.29805555555555,37.4925],[-122.30944444444444,37.42222222222222],[-122.3,37.38333333333333],[-122.2713888888889,37.37277777777778],[-122.19666666666667,37.39],[-122.15,37.416666666666664],[-122.14916666666667,37.434999999999995],[-122.13333333333334,37.46666666666667],[-122.13194444444444,37.48555555555556],[-122.16666666666667,37.516666666666666],[-122.17055555555557,37.52388888888889],[-122.2,37.55],[-122.2213888888889,37.55361111111111],[-122.275,37.57638888888889],[-122.3,37.583333333333336],[-122.31583333333333,37.59388888888889],[-122.35,37.6],[-122.35722222222222,37.611111111111114]]}
}
