{
  "id": 2048267971,
  "type": "Feature",
  "properties": {
    "geom:area": 0,
    "geom:bbox": "-122.406710,37.634470,-121.254090,37.991460",
    "geom:latitude": 37.937654847445344,
    "geom:longitude": -121.9420880636016,
    "src:alt_label": "swim-takeoff",
    "src:geom": "swim",
    "swim:elevations": [
      335,
      492,
      674,
      980,
      1651,
      1983,
      2441,
      2716,
      3076,
      3308,
      3364,
      3559,
      3731,
      3972,
      4207,
      4447,
      4782,
      4908,
      5011,
      5200,
      5393,
      5445,
      5879,
      5903,
      6170,
      6191
    ],
    "swim:geom": "takeoff",
    "swim:timestamps": [
      1788738743,
      1788738764,
      1788738797,
      1788738818,
      1788738862,
      1788738888,
      1788738924,
      1788738945,
      1788738970,
      1788739009,
      1788739021,
      1788739058,
      1788739099,
      1788739132,
      1788739161,
      1788739186,
      1788739225,
      1788739246,
      1788739270,
      1788739292,
      1788739315,
      1788739321,
      1788739375,
      1788739384,
      1788739434,
      1788739440
    ],
    "wof:geomhash": "d495fabf424a53a90c0e83e2f63226b8",
    "wof:id": 2048267971,
    "wof:repo": "sfomuseum-data-flights-2026-09"
  },
  "bbox": [
    -122.40671,
    37.63447,
    -121.25409,
    37.99146
  ],
  "geometry": {"type":"LineString","coordinates":[[-122.4038,37.63447],[-122.40671,37.65299],[-122.37984,37.68271],[-122.35778,37.70262],[-122.342,37.75305],[-122.35701,37.78408],[-122.37849,37.82743],[-122.3862,37.85488],[-122.38485,37.88877],[-122.35912,37.93956],[-122.33808,37.9495],[-122.26071,37.96529],[-122.16597,37.98452],[-122.08163,37.98852],[-122.00884,37.98903],[-121.9449,37.98951],[-121.84345,37.99007],[-121.78774,37.99036],[-121.72298,37.99063],[-121.66133,37.99084],[-121.59947,37.99103],[-121.58209,37.99109],[-121.43624,37.99143],[-121.41155,37.99143],[-121.271,37.99146],[-121.25409,37.99143]]}
}
