{
  "id": 2048466911,
  "type": "Feature",
  "properties": {
    "geom:area": 0,
    "geom:bbox": "-122.353780,37.491630,-121.243670,37.612110",
    "geom:latitude": 37.546673794217774,
    "geom:longitude": -121.80351458081398,
    "src:alt_label": "swim-approach",
    "src:geom": "swim",
    "swim:elevations": [
      4615,
      4350,
      4083,
      3762,
      3476,
      3271,
      3230,
      3175,
      3158,
      2857,
      2682,
      2557,
      2373,
      2137,
      2040,
      1921,
      1748,
      1651,
      1481,
      1404,
      1311,
      1173,
      913,
      827,
      673,
      553,
      514,
      392,
      204,
      93,
      51
    ],
    "swim:geom": "approach",
    "swim:timestamps": [
      1790719977,
      1790720005,
      1790720033,
      1790720067,
      1790720098,
      1790720128,
      1790720137,
      1790720158,
      1790720164,
      1790720207,
      1790720231,
      1790720266,
      1790720296,
      1790720330,
      1790720360,
      1790720384,
      1790720423,
      1790720441,
      1790720465,
      1790720480,
      1790720498,
      1790720525,
      1790720577,
      1790720604,
      1790720625,
      1790720649,
      1790720673,
      1790720701,
      1790720753,
      1790720780,
      1790720790
    ],
    "wof:geomhash": "c1a346efcb8b616e8f00d33b35a5f8ba",
    "wof:id": 2048466911,
    "wof:repo": "sfomuseum-data-flights-2026-09"
  },
  "bbox": [
    -122.35378,
    37.49163,
    -121.24367,
    37.61211
  ],
  "geometry": {"type":"LineString","coordinates":[[-121.24367,37.59518],[-121.30125,37.58765],[-121.3579,37.58168],[-121.42554,37.57388],[-121.48528,37.56701],[-121.5432,37.56026],[-121.5601,37.55825],[-121.59823,37.55372],[-121.60883,37.55247],[-121.68144,37.53684],[-121.72215,37.52727],[-121.77825,37.51392],[-121.82434,37.50288],[-121.8768,37.49163],[-121.92051,37.49234],[-121.95446,37.49306],[-122.0045,37.50025],[-122.0241,37.50622],[-122.04937,37.51488],[-122.06499,37.52006],[-122.08376,37.52611],[-122.11181,37.53508],[-122.16449,37.55181],[-122.19131,37.56065],[-122.21261,37.56755],[-122.23586,37.575],[-122.25896,37.5824],[-122.28241,37.5892],[-122.32463,37.60162],[-122.34631,37.60892],[-122.35378,37.61211]]}
}
