{
  "id": 2048379005,
  "type": "Feature",
  "properties": {
    "geom:area": 0,
    "geom:bbox": "-122.758370,37.532280,-122.112980,38.466390",
    "geom:latitude": 37.89623099648813,
    "geom:longitude": -122.48615714828054,
    "src:alt_label": "swim-approach",
    "src:geom": "swim",
    "swim:elevations": [
      7864,
      7597,
      7299,
      7048,
      6931,
      6500,
      6266,
      6062,
      5630,
      5451,
      5296,
      4689,
      4476,
      4090,
      3681,
      3617,
      3436,
      3352,
      3353,
      3293,
      3018,
      2759,
      2640,
      2369,
      1997,
      1910,
      1797,
      1734,
      1421,
      1035,
      781,
      702,
      550,
      483,
      325,
      212,
      96,
      91
    ],
    "swim:geom": "approach",
    "swim:timestamps": [
      1789845481,
      1789845533,
      1789845568,
      1789845592,
      1789845601,
      1789845640,
      1789845658,
      1789845679,
      1789845717,
      1789845737,
      1789845754,
      1789845807,
      1789845826,
      1789845860,
      1789845896,
      1789845904,
      1789845938,
      1789845973,
      1789846016,
      1789846048,
      1789846078,
      1789846106,
      1789846118,
      1789846150,
      1789846189,
      1789846202,
      1789846251,
      1789846261,
      1789846297,
      1789846340,
      1789846371,
      1789846384,
      1789846429,
      1789846459,
      1789846492,
      1789846523,
      1789846555,
      1789846563
    ],
    "wof:geomhash": "7d690e46197d3fdbfc1a89bfb540a0bf",
    "wof:id": 2048379005,
    "wof:repo": "sfomuseum-data-flights-2026-09"
  },
  "bbox": [
    -122.75837,
    37.53228,
    -122.11298,
    38.46639
  ],
  "geometry": {"type":"LineString","coordinates":[[-122.51939,38.46639],[-122.59749,38.39002],[-122.65201,38.33727],[-122.68757,38.3026],[-122.70106,38.28944],[-122.7519,38.23133],[-122.75837,38.19877],[-122.74937,38.16249],[-122.72964,38.09533],[-122.71951,38.06039],[-122.71124,38.03177],[-122.68616,37.94465],[-122.67695,37.91386],[-122.6379,37.86627],[-122.59034,37.82163],[-122.58065,37.81247],[-122.53818,37.7723],[-122.49752,37.7337],[-122.44217,37.70653],[-122.39822,37.69419],[-122.35818,37.68262],[-122.32111,37.67186],[-122.30395,37.66692],[-122.26224,37.65519],[-122.21079,37.64087],[-122.1934,37.63571],[-122.13077,37.61386],[-122.12243,37.60521],[-122.11298,37.56595],[-122.14476,37.53228],[-122.18088,37.54172],[-122.19451,37.54941],[-122.23997,37.57374],[-122.26899,37.5854],[-122.29649,37.59337],[-122.31894,37.59992],[-122.34071,37.60668],[-122.34586,37.60879]]}
}
