{
  "id": 2048480517,
  "type": "Feature",
  "properties": {
    "geom:area": 0,
    "geom:bbox": "-122.366667,36.936944,-77.433333,42.961944",
    "geom:latitude": 40.037589716165705,
    "geom:longitude": -96.66518190119454,
    "src:alt_label": "swim-path",
    "src:geom": "swim",
    "swim:altitudes": [
      "007",
      "017",
      "027",
      "035",
      "041",
      "048",
      "062",
      "073",
      "084",
      "094",
      "105",
      "109",
      "127",
      "148",
      "168",
      "187",
      "205",
      "221",
      "236",
      "248",
      "259",
      "269",
      "279",
      "289",
      "294",
      "306",
      "307",
      "316",
      "319",
      "327",
      "330C",
      "330C",
      "330C",
      "330C",
      "330",
      "330",
      "338",
      "344",
      "345",
      "350C",
      "350C",
      "350C",
      "350C",
      "350C",
      "350C",
      "350C",
      "350C",
      "350C",
      "350C",
      "350C",
      "350C",
      "350C",
      "350C",
      "350C",
      "350C",
      "350C",
      "350C",
      "350C",
      "350C",
      "350C",
      "350C",
      "350C",
      "350C",
      "350C",
      "350C",
      "350C",
      "350C",
      "350C",
      "350C",
      "350C",
      "350C",
      "350C",
      "350C",
      "350C",
      "350C",
      "350C",
      "350C",
      "350C",
      "350C",
      "350C",
      "350C",
      "350C",
      "350C",
      "350C",
      "350C",
      "350C",
      "350C",
      "350C",
      "350C",
      "350C",
      "350C",
      "350C",
      "350C",
      "350C",
      "350C",
      "350C",
      "350C",
      "350C",
      "350C",
      "350C",
      "350C",
      "350C",
      "350C",
      "350C",
      "350C",
      "350C",
      "350C",
      "350C",
      "350C",
      "350C",
      "350C",
      "350C",
      "350C",
      "350C",
      "350C",
      "350C",
      "350C",
      "350C",
      "350C",
      "350C",
      "350C",
      "350C",
      "350C",
      "350C",
      "350C",
      "350C",
      "350C",
      "350C",
      "350C",
      "350C",
      "350C",
      "350C",
      "350C",
      "350C",
      "350C",
      "350C",
      "350C",
      "350C",
      "350C",
      "350C",
      "350C",
      "350C",
      "350C",
      "350C",
      "350C",
      "350C",
      "350C",
      "350C",
      "350C",
      "350C",
      "350C",
      "350C",
      "350C",
      "350C",
      "350C",
      "350C",
      "350C",
      "350C",
      "350C",
      "350C",
      "350C",
      "350C",
      "350C",
      "350C",
      "350C",
      "350C",
      "350C",
      "350C",
      "350C",
      "350C",
      "350C",
      "350C",
      "350C",
      "350C",
      "350C",
      "350C",
      "350C",
      "350C",
      "350C",
      "350C",
      "350C",
      "350C",
      "350C",
      "350C",
      "349",
      "344",
      "339",
      "335",
      "329",
      "325",
      "320",
      "316",
      "310C",
      "310C",
      "310C",
      "310C",
      "310C",
      "310C",
      "310C",
      "310C",
      "310C",
      "310C",
      "310C",
      "310C",
      "310C",
      "310C",
      "310C",
      "310C",
      "310C",
      "310C",
      "310C",
      "310C",
      "310C",
      "310C",
      "310C",
      "310C",
      "310C",
      "310C",
      "310C",
      "310C",
      "310C",
      "310C",
      "310C",
      "310C",
      "310C",
      "310C",
      "310C",
      "310C",
      "310C",
      "310C",
      "310C",
      "310C",
      "310C",
      "310C",
      "310C",
      "310C",
      "310C",
      "310C",
      "310C",
      "310C",
      "310C",
      "310C",
      "310C",
      "310C",
      "310C",
      "310C",
      "310C",
      "310C",
      "310C",
      "310C",
      "310C",
      "310C",
      "310C",
      "310C",
      "310C",
      "310C",
      "310C",
      "310C",
      "310C",
      "310C",
      "310C",
      "310C",
      "310C",
      "310C",
      "310C",
      "310C",
      "310C",
      "310C",
      "310C",
      "310C",
      "310C",
      "310C",
      "310C",
      "310C",
      "310C",
      "310C",
      "310C",
      "310C",
      "310C",
      "310C",
      "310",
      "309",
      "301",
      "299",
      "291",
      "290",
      "296",
      "307",
      "309C",
      "310C",
      "310C",
      "310C",
      "310C",
      "310C",
      "310C",
      "310C",
      "310C",
      "310C",
      "310C",
      "310C",
      "310C",
      "310C",
      "310C",
      "310C",
      "310C",
      "310C",
      "310C",
      "310C",
      "310",
      "303",
      "294",
      "290C",
      "290C",
      "290C",
      "290C",
      "290C",
      "290C",
      "290C",
      "290C",
      "290C",
      "290C",
      "290C",
      "290C",
      "290C",
      "290C",
      "290C",
      "290C",
      "290C",
      "290C",
      "290C",
      "290C",
      "290C",
      "290C",
      "290C",
      "290C",
      "290C",
      "290C",
      "290C",
      "290C",
      "290C",
      "290C",
      "290C",
      "290C",
      "290C",
      "290C",
      "290C",
      "290C",
      "290C",
      "290C",
      "290C",
      "290C",
      "290C",
      "290C",
      "290C",
      "290C",
      "290C",
      "290C",
      "290C",
      "290C",
      "290C",
      "290C",
      "290C",
      "290C",
      "290C",
      "290C",
      "290C",
      "290C",
      "290C",
      "290C",
      "290C",
      "290C",
      "290C",
      "290C",
      "290C",
      "290C",
      "290C",
      "290C",
      "290C",
      "290C",
      "290C",
      "290C",
      "290C",
      "290C",
      "290",
      "290",
      "285",
      "283",
      "281",
      "275",
      "271",
      "264",
      "260",
      "254",
      "253",
      "250C",
      "250C",
      "250C",
      "250C",
      "250",
      "250",
      "250",
      "250",
      "250",
      "247",
      "245",
      "241",
      "236",
      "227",
      "215",
      "203",
      "192",
      "172",
      "161",
      "157",
      "150",
      "141",
      "131",
      "121",
      "115",
      "114",
      "110",
      "110",
      "102",
      "100",
      "095",
      "091",
      "086",
      "080",
      "072",
      "066",
      "061",
      "061",
      "061",
      "060",
      "060",
      "050",
      "035",
      "024",
      "016",
      "008",
      "002",
      "008",
      "023",
      "045",
      "072",
      "099",
      "112",
      "123",
      "144",
      "176",
      "194",
      "210",
      "224",
      "232",
      "239",
      "250",
      "258C",
      "260C",
      "260C",
      "260C",
      "260C",
      "260C",
      "260C",
      "260C",
      "260C",
      "260C",
      "260C",
      "260C",
      "260C",
      "260C",
      "260C",
      "260C",
      "260C",
      "260C",
      "260C",
      "260C",
      "260C",
      "260C",
      "260C",
      "260C",
      "260C",
      "260C",
      "260C",
      "260C",
      "260C",
      "260C",
      "260C",
      "260C",
      "260C",
      "260C",
      "260C",
      "260C",
      "260C",
      "260C",
      "260C",
      "260C",
      "260C",
      "260C",
      "260C",
      "260C",
      "260C",
      "260C",
      "260C",
      "260C",
      "260C",
      "260C",
      "260C",
      "260C",
      "260C",
      "260C",
      "260C",
      "260C",
      "260C",
      "260C",
      "260C",
      "260C",
      "260C",
      "260C",
      "260C",
      "260C",
      "260C",
      "260C",
      "260C",
      "260C",
      "260C",
      "260C",
      "260C",
      "260C",
      "260C",
      "260C",
      "260C",
      "260C",
      "260C",
      "260C",
      "260C",
      "260C",
      "260C",
      "260C",
      "260C",
      "260C",
      "260C",
      "260C",
      "260C",
      "260C",
      "260C",
      "260C",
      "260C",
      "260C",
      "260C",
      "260C",
      "260C",
      "260C",
      "260C",
      "260C",
      "260C",
      "260C",
      "260C",
      "260C",
      "260C",
      "260C",
      "260C",
      "260C",
      "260C",
      "260C",
      "260C",
      "260C",
      "260C",
      "260C",
      "260C",
      "260C",
      "260C",
      "260C",
      "260C",
      "260C",
      "260C",
      "260C",
      "260C",
      "260C",
      "260C",
      "260C",
      "260C",
      "260C",
      "260C",
      "260C",
      "260C",
      "260C",
      "260C",
      "260C",
      "260C",
      "260C",
      "260C",
      "260C",
      "260C",
      "260C",
      "260C",
      "260C",
      "260C",
      "260C",
      "260",
      "261",
      "263",
      "274",
      "277",
      "280",
      "280",
      "280",
      "280",
      "280",
      "280",
      "288",
      "299C",
      "300C",
      "300C",
      "300C",
      "300C",
      "300C",
      "300C",
      "300C",
      "300C",
      "300C",
      "304",
      "317",
      "320C",
      "320C",
      "320C",
      "320C",
      "320C",
      "320C",
      "320C",
      "320C",
      "320C",
      "320C",
      "320C",
      "320C",
      "320C",
      "320C",
      "320C",
      "320C",
      "320C",
      "320C",
      "320C",
      "320C",
      "320C",
      "320C",
      "320C",
      "320C",
      "320C",
      "320C",
      "320C",
      "320C",
      "320C",
      "320C",
      "320C",
      "320C",
      "320C",
      "320C",
      "320C",
      "320C",
      "320C",
      "320C",
      "320C",
      "320C",
      "320C",
      "320C",
      "320C",
      "320C",
      "320C",
      "320C",
      "320C",
      "320C",
      "320C",
      "320C",
      "320C",
      "320C",
      "320C",
      "320C",
      "320C",
      "320C",
      "320C",
      "320C",
      "320C",
      "320",
      "311",
      "290",
      "271",
      "252",
      "235",
      "226",
      "220",
      "200",
      "184",
      "166",
      "159",
      "147",
      "136"
    ],
    "swim:geom": "path",
    "swim:speeds": [
      176,
      180,
      171,
      177,
      216,
      249,
      269,
      267,
      275,
      287,
      302,
      327,
      358,
      368,
      377,
      387,
      398,
      404,
      414,
      421,
      436,
      448,
      459,
      467,
      467,
      467,
      468,
      466,
      465,
      463,
      464,
      462,
      461,
      461,
      461,
      462,
      462,
      462,
      462,
      463,
      462,
      465,
      463,
      466,
      465,
      466,
      467,
      464,
      465,
      462,
      462,
      462,
      462,
      461,
      461,
      461,
      461,
      460,
      461,
      460,
      461,
      460,
      460,
      460,
      460,
      460,
      461,
      461,
      461,
      462,
      462,
      462,
      462,
      463,
      463,
      463,
      463,
      463,
      463,
      463,
      463,
      463,
      463,
      463,
      463,
      464,
      464,
      464,
      465,
      465,
      465,
      465,
      464,
      464,
      464,
      463,
      463,
      462,
      464,
      463,
      463,
      462,
      462,
      461,
      461,
      461,
      460,
      460,
      459,
      458,
      457,
      456,
      456,
      456,
      455,
      455,
      454,
      452,
      451,
      450,
      448,
      448,
      447,
      443,
      447,
      450,
      447,
      449,
      447,
      449,
      448,
      449,
      449,
      450,
      450,
      450,
      451,
      452,
      452,
      453,
      453,
      454,
      454,
      456,
      456,
      458,
      459,
      461,
      463,
      465,
      466,
      467,
      468,
      469,
      470,
      471,
      472,
      473,
      473,
      473,
      474,
      474,
      475,
      475,
      476,
      477,
      479,
      482,
      483,
      485,
      486,
      486,
      486,
      486,
      486,
      480,
      476,
      475,
      475,
      475,
      475,
      476,
      478,
      479,
      475,
      478,
      476,
      474,
      476,
      476,
      477,
      479,
      479,
      480,
      480,
      481,
      480,
      480,
      480,
      480,
      480,
      481,
      481,
      482,
      482,
      483,
      482,
      483,
      483,
      484,
      484,
      483,
      483,
      482,
      482,
      481,
      482,
      482,
      483,
      483,
      484,
      484,
      486,
      486,
      487,
      487,
      489,
      491,
      492,
      492,
      490,
      490,
      489,
      489,
      490,
      492,
      493,
      493,
      494,
      494,
      495,
      495,
      495,
      496,
      497,
      498,
      498,
      498,
      498,
      498,
      499,
      500,
      500,
      501,
      501,
      501,
      501,
      502,
      501,
      501,
      501,
      501,
      501,
      501,
      501,
      501,
      501,
      501,
      501,
      501,
      501,
      501,
      500,
      500,
      499,
      499,
      498,
      498,
      498,
      497,
      497,
      497,
      497,
      497,
      498,
      498,
      500,
      499,
      500,
      499,
      499,
      499,
      501,
      501,
      502,
      502,
      502,
      502,
      502,
      502,
      504,
      506,
      506,
      505,
      504,
      503,
      502,
      499,
      497,
      496,
      497,
      500,
      500,
      501,
      501,
      501,
      500,
      500,
      499,
      499,
      498,
      499,
      497,
      498,
      496,
      497,
      495,
      496,
      494,
      495,
      493,
      493,
      492,
      492,
      492,
      492,
      492,
      492,
      492,
      492,
      498,
      513,
      514,
      514,
      515,
      515,
      514,
      514,
      513,
      513,
      511,
      509,
      508,
      508,
      507,
      502,
      506,
      505,
      502,
      505,
      505,
      503,
      504,
      505,
      503,
      505,
      505,
      503,
      505,
      505,
      504,
      506,
      504,
      506,
      506,
      505,
      506,
      506,
      505,
      506,
      506,
      506,
      507,
      507,
      508,
      507,
      508,
      507,
      506,
      501,
      495,
      489,
      485,
      484,
      479,
      477,
      477,
      476,
      476,
      476,
      476,
      475,
      475,
      476,
      476,
      476,
      469,
      468,
      460,
      449,
      439,
      419,
      418,
      416,
      417,
      404,
      395,
      394,
      375,
      344,
      335,
      322,
      313,
      311,
      306,
      308,
      302,
      307,
      303,
      301,
      295,
      291,
      290,
      287,
      223,
      207,
      211,
      182,
      165,
      155,
      152,
      183,
      218,
      250,
      264,
      285,
      310,
      357,
      384,
      360,
      359,
      367,
      378,
      401,
      410,
      449,
      451,
      457,
      462,
      462,
      462,
      461,
      459,
      458,
      456,
      457,
      456,
      457,
      457,
      458,
      458,
      460,
      462,
      462,
      463,
      464,
      465,
      465,
      465,
      465,
      465,
      465,
      464,
      463,
      462,
      462,
      463,
      463,
      461,
      463,
      466,
      463,
      466,
      462,
      465,
      461,
      462,
      459,
      459,
      458,
      459,
      458,
      458,
      457,
      458,
      458,
      461,
      459,
      461,
      460,
      461,
      462,
      462,
      463,
      464,
      465,
      465,
      466,
      465,
      466,
      466,
      467,
      467,
      467,
      467,
      468,
      468,
      468,
      469,
      469,
      469,
      469,
      468,
      469,
      469,
      470,
      469,
      469,
      469,
      468,
      468,
      470,
      468,
      468,
      468,
      468,
      468,
      469,
      468,
      468,
      469,
      469,
      469,
      469,
      469,
      469,
      470,
      470,
      470,
      470,
      470,
      470,
      470,
      470,
      470,
      470,
      470,
      470,
      470,
      471,
      471,
      471,
      470,
      470,
      470,
      469,
      470,
      469,
      469,
      470,
      470,
      470,
      470,
      470,
      470,
      470,
      470,
      469,
      470,
      469,
      469,
      469,
      469,
      468,
      468,
      466,
      466,
      464,
      465,
      463,
      464,
      464,
      464,
      464,
      464,
      465,
      464,
      465,
      464,
      464,
      464,
      465,
      465,
      464,
      461,
      459,
      457,
      457,
      457,
      457,
      457,
      456,
      455,
      451,
      450,
      449,
      449,
      449,
      449,
      449,
      450,
      450,
      451,
      452,
      452,
      452,
      452,
      448,
      447,
      448,
      448,
      449,
      449,
      449,
      448,
      442,
      434,
      431,
      428,
      427,
      428,
      433,
      433,
      432,
      432,
      432,
      431,
      432,
      432,
      433,
      433,
      434,
      434,
      434,
      435,
      435,
      435,
      445,
      473,
      485,
      491,
      494,
      497,
      499,
      504,
      504,
      505,
      505,
      505,
      504,
      492,
      485,
      465,
      450,
      420,
      417,
      411,
      402,
      398,
      394,
      385,
      368,
      326,
      327,
      309
    ],
    "swim:timestamps": [
      1790781845,
      1790781874,
      1790781894,
      1790781934,
      1790781954,
      1790781994,
      1790782026,
      1790782055,
      1790782074,
      1790782115,
      1790782139,
      1790782175,
      1790782235,
      1790782295,
      1790782355,
      1790782415,
      1790782475,
      1790782535,
      1790782595,
      1790782655,
      1790782715,
      1790782775,
      1790782835,
      1790782896,
      1790782907,
      1790782956,
      1790782967,
      1790783016,
      1790783027,
      1790783076,
      1790783087,
      1790783136,
      1790783147,
      1790783207,
      1790783256,
      1790783267,
      1790783327,
      1790783376,
      1790783387,
      1790783436,
      1790783448,
      1790783496,
      1790783508,
      1790783556,
      1790783568,
      1790783616,
      1790783628,
      1790783677,
      1790783688,
      1790783737,
      1790783748,
      1790783797,
      1790783808,
      1790783857,
      1790783868,
      1790783917,
      1790783928,
      1790783977,
      1790783988,
      1790784037,
      1790784048,
      1790784097,
      1790784108,
      1790784157,
      1790784169,
      1790784217,
      1790784229,
      1790784277,
      1790784289,
      1790784337,
      1790784349,
      1790784398,
      1790784409,
      1790784458,
      1790784469,
      1790784518,
      1790784529,
      1790784578,
      1790784589,
      1790784638,
      1790784649,
      1790784709,
      1790784769,
      1790784829,
      1790784889,
      1790784950,
      1790785010,
      1790785070,
      1790785130,
      1790785190,
      1790785250,
      1790785310,
      1790785370,
      1790785430,
      1790785490,
      1790785550,
      1790785610,
      1790785671,
      1790785731,
      1790785791,
      1790785851,
      1790785911,
      1790785971,
      1790786031,
      1790786091,
      1790786151,
      1790786211,
      1790786271,
      1790786331,
      1790786392,
      1790786452,
      1790786512,
      1790786572,
      1790786632,
      1790786692,
      1790786752,
      1790786812,
      1790786872,
      1790786932,
      1790786992,
      1790787052,
      1790787112,
      1790787173,
      1790787203,
      1790787233,
      1790787263,
      1790787293,
      1790787323,
      1790787353,
      1790787383,
      1790787413,
      1790787444,
      1790787473,
      1790787504,
      1790787533,
      1790787564,
      1790787593,
      1790787624,
      1790787653,
      1790787684,
      1790787713,
      1790787744,
      1790787773,
      1790787804,
      1790787833,
      1790787864,
      1790787894,
      1790787924,
      1790787984,
      1790788014,
      1790788044,
      1790788074,
      1790788104,
      1790788134,
      1790788165,
      1790788194,
      1790788225,
      1790788254,
      1790788285,
      1790788314,
      1790788345,
      1790788374,
      1790788405,
      1790788434,
      1790788465,
      1790788494,
      1790788525,
      1790788585,
      1790788645,
      1790788705,
      1790788765,
      1790788825,
      1790788886,
      1790788946,
      1790789006,
      1790789066,
      1790789126,
      1790789186,
      1790789246,
      1790789306,
      1790789366,
      1790789426,
      1790789486,
      1790789546,
      1790789579,
      1790789607,
      1790789639,
      1790789667,
      1790789699,
      1790789727,
      1790789759,
      1790789787,
      1790789819,
      1790789847,
      1790789879,
      1790789907,
      1790789939,
      1790789967,
      1790789999,
      1790790027,
      1790790059,
      1790790087,
      1790790119,
      1790790147,
      1790790179,
      1790790207,
      1790790239,
      1790790267,
      1790790299,
      1790790328,
      1790790360,
      1790790388,
      1790790420,
      1790790448,
      1790790480,
      1790790508,
      1790790540,
      1790790568,
      1790790600,
      1790790628,
      1790790660,
      1790790688,
      1790790720,
      1790790748,
      1790790780,
      1790790808,
      1790790840,
      1790790900,
      1790790960,
      1790791020,
      1790791141,
      1790791201,
      1790791321,
      1790791381,
      1790791441,
      1790791501,
      1790791573,
      1790791633,
      1790791693,
      1790791754,
      1790791814,
      1790791874,
      1790791934,
      1790791994,
      1790792054,
      1790792114,
      1790792174,
      1790792234,
      1790792294,
      1790792354,
      1790792414,
      1790792431,
      1790792474,
      1790792491,
      1790792535,
      1790792552,
      1790792595,
      1790792612,
      1790792655,
      1790792672,
      1790792715,
      1790792732,
      1790792775,
      1790792792,
      1790792835,
      1790792852,
      1790792895,
      1790792912,
      1790792955,
      1790792972,
      1790793015,
      1790793032,
      1790793075,
      1790793093,
      1790793135,
      1790793153,
      1790793195,
      1790793213,
      1790793256,
      1790793273,
      1790793316,
      1790793333,
      1790793376,
      1790793393,
      1790793436,
      1790793453,
      1790793510,
      1790793556,
      1790793570,
      1790793630,
      1790793691,
      1790793751,
      1790793811,
      1790793871,
      1790793931,
      1790793991,
      1790794051,
      1790794111,
      1790794171,
      1790794231,
      1790794292,
      1790794352,
      1790794412,
      1790794472,
      1790794532,
      1790794592,
      1790794652,
      1790794712,
      1790794772,
      1790794832,
      1790794893,
      1790794917,
      1790794953,
      1790794977,
      1790795013,
      1790795038,
      1790795073,
      1790795098,
      1790795133,
      1790795158,
      1790795193,
      1790795218,
      1790795253,
      1790795278,
      1790795313,
      1790795338,
      1790795373,
      1790795398,
      1790795433,
      1790795458,
      1790795494,
      1790795518,
      1790795554,
      1790795578,
      1790795614,
      1790795639,
      1790795674,
      1790795699,
      1790795734,
      1790795759,
      1790795794,
      1790795819,
      1790795857,
      1790795879,
      1790795917,
      1790795939,
      1790795977,
      1790795999,
      1790796038,
      1790796059,
      1790796098,
      1790796119,
      1790796158,
      1790796179,
      1790796218,
      1790796255,
      1790796278,
      1790796300,
      1790796327,
      1790796338,
      1790796360,
      1790796387,
      1790796398,
      1790796420,
      1790796447,
      1790796458,
      1790796480,
      1790796507,
      1790796518,
      1790796540,
      1790796567,
      1790796600,
      1790796628,
      1790796638,
      1790796660,
      1790796688,
      1790796699,
      1790796720,
      1790796748,
      1790796780,
      1790796808,
      1790796819,
      1790796840,
      1790796879,
      1790796901,
      1790796928,
      1790796939,
      1790796961,
      1790796988,
      1790797021,
      1790797048,
      1790797081,
      1790797108,
      1790797119,
      1790797141,
      1790797168,
      1790797179,
      1790797201,
      1790797229,
      1790797239,
      1790797261,
      1790797299,
      1790797321,
      1790797349,
      1790797360,
      1790797381,
      1790797420,
      1790797442,
      1790797469,
      1790797502,
      1790797529,
      1790797589,
      1790797622,
      1790797630,
      1790797649,
      1790797682,
      1790797709,
      1790797742,
      1790797769,
      1790797802,
      1790797830,
      1790797862,
      1790797889,
      1790797922,
      1790797949,
      1790797982,
      1790798009,
      1790798042,
      1790798070,
      1790798103,
      1790798130,
      1790798163,
      1790798190,
      1790798249,
      1790798310,
      1790798371,
      1790798431,
      1790798491,
      1790798551,
      1790798611,
      1790798671,
      1790805551,
      1790805604,
      1790805664,
      1790805724,
      1790805792,
      1790805844,
      1790805905,
      1790805965,
      1790806025,
      1790806085,
      1790806145,
      1790806205,
      1790806265,
      1790806322,
      1790806397,
      1790806442,
      1790806457,
      1790806518,
      1790806562,
      1790806578,
      1790806622,
      1790806638,
      1790806683,
      1790806698,
      1790806743,
      1790806758,
      1790806803,
      1790806818,
      1790806863,
      1790806878,
      1790806938,
      1790806998,
      1790807055,
      1790807179,
      1790807235,
      1790807296,
      1790807356,
      1790807416,
      1790807476,
      1790807536,
      1790807596,
      1790807656,
      1790807716,
      1790807776,
      1790807836,
      1790807896,
      1790807957,
      1790807988,
      1790808017,
      1790808048,
      1790808077,
      1790808108,
      1790808137,
      1790808168,
      1790808197,
      1790808228,
      1790808257,
      1790808288,
      1790808317,
      1790808348,
      1790808377,
      1790808408,
      1790808437,
      1790808468,
      1790808497,
      1790808528,
      1790808557,
      1790808588,
      1790808618,
      1790808648,
      1790808678,
      1790808708,
      1790808738,
      1790808769,
      1790808798,
      1790808829,
      1790808858,
      1790808889,
      1790808919,
      1790808949,
      1790808979,
      1790809009,
      1790809039,
      1790809069,
      1790809099,
      1790809129,
      1790809159,
      1790809189,
      1790809219,
      1790809249,
      1790809279,
      1790809294,
      1790809309,
      1790809339,
      1790809354,
      1790809369,
      1790809399,
      1790809414,
      1790809429,
      1790809459,
      1790809474,
      1790809490,
      1790809519,
      1790809534,
      1790809550,
      1790809579,
      1790809594,
      1790809610,
      1790809640,
      1790809654,
      1790809670,
      1790809700,
      1790809714,
      1790809730,
      1790809760,
      1790809774,
      1790809790,
      1790809820,
      1790809834,
      1790809850,
      1790809880,
      1790809895,
      1790809910,
      1790809940,
      1790809955,
      1790809970,
      1790810000,
      1790810015,
      1790810030,
      1790810075,
      1790810090,
      1790810135,
      1790810150,
      1790810195,
      1790810210,
      1790810255,
      1790810271,
      1790810315,
      1790810331,
      1790810375,
      1790810391,
      1790810435,
      1790810451,
      1790810495,
      1790810511,
      1790810556,
      1790810571,
      1790810616,
      1790810631,
      1790810676,
      1790810691,
      1790810751,
      1790810796,
      1790810811,
      1790810856,
      1790810871,
      1790810916,
      1790810931,
      1790810976,
      1790810992,
      1790811036,
      1790811052,
      1790811096,
      1790811112,
      1790811156,
      1790811172,
      1790811217,
      1790811277,
      1790811337,
      1790811397,
      1790811457,
      1790811517,
      1790811577,
      1790811637,
      1790811697,
      1790811757,
      1790811817,
      1790811877,
      1790811938,
      1790811998,
      1790812058,
      1790812118,
      1790812178,
      1790812238,
      1790812298,
      1790812358,
      1790812418,
      1790812478,
      1790812538,
      1790812599,
      1790812659,
      1790812719,
      1790812779,
      1790812839,
      1790812899,
      1790812959,
      1790813019,
      1790813079,
      1790813139,
      1790813199,
      1790813260,
      1790813320,
      1790813380,
      1790813440,
      1790813500,
      1790813560,
      1790813620,
      1790813680,
      1790813740,
      1790813800,
      1790814521,
      1790814553,
      1790814581,
      1790814641,
      1790814673,
      1790814702,
      1790814734,
      1790814762,
      1790814794,
      1790814822,
      1790814854,
      1790814882,
      1790814914,
      1790814942,
      1790814974,
      1790815002,
      1790815034,
      1790815062,
      1790815094,
      1790815122,
      1790815154,
      1790815182,
      1790815214,
      1790815242,
      1790815274,
      1790815302,
      1790815334,
      1790815394,
      1790815455,
      1790815575,
      1790815635,
      1790815695,
      1790815755,
      1790815815,
      1790815875,
      1790815935,
      1790815960,
      1790815984,
      1790816055,
      1790816115,
      1790816176,
      1790816236,
      1790816296,
      1790816356
    ],
    "wof:geomhash": "bebe3299037bf6b95827e1d64f02456a",
    "wof:id": 2048480517,
    "wof:repo": "sfomuseum-data-flights-2026-09"
  },
  "bbox": [
    -122.36666666666666,
    36.93694444444444,
    -77.43333333333334,
    42.96194444444445
  ],
  "geometry": {"type":"LineString","coordinates":[[-122.36666666666666,37.63333333333333],[-122.34333333333333,37.647777777777776],[-122.31666666666666,37.666666666666664],[-122.2936111111111,37.675],[-122.26666666666667,37.68333333333333],[-122.22805555555556,37.711111111111116],[-122.18333333333334,37.75],[-122.16805555555555,37.76888888888889],[-122.13333333333334,37.8],[-122.09805555555555,37.823055555555555],[-122.05,37.85],[-122.01805555555555,37.88194444444444],[-121.92500000000001,37.94944444444444],[-121.83,38.01888888888889],[-121.73194444444445,38.089444444444446],[-121.63111111111111,38.16222222222222],[-121.52638888888889,38.23777777777778],[-121.42166666666667,38.31333333333333],[-121.30916666666667,38.38611111111111],[-121.19527777777778,38.456944444444446],[-121.0761111111111,38.530277777777776],[-120.95361111111112,38.605555555555554],[-120.82444444444444,38.68472222222222],[-120.69527777777778,38.76361111111111],[-120.6525,38.78722222222222],[-120.53666666666666,38.859722222222224],[-120.5213888888889,38.86694444444444],[-120.43277777777779,38.922777777777775],[-120.39111111111112,38.94555555555555],[-120.30166666666666,39.001666666666665],[-120.26138888888889,39.02388888888889],[-120.17277777777778,39.078611111111115],[-120.13138888888888,39.10111111111111],[-120.00027777777778,39.18],[-119.89416666666668,39.24472222222222],[-119.86972222222222,39.259166666666665],[-119.73777777777778,39.33638888888889],[-119.62972222222221,39.401111111111106],[-119.60527777777777,39.415277777777774],[-119.4975,39.47916666666667],[-119.4713888888889,39.49333333333333],[-119.36388888888888,39.55722222222222],[-119.33749999999999,39.57194444444445],[-119.22777777777777,39.63666666666666],[-119.20222222222222,39.65138888888889],[-119.09277777777777,39.71472222222223],[-119.06722222222221,39.72944444444445],[-118.95777777777778,39.79222222222222],[-118.93416666666667,39.80583333333333],[-118.82277777777777,39.87027777777778],[-118.79694444444445,39.88361111111111],[-118.67805555555556,39.933055555555555],[-118.64888888888889,39.94499999999999],[-118.5286111111111,39.994166666666665],[-118.50305555555556,40.004444444444445],[-118.38138888888888,40.053888888888885],[-118.35694444444444,40.06361111111111],[-118.23194444444445,40.113055555555555],[-118.20833333333334,40.12027777777778],[-118.0775,40.160555555555554],[-118.05444444444444,40.1675],[-117.9238888888889,40.2075],[-117.89916666666667,40.215],[-117.7675,40.25527777777778],[-117.74194444444444,40.26277777777778],[-117.61444444444444,40.30138888888889],[-117.58777777777777,40.30972222222222],[-117.45916666666668,40.348333333333336],[-117.42944444444444,40.35722222222223],[-117.30305555555556,40.39527777777778],[-117.27444444444444,40.403888888888886],[-117.14416666666668,40.442499999999995],[-117.11472222222221,40.45111111111111],[-116.98333333333333,40.49],[-116.95277777777778,40.49916666666667],[-116.85416666666666,40.528055555555554],[-116.82388888888889,40.536944444444444],[-116.69277777777778,40.57555555555556],[-116.665,40.58361111111111],[-116.53444444444445,40.62138888888889],[-116.505,40.63],[-116.34777777777778,40.67527777777777],[-116.18805555555556,40.72138888888889],[-116.03083333333333,40.76611111111111],[-115.87138888888889,40.811388888888885],[-115.71083333333334,40.85666666666667],[-115.5525,40.90083333333333],[-115.39194444444445,40.94555555555555],[-115.23138888888889,40.99],[-115.07027777777778,41.03444444444444],[-114.91083333333334,41.07777777777778],[-114.74222222222222,41.12361111111111],[-114.58166666666666,41.16694444444444],[-114.42083333333333,41.21],[-114.25777777777778,41.253055555555555],[-114.09722222222221,41.29555555555555],[-113.93555555555555,41.33833333333334],[-113.77388888888889,41.375],[-113.60638888888889,41.405833333333334],[-113.44055555555556,41.43583333333333],[-113.27333333333333,41.465833333333336],[-113.1086111111111,41.49527777777778],[-112.94194444444445,41.52444444444444],[-112.77555555555556,41.55361111111111],[-112.60805555555555,41.58277777777778],[-112.44111111111111,41.61138888888889],[-112.27472222222222,41.63972222222222],[-112.1061111111111,41.668055555555554],[-111.9413888888889,41.69555555555555],[-111.77277777777778,41.72361111111111],[-111.60638888888889,41.75055555555556],[-111.44250000000001,41.77722222222222],[-111.27527777777777,41.803888888888885],[-111.1086111111111,41.830555555555556],[-110.94500000000001,41.85611111111111],[-110.7775,41.8825],[-110.61194444444443,41.907777777777774],[-110.44944444444445,41.93277777777777],[-110.28416666666666,41.95777777777778],[-110.12083333333332,41.98222222222223],[-109.9575,42.00861111111111],[-109.79777777777778,42.04083333333333],[-109.63722222222223,42.073055555555555],[-109.54805555555555,42.09027777777778],[-109.47638888888889,42.105000000000004],[-109.38472222222222,42.1225],[-109.31555555555555,42.13666666666666],[-109.22277777777778,42.154444444444444],[-109.15333333333334,42.16833333333333],[-109.06083333333333,42.186388888888885],[-108.98972222222223,42.2],[-108.89750000000001,42.217777777777776],[-108.82638888888889,42.23166666666667],[-108.73416666666667,42.24916666666667],[-108.66583333333334,42.26222222222222],[-108.60055555555554,42.27444444444444],[-108.49833333333333,42.29388888888889],[-108.42916666666667,42.306666666666665],[-108.33222222222221,42.325],[-108.26694444444445,42.33722222222222],[-108.16527777777779,42.35583333333334],[-108.06638888888888,42.37416666666667],[-108.00111111111111,42.38611111111111],[-107.89972222222222,42.40472222222222],[-107.83305555555555,42.41694444444444],[-107.73222222222222,42.434999999999995],[-107.66527777777779,42.447222222222216],[-107.56361111111111,42.46555555555556],[-107.42472222222223,42.49027777777778],[-107.32694444444444,42.5075],[-107.25472222222223,42.52027777777778],[-107.14944444444446,42.53861111111111],[-107.08,42.55083333333333],[-106.97555555555556,42.56888888888889],[-106.9088888888889,42.580555555555556],[-106.80222222222221,42.59861111111111],[-106.73361111111112,42.61055555555556],[-106.62722222222222,42.62694444444445],[-106.56055555555555,42.63722222222222],[-106.45555555555556,42.653055555555554],[-106.38333333333334,42.66416666666667],[-106.2775,42.680277777777775],[-106.20805555555556,42.690555555555555],[-106.10249999999999,42.70638888888889],[-106.03333333333333,42.71666666666667],[-105.92527777777778,42.73277777777778],[-105.85444444444444,42.74333333333333],[-105.6738888888889,42.769444444444446],[-105.49305555555556,42.79555555555555],[-105.31444444444445,42.82138888888889],[-105.13111111111111,42.84722222222222],[-104.95055555555555,42.8725],[-104.76916666666666,42.8975],[-104.58527777777778,42.9225],[-104.40305555555557,42.94694444444444],[-104.21916666666667,42.96194444444445],[-104.03999999999999,42.958333333333336],[-103.86083333333333,42.95472222222222],[-103.68027777777779,42.950833333333335],[-103.50027777777778,42.946666666666665],[-103.31972222222223,42.94194444444444],[-103.14,42.93694444444444],[-102.9575,42.931666666666665],[-102.77527777777777,42.92638888888889],[-102.68,42.92388888888889],[-102.59583333333333,42.920833333333334],[-102.5,42.9175],[-102.415,42.914722222222224],[-102.31972222222223,42.91027777777778],[-102.23611111111111,42.908055555555556],[-102.13555555555556,42.90472222222222],[-102.05472222222222,42.901666666666664],[-101.95472222222223,42.89805555555556],[-101.87083333333332,42.894999999999996],[-101.81222222222222,42.89277777777778],[-101.67027777777778,42.886944444444445],[-101.59333333333333,42.88388888888889],[-101.48916666666666,42.879444444444445],[-101.41472222222222,42.876111111111115],[-101.30388888888889,42.87138888888889],[-101.23361111111112,42.86805555555556],[-101.12166666666666,42.863055555555555],[-101.05055555555555,42.859722222222224],[-100.94055555555556,42.85472222222222],[-100.86666666666666,42.85111111111111],[-100.75805555555556,42.84583333333334],[-100.68527777777778,42.8425],[-100.5761111111111,42.83694444444445],[-100.5025,42.833333333333336],[-100.39472222222223,42.82805555555556],[-100.32,42.82416666666667],[-100.21305555555556,42.818333333333335],[-100.14416666666668,42.81472222222222],[-100.0325,42.808611111111105],[-99.9588888888889,42.80444444444444],[-99.85305555555556,42.79861111111111],[-99.78138888888888,42.794444444444444],[-99.67166666666667,42.78805555555555],[-99.59833333333333,42.78388888888889],[-99.48972222222223,42.777499999999996],[-99.41583333333334,42.77305555555555],[-99.30611111111111,42.76611111111111],[-99.23222222222222,42.76166666666666],[-99.12222222222222,42.755],[-99.05,42.750277777777775],[-98.93722222222223,42.74305555555556],[-98.8436111111111,42.736666666666665],[-98.65805555555556,42.724444444444444],[-98.4738888888889,42.71194444444445],[-98.29138888888889,42.69944444444444],[-97.92222222222223,42.6725],[-97.73916666666666,42.65888888888889],[-97.3711111111111,42.630833333333335],[-97.18694444444445,42.61638888888889],[-97.00361111111111,42.60111111111111],[-96.81666666666666,42.58555555555556],[-96.595,42.566944444444445],[-96.41194444444444,42.55138888888889],[-96.22472222222223,42.53472222222222],[-96.04138888888889,42.51833333333333],[-95.85527777777777,42.50111111111111],[-95.66805555555555,42.48388888888889],[-95.48555555555555,42.46666666666667],[-95.29777777777778,42.44833333333333],[-95.15055555555556,42.43416666666666],[-94.92611111111111,42.41166666666666],[-94.74305555555556,42.393055555555556],[-94.55499999999999,42.37361111111111],[-94.37166666666666,42.35472222222222],[-94.17777777777778,42.33388888888889],[-93.99222222222222,42.31361111111111],[-93.99527777777777,42.31388888888888],[-93.80749999999999,42.29361111111111],[-93.76972222222223,42.28944444444444],[-93.62027777777777,42.272777777777776],[-93.58416666666666,42.26861111111111],[-93.43583333333333,42.25194444444445],[-93.39861111111112,42.2475],[-93.25194444444445,42.230555555555554],[-93.21666666666667,42.22666666666667],[-93.06555555555555,42.20861111111111],[-93.02916666666667,42.20444444444445],[-92.88361111111112,42.18722222222222],[-92.84666666666666,42.18277777777777],[-92.69833333333334,42.164722222222224],[-92.66166666666668,42.16027777777778],[-92.51472222222222,42.1425],[-92.4786111111111,42.138333333333335],[-92.33111111111111,42.12],[-92.2936111111111,42.11527777777778],[-92.14888888888889,42.09722222222222],[-92.11166666666666,42.0925],[-91.96333333333334,42.073888888888895],[-91.93055555555556,42.06944444444445],[-91.78416666666666,42.05083333333333],[-91.74694444444445,42.045833333333334],[-91.6375,42.03138888888889],[-91.56638888888888,42.02222222222222],[-91.42166666666667,42.003055555555555],[-91.38527777777779,41.998333333333335],[-91.23944444444444,41.97888888888889],[-91.20333333333333,41.973888888888894],[-91.05888888888889,41.95444444444445],[-91.02194444444444,41.94944444444444],[-90.87527777777777,41.92916666666667],[-90.83888888888889,41.924166666666665],[-90.65833333333335,41.899166666666666],[-90.50944444444444,41.87888888888889],[-90.47583333333334,41.87361111111111],[-90.29194444444444,41.84722222222222],[-90.11166666666666,41.821111111111115],[-89.91611111111112,41.7925],[-89.73361111111112,41.76583333333333],[-89.55,41.73861111111111],[-89.40166666666667,41.71638888888889],[-89.1825,41.68277777777777],[-89.00138888888888,41.65472222222222],[-88.81833333333333,41.62638888888889],[-88.635,41.59722222222222],[-88.49194444444444,41.57416666666667],[-88.27083333333333,41.53611111111111],[-88.08611111111111,41.49638888888889],[-87.93527777777778,41.46361111111111],[-87.75277777777778,41.42388888888889],[-87.61138888888888,41.39277777777778],[-87.39694444444446,41.345],[-87.22055555555556,41.305277777777775],[-87.045,41.26555555555556],[-86.8711111111111,41.226111111111116],[-86.67111111111112,41.180277777777775],[-86.49888888888889,41.140277777777776],[-86.42833333333334,41.12388888888889],[-86.32027777777778,41.09861111111111],[-86.255,41.083333333333336],[-86.14750000000001,41.058055555555555],[-86.07805555555555,41.041666666666664],[-85.97222222222223,41.01638888888889],[-85.90694444444445,41.00083333333333],[-85.80111111111111,40.97555555555556],[-85.73194444444445,40.95888888888889],[-85.62805555555555,40.93388888888889],[-85.56305555555555,40.91833333333333],[-85.45416666666667,40.891666666666666],[-85.38805555555557,40.87555555555556],[-85.28333333333333,40.85],[-85.22055555555556,40.834722222222226],[-85.11388888888888,40.80833333333333],[-85.04444444444444,40.79138888888889],[-84.94027777777778,40.76555555555556],[-84.87055555555555,40.74805555555556],[-84.77055555555556,40.723055555555554],[-84.69777777777779,40.70472222222222],[-84.60111111111111,40.68055555555555],[-84.52638888888889,40.66166666666666],[-84.435,40.63861111111111],[-84.35888888888888,40.619166666666665],[-84.26194444444444,40.594166666666666],[-84.18555555555555,40.574444444444445],[-84.09333333333333,40.55083333333333],[-84.01444444444445,40.53055555555555],[-83.92305555555556,40.50694444444444],[-83.8411111111111,40.48583333333333],[-83.71388888888889,40.4525],[-83.66222222222223,40.439166666666665],[-83.53583333333333,40.405833333333334],[-83.4825,40.39138888888889],[-83.36138888888888,40.35944444444445],[-83.30611111111111,40.344722222222224],[-83.18333333333334,40.31222222222222],[-83.12805555555555,40.29722222222222],[-83.00861111111111,40.265],[-82.95194444444445,40.249722222222225],[-82.83611111111111,40.218611111111116],[-82.77916666666667,40.20305555555556],[-82.66000000000001,40.17444444444444],[-82.57888888888888,40.15611111111111],[-82.48222222222222,40.13777777777778],[-82.42666666666668,40.12638888888889],[-82.40222222222222,40.12],[-82.30694444444444,40.10111111111111],[-82.25055555555555,40.08916666666667],[-82.19027777777778,40.075],[-82.13,40.06361111111111],[-82.07333333333332,40.05166666666666],[-82.01638888888888,40.03916666666667],[-81.95361111111112,40.02638888888889],[-81.8963888888889,40.01416666666667],[-81.83999999999999,40.0025],[-81.77916666666667,39.98861111111111],[-81.72194444444445,39.97638888888889],[-81.66388888888889,39.964444444444446],[-81.5461111111111,39.93888888888888],[-81.48833333333333,39.92833333333333],[-81.43694444444445,39.9175],[-81.36833333333333,39.90361111111111],[-81.2775,39.88527777777778],[-81.26083333333334,39.88166666666667],[-81.20833333333334,39.87083333333334],[-81.10527777777777,39.849722222222226],[-81.03166666666667,39.83416666666667],[-80.92833333333334,39.8125],[-80.90527777777778,39.80777777777777],[-80.85416666666666,39.79694444444444],[-80.73027777777779,39.770833333333336],[-80.67861111111111,39.76],[-80.57472222222222,39.73833333333334],[-80.55138888888888,39.733333333333334],[-80.5038888888889,39.723055555555554],[-80.40305555555557,39.70138888888889],[-80.33138888888888,39.686388888888885],[-80.23194444444445,39.665],[-80.16222222222223,39.65],[-80.06472222222222,39.62888888888889],[-80.04027777777777,39.62361111111111],[-79.965,39.60722222222223],[-79.9,39.59305555555556],[-79.8761111111111,39.58777777777778],[-79.80138888888888,39.57138888888889],[-79.73666666666666,39.55722222222222],[-79.71000000000001,39.55138888888889],[-79.63944444444445,39.535555555555554],[-79.54694444444445,39.515],[-79.47472222222223,39.49916666666667],[-79.40916666666668,39.48444444444444],[-79.3825,39.478611111111114],[-79.3125,39.46277777777778],[-79.23666666666666,39.44583333333333],[-79.1525,39.42805555555555],[-79.07527777777777,39.414722222222224],[-78.99527777777777,39.400555555555556],[-78.92166666666667,39.38777777777778],[-78.775,39.36138888888889],[-78.69944444444445,39.34777777777778],[-78.66666666666667,39.35],[-78.63305555555554,39.33555555555556],[-78.55916666666667,39.32222222222222],[-78.49305555555556,39.31055555555555],[-78.4213888888889,39.297777777777775],[-78.36138888888888,39.281666666666666],[-78.30611111111111,39.25472222222222],[-78.26,39.23083333333334],[-78.20833333333334,39.203611111111115],[-78.16666666666667,39.18333333333333],[-78.11916666666666,39.156666666666666],[-78.06666666666666,39.13333333333333],[-78.02833333333334,39.10861111111111],[-77.98333333333333,39.083333333333336],[-77.93944444444445,39.061388888888885],[-77.89916666666667,39.04],[-77.85277777777777,39.015277777777776],[-77.81305555555555,38.994166666666665],[-77.76388888888889,38.96888888888889],[-77.72472222222223,38.96194444444445],[-77.61666666666666,38.96666666666667],[-77.56666666666666,39.03333333333333],[-77.57638888888889,39.080000000000005],[-77.52888888888889,39.11638888888889],[-77.47694444444444,39.088055555555556],[-77.47333333333333,39.041666666666664],[-77.47416666666666,38.99916666666667],[-77.47444444444444,38.968333333333334],[-77.43333333333334,38.916666666666664],[-77.43583333333333,38.87277777777778],[-77.48777777777778,38.825833333333335],[-77.5775,38.80611111111111],[-77.68333333333334,38.81666666666667],[-77.78083333333333,38.82138888888889],[-77.89583333333334,38.830555555555556],[-78.03527777777778,38.84166666666667],[-78.16555555555556,38.85138888888889],[-78.2925,38.85305555555556],[-78.42333333333333,38.84527777777778],[-78.55472222222222,38.82416666666667],[-78.68111111111112,38.80277777777778],[-78.81416666666667,38.780833333333334],[-79.01388888888889,38.7475],[-79.12555555555555,38.72805555555556],[-79.17055555555557,38.72083333333334],[-79.33444444444444,38.69333333333333],[-79.44583333333334,38.675],[-79.49444444444444,38.66694444444444],[-79.6036111111111,38.64888888888889],[-79.6675,38.63805555555555],[-79.7625,38.62166666666667],[-79.82333333333332,38.61055555555556],[-79.91722222222222,38.593333333333334],[-79.98055555555555,38.581944444444446],[-80.1061111111111,38.55916666666666],[-80.1375,38.55333333333333],[-80.26638888888888,38.52972222222222],[-80.29638888888888,38.524166666666666],[-80.4538888888889,38.49472222222222],[-80.61527777777778,38.464444444444446],[-80.76166666666667,38.436388888888885],[-81.08944444444444,38.37305555555555],[-81.24361111111111,38.33694444444445],[-81.40055555555556,38.29861111111111],[-81.56,38.25972222222222],[-81.71861111111112,38.220555555555556],[-81.87444444444444,38.176944444444445],[-82.02916666666667,38.132777777777775],[-82.18361111111112,38.08916666666667],[-82.31833333333333,38.051111111111105],[-82.47027777777778,38.0075],[-82.62444444444444,37.96333333333334],[-82.77444444444444,37.91972222222222],[-82.92500000000001,37.875277777777775],[-83.07777777777777,37.82916666666667],[-83.15666666666667,37.8],[-83.22722222222222,37.78388888888889],[-83.3125,37.757222222222225],[-83.37916666666666,37.739444444444445],[-83.46638888888889,37.71472222222223],[-83.55944444444444,37.687777777777775],[-83.61777777777777,37.670833333333334],[-83.71055555555556,37.64361111111111],[-83.76888888888888,37.62777777777778],[-83.8611111111111,37.599444444444444],[-83.91611111111112,37.58166666666667],[-84.01,37.555277777777775],[-84.0675,37.53805555555555],[-84.15805555555556,37.51138888888889],[-84.215,37.49305555555556],[-84.30694444444444,37.46666666666667],[-84.36611111111111,37.448611111111106],[-84.455,37.41972222222222],[-84.51611111111112,37.400277777777774],[-84.60444444444444,37.3725],[-84.665,37.35333333333333],[-84.75416666666666,37.325],[-84.81416666666667,37.30583333333333],[-84.90416666666667,37.277499999999996],[-84.96333333333334,37.25861111111111],[-85.05305555555556,37.230000000000004],[-85.11444444444444,37.21194444444445],[-85.20833333333334,37.19194444444444],[-85.27,37.18055555555555],[-85.36749999999999,37.16305555555555],[-85.43083333333334,37.151666666666664],[-85.5261111111111,37.134166666666665],[-85.60777777777777,37.11888888888889],[-85.6713888888889,37.10722222222223],[-85.76777777777778,37.08916666666667],[-85.82916666666667,37.0775],[-85.92527777777778,37.059444444444445],[-85.985,37.04805555555556],[-86.0825,37.02972222222222],[-86.14527777777778,37.01777777777777],[-86.24138888888889,36.99944444444444],[-86.30222222222221,36.98777777777778],[-86.39972222222222,36.96888888888889],[-86.46083333333334,36.9575],[-86.51194444444444,36.9475],[-86.55749999999999,36.94166666666666],[-86.62166666666666,36.93694444444444],[-86.67416666666666,36.93805555555555],[-86.71833333333333,36.94472222222222],[-86.78055555555555,36.9525],[-86.83583333333333,36.95861111111111],[-86.87638888888888,36.964444444444446],[-86.93861111111111,36.972500000000004],[-86.99666666666667,36.97972222222222],[-87.03583333333333,36.985],[-87.09833333333333,36.99277777777778],[-87.15777777777778,37],[-87.19333333333334,37.005],[-87.25861111111111,37.013333333333335],[-87.31944444444444,37.020833333333336],[-87.35388888888889,37.025277777777774],[-87.41638888888889,37.033055555555556],[-87.48361111111112,37.041666666666664],[-87.51555555555555,37.04555555555555],[-87.57888888888888,37.05333333333333],[-87.64166666666668,37.06111111111111],[-87.6763888888889,37.065555555555555],[-87.7363888888889,37.07277777777778],[-87.78833333333333,37.07916666666667],[-87.83638888888889,37.085],[-87.9325,37.09666666666667],[-87.95083333333334,37.098888888888894],[-87.99805555555555,37.10444444444445],[-88.09333333333333,37.115833333333335],[-88.11361111111111,37.11833333333333],[-88.17750000000001,37.12583333333333],[-88.25666666666666,37.13527777777778],[-88.27222222222223,37.136944444444445],[-88.34027777777777,37.144999999999996],[-88.41666666666667,37.153888888888886],[-88.43777777777778,37.156388888888884],[-88.50166666666667,37.163888888888884],[-88.60055555555554,37.17527777777777],[-88.66277777777778,37.18222222222222],[-88.7625,37.19361111111111],[-88.82416666666666,37.20055555555556],[-88.92416666666666,37.21194444444445],[-88.985,37.218611111111116],[-89.08555555555554,37.22972222222222],[-89.14750000000001,37.236666666666665],[-89.24833333333333,37.24777777777778],[-89.31138888888889,37.254444444444445],[-89.40361111111112,37.26444444444444],[-89.46916666666667,37.27166666666667],[-89.565,37.281666666666666],[-89.63138888888888,37.288888888888884],[-89.72944444444444,37.299166666666665],[-89.79527777777777,37.30611111111111],[-89.89027777777778,37.31583333333333],[-89.9538888888889,37.322500000000005],[-90.05499999999999,37.33277777777778],[-90.11777777777777,37.33916666666667],[-90.2275,37.35027777777778],[-90.28027777777778,37.355555555555554],[-90.44027777777778,37.37138888888889],[-90.5525,37.3825],[-90.60194444444444,37.38722222222222],[-90.71333333333334,37.39805555555556],[-90.76305555555555,37.40277777777778],[-90.87305555555555,37.413333333333334],[-90.9038888888889,37.41611111111111],[-91.03472222222221,37.42833333333333],[-91.06166666666667,37.43055555555555],[-91.19472222222223,37.44277777777778],[-91.22305555555556,37.445277777777775],[-91.35583333333332,37.46027777777778],[-91.38416666666667,37.46388888888889],[-91.51722222222222,37.47972222222222],[-91.54555555555555,37.48305555555556],[-91.67777777777778,37.49805555555556],[-91.83749999999999,37.51583333333333],[-92.00027777777778,37.53388888888889],[-92.16083333333334,37.55166666666666],[-92.32444444444444,37.56944444444445],[-92.48944444444444,37.58722222222222],[-92.64888888888889,37.60416666666667],[-92.80888888888889,37.620555555555555],[-92.96861111111112,37.63722222222222],[-93.12694444444443,37.65333333333333],[-93.28555555555555,37.66916666666666],[-93.44555555555556,37.684999999999995],[-93.60583333333332,37.70055555555556],[-93.76611111111112,37.71611111111111],[-93.92333333333333,37.73083333333334],[-94.08277777777778,37.74583333333334],[-94.23833333333333,37.76],[-94.39527777777778,37.774166666666666],[-94.53694444444444,37.786944444444444],[-94.69250000000001,37.800555555555555],[-94.85138888888888,37.81444444444444],[-95.00916666666667,37.82777777777778],[-95.17861111111111,37.841944444444444],[-95.33583333333333,37.855000000000004],[-95.49472222222222,37.867777777777775],[-95.65194444444445,37.88027777777778],[-95.8086111111111,37.89277777777778],[-95.96833333333333,37.905],[-96.12583333333333,37.91694444444444],[-96.26833333333333,37.925555555555555],[-96.42611111111111,37.92861111111111],[-96.58194444444445,37.92916666666667],[-96.73944444444444,37.92944444444444],[-96.89833333333334,37.93],[-97.05416666666666,37.930277777777775],[-97.21361111111112,37.93055555555555],[-97.36916666666666,37.93083333333333],[-97.51972222222223,37.93055555555555],[-97.67555555555556,37.93],[-97.82777777777777,37.92944444444444],[-97.98611111111111,37.92861111111111],[-98.13472222222222,37.927499999999995],[-98.29944444444445,37.92638888888889],[-98.45055555555555,37.925],[-100.26388888888889,37.893055555555556],[-100.3586111111111,37.89083333333333],[-100.41694444444445,37.88916666666667],[-100.56472222222222,37.88527777777778],[-100.65805555555556,37.8825],[-100.71638888888889,37.880833333333335],[-100.80583333333333,37.87833333333333],[-100.86444444444444,37.87638888888889],[-100.95722222222223,37.87361111111111],[-101.01444444444445,37.87166666666667],[-101.10555555555555,37.86888888888889],[-101.19500000000001,37.865833333333335],[-101.25722222222223,37.86388888888889],[-101.34583333333333,37.86083333333333],[-101.41027777777778,37.85861111111111],[-101.49861111111112,37.855555555555554],[-101.56305555555555,37.86027777777778],[-101.65027777777779,37.88805555555555],[-101.71055555555556,37.92055555555555],[-101.79083333333332,37.96555555555556],[-101.85055555555554,37.99916666666667],[-101.93527777777778,38.04666666666667],[-101.99555555555555,38.080555555555556],[-102.07972222222222,38.1275],[-102.1413888888889,38.16166666666666],[-102.22638888888889,38.20861111111111],[-102.28833333333333,38.24277777777778],[-102.43277777777779,38.32222222222222],[-102.5775,38.40138888888889],[-102.86555555555555,38.55777777777777],[-103.01083333333334,38.63638888888889],[-103.14833333333334,38.71055555555556],[-103.27888888888889,38.780277777777776],[-103.40527777777778,38.84777777777778],[-103.52583333333334,38.91166666666666],[-103.64722222222223,38.97638888888889],[-103.71666666666667,39.016666666666666],[-103.75,39.03333333333333],[-103.87972222222221,39.10055555555556],[-103.98861111111111,39.16583333333333],[-104.08916666666666,39.23388888888889],[-104.19166666666668,39.30138888888889],[-104.30638888888889,39.32222222222222],[-104.40777777777778,39.35527777777778]]}
}
