{
  "id": 2048241081,
  "type": "Feature",
  "properties": {
    "geom:area": 0,
    "geom:bbox": "-122.829580,37.921610,-122.679140,38.441190",
    "geom:latitude": 38.18124925406641,
    "geom:longitude": -122.75487982163395,
    "src:alt_label": "swim-approach",
    "src:geom": "swim",
    "swim:elevations": [
      7529,
      7376,
      6757,
      6567,
      6239,
      5947,
      5600,
      5481,
      5018,
      4753,
      4418
    ],
    "swim:geom": "approach",
    "swim:timestamps": [
      1788449877,
      1788449887,
      1788449938,
      1788449959,
      1788449993,
      1788450020,
      1788450052,
      1788450065,
      1788450113,
      1788450142,
      1788450177
    ],
    "wof:geomhash": "9b9637f33fbb8edb489d260de966cb0a",
    "wof:id": 2048241081,
    "wof:repo": "sfomuseum-data-flights-2026-09"
  },
  "bbox": [
    -122.82958,
    37.92161,
    -122.67914,
    38.44119
  ],
  "geometry": {"type":"LineString","coordinates":[[-122.82958,38.44119],[-122.82447,38.42253],[-122.79803,38.32725],[-122.78664,38.2889],[-122.76851,38.22843],[-122.75438,38.18126],[-122.73882,38.12619],[-122.73244,38.1046],[-122.7098,38.02415],[-122.69493,37.97644],[-122.67914,37.92161]]}
}
