{
  "id": 2048314925,
  "type": "Feature",
  "properties": {
    "geom:area": 0,
    "geom:bbox": "-122.347340,37.491350,-121.249250,37.609470",
    "geom:latitude": 37.54610301760096,
    "geom:longitude": -121.80297638612821,
    "src:alt_label": "swim-approach",
    "src:geom": "swim",
    "swim:elevations": [
      4820,
      4795,
      4334,
      4266,
      4206,
      4045,
      3582,
      3383,
      3292,
      3184,
      2903,
      2709,
      2538,
      2410,
      2290,
      2075,
      1831,
      1829,
      1661,
      1586,
      1366,
      1190,
      938,
      884,
      703,
      633,
      573,
      325,
      243,
      183,
      91
    ],
    "swim:geom": "approach",
    "swim:timestamps": [
      1789225708,
      1789225712,
      1789225768,
      1789225788,
      1789225804,
      1789225830,
      1789225884,
      1789225908,
      1789225937,
      1789225954,
      1789225992,
      1789226017,
      1789226062,
      1789226095,
      1789226112,
      1789226134,
      1789226171,
      1789226190,
      1789226243,
      1789226260,
      1789226304,
      1789226330,
      1789226365,
      1789226395,
      1789226424,
      1789226435,
      1789226462,
      1789226518,
      1789226537,
      1789226558,
      1789226586
    ],
    "wof:geomhash": "0dc6128197ab314fa0e466aa0ddd31e4",
    "wof:id": 2048314925,
    "wof:repo": "sfomuseum-data-flights-2026-09"
  },
  "bbox": [
    -122.34734,
    37.49135,
    -121.24925,
    37.60947
  ],
  "geometry": {"type":"LineString","coordinates":[[-121.24925,37.59454],[-121.25556,37.59369],[-121.36058,37.58147],[-121.39487,37.57751],[-121.42089,37.57452],[-121.46023,37.56993],[-121.54016,37.56063],[-121.5749,37.55655],[-121.61716,37.55155],[-121.64144,37.5467],[-121.69543,37.53378],[-121.73069,37.52531],[-121.79457,37.5101],[-121.83949,37.49939],[-121.86015,37.49447],[-121.88956,37.49135],[-121.93742,37.49256],[-121.96159,37.49321],[-122.02794,37.50784],[-122.04842,37.51441],[-122.09492,37.52946],[-122.12143,37.53797],[-122.15626,37.54928],[-122.18643,37.55903],[-122.21685,37.56886],[-122.22722,37.57214],[-122.25302,37.58052],[-122.29915,37.59254],[-122.31203,37.59601],[-122.32767,37.60111],[-122.34734,37.60947]]}
}
