{
  "id": 2048271227,
  "type": "Feature",
  "properties": {
    "geom:area": 0,
    "geom:bbox": "-122.394400,37.624500,-121.358180,37.990970",
    "geom:latitude": 37.93473606135373,
    "geom:longitude": -121.98009662781516,
    "src:alt_label": "swim-takeoff",
    "src:geom": "swim",
    "swim:elevations": [
      183,
      281,
      4428,
      4708,
      4733,
      4767,
      4824,
      4847,
      4877,
      4919,
      4967,
      5009,
      5030,
      5053,
      5126,
      6490,
      8290
    ],
    "swim:geom": "takeoff",
    "swim:timestamps": [
      1788739715,
      1788739723,
      1788740054,
      1788740090,
      1788740093,
      1788740096,
      1788740102,
      1788740105,
      1788740108,
      1788740111,
      1788740115,
      1788740120,
      1788740123,
      1788740126,
      1788740132,
      1788740265,
      1788740481
    ],
    "wof:geomhash": "b8cf023a954e82bf8f01edd6f42bfc3e",
    "wof:id": 2048271227,
    "wof:repo": "sfomuseum-data-flights-2026-09"
  },
  "bbox": [
    -122.3944,
    37.6245,
    -121.35818,
    37.99097
  ],
  "geometry": {"type":"LineString","coordinates":[[-122.38853,37.6245],[-122.3944,37.62781],[-122.32619,37.96405],[-122.25401,37.9701],[-122.24785,37.97084],[-122.24161,37.97157],[-122.22916,37.97299],[-122.22299,37.97377],[-122.21678,37.97459],[-122.21056,37.97548],[-122.20365,37.97649],[-122.19367,37.97811],[-122.18741,37.97915],[-122.18112,37.98023],[-122.16864,37.98246],[-121.87386,37.98973],[-121.35818,37.99097]]}
}
