{
  "id": 2048468997,
  "type": "Feature",
  "properties": {
    "geom:area": 0,
    "geom:bbox": "-122.365890,37.628940,-121.268480,38.052050",
    "geom:latitude": 37.87206179688918,
    "geom:longitude": -121.82904887011208,
    "src:alt_label": "swim-takeoff",
    "src:geom": "swim",
    "swim:elevations": [
      122,
      291,
      548,
      795,
      1142,
      1450,
      1846,
      2066,
      2304,
      2610,
      3040,
      3281,
      3419,
      3740,
      3829,
      4075,
      4381,
      4441,
      4875,
      5259,
      5583,
      5896
    ],
    "swim:geom": "takeoff",
    "swim:timestamps": [
      1790689977,
      1790689990,
      1790690023,
      1790690053,
      1790690094,
      1790690121,
      1790690155,
      1790690171,
      1790690193,
      1790690222,
      1790690257,
      1790690301,
      1790690328,
      1790690366,
      1790690383,
      1790690418,
      1790690454,
      1790690463,
      1790690526,
      1790690574,
      1790690598,
      1790690645
    ],
    "wof:geomhash": "b9654d5a02b2cffe541295117d2aa099",
    "wof:id": 2048468997,
    "wof:repo": "sfomuseum-data-flights-2026-09"
  },
  "bbox": [
    -122.36589,
    37.62894,
    -121.26848,
    38.05205
  ],
  "geometry": {"type":"LineString","coordinates":[[-122.36589,37.62894],[-122.35748,37.63825],[-122.32763,37.65554],[-122.29644,37.67361],[-122.24961,37.70007],[-122.21454,37.71779],[-122.16996,37.73942],[-122.14717,37.7489],[-122.11643,37.76235],[-122.07456,37.77987],[-122.02289,37.80098],[-121.95546,37.82947],[-121.90871,37.8482],[-121.84262,37.87604],[-121.81119,37.88913],[-121.7457,37.91611],[-121.67681,37.9443],[-121.66073,37.95088],[-121.53606,38.00097],[-121.42842,38.0236],[-121.37479,38.03313],[-121.26848,38.05205]]}
}
