{
  "id": 2048421197,
  "type": "Feature",
  "properties": {
    "geom:area": 0,
    "geom:bbox": "-122.333333,35.874167,-115.153889,37.700000",
    "geom:latitude": 37.153816566830756,
    "geom:longitude": -118.565928359652,
    "src:alt_label": "swim-path",
    "src:geom": "swim",
    "swim:altitudes": [
      "037",
      "055",
      "060",
      "078",
      "083",
      "108",
      "115",
      "142",
      "167",
      "193",
      "216",
      "240",
      "261",
      "276",
      "296",
      "316",
      "336",
      "357",
      "360C",
      "360C",
      "360C",
      "360C",
      "360C",
      "360C",
      "360C",
      "360C",
      "360C",
      "360C",
      "360C",
      "360C",
      "360C",
      "360C",
      "360C",
      "360C",
      "360C",
      "360C",
      "360C",
      "360C",
      "360",
      "360",
      "352",
      "342C",
      "340C",
      "340C",
      "340C",
      "340",
      "339",
      "304",
      "292",
      "285",
      "269",
      "262",
      "251",
      "239",
      "228",
      "221",
      "211",
      "200",
      "186",
      "179",
      "169",
      "158",
      "148",
      "139",
      "129",
      "120",
      "110",
      "104",
      "101",
      "097",
      "090",
      "084",
      "079",
      "073",
      "067",
      "062",
      "060",
      "056",
      "049",
      "043",
      "036",
      "031",
      "024",
      "019",
      "014",
      "011",
      "007",
      "004"
    ],
    "swim:geom": "path",
    "swim:speeds": [
      186,
      231,
      230,
      260,
      263,
      289,
      287,
      327,
      370,
      388,
      412,
      425,
      439,
      451,
      471,
      468,
      465,
      454,
      452,
      452,
      452,
      451,
      450,
      448,
      447,
      447,
      448,
      449,
      450,
      453,
      456,
      458,
      460,
      461,
      461,
      460,
      460,
      460,
      459,
      458,
      457,
      458,
      457,
      456,
      455,
      455,
      455,
      451,
      440,
      431,
      420,
      414,
      407,
      396,
      382,
      374,
      376,
      377,
      375,
      368,
      368,
      358,
      358,
      348,
      347,
      336,
      334,
      320,
      296,
      272,
      274,
      267,
      261,
      255,
      255,
      252,
      252,
      257,
      254,
      258,
      254,
      233,
      215,
      187,
      168,
      142,
      142,
      137
    ],
    "swim:timestamps": [
      1790271532,
      1790271592,
      1790271607,
      1790271652,
      1790271667,
      1790271712,
      1790271727,
      1790271787,
      1790271847,
      1790271907,
      1790271967,
      1790272027,
      1790272087,
      1790272147,
      1790272211,
      1790272268,
      1790272328,
      1790272391,
      1790272448,
      1790272508,
      1790272568,
      1790272628,
      1790272688,
      1790272749,
      1790272809,
      1790272869,
      1790272932,
      1790272989,
      1790273049,
      1790273109,
      1790273169,
      1790273229,
      1790273293,
      1790273350,
      1790273407,
      1790273413,
      1790273467,
      1790273473,
      1790273527,
      1790273533,
      1790273593,
      1790273653,
      1790273713,
      1790273773,
      1790273833,
      1790273893,
      1790273954,
      1790274045,
      1790274074,
      1790274093,
      1790274134,
      1790274153,
      1790274194,
      1790274214,
      1790274254,
      1790274274,
      1790274314,
      1790274334,
      1790274374,
      1790274394,
      1790274434,
      1790274453,
      1790274494,
      1790274514,
      1790274554,
      1790274574,
      1790274615,
      1790274634,
      1790274675,
      1790274694,
      1790274735,
      1790274754,
      1790274795,
      1790274814,
      1790274855,
      1790274874,
      1790274915,
      1790274934,
      1790274975,
      1790274994,
      1790275035,
      1790275053,
      1790275095,
      1790275113,
      1790275155,
      1790275174,
      1790275215,
      1790275228
    ],
    "wof:geomhash": "012a0d6c82204f86212ff27a1c3cb169",
    "wof:id": 2048421197,
    "wof:repo": "sfomuseum-data-flights-2026-09"
  },
  "bbox": [
    -122.33333333333333,
    35.87416666666667,
    -115.1538888888889,
    37.7
  ],
  "geometry": {"type":"LineString","coordinates":[[-115.1538888888889,36.125],[-115.22333333333333,36.11888888888889],[-115.23805555555556,36.114444444444445],[-115.29777777777778,36.092222222222226],[-115.30555555555556,36.07972222222222],[-115.35416666666666,36.030833333333334],[-115.36777777777777,36.01916666666666],[-115.44472222222223,35.959722222222226],[-115.53611111111111,35.89083333333333],[-115.6613888888889,35.87416666666667],[-115.80027777777778,35.88611111111111],[-115.94444444444444,35.906666666666666],[-116.06027777777777,35.99388888888889],[-116.15138888888889,36.0675],[-116.28944444444444,36.178888888888885],[-116.39583333333334,36.26416666666667],[-116.50694444444444,36.35638888888889],[-116.62277777777777,36.45444444444445],[-116.71833333333333,36.53916666666667],[-116.81083333333333,36.620555555555555],[-116.92833333333334,36.723888888888894],[-116.99861111111112,36.82],[-117.07138888888889,36.93222222222222],[-117.14333333333335,37.0425],[-117.21416666666667,37.15138888888889],[-117.28694444444444,37.26305555555555],[-117.40111111111112,37.382777777777775],[-117.4825,37.45888888888889],[-117.62694444444443,37.5025],[-117.78611111111111,37.51638888888889],[-117.94777777777779,37.52916666666667],[-118.1086111111111,37.54194444444444],[-118.30277777777778,37.55694444444444],[-118.43444444444445,37.56666666666667],[-118.59166666666667,37.578611111111115],[-118.62416666666665,37.58111111111111],[-118.75277777777778,37.59055555555556],[-118.78388888888888,37.59277777777778],[-118.91166666666668,37.60194444444445],[-118.93361111111112,37.603611111111114],[-119.0975,37.61527777777778],[-119.25722222222223,37.626111111111115],[-119.41472222222222,37.636944444444445],[-119.57416666666666,37.6475],[-119.735,37.657777777777774],[-119.89222222222223,37.668055555555554],[-120.0525,37.67805555555555],[-120.28333333333333,37.7],[-120.365,37.69694444444444],[-120.41666666666667,37.7],[-120.51222222222222,37.686388888888885],[-120.55,37.68333333333333],[-120.62555555555555,37.67333333333333],[-120.7,37.666666666666664],[-120.78916666666666,37.653888888888886],[-120.83333333333333,37.65],[-120.89333333333335,37.64138888888889],[-120.96666666666667,37.63333333333333],[-121.04916666666666,37.62166666666667],[-121.08333333333333,37.61666666666667],[-121.15111111111112,37.60777777777778],[-121.21666666666667,37.6],[-121.28222222222222,37.59027777777778],[-121.33333333333333,37.583333333333336],[-121.40111111111112,37.577222222222225],[-121.45,37.56666666666667],[-121.51777777777778,37.56333333333333],[-121.56666666666666,37.55],[-121.62472222222222,37.550555555555555],[-121.66666666666667,37.53333333333333],[-121.71555555555555,37.52916666666667],[-121.75,37.516666666666666],[-121.80444444444444,37.507777777777775],[-121.85,37.5],[-121.8888888888889,37.49111111111111],[-121.93333333333334,37.5],[-121.9888888888889,37.49527777777778],[-122.01666666666667,37.5],[-122.0611111111111,37.51833333333333],[-122.1,37.53333333333333],[-122.1438888888889,37.544999999999995],[-122.18333333333334,37.55],[-122.21611111111112,37.56888888888889],[-122.25,37.583333333333336],[-122.275,37.58694444444445],[-122.3,37.6],[-122.32111111111111,37.60055555555556],[-122.33333333333333,37.6]]}
}
