{
  "id": 2048421523,
  "type": "Feature",
  "properties": {
    "geom:area": 0,
    "geom:bbox": "-122.351111,37.491389,-112.007222,40.838889",
    "geom:latitude": 38.538595181139186,
    "geom:longitude": -116.83664709845387,
    "src:alt_label": "swim-path",
    "src:geom": "swim",
    "swim:altitudes": [
      "053",
      "056",
      "075",
      "098",
      "114",
      "138",
      "156",
      "174",
      "212",
      "232",
      "250",
      "265",
      "279",
      "294",
      "309",
      "320",
      "329",
      "330",
      "330",
      "330",
      "336",
      "349",
      "359C",
      "360C",
      "360C",
      "360C",
      "360C",
      "360C",
      "360C",
      "360C",
      "360C",
      "360C",
      "360C",
      "360C",
      "360C",
      "360C",
      "360C",
      "360C",
      "360C",
      "360C",
      "360C",
      "360C",
      "360C",
      "360C",
      "360C",
      "360C",
      "360C",
      "360C",
      "360C",
      "360C",
      "360C",
      "360C",
      "360C",
      "360C",
      "360C",
      "360C",
      "360C",
      "360C",
      "360C",
      "360C",
      "360C",
      "360C",
      "360C",
      "360C",
      "360C",
      "360C",
      "360C",
      "360C",
      "360C",
      "360C",
      "360C",
      "360C",
      "360C",
      "360C",
      "360C",
      "360C",
      "360C",
      "360C",
      "360C",
      "360C",
      "360C",
      "360C",
      "360C",
      "360",
      "360",
      "360",
      "351",
      "324",
      "307",
      "286",
      "277",
      "265",
      "247",
      "244",
      "225",
      "222",
      "200",
      "184",
      "178",
      "162",
      "154",
      "140",
      "134",
      "121",
      "115",
      "107",
      "105",
      "099",
      "093",
      "083",
      "081",
      "070",
      "069",
      "062",
      "060",
      "053",
      "049",
      "042",
      "037",
      "031",
      "028",
      "021",
      "017",
      "013",
      "010",
      "005",
      "002"
    ],
    "swim:geom": "path",
    "swim:speeds": [
      196,
      196,
      236,
      268,
      318,
      327,
      358,
      376,
      391,
      411,
      415,
      425,
      431,
      434,
      433,
      434,
      436,
      439,
      441,
      443,
      445,
      444,
      439,
      437,
      436,
      435,
      436,
      436,
      436,
      436,
      438,
      437,
      438,
      438,
      438,
      440,
      439,
      441,
      441,
      443,
      443,
      444,
      445,
      446,
      446,
      447,
      448,
      448,
      449,
      450,
      450,
      450,
      450,
      449,
      449,
      448,
      448,
      447,
      447,
      446,
      445,
      444,
      442,
      442,
      440,
      440,
      439,
      438,
      438,
      438,
      438,
      439,
      439,
      439,
      440,
      440,
      441,
      441,
      442,
      442,
      442,
      441,
      441,
      441,
      440,
      438,
      436,
      435,
      434,
      428,
      422,
      418,
      405,
      405,
      390,
      394,
      384,
      373,
      376,
      364,
      367,
      359,
      361,
      340,
      336,
      307,
      295,
      274,
      278,
      274,
      271,
      259,
      260,
      243,
      241,
      237,
      234,
      233,
      225,
      196,
      193,
      187,
      182,
      142,
      142,
      138,
      139
    ],
    "swim:timestamps": [
      1790290259,
      1790290278,
      1790290338,
      1790290398,
      1790290458,
      1790290519,
      1790290579,
      1790290639,
      1790290771,
      1790290831,
      1790290891,
      1790290951,
      1790291011,
      1790291071,
      1790291131,
      1790291191,
      1790291252,
      1790291312,
      1790291372,
      1790291432,
      1790291492,
      1790291552,
      1790291612,
      1790291672,
      1790291732,
      1790291792,
      1790291852,
      1790291912,
      1790291973,
      1790292033,
      1790292077,
      1790292093,
      1790292137,
      1790292165,
      1790292197,
      1790292225,
      1790292257,
      1790292285,
      1790292317,
      1790292345,
      1790292378,
      1790292405,
      1790292438,
      1790292465,
      1790292498,
      1790292525,
      1790292558,
      1790292585,
      1790292618,
      1790292645,
      1790292678,
      1790292705,
      1790292738,
      1790292766,
      1790292798,
      1790292826,
      1790292858,
      1790292886,
      1790292918,
      1790292946,
      1790292978,
      1790293006,
      1790293039,
      1790293066,
      1790293099,
      1790293126,
      1790293159,
      1790293186,
      1790293219,
      1790293246,
      1790293279,
      1790293306,
      1790293339,
      1790293366,
      1790293399,
      1790293426,
      1790293459,
      1790293519,
      1790293579,
      1790293639,
      1790293700,
      1790293760,
      1790293820,
      1790293880,
      1790293940,
      1790294000,
      1790294060,
      1790294120,
      1790294180,
      1790294240,
      1790294256,
      1790294301,
      1790294341,
      1790294361,
      1790294401,
      1790294421,
      1790294481,
      1790294515,
      1790294541,
      1790294575,
      1790294601,
      1790294641,
      1790294661,
      1790294695,
      1790294721,
      1790294756,
      1790294781,
      1790294816,
      1790294841,
      1790294881,
      1790294901,
      1790294941,
      1790294962,
      1790295001,
      1790295022,
      1790295056,
      1790295082,
      1790295116,
      1790295142,
      1790295175,
      1790295202,
      1790295236,
      1790295262,
      1790295296,
      1790295322,
      1790295356,
      1790295382
    ],
    "wof:geomhash": "d41c389337ab6e237bf8487528c5f5d3",
    "wof:id": 2048421523,
    "wof:repo": "sfomuseum-data-flights-2026-09"
  },
  "bbox": [
    -122.35111111111111,
    37.49138888888889,
    -112.00722222222223,
    40.83888888888889
  ],
  "geometry": {"type":"LineString","coordinates":[[-112.00722222222223,40.825],[-112.015,40.830555555555556],[-112.09833333333333,40.83888888888889],[-112.18194444444445,40.81305555555555],[-112.26333333333334,40.755833333333335],[-112.29083333333332,40.66972222222222],[-112.31027777777777,40.572500000000005],[-112.34972222222221,40.473055555555554],[-112.435,40.26611111111111],[-112.49833333333333,40.14],[-112.57,40.03666666666666],[-112.6438888888889,39.93138888888889],[-112.71722222222222,39.82694444444445],[-112.79416666666667,39.71611111111111],[-112.89111111111112,39.617222222222225],[-112.99944444444445,39.52166666666667],[-113.09638888888888,39.43611111111111],[-113.18055555555556,39.361666666666665],[-113.33194444444445,39.27722222222222],[-113.48194444444445,39.23416666666667],[-113.6325,39.191111111111105],[-113.78,39.14888888888889],[-113.92500000000001,39.10722222222223],[-114.06916666666666,39.06527777777777],[-114.21416666666667,39.02305555555555],[-114.36055555555555,38.980000000000004],[-114.50527777777778,38.937777777777775],[-114.64944444444446,38.894999999999996],[-114.79277777777777,38.852222222222224],[-114.93861111111111,38.80833333333333],[-115.05583333333333,38.77333333333333],[-115.08388888888888,38.764722222222225],[-115.20166666666667,38.72944444444445],[-115.22888888888889,38.720555555555556],[-115.3475,38.68416666666666],[-115.42888888888889,38.65972222222222],[-115.48805555555556,38.64083333333333],[-115.57527777777777,38.61472222222223],[-115.63555555555556,38.59722222222222],[-115.72194444444445,38.56944444444445],[-115.78277777777778,38.550555555555555],[-115.86916666666666,38.52388888888889],[-115.92805555555556,38.50555555555555],[-116.01583333333333,38.47833333333333],[-116.07694444444444,38.45916666666667],[-116.16583333333334,38.43111111111111],[-116.22472222222223,38.41416666666667],[-116.31611111111111,38.39055555555556],[-116.3786111111111,38.37444444444444],[-116.46805555555555,38.35111111111111],[-116.52972222222222,38.335],[-116.61972222222222,38.31166666666666],[-116.67972222222222,38.295833333333334],[-116.76916666666666,38.27222222222222],[-116.83,38.25611111111111],[-116.91777777777779,38.23305555555556],[-116.98111111111112,38.21611111111111],[-117.06722222222221,38.19305555555555],[-117.1236111111111,38.17833333333333],[-117.20861111111111,38.15555555555555],[-117.27194444444444,38.13861111111111],[-117.34888888888888,38.11805555555556],[-117.43805555555556,38.093611111111116],[-117.49583333333334,38.07805555555556],[-117.58611111111111,38.05361111111111],[-117.64194444444445,38.038333333333334],[-117.73111111111112,38.013888888888886],[-117.78888888888889,38.00194444444445],[-117.88138888888888,37.99166666666667],[-117.94166666666668,37.98527777777778],[-118.03444444444445,37.97555555555556],[-118.09305555555555,37.969166666666666],[-118.1888888888889,37.95888888888889],[-118.24805555555555,37.9525],[-118.34166666666667,37.942499999999995],[-118.4038888888889,37.93555555555555],[-118.4975,37.92527777777777],[-118.64916666666667,37.90861111111111],[-118.80444444444444,37.89111111111111],[-118.9588888888889,37.87361111111111],[-119.11666666666666,37.855555555555554],[-119.26888888888888,37.83777777777778],[-119.42361111111111,37.81944444444445],[-119.57583333333334,37.80138888888889],[-119.7275,37.783055555555556],[-119.87805555555555,37.764722222222225],[-120.03,37.74611111111111],[-120.18083333333334,37.7275],[-120.30027777777778,37.712500000000006],[-120.44861111111112,37.693888888888885],[-120.51666666666667,37.68333333333333],[-120.59583333333333,37.676944444444445],[-120.71666666666667,37.666666666666664],[-120.73555555555555,37.660555555555554],[-120.85,37.65],[-120.87055555555555,37.64416666666666],[-121.00444444444445,37.6275],[-121.1,37.61666666666667],[-121.13472222222222,37.61],[-121.23333333333333,37.6],[-121.2775,37.590833333333336],[-121.36666666666666,37.583333333333336],[-121.40055555555556,37.57694444444445],[-121.46666666666667,37.56666666666667],[-121.51861111111111,37.56333333333333],[-121.58333333333333,37.55],[-121.62555555555555,37.550555555555555],[-121.68333333333334,37.53333333333333],[-121.71888888888888,37.52833333333333],[-121.78333333333333,37.516666666666666],[-121.81027777777777,37.506388888888885],[-121.86666666666666,37.5],[-121.89861111111112,37.49138888888889],[-121.96666666666667,37.5],[-121.98444444444445,37.49444444444445],[-122.03333333333333,37.516666666666666],[-122.06083333333333,37.51833333333333],[-122.1,37.53333333333333],[-122.135,37.54222222222222],[-122.16666666666667,37.55],[-122.19916666666667,37.56305555555555],[-122.23333333333333,37.583333333333336],[-122.25777777777778,37.581944444444446],[-122.28333333333333,37.583333333333336],[-122.30722222222222,37.59583333333334],[-122.33333333333333,37.6],[-122.35111111111111,37.611111111111114]]}
}
