{
  "id": 2048426741,
  "type": "Feature",
  "properties": {
    "geom:area": 0,
    "geom:bbox": "-122.546490,36.718420,-121.294710,37.666850",
    "geom:latitude": 37.20529721514624,
    "geom:longitude": -122.00332579484314,
    "src:alt_label": "swim-takeoff",
    "src:geom": "swim",
    "swim:elevations": [
      183,
      874,
      1262,
      1535,
      1916,
      2532,
      3309,
      3759,
      3994,
      4521,
      4613,
      4837,
      5303,
      5657,
      5826,
      6077,
      6377,
      6539,
      6617,
      7050,
      7281,
      7641,
      7721,
      7868,
      7933,
      8145,
      8713,
      8904,
      9003,
      9043,
      9228
    ],
    "swim:geom": "takeoff",
    "swim:timestamps": [
      1790279677,
      1790279727,
      1790279771,
      1790279798,
      1790279826,
      1790279866,
      1790279931,
      1790279979,
      1790280000,
      1790280038,
      1790280045,
      1790280067,
      1790280114,
      1790280148,
      1790280162,
      1790280188,
      1790280218,
      1790280236,
      1790280245,
      1790280293,
      1790280318,
      1790280358,
      1790280370,
      1790280388,
      1790280397,
      1790280424,
      1790280503,
      1790280538,
      1790280566,
      1790280572,
      1790280610
    ],
    "wof:geomhash": "036e782f4ff438f9a71f627e11f4f7da",
    "wof:id": 2048426741,
    "wof:repo": "sfomuseum-data-flights-2026-09"
  },
  "bbox": [
    -122.54649,
    36.71842,
    -121.29471,
    37.66685
  ],
  "geometry": {"type":"LineString","coordinates":[[-122.38494,37.62522],[-122.42928,37.64222],[-122.47963,37.66287],[-122.51681,37.66685],[-122.54649,37.64495],[-122.53507,37.59599],[-122.49102,37.51882],[-122.43394,37.46185],[-122.40052,37.44137],[-122.33955,37.40302],[-122.3286,37.39589],[-122.29336,37.37322],[-122.21394,37.32266],[-122.15837,37.28606],[-122.13334,37.26956],[-122.08844,37.24013],[-122.03758,37.20714],[-122.0046,37.18581],[-121.98893,37.17567],[-121.9023,37.11949],[-121.85654,37.08967],[-121.78175,37.04078],[-121.7593,37.02609],[-121.72604,37.00457],[-121.70786,36.99263],[-121.65826,36.95904],[-121.50684,36.8591],[-121.43823,36.81378],[-121.38323,36.77692],[-121.37114,36.76902],[-121.29471,36.71842]]}
}
