{
  "id": 2048427389,
  "type": "Feature",
  "properties": {
    "geom:area": 0,
    "geom:bbox": "-122.357720,37.474020,-121.270740,37.613960",
    "geom:latitude": 37.538433397715615,
    "geom:longitude": -121.82176756344289,
    "src:alt_label": "swim-approach",
    "src:geom": "swim",
    "swim:elevations": [
      4769,
      4423,
      4131,
      3997,
      3886,
      3353,
      3347,
      3227,
      3042,
      2894,
      2536,
      2436,
      2438,
      2349,
      2162,
      2134,
      2134,
      2134,
      1799,
      1625,
      1477,
      1329,
      1038,
      1015,
      745,
      669,
      459,
      393,
      314,
      174,
      77
    ],
    "swim:geom": "approach",
    "swim:timestamps": [
      1790332580,
      1790332616,
      1790332647,
      1790332661,
      1790332675,
      1790332762,
      1790332788,
      1790332813,
      1790332847,
      1790332866,
      1790332908,
      1790332937,
      1790332960,
      1790332994,
      1790333023,
      1790333054,
      1790333059,
      1790333073,
      1790333124,
      1790333141,
      1790333157,
      1790333175,
      1790333212,
      1790333220,
      1790333269,
      1790333282,
      1790333333,
      1790333350,
      1790333375,
      1790333411,
      1790333455
    ],
    "wof:geomhash": "b83df3e5d8f17b7677880d1b4b143fcb",
    "wof:id": 2048427389,
    "wof:repo": "sfomuseum-data-flights-2026-09"
  },
  "bbox": [
    -122.35772,
    37.47402,
    -121.27074,
    37.61396
  ],
  "geometry": {"type":"LineString","coordinates":[[-121.27074,37.59182],[-121.33777,37.58401],[-121.39606,37.57754],[-121.42184,37.5745],[-121.44725,37.57154],[-121.59917,37.55378],[-121.63939,37.54729],[-121.67271,37.53904],[-121.71725,37.52889],[-121.74031,37.52337],[-121.79387,37.51057],[-121.82628,37.49455],[-121.85141,37.48113],[-121.89627,37.47714],[-121.93344,37.47402],[-121.97319,37.47865],[-121.97991,37.48008],[-121.99788,37.48376],[-122.06171,37.49657],[-122.08246,37.50094],[-122.10216,37.50684],[-122.12234,37.51459],[-122.16251,37.53156],[-122.17061,37.53501],[-122.22057,37.55612],[-122.23356,37.56158],[-122.27464,37.57892],[-122.28641,37.58415],[-122.30406,37.59126],[-122.32863,37.60158],[-122.35772,37.61396]]}
}
