{
  "id": 2048395121,
  "type": "Feature",
  "properties": {
    "geom:area": 0,
    "geom:bbox": "-122.358120,37.492000,-121.289860,37.614090",
    "geom:latitude": 37.54523992995517,
    "geom:longitude": -121.82871967670847,
    "src:alt_label": "swim-approach",
    "src:geom": "swim",
    "swim:elevations": [
      4444,
      4202,
      4142,
      3735,
      3669,
      3334,
      3028,
      2642,
      2511,
      2438,
      2373,
      2165,
      2033,
      1855,
      1827,
      1709,
      1654,
      1361,
      1190,
      1021,
      876,
      767,
      630,
      361,
      206,
      180,
      0
    ],
    "swim:geom": "approach",
    "swim:timestamps": [
      1790032618,
      1790032646,
      1790032652,
      1790032701,
      1790032710,
      1790032752,
      1790032796,
      1790032826,
      1790032838,
      1790032868,
      1790032907,
      1790032943,
      1790032973,
      1790033008,
      1790033020,
      1790033066,
      1790033076,
      1790033127,
      1790033148,
      1790033186,
      1790033211,
      1790033232,
      1790033251,
      1790033297,
      1790033331,
      1790033340,
      1790033384
    ],
    "wof:geomhash": "68f8c0e09686c66e357768435f1e7e3c",
    "wof:id": 2048395121,
    "wof:repo": "sfomuseum-data-flights-2026-09"
  },
  "bbox": [
    -122.35812,
    37.492,
    -121.28986,
    37.61409
  ],
  "geometry": {"type":"LineString","coordinates":[[-121.28986,37.58967],[-121.34815,37.58283],[-121.36062,37.58148],[-121.46121,37.57026],[-121.47868,37.5682],[-121.55585,37.55918],[-121.6306,37.54983],[-121.68129,37.53716],[-121.7021,37.53223],[-121.75186,37.52043],[-121.8107,37.50633],[-121.86459,37.49352],[-121.91015,37.492],[-121.96312,37.4933],[-121.98155,37.49416],[-122.04623,37.51386],[-122.05972,37.51823],[-122.12525,37.53941],[-122.15093,37.54771],[-122.19397,37.56154],[-122.21782,37.56933],[-122.23707,37.57544],[-122.25336,37.58082],[-122.29269,37.59247],[-122.31924,37.60022],[-122.3261,37.6023],[-122.35812,37.61409]]}
}
