{
  "id": 2048250743,
  "type": "Feature",
  "properties": {
    "geom:area": 0,
    "geom:bbox": "-123.500580,36.832970,-122.116330,37.612190",
    "geom:latitude": 37.25276993225082,
    "geom:longitude": -122.73379349383629,
    "src:alt_label": "swim-approach",
    "src:geom": "swim",
    "swim:elevations": [
      5822,
      5425,
      5121,
      4938,
      4602,
      4410,
      3790,
      3619,
      3475,
      3262,
      3208,
      3075,
      2974,
      2853,
      2606,
      2350,
      2125,
      1870,
      1830,
      1829,
      1829,
      1829,
      1829,
      1829,
      1819,
      1717,
      1610,
      1508,
      1432,
      1342,
      1247,
      1125,
      995,
      771,
      725,
      496,
      399,
      304,
      208,
      64,
      0
    ],
    "swim:geom": "approach",
    "swim:timestamps": [
      1788507792,
      1788507833,
      1788507865,
      1788507877,
      1788507914,
      1788507934,
      1788507988,
      1788508005,
      1788508022,
      1788508065,
      1788508104,
      1788508135,
      1788508157,
      1788508176,
      1788508211,
      1788508248,
      1788508285,
      1788508317,
      1788508328,
      1788508363,
      1788508406,
      1788508432,
      1788508456,
      1788508472,
      1788508520,
      1788508556,
      1788508575,
      1788508604,
      1788508633,
      1788508664,
      1788508688,
      1788508711,
      1788508741,
      1788508791,
      1788508801,
      1788508854,
      1788508886,
      1788508907,
      1788508937,
      1788508977,
      1788508991
    ],
    "wof:geomhash": "35fb37a998d5154cd0e6207c02ee835d",
    "wof:id": 2048250743,
    "wof:repo": "sfomuseum-data-flights-2026-09"
  },
  "bbox": [
    -123.50058,
    36.83297,
    -122.11633,
    37.61219
  ],
  "geometry": {"type":"LineString","coordinates":[[-123.50058,36.83297],[-123.41706,36.88803],[-123.35603,36.92892],[-123.33261,36.94492],[-123.25978,36.99411],[-123.22257,37.01893],[-123.12288,37.0855],[-123.09289,37.10507],[-123.06311,37.12518],[-122.99244,37.17207],[-122.93644,37.20923],[-122.89022,37.23397],[-122.85571,37.2445],[-122.82498,37.25246],[-122.76962,37.26707],[-122.70904,37.28261],[-122.65039,37.29775],[-122.59699,37.31178],[-122.57932,37.31639],[-122.52253,37.33088],[-122.45368,37.34837],[-122.41531,37.35826],[-122.3785,37.36774],[-122.35491,37.3737],[-122.2825,37.39216],[-122.23117,37.41142],[-122.20606,37.42424],[-122.16952,37.44323],[-122.13578,37.46122],[-122.11633,37.48648],[-122.12268,37.50508],[-122.13765,37.51841],[-122.16437,37.5302],[-122.20825,37.5486],[-122.21616,37.55191],[-122.25944,37.57019],[-122.28317,37.58014],[-122.29852,37.58659],[-122.3196,37.59547],[-122.34905,37.60779],[-122.35925,37.61219]]}
}
