{
  "id": 2048479979,
  "type": "Feature",
  "properties": {
    "geom:area": 0,
    "geom:bbox": "-122.555270,36.720340,-122.318100,37.717480",
    "geom:latitude": 37.24255489856764,
    "geom:longitude": -122.4719460257111,
    "src:alt_label": "swim-takeoff",
    "src:geom": "swim",
    "swim:elevations": [
      352,
      411,
      1018,
      1153,
      1312,
      1361,
      1663,
      2091,
      2957,
      3072,
      3279,
      3459,
      3701,
      4017,
      4617,
      4940,
      5074,
      5523,
      5804,
      6061,
      6416,
      6547,
      6831,
      7175,
      7426,
      7606
    ],
    "swim:geom": "takeoff",
    "swim:timestamps": [
      1790760207,
      1790760212,
      1790760262,
      1790760280,
      1790760310,
      1790760314,
      1790760347,
      1790760379,
      1790760440,
      1790760459,
      1790760506,
      1790760521,
      1790760543,
      1790760570,
      1790760626,
      1790760654,
      1790760665,
      1790760712,
      1790760740,
      1790760767,
      1790760807,
      1790760821,
      1790760853,
      1790760888,
      1790760914,
      1790760940
    ],
    "wof:geomhash": "84b1126d04820bb0610a06d820f7e3e0",
    "wof:id": 2048479979,
    "wof:repo": "sfomuseum-data-flights-2026-09"
  },
  "bbox": [
    -122.55527,
    36.72034,
    -122.3181,
    37.71748
  ],
  "geometry": {"type":"LineString","coordinates":[[-122.36252,37.64185],[-122.36218,37.64572],[-122.36177,37.68354],[-122.36726,37.69817],[-122.39624,37.71672],[-122.40214,37.71748],[-122.44622,37.70186],[-122.45879,37.66127],[-122.46595,37.57582],[-122.469,37.54881],[-122.48024,37.47534],[-122.48513,37.4494],[-122.49188,37.41221],[-122.50013,37.36577],[-122.51758,37.26669],[-122.52661,37.21619],[-122.53003,37.19699],[-122.54568,37.11028],[-122.55527,37.0566],[-122.55453,37.00516],[-122.51169,36.93525],[-122.49455,36.91166],[-122.45415,36.85643],[-122.40338,36.80028],[-122.36088,36.76056],[-122.3181,36.72034]]}
}
