{
  "id": 2048245539,
  "type": "Feature",
  "properties": {
    "geom:area": 0,
    "geom:bbox": "-122.250170,37.705340,-121.283930,37.951660",
    "geom:latitude": 37.840077029901536,
    "geom:longitude": -121.77075675530884,
    "src:alt_label": "swim-takeoff",
    "src:geom": "swim",
    "swim:elevations": [
      2093,
      2244,
      2725,
      3220,
      3376,
      3717,
      3912,
      4109,
      4594,
      4951,
      5107,
      5420,
      5761,
      5864,
      6150,
      6325
    ],
    "swim:geom": "takeoff",
    "swim:timestamps": [
      1788454946,
      1788454955,
      1788454992,
      1788455037,
      1788455064,
      1788455093,
      1788455123,
      1788455141,
      1788455183,
      1788455218,
      1788455231,
      1788455268,
      1788455300,
      1788455316,
      1788455352,
      1788455370
    ],
    "wof:geomhash": "22b23936eee33ba44a9c8e03d5428b78",
    "wof:id": 2048245539,
    "wof:repo": "sfomuseum-data-flights-2026-09"
  },
  "bbox": [
    -122.25017,
    37.70534,
    -121.28393,
    37.95166
  ],
  "geometry": {"type":"LineString","coordinates":[[-122.25017,37.70534],[-122.23595,37.71016],[-122.17967,37.73544],[-122.10494,37.76667],[-122.05084,37.77919],[-121.98762,37.79348],[-121.91821,37.809],[-121.87459,37.81887],[-121.77316,37.84205],[-121.68471,37.86205],[-121.65366,37.86902],[-121.55642,37.89095],[-121.47327,37.90954],[-121.42994,37.9192],[-121.33277,37.94102],[-121.28393,37.95166]]}
}
