{
  "id": 2048458301,
  "type": "Feature",
  "properties": {
    "geom:area": 0,
    "geom:bbox": "-122.362250,37.491520,-121.596730,37.615670",
    "geom:latitude": 37.534942222064764,
    "geom:longitude": -121.98219697321316,
    "src:alt_label": "swim-approach",
    "src:geom": "swim",
    "swim:elevations": [
      3079,
      3076,
      3030,
      2855,
      2626,
      2445,
      2243,
      2136,
      2093,
      1969,
      1859,
      1826,
      1827,
      1532,
      1500,
      1335,
      1271,
      1051,
      1005,
      757,
      723,
      609,
      457,
      273,
      220,
      55,
      0
    ],
    "swim:geom": "approach",
    "swim:timestamps": [
      1790622679,
      1790622682,
      1790622709,
      1790622733,
      1790622766,
      1790622805,
      1790622837,
      1790622857,
      1790622874,
      1790622897,
      1790622923,
      1790622933,
      1790622936,
      1790623007,
      1790623045,
      1790623071,
      1790623081,
      1790623104,
      1790623112,
      1790623164,
      1790623172,
      1790623201,
      1790623238,
      1790623283,
      1790623298,
      1790623343,
      1790623357
    ],
    "wof:geomhash": "0bb53db1f0d38fa1fe69916b70103a2b",
    "wof:id": 2048458301,
    "wof:repo": "sfomuseum-data-flights-2026-09"
  },
  "bbox": [
    -122.36225,
    37.49152,
    -121.59673,
    37.61567
  ],
  "geometry": {"type":"LineString","coordinates":[[-121.59673,37.55404],[-121.60218,37.55341],[-121.64843,37.54499],[-121.68799,37.5359],[-121.74209,37.52272],[-121.80281,37.50817],[-121.8535,37.49608],[-121.88466,37.49152],[-121.91047,37.49186],[-121.94453,37.4927],[-121.98161,37.49425],[-121.99448,37.49693],[-121.99906,37.4982],[-122.07428,37.52266],[-122.10964,37.5341],[-122.13407,37.54209],[-122.14227,37.54488],[-122.16225,37.55146],[-122.16924,37.5536],[-122.21308,37.56752],[-122.22018,37.56984],[-122.24407,37.57758],[-122.27239,37.5863],[-122.30715,37.59644],[-122.31907,37.59997],[-122.35184,37.61135],[-122.36225,37.61567]]}
}
