{
  "id": 2048475965,
  "type": "Feature",
  "properties": {
    "geom:area": 0,
    "geom:bbox": "-123.214167,37.453056,-122.150000,47.613333",
    "geom:latitude": 42.646689986324816,
    "geom:longitude": -122.96555271180316,
    "src:alt_label": "swim-path",
    "src:geom": "swim",
    "swim:altitudes": [
      "025",
      "044",
      "070",
      "108",
      "124",
      "151",
      "176",
      "193",
      "213",
      "230",
      "245",
      "265",
      "278",
      "290",
      "302",
      "315",
      "329",
      "346",
      "357",
      "365",
      "370C",
      "370C",
      "370C",
      "370C",
      "370C",
      "370C",
      "370C",
      "370C",
      "371C",
      "370C",
      "370C",
      "370C",
      "370C",
      "370C",
      "370C",
      "370C",
      "370C",
      "370C",
      "370C",
      "370C",
      "370C",
      "370C",
      "370C",
      "370C",
      "370C",
      "370C",
      "370C",
      "370C",
      "370C",
      "370C",
      "370C",
      "370C",
      "370C",
      "370C",
      "370C",
      "370C",
      "370C",
      "370C",
      "370C",
      "370C",
      "370C",
      "370C",
      "370C",
      "370C",
      "370C",
      "370C",
      "370C",
      "370C",
      "370C",
      "370",
      "370",
      "370",
      "370",
      "370",
      "370",
      "370",
      "369",
      "348",
      "324",
      "303",
      "282",
      "260",
      "217",
      "178",
      "152",
      "135",
      "121",
      "117",
      "111",
      "110C",
      "110",
      "111C",
      "109",
      "106",
      "089",
      "085",
      "074",
      "071",
      "055",
      "051",
      "037",
      "034"
    ],
    "swim:geom": "path",
    "swim:speeds": [
      170,
      216,
      273,
      280,
      332,
      356,
      365,
      382,
      392,
      405,
      423,
      449,
      453,
      464,
      470,
      472,
      473,
      463,
      456,
      455,
      458,
      462,
      464,
      465,
      466,
      467,
      468,
      469,
      470,
      469,
      467,
      466,
      466,
      465,
      465,
      466,
      468,
      471,
      473,
      475,
      475,
      475,
      474,
      474,
      471,
      472,
      469,
      468,
      467,
      466,
      466,
      466,
      466,
      466,
      466,
      466,
      468,
      467,
      457,
      457,
      456,
      456,
      457,
      458,
      459,
      460,
      460,
      460,
      460,
      460,
      460,
      461,
      461,
      461,
      461,
      460,
      457,
      457,
      462,
      460,
      450,
      440,
      421,
      394,
      379,
      367,
      357,
      360,
      327,
      323,
      310,
      303,
      265,
      262,
      265,
      265,
      251,
      247,
      237,
      204,
      194,
      189
    ],
    "swim:timestamps": [
      1790810864,
      1790810918,
      1790810978,
      1790811038,
      1790811098,
      1790811158,
      1790811219,
      1790811279,
      1790811339,
      1790811399,
      1790811459,
      1790811519,
      1790811579,
      1790811639,
      1790811699,
      1790811759,
      1790811819,
      1790811879,
      1790811939,
      1790811999,
      1790812059,
      1790812119,
      1790812179,
      1790812240,
      1790812300,
      1790812360,
      1790812420,
      1790812480,
      1790812540,
      1790812600,
      1790812660,
      1790812720,
      1790812780,
      1790812840,
      1790812900,
      1790812960,
      1790813020,
      1790813080,
      1790813140,
      1790813201,
      1790813261,
      1790813287,
      1790813321,
      1790813347,
      1790813381,
      1790813407,
      1790813441,
      1790813467,
      1790813501,
      1790813527,
      1790813561,
      1790813587,
      1790813621,
      1790813648,
      1790813681,
      1790813741,
      1790813768,
      1790813801,
      1790814522,
      1790814549,
      1790814582,
      1790814609,
      1790814642,
      1790814669,
      1790814702,
      1790814729,
      1790814762,
      1790814789,
      1790814822,
      1790814849,
      1790814882,
      1790814909,
      1790814942,
      1790814969,
      1790815029,
      1790815090,
      1790815150,
      1790815210,
      1790815270,
      1790815330,
      1790815390,
      1790815450,
      1790815570,
      1790815690,
      1790815750,
      1790815810,
      1790815850,
      1790815871,
      1790815910,
      1790815931,
      1790815970,
      1790815991,
      1790816030,
      1790816051,
      1790816090,
      1790816111,
      1790816150,
      1790816171,
      1790816231,
      1790816275,
      1790816331,
      1790816351
    ],
    "wof:geomhash": "ccea2a853bfbc07b61e139a0d12ab4b2",
    "wof:id": 2048475965,
    "wof:repo": "sfomuseum-data-flights-2026-09"
  },
  "bbox": [
    -123.21416666666667,
    37.45305555555556,
    -122.15,
    47.61333333333334
  ],
  "geometry": {"type":"LineString","coordinates":[[-122.30833333333334,47.4925],[-122.30916666666667,47.540277777777774],[-122.3586111111111,47.60194444444445],[-122.46833333333333,47.61333333333334],[-122.56388888888888,47.558055555555555],[-122.67694444444444,47.483333333333334],[-122.78444444444445,47.4125],[-122.89666666666668,47.33861111111111],[-123.01027777777777,47.263333333333335],[-123.11472222222221,47.175555555555555],[-123.20444444444445,47.08444444444444],[-123.21416666666667,46.961666666666666],[-123.21055555555556,46.836111111111116],[-123.2063888888889,46.70722222222223],[-123.20194444444445,46.57638888888889],[-123.1975,46.44499999999999],[-123.19333333333334,46.312777777777775],[-123.1888888888889,46.18472222222222],[-123.185,46.05888888888889],[-123.18111111111112,45.933055555555555],[-123.17722222222223,45.809444444444445],[-123.17277777777778,45.68138888888889],[-123.16861111111112,45.55138888888889],[-123.16444444444446,45.42194444444444],[-123.16027777777778,45.29055555555556],[-123.1563888888889,45.16222222222222],[-123.15222222222222,45.029444444444444],[-123.14805555555556,44.89833333333333],[-123.14416666666668,44.768055555555556],[-123.14,44.63805555555555],[-123.13611111111112,44.50861111111111],[-123.13111111111111,44.37583333333333],[-123.12666666666667,44.244166666666665],[-123.12194444444444,44.11055555555556],[-123.11722222222221,43.98222222222223],[-123.11277777777777,43.85],[-123.10805555555555,43.72083333333334],[-123.10333333333332,43.58833333333334],[-123.09888888888888,43.45472222222222],[-123.09444444444443,43.32222222222222],[-123.08972222222222,43.19027777777777],[-123.08638888888889,43.14055555555556],[-123.085,43.05916666666666],[-123.08277777777778,43.00944444444445],[-123.08055555555555,42.92916666666667],[-123.07833333333333,42.88],[-123.0761111111111,42.79861111111111],[-123.075,42.75138888888889],[-123.07194444444444,42.672777777777775],[-123.06972222222223,42.62305555555555],[-123.06777777777778,42.54388888888889],[-123.06555555555555,42.494166666666665],[-123.06333333333333,42.41694444444444],[-123.0611111111111,42.36555555555556],[-123.05944444444444,42.2875],[-123.05499999999999,42.15888888888889],[-123.05333333333333,42.10611111111111],[-123.05083333333333,42.02861111111111],[-123.00333333333333,40.47944444444445],[-123.00166666666667,40.42972222222222],[-122.99944444444445,40.35305555555556],[-122.99583333333334,40.30361111111111],[-122.98722222222223,40.22833333333333],[-122.98111111111112,40.175555555555555],[-122.97277777777778,40.10055555555556],[-122.96722222222222,40.05027777777777],[-122.95833333333334,39.97222222222222],[-122.95277777777778,39.922777777777775],[-122.94416666666667,39.844722222222224],[-122.9388888888889,39.79694444444444],[-122.93,39.71666666666667],[-122.92444444444445,39.668055555555554],[-122.91583333333334,39.58861111111111],[-122.91027777777778,39.54111111111111],[-122.89694444444446,39.42055555555555],[-122.88305555555554,39.29388888888889],[-122.86916666666666,39.16833333333333],[-122.8536111111111,39.02611111111111],[-122.84138888888889,38.911944444444444],[-122.8275,38.78472222222222],[-122.81416666666667,38.66111111111111],[-122.80083333333333,38.53861111111111],[-122.77527777777777,38.30083333333333],[-122.72638888888889,38.08444444444444],[-122.69111111111111,37.963055555555556],[-122.64500000000001,37.87361111111111],[-122.58333333333333,37.81666666666667],[-122.56583333333333,37.79861111111111],[-122.51666666666667,37.75],[-122.4925,37.72916666666667],[-122.43333333333334,37.68333333333333],[-122.42222222222223,37.66305555555555],[-122.38333333333334,37.61666666666667],[-122.36527777777778,37.60444444444445],[-122.33333333333333,37.55],[-122.325,37.538333333333334],[-122.3,37.483333333333334],[-122.27722222222222,37.480555555555554],[-122.20166666666667,37.45305555555556],[-122.15,37.483333333333334],[-122.18333333333334,37.516666666666666],[-122.19111111111111,37.52861111111111]]}
}
