{
  "id": 2048236583,
  "type": "Feature",
  "properties": {
    "geom:area": 0,
    "geom:bbox": "-122.398580,37.625670,-122.233000,38.507780",
    "geom:latitude": 38.04148181853337,
    "geom:longitude": -122.2792301971146,
    "src:alt_label": "swim-takeoff",
    "src:geom": "swim",
    "swim:elevations": [
      152,
      710,
      892,
      1392,
      1883,
      1941,
      2705,
      3223,
      3374,
      4005,
      4531,
      4577,
      5294,
      5644,
      6026,
      6278,
      6362,
      6788,
      6967,
      7349,
      7675,
      7851
    ],
    "swim:geom": "takeoff",
    "swim:timestamps": [
      1788384549,
      1788384588,
      1788384601,
      1788384642,
      1788384688,
      1788384691,
      1788384735,
      1788384766,
      1788384783,
      1788384824,
      1788384867,
      1788384870,
      1788384926,
      1788384957,
      1788384987,
      1788385014,
      1788385024,
      1788385078,
      1788385094,
      1788385130,
      1788385164,
      1788385184
    ],
    "wof:geomhash": "8d035b804e636957975dd9152a2bfe3f",
    "wof:id": 2048236583,
    "wof:repo": "sfomuseum-data-flights-2026-09"
  },
  "bbox": [
    -122.39858,
    37.62567,
    -122.233,
    38.50778
  ],
  "geometry": {"type":"LineString","coordinates":[[-122.38594,37.62567],[-122.39858,37.65084],[-122.3901,37.65891],[-122.34447,37.67118],[-122.3021,37.70851],[-122.30195,37.71232],[-122.30583,37.77016],[-122.30164,37.81152],[-122.29667,37.83566],[-122.28725,37.89695],[-122.28018,37.96527],[-122.27962,37.9701],[-122.26793,38.05972],[-122.26162,38.11114],[-122.25522,38.16109],[-122.24958,38.20583],[-122.24752,38.22232],[-122.23566,38.31917],[-122.233,38.34816],[-122.23769,38.41216],[-122.24387,38.47068],[-122.24832,38.50778]]}
}
