{
  "id": 2048412821,
  "type": "Feature",
  "properties": {
    "geom:area": 0,
    "geom:bbox": "-122.340833,37.390833,-122.124167,37.604167",
    "geom:latitude": 37.52093206048613,
    "geom:longitude": -122.20851650056862,
    "src:alt_label": "swim-path",
    "src:geom": "swim",
    "swim:altitudes": [
      "060",
      "057",
      "052",
      "038",
      "032",
      "011",
      "007",
      "004"
    ],
    "swim:geom": "path",
    "swim:speeds": [
      215,
      203,
      193,
      188,
      186,
      158,
      151,
      147
    ],
    "swim:timestamps": [
      1790205263,
      1790205323,
      1790205346,
      1790205406,
      1790205443,
      1790205563,
      1790205586,
      1790205623
    ],
    "wof:geomhash": "988e682dccf29be2977f536e405e51ee",
    "wof:id": 2048412821,
    "wof:repo": "sfomuseum-data-flights-2026-09"
  },
  "bbox": [
    -122.34083333333332,
    37.39083333333333,
    -122.12416666666665,
    37.60416666666667
  ],
  "geometry": {"type":"LineString","coordinates":[[-122.12416666666665,37.39083333333333],[-122.14305555555556,37.44583333333333],[-122.15,37.46666666666667],[-122.16666666666667,37.516666666666666],[-122.18944444444445,37.54055555555556],[-122.29527777777777,37.58527777777778],[-122.31666666666666,37.6],[-122.34083333333332,37.60416666666667]]}
}
