{
  "id": 2048457883,
  "type": "Feature",
  "properties": {
    "geom:area": 0,
    "geom:bbox": "-122.376944,34.116667,-118.383333,37.619444",
    "geom:latitude": 35.86211086440507,
    "geom:longitude": -120.47423720157559,
    "src:alt_label": "swim-path",
    "src:geom": "swim",
    "swim:altitudes": [
      "032",
      "040",
      "051",
      "068",
      "087",
      "104",
      "138",
      "140",
      "149",
      "184",
      "210",
      "226",
      "247",
      "268",
      "280C",
      "280C",
      "280C",
      "280C",
      "280C",
      "280C",
      "280C",
      "281C",
      "280C",
      "280C",
      "280C",
      "280C",
      "280C",
      "280C",
      "280C",
      "280C",
      "278",
      "266",
      "260",
      "260",
      "260",
      "260",
      "260",
      "260",
      "260",
      "260",
      "248",
      "238",
      "227",
      "218",
      "206",
      "178",
      "167",
      "157",
      "145",
      "135",
      "124",
      "114",
      "105",
      "103",
      "098",
      "088",
      "083",
      "074",
      "070",
      "069",
      "066",
      "062",
      "061",
      "060",
      "060",
      "057",
      "051",
      "045",
      "040",
      "036",
      "031",
      "026",
      "024",
      "021",
      "017",
      "013",
      "010",
      "007",
      "004",
      "001"
    ],
    "swim:geom": "path",
    "swim:speeds": [
      210,
      232,
      271,
      274,
      286,
      292,
      320,
      308,
      308,
      367,
      368,
      381,
      400,
      407,
      394,
      416,
      418,
      418,
      416,
      418,
      419,
      419,
      419,
      368,
      362,
      349,
      342,
      373,
      377,
      386,
      399,
      393,
      369,
      357,
      356,
      356,
      357,
      358,
      358,
      359,
      361,
      356,
      353,
      340,
      337,
      316,
      314,
      319,
      316,
      312,
      315,
      314,
      315,
      291,
      279,
      274,
      277,
      278,
      277,
      276,
      263,
      235,
      227,
      216,
      218,
      225,
      219,
      214,
      217,
      195,
      181,
      172,
      166,
      162,
      164,
      134,
      137,
      130,
      125,
      120
    ],
    "swim:timestamps": [
      1790631064,
      1790631099,
      1790631124,
      1790631160,
      1790631184,
      1790631220,
      1790631280,
      1790631340,
      1790631401,
      1790631460,
      1790631522,
      1790631582,
      1790631640,
      1790631700,
      1790631762,
      1790631821,
      1790631882,
      1790631942,
      1790632061,
      1790632122,
      1790632182,
      1790632243,
      1790632303,
      1790632362,
      1790632422,
      1790632483,
      1790632542,
      1790632602,
      1790632663,
      1790632723,
      1790632782,
      1790632843,
      1790632904,
      1790632964,
      1790633024,
      1790633084,
      1790633144,
      1790633160,
      1790633204,
      1790633227,
      1790633264,
      1790633287,
      1790633324,
      1790633347,
      1790633384,
      1790633467,
      1790633504,
      1790633528,
      1790633564,
      1790633587,
      1790633625,
      1790633648,
      1790633685,
      1790633707,
      1790633745,
      1790633773,
      1790633805,
      1790633833,
      1790633865,
      1790633893,
      1790633925,
      1790633953,
      1790633985,
      1790634008,
      1790634045,
      1790634068,
      1790634105,
      1790634128,
      1790634165,
      1790634193,
      1790634225,
      1790634248,
      1790634286,
      1790634308,
      1790634346,
      1790634368,
      1790634406,
      1790634428,
      1790634466,
      1790634526
    ],
    "wof:geomhash": "8cebd6cd62606c331376fe19a82eea5a",
    "wof:id": 2048457883,
    "wof:repo": "sfomuseum-data-flights-2026-09"
  },
  "bbox": [
    -122.37694444444443,
    34.11666666666667,
    -118.38333333333334,
    37.61944444444445
  ],
  "geometry": {"type":"LineString","coordinates":[[-118.38333333333334,34.15],[-118.41055555555556,34.12861111111111],[-118.45,34.11666666666667],[-118.48555555555555,34.14277777777778],[-118.5,34.18333333333333],[-118.5286111111111,34.21555555555556],[-118.57277777777777,34.293055555555554],[-118.62722222222222,34.36527777777778],[-118.67861111111111,34.43444444444444],[-118.745,34.528055555555554],[-118.81583333333333,34.626666666666665],[-118.87249999999999,34.70666666666667],[-118.94472222222223,34.80888888888889],[-119.01555555555555,34.908055555555556],[-119.08166666666666,35.000277777777775],[-119.15194444444445,35.09805555555556],[-119.22527777777778,35.19972222222222],[-119.29777777777778,35.3],[-119.44972222222222,35.48888888888889],[-119.58611111111111,35.527499999999996],[-119.72416666666666,35.55638888888888],[-119.8888888888889,35.590833333333336],[-120.02583333333334,35.618611111111115],[-120.1463888888889,35.643055555555556],[-120.265,35.66694444444444],[-120.37805555555555,35.70333333333333],[-120.46694444444445,35.7575],[-120.56638888888888,35.81888888888889],[-120.6725,35.88333333333333],[-120.78083333333333,35.94083333333333],[-120.91111111111111,35.965],[-121.045,35.99027777777778],[-121.16805555555555,36.024166666666666],[-121.25111111111111,36.096111111111114],[-121.3325,36.16888888888889],[-121.41361111111112,36.24194444444444],[-121.49666666666667,36.316111111111105],[-121.51666666666667,36.333333333333336],[-121.58,36.390277777777776],[-121.61666666666666,36.416666666666664],[-121.66361111111112,36.46472222222223],[-121.7,36.5],[-121.73666666666666,36.544444444444444],[-121.76666666666667,36.583333333333336],[-121.80055555555555,36.62388888888889],[-121.88333333333334,36.733333333333334],[-121.90361111111112,36.778055555555554],[-121.91666666666667,36.81666666666667],[-121.92805555555556,36.86527777777778],[-121.93333333333334,36.9],[-121.95222222222222,36.94916666666666],[-121.96666666666667,36.983333333333334],[-121.98444444444445,37.0325],[-122,37.06666666666667],[-122.01416666666667,37.10916666666667],[-122.03333333333333,37.15],[-122.03861111111111,37.18333333333333],[-122.08333333333333,37.2],[-122.12527777777777,37.209722222222226],[-122.18333333333334,37.233333333333334],[-122.19388888888889,37.2525],[-122.21666666666667,37.28333333333333],[-122.21888888888888,37.315],[-122.23333333333333,37.35],[-122.22222222222223,37.37111111111111],[-122.18333333333334,37.38333333333333],[-122.16444444444446,37.40694444444444],[-122.15,37.43333333333333],[-122.15916666666668,37.46333333333334],[-122.16666666666667,37.5],[-122.17611111111111,37.515277777777776],[-122.18333333333334,37.53333333333333],[-122.21166666666667,37.55],[-122.23333333333333,37.56666666666667],[-122.2611111111111,37.57083333333334],[-122.28333333333333,37.583333333333336],[-122.30388888888889,37.58888888888889],[-122.31666666666666,37.6],[-122.3436111111111,37.605555555555554],[-122.37694444444443,37.61944444444445]]}
}
