{
  "id": 2048351927,
  "type": "Feature",
  "properties": {
    "geom:area": 0,
    "geom:bbox": "-122.393310,37.184500,-122.054260,37.608020",
    "geom:latitude": 37.38496004788993,
    "geom:longitude": -122.23168166536111,
    "src:alt_label": "swim-approach",
    "src:geom": "swim",
    "swim:elevations": [
      3040,
      3047,
      3048,
      3030,
      2879,
      2744,
      2743,
      2622,
      2351,
      2169,
      2109,
      1920,
      1828,
      1829,
      1829,
      1829,
      1829,
      1640,
      1554,
      1464,
      1378,
      1312,
      1219,
      1220,
      1034,
      910,
      810,
      730,
      534,
      448,
      348,
      215,
      157,
      60
    ],
    "swim:geom": "approach",
    "swim:timestamps": [
      1789577875,
      1789577894,
      1789577918,
      1789577964,
      1789577992,
      1789578028,
      1789578035,
      1789578072,
      1789578116,
      1789578146,
      1789578158,
      1789578191,
      1789578223,
      1789578264,
      1789578288,
      1789578300,
      1789578348,
      1789578386,
      1789578409,
      1789578432,
      1789578467,
      1789578495,
      1789578532,
      1789578551,
      1789578593,
      1789578623,
      1789578647,
      1789578665,
      1789578714,
      1789578736,
      1789578763,
      1789578803,
      1789578821,
      1789578851
    ],
    "wof:geomhash": "07cab319fa63fa0b6eadd6502fb169e9",
    "wof:id": 2048351927,
    "wof:repo": "sfomuseum-data-flights-2026-09"
  },
  "bbox": [
    -122.39331,
    37.1845,
    -122.05426,
    37.60802
  ],
  "geometry": {"type":"LineString","coordinates":[[-122.13444,37.1845],[-122.15894,37.19446],[-122.18875,37.20675],[-122.24768,37.22264],[-122.28526,37.23172],[-122.3327,37.24341],[-122.34224,37.24582],[-122.37908,37.26993],[-122.39331,37.32132],[-122.38876,37.35626],[-122.37978,37.36884],[-122.33516,37.37475],[-122.29787,37.35547],[-122.24243,37.34555],[-122.20986,37.33952],[-122.19304,37.33856],[-122.13637,37.36632],[-122.10184,37.4016],[-122.08211,37.42259],[-122.0654,37.44108],[-122.05426,37.46824],[-122.07073,37.4874],[-122.10203,37.50433],[-122.11859,37.51102],[-122.15535,37.52628],[-122.18177,37.53743],[-122.20159,37.54578],[-122.21641,37.55214],[-122.25451,37.56813],[-122.27156,37.57528],[-122.29105,37.58335],[-122.31742,37.59451],[-122.32941,37.59952],[-122.3494,37.60802]]}
}
