{
  "id": 2048435491,
  "type": "Feature",
  "properties": {
    "geom:area": 0,
    "geom:bbox": "-122.406990,37.637890,-121.246950,37.991480",
    "geom:latitude": 37.93998823003994,
    "geom:longitude": -121.9311093242518,
    "src:alt_label": "swim-takeoff",
    "src:geom": "swim",
    "swim:elevations": [
      521,
      1312,
      1491,
      1805,
      2381,
      3706,
      3967,
      4266,
      4577,
      4796,
      5520,
      5775,
      5979,
      6236,
      6403,
      6887,
      7099,
      7172,
      7340
    ],
    "swim:geom": "takeoff",
    "swim:timestamps": [
      1790381706,
      1790381786,
      1790381802,
      1790381833,
      1790381877,
      1790381993,
      1790382035,
      1790382064,
      1790382096,
      1790382120,
      1790382200,
      1790382235,
      1790382256,
      1790382283,
      1790382304,
      1790382358,
      1790382388,
      1790382395,
      1790382422
    ],
    "wof:geomhash": "1d764f956b2b789cf5c8027e5aeece95",
    "wof:id": 2048435491,
    "wof:repo": "sfomuseum-data-flights-2026-09"
  },
  "bbox": [
    -122.40699,
    37.63789,
    -121.24695,
    37.99148
  ],
  "geometry": {"type":"LineString","coordinates":[[-122.40699,37.63789],[-122.36161,37.70322],[-122.34658,37.71887],[-122.34162,37.75552],[-122.36953,37.81012],[-122.33614,37.96039],[-122.24981,37.97393],[-122.18192,37.9816],[-122.10836,37.98795],[-122.05065,37.98893],[-121.85145,37.99072],[-121.75874,37.99131],[-121.70505,37.99148],[-121.63192,37.99144],[-121.5752,37.9913],[-121.42582,37.99114],[-121.34217,37.99118],[-121.32343,37.99117],[-121.24695,37.99116]]}
}
