{
  "id": 2048457025,
  "type": "Feature",
  "properties": {
    "geom:area": 0,
    "geom:bbox": "-122.362470,36.721920,-121.878280,37.613130",
    "geom:latitude": 37.22155691448263,
    "geom:longitude": -122.07028456991905,
    "src:alt_label": "swim-approach",
    "src:geom": "swim",
    "swim:elevations": [
      5320,
      5247,
      5077,
      4933,
      4554,
      4245,
      3976,
      3778,
      3658,
      3276,
      3168,
      3058,
      2875,
      2669,
      2448,
      2438,
      2438,
      2438,
      2283,
      2061,
      1944,
      1709,
      1687,
      1409,
      1187,
      1083,
      972,
      914,
      914,
      882,
      786,
      703,
      592,
      489,
      394,
      336,
      243,
      193,
      148,
      332
    ],
    "swim:geom": "approach",
    "swim:timestamps": [
      1790585963,
      1790585980,
      1790586004,
      1790586017,
      1790586051,
      1790586080,
      1790586104,
      1790586120,
      1790586132,
      1790586169,
      1790586189,
      1790586217,
      1790586242,
      1790586271,
      1790586303,
      1790586340,
      1790586356,
      1790586381,
      1790586413,
      1790586447,
      1790586469,
      1790586506,
      1790586514,
      1790586558,
      1790586586,
      1790586600,
      1790586617,
      1790586650,
      1790586681,
      1790586713,
      1790586733,
      1790586748,
      1790586777,
      1790586806,
      1790586835,
      1790586845,
      1790586874,
      1790586888,
      1790586901,
      1790586943
    ],
    "wof:geomhash": "e28fedc03e46e668c1184b330ed863fd",
    "wof:id": 2048457025,
    "wof:repo": "sfomuseum-data-flights-2026-09"
  },
  "bbox": [
    -122.36247,
    36.72192,
    -121.87828,
    37.61313
  ],
  "geometry": {"type":"LineString","coordinates":[[-121.87828,36.72192],[-121.89323,36.74273],[-121.90366,36.77581],[-121.90882,36.79496],[-121.92173,36.84228],[-121.93297,36.88183],[-121.9431,36.91691],[-121.94969,36.94034],[-121.95505,36.95751],[-121.97559,37.01039],[-121.98666,37.03849],[-122.00077,37.07473],[-122.01306,37.10611],[-122.02648,37.14045],[-122.04141,37.17812],[-122.0584,37.22115],[-122.06522,37.23836],[-122.07566,37.26513],[-122.08934,37.30049],[-122.10295,37.33534],[-122.11077,37.35532],[-122.12379,37.39148],[-122.12489,37.39879],[-122.12964,37.43864],[-122.12737,37.4646],[-122.12117,37.47683],[-122.11343,37.4908],[-122.12864,37.51373],[-122.15807,37.52741],[-122.18715,37.5397],[-122.20371,37.54676],[-122.21742,37.5525],[-122.24238,37.56301],[-122.26496,37.5725],[-122.28586,37.58126],[-122.29304,37.58429],[-122.31345,37.59287],[-122.32297,37.59684],[-122.33279,37.60098],[-122.36247,37.61313]]}
}
