{
  "id": 2048404783,
  "type": "Feature",
  "properties": {
    "geom:area": 0,
    "geom:bbox": "-122.805930,37.554300,-122.090980,38.504870",
    "geom:latitude": 37.87919141740691,
    "geom:longitude": -122.50132944830146,
    "src:alt_label": "swim-approach",
    "src:geom": "swim",
    "swim:elevations": [
      7993,
      7702,
      7470,
      6954,
      6593,
      6421,
      6221,
      5909,
      5450,
      5299,
      5074,
      4744,
      4381,
      4081,
      3970,
      3705,
      3621,
      3447,
      3353,
      3353,
      3236,
      3223,
      2869,
      2577,
      2420,
      2143,
      1984,
      1833,
      1636,
      1447,
      1123,
      975,
      916,
      804,
      656,
      510,
      417,
      319,
      267,
      180,
      0
    ],
    "swim:geom": "approach",
    "swim:timestamps": [
      1790110554,
      1790110578,
      1790110599,
      1790110643,
      1790110677,
      1790110693,
      1790110711,
      1790110740,
      1790110779,
      1790110794,
      1790110816,
      1790110849,
      1790110885,
      1790110915,
      1790110930,
      1790110959,
      1790110967,
      1790110987,
      1790111031,
      1790111058,
      1790111095,
      1790111102,
      1790111150,
      1790111188,
      1790111210,
      1790111240,
      1790111257,
      1790111271,
      1790111293,
      1790111321,
      1790111363,
      1790111389,
      1790111420,
      1790111450,
      1790111483,
      1790111511,
      1790111529,
      1790111551,
      1790111569,
      1790111589,
      1790111631
    ],
    "wof:geomhash": "7b27ccbdbecf28575fd4dc5d62b35f48",
    "wof:id": 2048404783,
    "wof:repo": "sfomuseum-data-flights-2026-09"
  },
  "bbox": [
    -122.80593,
    37.5543,
    -122.09098,
    38.50487
  ],
  "geometry": {"type":"LineString","coordinates":[[-122.80593,38.50487],[-122.79911,38.45376],[-122.79268,38.41058],[-122.78065,38.32256],[-122.77175,38.25634],[-122.7675,38.22711],[-122.75831,38.19311],[-122.74303,38.14007],[-122.72214,38.06828],[-122.71447,38.04191],[-122.7035,38.00423],[-122.68744,37.94862],[-122.66274,37.89216],[-122.622,37.85105],[-122.60174,37.83177],[-122.56393,37.79621],[-122.5528,37.78574],[-122.52636,37.76093],[-122.4737,37.71138],[-122.43262,37.69491],[-122.37676,37.68445],[-122.3669,37.68262],[-122.30007,37.66594],[-122.24704,37.65289],[-122.21704,37.64582],[-122.17723,37.63565],[-122.15584,37.62695],[-122.13929,37.61998],[-122.1121,37.60863],[-122.09098,37.58774],[-122.11164,37.55492],[-122.13936,37.5543],[-122.17228,37.55633],[-122.20252,37.56414],[-122.23454,37.57479],[-122.26303,37.58375],[-122.27979,37.58839],[-122.29782,37.59364],[-122.31192,37.59778],[-122.32695,37.6022],[-122.35807,37.6143]]}
}
