{
  "id": 2048231951,
  "type": "Feature",
  "properties": {
    "geom:area": 0,
    "geom:bbox": "-122.345060,37.452120,-122.145300,37.608440",
    "geom:latitude": 37.552138083914954,
    "geom:longitude": -122.22399997554957,
    "src:alt_label": "swim-approach",
    "src:geom": "swim",
    "swim:elevations": [
      1494,
      1395,
      1141,
      1047,
      924,
      707,
      611,
      429,
      333,
      168,
      85
    ],
    "swim:geom": "approach",
    "swim:timestamps": [
      1788371818,
      1788371839,
      1788371877,
      1788371895,
      1788371918,
      1788371953,
      1788371971,
      1788372007,
      1788372032,
      1788372078,
      1788372098
    ],
    "wof:geomhash": "c4c67605822b6b8912c73589e1a7f573",
    "wof:id": 2048231951,
    "wof:repo": "sfomuseum-data-flights-2026-09"
  },
  "bbox": [
    -122.34506,
    37.45212,
    -122.1453,
    37.60844
  ],
  "geometry": {"type":"LineString","coordinates":[[-122.1453,37.45212],[-122.1528,37.47426],[-122.16558,37.5147],[-122.17142,37.53274],[-122.1827,37.55603],[-122.2218,37.57052],[-122.24039,37.57651],[-122.27524,37.58708],[-122.29558,37.5931],[-122.33034,37.60284],[-122.34506,37.60844]]}
}
