{
  "id": 2048286997,
  "type": "Feature",
  "properties": {
    "date:inception_lower": "2026-09-08",
    "date:inception_upper": "2026-09-08",
    "edtf:cessation": "",
    "edtf:inception": "2026-09-08",
    "flysfo:actual_timestamp": -1,
    "flysfo:airline": "LH",
    "flysfo:base_airline": "",
    "flysfo:base_flight_number": "4370",
    "flysfo:date": "2026-09-08",
    "flysfo:estimated_timestamp": 1788932100,
    "flysfo:event": "D",
    "flysfo:flight_number": "LH8908",
    "flysfo:gate": "E2",
    "flysfo:journey": "SFO-RNO",
    "flysfo:scheduled_timestamp": 1788932640,
    "flysfo:timestamp": 1788932640,
    "geom:area": 0,
    "geom:bbox": "-122.370943,37.617990,-119.772167,39.505219",
    "geom:latitude": 38.5616045,
    "geom:longitude": -121.07155499999999,
    "iata:airline": "LH",
    "iata:base_airline": "",
    "icao:airline": "DLH",
    "icao:base_airline": "ACA",
    "lbl:latitude": 37.618678,
    "lbl:longitude": -122.385955,
    "sfomuseum:airline_id": 1159286015,
    "sfomuseum:arrival_id": 102525535,
    "sfomuseum:base_flight_id": "20260908-D-ACA-4370",
    "sfomuseum:departure_id": 102527513,
    "sfomuseum:flight_id": "20260908-D-DLH-8908",
    "sfomuseum:flight_number": [
      "DLH8908",
      "LH8908"
    ],
    "sfomuseum:placetype": "flight",
    "src:geom": "flysfo",
    "wof:belongsto": [
      1947304067,
      102527513,
      1947304451,
      102191575,
      85633793,
      102087579,
      85922583,
      554784711,
      85688637,
      1947304481,
      1947304447,
      102085387
    ],
    "wof:country": "US",
    "wof:created": 1788970349,
    "wof:geomhash": "414447526a1ddeb77713c60c4ab5a7e4",
    "wof:hierarchy": [
      {
        "building_id": 1947304067,
        "campus_id": 102527513,
        "concourse_id": 1947304451,
        "continent_id": 102191575,
        "country_id": 85633793,
        "county_id": 102087579,
        "custom_id": 2048286997,
        "flight_id": 2048286997,
        "locality_id": 85922583,
        "postalcode_id": 554784711,
        "region_id": 85688637,
        "venue_id": 1947304481,
        "wing_id": 1947304447
      },
      {
        "building_id": 1947304067,
        "campus_id": 102527513,
        "concourse_id": 1947304451,
        "continent_id": 102191575,
        "country_id": 85633793,
        "county_id": 102085387,
        "custom_id": 2048286997,
        "flight_id": 2048286997,
        "region_id": 85688637,
        "venue_id": 1947304481,
        "wing_id": 1947304447
      }
    ],
    "wof:id": 2048286997,
    "wof:involves": [
      102525535,
      102527513,
      1159286015,
      1947304481,
      1159283597
    ],
    "wof:lastmodified": 1788970349,
    "wof:name": "LH8908 (SFO-RNO)",
    "wof:parent_id": 1947304481,
    "wof:placetype": "custom",
    "wof:placetype_alt": [
      "flight"
    ],
    "wof:repo": "sfomuseum-data-flights-2026-09",
    "wof:superseded_by": [],
    "wof:supersedes": []
  },
  "bbox": [
    -122.370943,
    37.61799,
    -119.772167,
    39.505219
  ],
  "geometry": {"type":"MultiPoint","coordinates":[[-122.370943,37.61799],[-119.772167,39.505219]]}
}
