{
  "id": 2048424035,
  "type": "Feature",
  "properties": {
    "geom:area": 0,
    "geom:bbox": "-122.551340,36.721290,-121.365180,37.664390",
    "geom:latitude": 37.262123136990425,
    "geom:longitude": -122.00231629358889,
    "src:alt_label": "swim-takeoff",
    "src:geom": "swim",
    "swim:elevations": [
      183,
      629,
      1064,
      1366,
      1948,
      2586,
      2956,
      3295,
      3354,
      3700,
      3878,
      4168,
      4574,
      5105,
      5285,
      5724,
      5944,
      6578,
      6696,
      6846,
      7252,
      7463,
      7539,
      7748,
      8011,
      8360,
      8503,
      8892
    ],
    "swim:geom": "takeoff",
    "swim:timestamps": [
      1790286215,
      1790286253,
      1790286306,
      1790286344,
      1790286388,
      1790286435,
      1790286465,
      1790286504,
      1790286520,
      1790286564,
      1790286581,
      1790286608,
      1790286637,
      1790286685,
      1790286702,
      1790286745,
      1790286767,
      1790286831,
      1790286843,
      1790286858,
      1790286901,
      1790286927,
      1790286937,
      1790286964,
      1790287002,
      1790287047,
      1790287065,
      1790287129
    ],
    "wof:geomhash": "9a7fdc25efd0c09584d1a6f83608df1b",
    "wof:id": 2048424035,
    "wof:repo": "sfomuseum-data-flights-2026-09"
  },
  "bbox": [
    -122.55134,
    36.72129,
    -121.36518,
    37.66439
  ],
  "geometry": {"type":"LineString","coordinates":[[-122.39103,37.62564],[-122.42276,37.6391],[-122.47675,37.66306],[-122.52772,37.66439],[-122.55134,37.61815],[-122.51909,37.56367],[-122.4831,37.53721],[-122.41436,37.52577],[-122.38375,37.52112],[-122.29497,37.5073],[-122.25891,37.50136],[-122.20497,37.4831],[-122.16235,37.44611],[-122.09323,37.38316],[-122.06781,37.36019],[-122.00181,37.30041],[-121.96802,37.26962],[-121.86692,37.17748],[-121.84777,37.15994],[-121.82368,37.13788],[-121.75365,37.07368],[-121.71213,37.03555],[-121.69591,37.02066],[-121.65113,36.9795],[-121.58585,36.92078],[-121.50812,36.8509],[-121.47695,36.82263],[-121.36518,36.72129]]}
}
