{
  "id": 2048232485,
  "type": "Feature",
  "properties": {
    "geom:area": 0,
    "geom:bbox": "-122.544960,36.721020,-121.878250,37.609180",
    "geom:latitude": 37.20255760582849,
    "geom:longitude": -122.22439764453087,
    "src:alt_label": "swim-approach",
    "src:geom": "swim",
    "swim:elevations": [
      4791,
      4518,
      4313,
      4008,
      3917,
      3625,
      3536,
      3379,
      3349,
      3353,
      3353,
      3353,
      3383,
      3383,
      3383,
      3359,
      3289,
      3231,
      3117,
      3108,
      3079,
      3014,
      2892,
      2839,
      2774,
      2650,
      2511,
      2291,
      2241,
      2068,
      1827,
      1829,
      1829,
      1829,
      1829,
      1829,
      1829,
      1829,
      1788,
      1726,
      1545,
      1350,
      1315,
      1221,
      1219,
      1219,
      1088,
      923,
      881,
      650,
      554,
      366,
      273,
      181,
      106,
      45
    ],
    "swim:geom": "approach",
    "swim:timestamps": [
      1788340598,
      1788340633,
      1788340662,
      1788340705,
      1788340715,
      1788340767,
      1788340797,
      1788340825,
      1788340842,
      1788340862,
      1788340909,
      1788340936,
      1788340977,
      1788341005,
      1788341033,
      1788341060,
      1788341090,
      1788341116,
      1788341155,
      1788341164,
      1788341170,
      1788341197,
      1788341243,
      1788341263,
      1788341288,
      1788341337,
      1788341362,
      1788341398,
      1788341404,
      1788341438,
      1788341481,
      1788341490,
      1788341539,
      1788341572,
      1788341582,
      1788341617,
      1788341656,
      1788341696,
      1788341726,
      1788341737,
      1788341762,
      1788341812,
      1788341821,
      1788341854,
      1788341888,
      1788341910,
      1788341965,
      1788341997,
      1788342004,
      1788342053,
      1788342072,
      1788342118,
      1788342143,
      1788342170,
      1788342193,
      1788342210
    ],
    "wof:geomhash": "efb49f1b8ef6bd03c8d0818e9e2706f9",
    "wof:id": 2048232485,
    "wof:repo": "sfomuseum-data-flights-2026-09"
  },
  "bbox": [
    -122.54496,
    36.72102,
    -121.87825,
    37.60918
  ],
  "geometry": {"type":"LineString","coordinates":[[-121.87825,36.72102],[-121.90118,36.76788],[-121.91309,36.80972],[-121.93001,36.86966],[-121.93382,36.88318],[-121.9538,36.95312],[-121.96768,36.98872],[-121.9795,37.01945],[-121.98894,37.03823],[-122.01043,37.05009],[-122.07491,37.04745],[-122.10999,37.04497],[-122.16429,37.04068],[-122.20135,37.03784],[-122.23877,37.03488],[-122.27475,37.03211],[-122.31441,37.0291],[-122.34883,37.02647],[-122.39921,37.02241],[-122.41083,37.02141],[-122.41877,37.02125],[-122.44876,37.03549],[-122.49149,37.07289],[-122.5106,37.08947],[-122.53315,37.109],[-122.54496,37.16026],[-122.53443,37.18755],[-122.51996,37.22685],[-122.51742,37.23385],[-122.50398,37.27037],[-122.48517,37.31674],[-122.47693,37.32368],[-122.41264,37.34192],[-122.36862,37.35286],[-122.35617,37.35578],[-122.3071,37.36209],[-122.25273,37.36787],[-122.19835,37.37424],[-122.15978,37.38279],[-122.14806,37.38962],[-122.12062,37.40579],[-122.06649,37.43734],[-122.05686,37.44295],[-122.04628,37.46893],[-122.07288,37.4906],[-122.09381,37.5002],[-122.14639,37.52244],[-122.17704,37.53543],[-122.18333,37.53807],[-122.23002,37.55777],[-122.24755,37.56517],[-122.28953,37.58285],[-122.30744,37.59053],[-122.32529,37.59798],[-122.34084,37.60438],[-122.35233,37.60918]]}
}
