{
  "id": 2048305115,
  "type": "Feature",
  "properties": {
    "geom:area": 0,
    "geom:bbox": "-122.408250,37.625810,-121.265550,37.961900",
    "geom:latitude": 37.829206618238224,
    "geom:longitude": -121.85836440067781,
    "src:alt_label": "swim-takeoff",
    "src:geom": "swim",
    "swim:elevations": [
      122,
      539,
      750,
      1128,
      1377,
      1658,
      2002,
      2537,
      2660,
      3139,
      3262,
      3627,
      3814,
      4313,
      4528,
      4810,
      4956,
      5291,
      5528,
      5919,
      6092,
      6373,
      6432
    ],
    "swim:geom": "takeoff",
    "swim:timestamps": [
      1789046794,
      1789046828,
      1789046853,
      1789046889,
      1789046930,
      1789046957,
      1789046983,
      1789047026,
      1789047036,
      1789047082,
      1789047103,
      1789047142,
      1789047159,
      1789047206,
      1789047230,
      1789047257,
      1789047277,
      1789047316,
      1789047340,
      1789047385,
      1789047409,
      1789047447,
      1789047455
    ],
    "wof:geomhash": "70f950975e99ff2b7dcd746c9abd66c3",
    "wof:id": 2048305115,
    "wof:repo": "sfomuseum-data-flights-2026-09"
  },
  "bbox": [
    -122.40825,
    37.62581,
    -121.26555,
    37.9619
  ],
  "geometry": {"type":"LineString","coordinates":[[-122.39217,37.62581],[-122.40825,37.64788],[-122.38571,37.66228],[-122.34261,37.67521],[-122.28704,37.69362],[-122.24594,37.70744],[-122.20573,37.72249],[-122.14316,37.75358],[-122.12834,37.76119],[-122.06008,37.79715],[-122.02595,37.8146],[-121.95124,37.83536],[-121.91624,37.84177],[-121.82044,37.85994],[-121.77066,37.86928],[-121.71177,37.88032],[-121.6687,37.88833],[-121.58387,37.90394],[-121.52922,37.91405],[-121.42777,37.93245],[-121.3721,37.94258],[-121.28464,37.95847],[-121.26555,37.9619]]}
}
