{
  "id": 2048425291,
  "type": "Feature",
  "properties": {
    "geom:area": 0,
    "geom:bbox": "-122.404550,37.632550,-121.254730,38.419620",
    "geom:latitude": 38.08558304208252,
    "geom:longitude": -121.93323894080788,
    "src:alt_label": "swim-takeoff",
    "src:geom": "swim",
    "swim:elevations": [
      391,
      582,
      726,
      777,
      1224,
      1514,
      2015,
      2237,
      2326,
      2412,
      2643,
      2775,
      3071,
      3348,
      3449,
      3618,
      3851,
      3977,
      4280,
      4601,
      4842,
      5338,
      5509,
      5810,
      5890,
      6113,
      6275,
      6538,
      6769,
      6853
    ],
    "swim:geom": "takeoff",
    "swim:timestamps": [
      1790317466,
      1790317492,
      1790317524,
      1790317536,
      1790317577,
      1790317601,
      1790317643,
      1790317662,
      1790317671,
      1790317681,
      1790317701,
      1790317711,
      1790317744,
      1790317794,
      1790317816,
      1790317836,
      1790317862,
      1790317874,
      1790317906,
      1790317940,
      1790317970,
      1790318034,
      1790318059,
      1790318098,
      1790318109,
      1790318141,
      1790318160,
      1790318206,
      1790318244,
      1790318259
    ],
    "wof:geomhash": "4629fe1e376e04e792790dae9dcd1a31",
    "wof:id": 2048425291,
    "wof:repo": "sfomuseum-data-flights-2026-09"
  },
  "bbox": [
    -122.40455,
    37.63255,
    -121.25473,
    38.41962
  ],
  "geometry": {"type":"LineString","coordinates":[[-122.40272,37.63255],[-122.40455,37.65283],[-122.38156,37.67875],[-122.37079,37.68944],[-122.33713,37.73277],[-122.34437,37.76132],[-122.36842,37.80957],[-122.37999,37.83302],[-122.38447,37.84328],[-122.38678,37.85651],[-122.38608,37.8835],[-122.38524,37.89815],[-122.36865,37.94303],[-122.28337,37.98049],[-122.23955,37.99796],[-122.20059,38.01392],[-122.14797,38.03535],[-122.12216,38.04583],[-122.05518,38.07278],[-121.98316,38.10149],[-121.91785,38.12757],[-121.7748,38.18438],[-121.71737,38.20718],[-121.6271,38.24289],[-121.60039,38.25349],[-121.52416,38.28343],[-121.47876,38.30122],[-121.37058,38.3475],[-121.28722,38.39923],[-121.25473,38.41962]]}
}
