{
  "id": 2048420179,
  "type": "Feature",
  "properties": {
    "geom:area": 0,
    "geom:bbox": "-122.337510,37.491990,-121.643020,37.605470",
    "geom:latitude": 37.531355597237095,
    "geom:longitude": -121.99215130560044,
    "src:alt_label": "swim-approach",
    "src:geom": "swim",
    "swim:elevations": [
      3037,
      2725,
      2619,
      2438,
      2412,
      2254,
      2209,
      1942,
      1827,
      1733,
      1483,
      1202,
      1011,
      864,
      796,
      610,
      517,
      367,
      307,
      137,
      114
    ],
    "swim:geom": "approach",
    "swim:timestamps": [
      1790271946,
      1790271986,
      1790272003,
      1790272047,
      1790272058,
      1790272087,
      1790272095,
      1790272130,
      1790272152,
      1790272205,
      1790272258,
      1790272286,
      1790272318,
      1790272347,
      1790272360,
      1790272400,
      1790272420,
      1790272462,
      1790272479,
      1790272528,
      1790272532
    ],
    "wof:geomhash": "bf0a5d5e5b24dda69027e16c8219f594",
    "wof:id": 2048420179,
    "wof:repo": "sfomuseum-data-flights-2026-09"
  },
  "bbox": [
    -122.33751,
    37.49199,
    -121.64302,
    37.60547
  ],
  "geometry": {"type":"LineString","coordinates":[[-121.64302,37.54637],[-121.70645,37.53125],[-121.73194,37.52521],[-121.79935,37.50898],[-121.81737,37.50466],[-121.86068,37.49441],[-121.87269,37.49259],[-121.92461,37.49199],[-121.95583,37.49285],[-122.02647,37.50712],[-122.09148,37.52828],[-122.12278,37.53851],[-122.15828,37.55003],[-122.1875,37.55943],[-122.20077,37.56374],[-122.23989,37.57631],[-122.25811,37.58217],[-122.28964,37.59134],[-122.30094,37.59454],[-122.33496,37.60456],[-122.33751,37.60547]]}
}
