{
  "id": 2048304077,
  "type": "Feature",
  "properties": {
    "geom:area": 0,
    "geom:bbox": "-122.552270,36.855920,-121.268250,37.664910",
    "geom:latitude": 37.22404552186946,
    "geom:longitude": -122.01579729762852,
    "src:alt_label": "swim-takeoff",
    "src:geom": "swim",
    "swim:elevations": [
      213,
      380,
      566,
      775,
      915,
      1181,
      1746,
      1797,
      2610,
      3088,
      3418,
      3774,
      4072,
      4735,
      4784,
      5033,
      5396,
      5948,
      5997,
      6360,
      6801,
      6863,
      7199,
      7626,
      7985,
      8138,
      8386,
      8542,
      8695,
      8886,
      9235,
      9453,
      9540
    ],
    "swim:geom": "takeoff",
    "swim:timestamps": [
      1789031817,
      1789031830,
      1789031851,
      1789031876,
      1789031896,
      1789031918,
      1789031967,
      1789031970,
      1789032023,
      1789032052,
      1789032088,
      1789032111,
      1789032130,
      1789032178,
      1789032181,
      1789032199,
      1789032223,
      1789032267,
      1789032275,
      1789032317,
      1789032357,
      1789032363,
      1789032395,
      1789032440,
      1789032478,
      1789032505,
      1789032536,
      1789032549,
      1789032585,
      1789032623,
      1789032674,
      1789032718,
      1789032732
    ],
    "wof:geomhash": "fdde3d1dcb59f77905fcb3164f745f41",
    "wof:id": 2048304077,
    "wof:repo": "sfomuseum-data-flights-2026-09"
  },
  "bbox": [
    -122.55227,
    36.85592,
    -121.26825,
    37.66491
  ],
  "geometry": {"type":"LineString","coordinates":[[-122.38614,37.62344],[-122.39586,37.6275],[-122.41185,37.63394],[-122.43496,37.64316],[-122.45599,37.65235],[-122.48088,37.66402],[-122.54877,37.66491],[-122.55227,37.66227],[-122.55087,37.59819],[-122.51588,37.56966],[-122.46981,37.53062],[-122.43899,37.50499],[-122.41173,37.4834],[-122.34226,37.43124],[-122.33713,37.42739],[-122.31064,37.40723],[-122.27484,37.37988],[-122.20829,37.32874],[-122.19636,37.31958],[-122.12911,37.2678],[-122.06306,37.21686],[-122.05309,37.20915],[-122.00084,37.16867],[-121.92354,37.10864],[-121.85694,37.05655],[-121.80961,37.01984],[-121.75388,36.9764],[-121.73153,36.95875],[-121.65516,36.91946],[-121.55724,36.90243],[-121.4219,36.88068],[-121.30443,36.86176],[-121.26825,36.85592]]}
}
