{
  "id": 2048480497,
  "type": "Feature",
  "properties": {
    "date:inception_lower": "2026-09-30",
    "date:inception_upper": "2026-09-30",
    "edtf:cessation": "",
    "edtf:inception": "2026-09-30",
    "flysfo:actual_timestamp": -1,
    "flysfo:airline": "UA",
    "flysfo:date": "2026-09-30",
    "flysfo:estimated_timestamp": 1790782500,
    "flysfo:event": "D",
    "flysfo:flight_number": "UA5907",
    "flysfo:gate": "G8",
    "flysfo:journey": "SFO-ONT",
    "flysfo:scheduled_timestamp": 1790782800,
    "flysfo:timestamp": 1790782800,
    "geom:area": 0,
    "geom:bbox": "-122.370943,34.059934,-117.587749,37.617990",
    "geom:latitude": 35.838961999999995,
    "geom:longitude": -119.97934599999999,
    "iata:airline": "UA",
    "icao:airline": "UAL",
    "lbl:latitude": 37.61836,
    "lbl:longitude": -122.393229,
    "sfomuseum:airline_id": 1159285413,
    "sfomuseum:arrival_id": 102533575,
    "sfomuseum:departure_id": 102527513,
    "sfomuseum:flight_id": "20260930-D-UAL-5907",
    "sfomuseum:flight_number": [
      "UAL5907",
      "UA5907"
    ],
    "sfomuseum:placetype": "flight",
    "src:geom": "flysfo",
    "wof:belongsto": [
      1947304067,
      102527513,
      1947304129,
      102191575,
      85633793,
      102087579,
      85922583,
      554784711,
      85688637,
      1947304133,
      1947304069,
      102085387
    ],
    "wof:country": "US",
    "wof:created": 1790871439,
    "wof:geomhash": "ec8e91229a6790516c63cb7081c35777",
    "wof:hierarchy": [
      {
        "building_id": 1947304067,
        "campus_id": 102527513,
        "concourse_id": 1947304129,
        "continent_id": 102191575,
        "country_id": 85633793,
        "county_id": 102087579,
        "custom_id": 2048480497,
        "flight_id": 2048480497,
        "locality_id": 85922583,
        "postalcode_id": 554784711,
        "region_id": 85688637,
        "venue_id": 1947304133,
        "wing_id": 1947304069
      },
      {
        "building_id": 1947304067,
        "campus_id": 102527513,
        "concourse_id": 1947304129,
        "continent_id": 102191575,
        "country_id": 85633793,
        "county_id": 102085387,
        "custom_id": 2048480497,
        "flight_id": 2048480497,
        "region_id": 85688637,
        "venue_id": 1947304133,
        "wing_id": 1947304069
      }
    ],
    "wof:id": 2048480497,
    "wof:involves": [
      102533575,
      102527513,
      1159285413,
      1947304133
    ],
    "wof:lastmodified": 1790871439,
    "wof:name": "UA5907 (SFO-ONT)",
    "wof:parent_id": 1947304133,
    "wof:placetype": "custom",
    "wof:placetype_alt": [
      "flight"
    ],
    "wof:repo": "sfomuseum-data-flights-2026-09",
    "wof:superseded_by": [],
    "wof:supersedes": []
  },
  "bbox": [
    -122.370943,
    34.059934,
    -117.587749,
    37.61799
  ],
  "geometry": {"type":"MultiPoint","coordinates":[[-122.370943,37.61799],[-117.587749,34.059934]]}
}
