{
  "id": 2048391283,
  "type": "Feature",
  "properties": {
    "geom:area": 0,
    "geom:bbox": "-122.405350,37.625690,-122.114380,38.502550",
    "geom:latitude": 38.01619123084827,
    "geom:longitude": -122.19180574867887,
    "src:alt_label": "swim-takeoff",
    "src:geom": "swim",
    "swim:elevations": [
      183,
      474,
      558,
      953,
      1204,
      1470,
      1508,
      1820,
      2573,
      3105,
      3268,
      3343,
      3640,
      4018,
      4295,
      4758,
      5052,
      5224,
      5565,
      5812,
      5956,
      6327,
      6652,
      6915,
      7102,
      7421
    ],
    "swim:geom": "takeoff",
    "swim:timestamps": [
      1789940458,
      1789940481,
      1789940488,
      1789940518,
      1789940541,
      1789940577,
      1789940580,
      1789940610,
      1789940660,
      1789940696,
      1789940718,
      1789940730,
      1789940757,
      1789940784,
      1789940806,
      1789940844,
      1789940868,
      1789940883,
      1789940912,
      1789940933,
      1789940948,
      1789940983,
      1789941020,
      1789941053,
      1789941073,
      1789941104
    ],
    "wof:geomhash": "aac8608b8cd94498c25ca198c2efffe5",
    "wof:id": 2048391283,
    "wof:repo": "sfomuseum-data-flights-2026-09"
  },
  "bbox": [
    -122.40535,
    37.62569,
    -122.11438,
    38.50255
  ],
  "geometry": {"type":"LineString","coordinates":[[-122.39186,37.62569],[-122.40535,37.63951],[-122.40475,37.6451],[-122.37979,37.66042],[-122.35623,37.66883],[-122.31249,37.68367],[-122.30848,37.68506],[-122.2653,37.69994],[-122.21039,37.74465],[-122.20228,37.79317],[-122.1969,37.82478],[-122.19394,37.8429],[-122.18715,37.88569],[-122.18008,37.92938],[-122.17429,37.96447],[-122.16363,38.02849],[-122.15677,38.06991],[-122.15251,38.0958],[-122.1441,38.14689],[-122.1379,38.18412],[-122.13376,38.20936],[-122.12322,38.27288],[-122.11438,38.33975],[-122.11761,38.40302],[-122.12031,38.44315],[-122.12438,38.50255]]}
}
