{
  "id": 2048262915,
  "type": "Feature",
  "properties": {
    "date:inception_lower": "2026-09-05",
    "date:inception_upper": "2026-09-05",
    "edtf:cessation": "",
    "edtf:inception": "2026-09-05",
    "flysfo:actual_timestamp": -1,
    "flysfo:airline": "UA",
    "flysfo:base_airline": "",
    "flysfo:base_flight_number": "3106",
    "flysfo:date": "2026-09-05",
    "flysfo:estimated_timestamp": 1788676440,
    "flysfo:event": "D",
    "flysfo:flight_number": "UA2681",
    "flysfo:gate": "G8",
    "flysfo:journey": "SFO-YUL",
    "flysfo:scheduled_timestamp": 1788676740,
    "flysfo:timestamp": 1788676740,
    "geom:area": 0,
    "geom:bbox": "-122.370943,37.617990,-73.744749,45.462004",
    "geom:latitude": 41.539997,
    "geom:longitude": -98.057846,
    "iata:airline": "UA",
    "iata:base_airline": "",
    "icao:airline": "UAL",
    "icao:base_airline": "ACA",
    "lbl:latitude": 37.61836,
    "lbl:longitude": -122.393229,
    "sfomuseum:airline_id": 1159285413,
    "sfomuseum:arrival_id": 102554351,
    "sfomuseum:base_flight_id": "20260905-D-ACA-3106",
    "sfomuseum:departure_id": 102527513,
    "sfomuseum:flight_id": "20260905-D-UAL-2681",
    "sfomuseum:flight_number": [
      "UAL2681",
      "UA2681"
    ],
    "sfomuseum:placetype": "flight",
    "src:geom": "flysfo",
    "wof:belongsto": [
      1947304067,
      102527513,
      1947304129,
      102191575,
      85633793,
      102087579,
      85922583,
      554784711,
      85688637,
      1947304133,
      1947304069,
      102085387
    ],
    "wof:country": "US",
    "wof:created": 1788711268,
    "wof:geomhash": "60b8ec845b4af47518c8aaafc3d98633",
    "wof:hierarchy": [
      {
        "building_id": 1947304067,
        "campus_id": 102527513,
        "concourse_id": 1947304129,
        "continent_id": 102191575,
        "country_id": 85633793,
        "county_id": 102087579,
        "custom_id": 2048262915,
        "flight_id": 2048262915,
        "locality_id": 85922583,
        "postalcode_id": 554784711,
        "region_id": 85688637,
        "venue_id": 1947304133,
        "wing_id": 1947304069
      },
      {
        "building_id": 1947304067,
        "campus_id": 102527513,
        "concourse_id": 1947304129,
        "continent_id": 102191575,
        "country_id": 85633793,
        "county_id": 102085387,
        "custom_id": 2048262915,
        "flight_id": 2048262915,
        "region_id": 85688637,
        "venue_id": 1947304133,
        "wing_id": 1947304069
      }
    ],
    "wof:id": 2048262915,
    "wof:involves": [
      102554351,
      102527513,
      1159285413,
      1947304133,
      1159283597
    ],
    "wof:lastmodified": 1788711268,
    "wof:name": "UA2681 (SFO-YUL)",
    "wof:parent_id": 1947304133,
    "wof:placetype": "custom",
    "wof:placetype_alt": [
      "flight"
    ],
    "wof:repo": "sfomuseum-data-flights-2026-09",
    "wof:superseded_by": [],
    "wof:supersedes": []
  },
  "bbox": [
    -122.370943,
    37.61799,
    -73.744749,
    45.462004
  ],
  "geometry": {"type":"MultiPoint","coordinates":[[-122.370943,37.61799],[-73.744749,45.462004]]}
}
