{
  "id": 2048420753,
  "type": "Feature",
  "properties": {
    "geom:area": 0,
    "geom:bbox": "-122.346200,37.491150,-121.247420,37.609000",
    "geom:latitude": 37.54596446955331,
    "geom:longitude": -121.80138337359965,
    "src:alt_label": "swim-approach",
    "src:geom": "swim",
    "swim:elevations": [
      4489,
      4217,
      3921,
      3583,
      3409,
      3111,
      3097,
      2959,
      2932,
      2803,
      2716,
      2439,
      2438,
      2271,
      2099,
      2015,
      1891,
      1634,
      1483,
      1269,
      1250,
      1001,
      949,
      640,
      595,
      431,
      306,
      72
    ],
    "swim:geom": "approach",
    "swim:timestamps": [
      1790250840,
      1790250871,
      1790250904,
      1790250941,
      1790250960,
      1790251013,
      1790251018,
      1790251047,
      1790251050,
      1790251070,
      1790251080,
      1790251129,
      1790251157,
      1790251190,
      1790251218,
      1790251234,
      1790251265,
      1790251306,
      1790251331,
      1790251369,
      1790251386,
      1790251434,
      1790251442,
      1790251490,
      1790251500,
      1790251528,
      1790251555,
      1790251614
    ],
    "wof:geomhash": "347f1e07a17953cccf9a7efac5d5b9d5",
    "wof:id": 2048420753,
    "wof:repo": "sfomuseum-data-flights-2026-09"
  },
  "bbox": [
    -122.3462,
    37.49115,
    -121.24742,
    37.609
  ],
  "geometry": {"type":"LineString","coordinates":[[-121.24742,37.59459],[-121.31073,37.58623],[-121.37664,37.57913],[-121.4482,37.571],[-121.48633,37.56652],[-121.58537,37.55495],[-121.59407,37.55396],[-121.64109,37.54662],[-121.64698,37.54518],[-121.67719,37.53778],[-121.69392,37.53385],[-121.7702,37.5159],[-121.81095,37.50611],[-121.85796,37.49484],[-121.8982,37.49115],[-121.92252,37.49218],[-121.96723,37.4933],[-122.02223,37.50602],[-122.0551,37.51659],[-122.10494,37.53274],[-122.12469,37.53917],[-122.17757,37.5563],[-122.18517,37.55869],[-122.23454,37.57453],[-122.24499,37.57785],[-122.27396,37.58695],[-122.29797,37.59384],[-122.3462,37.609]]}
}
