{
  "id": 2048270423,
  "type": "Feature",
  "properties": {
    "date:cessation_lower": "1970-01-01",
    "date:cessation_upper": "1970-01-01",
    "date:inception_lower": "2026-09-06",
    "date:inception_upper": "2026-09-06",
    "edtf:cessation": "1970-01-01T00:00:00Z",
    "edtf:inception": "2026-09-06T12:11:07-07:00",
    "flysfo:actual_timestamp": -1,
    "flysfo:airline": "MX",
    "flysfo:date": "2026-09-06",
    "flysfo:estimated_timestamp": 1788746460,
    "flysfo:event": "D",
    "flysfo:flight_number": "MX601",
    "flysfo:gate": "D10",
    "flysfo:journey": "SFO-PVU",
    "flysfo:scheduled_timestamp": 1788746460,
    "flysfo:timestamp": 1788746460,
    "geom:area": 0,
    "geom:bbox": "-122.370943,37.617990,-111.722380,40.219724",
    "geom:latitude": 38.918857,
    "geom:longitude": -117.0466615,
    "iata:airline": "MX",
    "icao:aircraft": "BCS3",
    "icao:airline": "MXY",
    "lbl:latitude": 37.617908,
    "lbl:longitude": -122.381084,
    "sfomuseum:aircraft_id": 1813375783,
    "sfomuseum:airline_id": 1763552131,
    "sfomuseum:arrival_id": 102532277,
    "sfomuseum:departure_id": 102527513,
    "sfomuseum:flight_id": "20260906-D-MXY-601",
    "sfomuseum:flight_number": [
      "MXY601",
      "MX601"
    ],
    "sfomuseum:placetype": "flight",
    "src:geom": "flysfo",
    "src:geom_alt": [
      "swim-takeoff"
    ],
    "swim:tail_number": "N236BZ",
    "wof:belongsto": [
      1947304067,
      102527513,
      1947304595,
      102191575,
      85633793,
      102087579,
      85922583,
      554784711,
      85688637,
      1947304603,
      1947304591,
      102085387
    ],
    "wof:country": "US",
    "wof:created": 1788797637,
    "wof:geomhash": "855a08f9b6f780333367899da8373a5a",
    "wof:hierarchy": [
      {
        "building_id": 1947304067,
        "campus_id": 102527513,
        "concourse_id": 1947304595,
        "continent_id": 102191575,
        "country_id": 85633793,
        "county_id": 102087579,
        "custom_id": 2048270423,
        "flight_id": 2048270423,
        "locality_id": 85922583,
        "postalcode_id": 554784711,
        "region_id": 85688637,
        "venue_id": 1947304603,
        "wing_id": 1947304591
      },
      {
        "building_id": 1947304067,
        "campus_id": 102527513,
        "concourse_id": 1947304595,
        "continent_id": 102191575,
        "country_id": 85633793,
        "county_id": 102085387,
        "custom_id": 2048270423,
        "flight_id": 2048270423,
        "region_id": 85688637,
        "venue_id": 1947304603,
        "wing_id": 1947304591
      }
    ],
    "wof:id": 2048270423,
    "wof:involves": [
      1813375783,
      102532277,
      102527513,
      1763552131,
      1947304603
    ],
    "wof:lastmodified": 1788797879,
    "wof:name": "MX601 (SFO-PVU)",
    "wof:parent_id": 1947304603,
    "wof:placetype": "custom",
    "wof:placetype_alt": [
      "flight"
    ],
    "wof:repo": "sfomuseum-data-flights-2026-09",
    "wof:superseded_by": [],
    "wof:supersedes": []
  },
  "bbox": [
    -122.370943,
    37.61799,
    -111.72238,
    40.219724
  ],
  "geometry": {"type":"MultiPoint","coordinates":[[-122.370943,37.61799],[-111.72238,40.219724]]}
}
