{
  "id": 2048310137,
  "type": "Feature",
  "properties": {
    "geom:area": 0,
    "geom:bbox": "-123.252490,37.437250,-122.072500,38.497930",
    "geom:latitude": 37.859086842045066,
    "geom:longitude": -122.6007136886691,
    "src:alt_label": "swim-approach",
    "src:geom": "swim",
    "swim:elevations": [
      7720,
      7456,
      7354,
      7020,
      6720,
      6439,
      6313,
      5835,
      5661,
      5393,
      5103,
      5047,
      4784,
      4518,
      4089,
      3815,
      3520,
      3413,
      3354,
      3353,
      3353,
      3353,
      3315,
      3161,
      3114,
      2914,
      2599,
      2564,
      2400,
      2196,
      1999,
      1600,
      1323,
      1218,
      1219,
      1161,
      950,
      756,
      616,
      528,
      366,
      214,
      99,
      57
    ],
    "swim:geom": "approach",
    "swim:timestamps": [
      1789190416,
      1789190449,
      1789190461,
      1789190500,
      1789190533,
      1789190567,
      1789190582,
      1789190636,
      1789190659,
      1789190689,
      1789190723,
      1789190734,
      1789190763,
      1789190793,
      1789190843,
      1789190870,
      1789190907,
      1789190937,
      1789190967,
      1789190970,
      1789191017,
      1789191047,
      1789191072,
      1789191111,
      1789191123,
      1789191162,
      1789191208,
      1789191217,
      1789191244,
      1789191277,
      1789191300,
      1789191339,
      1789191379,
      1789191403,
      1789191444,
      1789191459,
      1789191489,
      1789191531,
      1789191561,
      1789191585,
      1789191621,
      1789191658,
      1789191685,
      1789191705
    ],
    "wof:geomhash": "c7cc75f99e73a65884952908ef93339f",
    "wof:id": 2048310137,
    "wof:repo": "sfomuseum-data-flights-2026-09"
  },
  "bbox": [
    -123.25249,
    37.43725,
    -122.0725,
    38.49793
  ],
  "geometry": {"type":"LineString","coordinates":[[-123.25249,38.49793],[-123.2007,38.44497],[-123.18203,38.4264],[-123.12231,38.36545],[-123.07281,38.31427],[-123.02249,38.26256],[-123.00058,38.23993],[-122.92402,38.16066],[-122.89266,38.1281],[-122.85207,38.08575],[-122.80559,38.0374],[-122.79207,38.02328],[-122.75343,37.98306],[-122.71423,37.94212],[-122.64805,37.87495],[-122.61141,37.84072],[-122.56338,37.79595],[-122.52596,37.76109],[-122.49124,37.72797],[-122.4879,37.72476],[-122.4359,37.67543],[-122.40212,37.64381],[-122.37578,37.61913],[-122.34488,37.57758],[-122.33733,37.56466],[-122.31322,37.52326],[-122.27445,37.48374],[-122.26251,37.47987],[-122.22642,37.46921],[-122.18306,37.45622],[-122.15358,37.44704],[-122.10163,37.43725],[-122.0725,37.46997],[-122.0861,37.49202],[-122.12657,37.51643],[-122.14292,37.52335],[-122.17589,37.53724],[-122.21601,37.55414],[-122.24195,37.56508],[-122.2606,37.57297],[-122.28956,37.58508],[-122.32019,37.59799],[-122.34234,37.60727],[-122.35852,37.61412]]}
}
