{
  "id": 2048358917,
  "type": "Feature",
  "properties": {
    "geom:area": 0,
    "geom:bbox": "-122.802610,37.550370,-122.333750,38.435440",
    "geom:latitude": 37.96135457894959,
    "geom:longitude": -122.62795091261601,
    "src:alt_label": "swim-approach",
    "src:geom": "swim",
    "swim:elevations": [
      7559,
      7272,
      6785,
      6583,
      6236,
      5856,
      5500,
      5133,
      5047,
      4850,
      4784,
      4362,
      4149,
      3818,
      3466,
      3418,
      3353,
      3323,
      3352,
      3353,
      3353,
      3341,
      3219,
      3050
    ],
    "swim:geom": "approach",
    "swim:timestamps": [
      1789659157,
      1789659185,
      1789659229,
      1789659249,
      1789659282,
      1789659318,
      1789659351,
      1789659388,
      1789659395,
      1789659415,
      1789659420,
      1789659463,
      1789659485,
      1789659522,
      1789659560,
      1789659568,
      1789659583,
      1789659624,
      1789659651,
      1789659663,
      1789659713,
      1789659740,
      1789659764,
      1789659795
    ],
    "wof:geomhash": "ae6d403fcb7e74e588418eb9d3fe92fa",
    "wof:id": 2048358917,
    "wof:repo": "sfomuseum-data-flights-2026-09"
  },
  "bbox": [
    -122.80261,
    37.55037,
    -122.33375,
    38.43544
  ],
  "geometry": {"type":"LineString","coordinates":[[-122.80261,38.43544],[-122.7946,38.3873],[-122.78166,38.3089],[-122.77609,38.27485],[-122.76546,38.21699],[-122.7477,38.15539],[-122.73067,38.09738],[-122.71236,38.0347],[-122.70883,38.02264],[-122.6992,37.98955],[-122.69688,37.98154],[-122.67475,37.91153],[-122.65236,37.87997],[-122.60372,37.8337],[-122.55587,37.78882],[-122.54562,37.77913],[-122.52621,37.76078],[-122.48058,37.71769],[-122.45259,37.69151],[-122.44104,37.6807],[-122.39281,37.63505],[-122.36763,37.61086],[-122.34999,37.58549],[-122.33375,37.55037]]}
}
