{
  "id": 2048377307,
  "type": "Feature",
  "properties": {
    "geom:area": 0,
    "geom:bbox": "-122.352980,37.493590,-121.249520,37.611770",
    "geom:latitude": 37.542697368269096,
    "geom:longitude": -121.80807801310317,
    "src:alt_label": "swim-approach",
    "src:geom": "swim",
    "swim:elevations": [
      4486,
      4332,
      4024,
      3859,
      3671,
      3406,
      3280,
      3082,
      2884,
      2774,
      2599,
      2377,
      2319,
      2198,
      1938,
      1829,
      1709,
      1494,
      1358,
      1223,
      1069,
      887,
      633,
      573,
      446,
      310,
      162,
      60
    ],
    "swim:geom": "approach",
    "swim:timestamps": [
      1789812471,
      1789812490,
      1789812534,
      1789812557,
      1789812585,
      1789812622,
      1789812640,
      1789812672,
      1789812716,
      1789812740,
      1789812772,
      1789812808,
      1789812821,
      1789812842,
      1789812890,
      1789812914,
      1789812935,
      1789812971,
      1789813011,
      1789813034,
      1789813057,
      1789813089,
      1789813134,
      1789813142,
      1789813174,
      1789813208,
      1789813249,
      1789813275
    ],
    "wof:geomhash": "1014f79db767ca80b484897096d9245e",
    "wof:id": 2048377307,
    "wof:repo": "sfomuseum-data-flights-2026-09"
  },
  "bbox": [
    -122.35298,
    37.49359,
    -121.24952,
    37.61177
  ],
  "geometry": {"type":"LineString","coordinates":[[-121.24952,37.59451],[-121.28351,37.58994],[-121.36086,37.58146],[-121.4014,37.57689],[-121.44834,37.5715],[-121.51217,37.56394],[-121.54256,37.56038],[-121.59678,37.55398],[-121.66707,37.54078],[-121.7048,37.53169],[-121.75257,37.52025],[-121.808,37.50689],[-121.82667,37.50245],[-121.85756,37.49508],[-121.92974,37.49359],[-121.96529,37.49582],[-121.99634,37.49778],[-122.04892,37.50087],[-122.10584,37.50895],[-122.13307,37.51893],[-122.15972,37.53017],[-122.19671,37.54596],[-122.24516,37.56648],[-122.25331,37.56984],[-122.28062,37.58135],[-122.30555,37.59185],[-122.3347,37.60405],[-122.35298,37.61177]]}
}
