{
  "id": 2048466863,
  "type": "Feature",
  "properties": {
    "geom:area": 0,
    "geom:bbox": "-123.133056,37.433333,-122.106944,45.567222",
    "geom:latitude": 41.34457506478566,
    "geom:longitude": -122.91041801470013,
    "src:alt_label": "swim-path",
    "src:geom": "swim",
    "swim:altitudes": [
      "039",
      "060",
      "068",
      "095",
      "121",
      "153",
      "183",
      "209",
      "233",
      "253",
      "271",
      "290",
      "306",
      "319",
      "334",
      "351",
      "368",
      "381",
      "389C",
      "390C",
      "390C",
      "390C",
      "390C",
      "390C",
      "390C",
      "390C",
      "390C",
      "390C",
      "390C",
      "390C",
      "390C",
      "390C",
      "390C",
      "390C",
      "390C",
      "390C",
      "390C",
      "390C",
      "390C",
      "390C",
      "390C",
      "390C",
      "390C",
      "390C",
      "390C",
      "390C",
      "390C",
      "390C",
      "390C",
      "390C",
      "390C",
      "390C",
      "390C",
      "390C",
      "390C",
      "390C",
      "390C",
      "390C",
      "390C",
      "390C",
      "390C",
      "390C",
      "390C",
      "390C",
      "390C",
      "390C",
      "390",
      "390",
      "390",
      "390",
      "390",
      "385",
      "375",
      "365",
      "341",
      "310",
      "286",
      "264",
      "245",
      "222",
      "213",
      "201",
      "192",
      "182",
      "175",
      "160",
      "155",
      "144",
      "136",
      "124",
      "119",
      "114",
      "111",
      "110C",
      "110",
      "110C",
      "109",
      "100",
      "097",
      "086",
      "081",
      "070",
      "066",
      "056",
      "051",
      "043",
      "036",
      "035",
      "029",
      "027",
      "019",
      "017",
      "009",
      "002"
    ],
    "swim:geom": "path",
    "swim:speeds": [
      229,
      250,
      247,
      263,
      313,
      332,
      344,
      363,
      398,
      407,
      421,
      437,
      447,
      460,
      475,
      476,
      468,
      464,
      467,
      471,
      473,
      474,
      475,
      477,
      475,
      477,
      475,
      475,
      474,
      474,
      473,
      472,
      471,
      472,
      472,
      473,
      477,
      474,
      479,
      476,
      477,
      477,
      477,
      477,
      476,
      475,
      475,
      475,
      474,
      474,
      472,
      472,
      472,
      472,
      472,
      472,
      472,
      472,
      473,
      473,
      473,
      473,
      474,
      475,
      475,
      475,
      475,
      473,
      473,
      472,
      470,
      470,
      469,
      471,
      473,
      481,
      474,
      454,
      418,
      400,
      397,
      396,
      386,
      381,
      373,
      373,
      365,
      358,
      343,
      342,
      327,
      302,
      275,
      271,
      268,
      269,
      268,
      263,
      259,
      261,
      255,
      249,
      244,
      246,
      223,
      218,
      201,
      193,
      196,
      186,
      189,
      186,
      147,
      149
    ],
    "swim:timestamps": [
      1790685335,
      1790685382,
      1790685395,
      1790685442,
      1790685502,
      1790685562,
      1790685622,
      1790685682,
      1790685742,
      1790685802,
      1790685862,
      1790685922,
      1790685982,
      1790686042,
      1790686102,
      1790686162,
      1790686223,
      1790686283,
      1790686343,
      1790686403,
      1790686463,
      1790686523,
      1790686583,
      1790686635,
      1790686643,
      1790686695,
      1790686703,
      1790686755,
      1790686763,
      1790686815,
      1790686823,
      1790686876,
      1790686883,
      1790686936,
      1790686943,
      1790686996,
      1790687056,
      1790687063,
      1790687116,
      1790687123,
      1790687183,
      1790687243,
      1790687296,
      1790687303,
      1790687363,
      1790687423,
      1790687476,
      1790687483,
      1790687543,
      1790687603,
      1790687656,
      1790687663,
      1790687716,
      1790687723,
      1790687776,
      1790687783,
      1790687836,
      1790687843,
      1790687896,
      1790687903,
      1790687956,
      1790687963,
      1790688023,
      1790688076,
      1790688083,
      1790688143,
      1790688203,
      1790688256,
      1790688263,
      1790688316,
      1790688376,
      1790688436,
      1790688496,
      1790688556,
      1790688617,
      1790688677,
      1790688737,
      1790688797,
      1790688857,
      1790688917,
      1790688932,
      1790688977,
      1790688998,
      1790689037,
      1790689046,
      1790689097,
      1790689106,
      1790689157,
      1790689172,
      1790689217,
      1790689238,
      1790689277,
      1790689298,
      1790689337,
      1790689352,
      1790689397,
      1790689412,
      1790689457,
      1790689472,
      1790689517,
      1790689532,
      1790689577,
      1790689593,
      1790689637,
      1790689658,
      1790689697,
      1790689757,
      1790689779,
      1790689817,
      1790689827,
      1790689878,
      1790689887,
      1790689941,
      1790689998
    ],
    "wof:geomhash": "b67fa5dfce82fa6e13a41464c1383616",
    "wof:id": 2048466863,
    "wof:repo": "sfomuseum-data-flights-2026-09"
  },
  "bbox": [
    -123.13305555555554,
    37.43333333333333,
    -122.10694444444444,
    45.56722222222223
  ],
  "geometry": {"type":"LineString","coordinates":[[-122.47611111111111,45.56722222222223],[-122.46055555555556,45.52222222222222],[-122.4775,45.51111111111111],[-122.53916666666666,45.47666666666667],[-122.62833333333333,45.42472222222222],[-122.72694444444444,45.36555555555556],[-122.83083333333333,45.30416666666667],[-122.93944444444445,45.23888888888889],[-122.9863888888889,45.14611111111111],[-123.01166666666667,45.04111111111111],[-123.03805555555556,44.92472222222222],[-123.06583333333333,44.80361111111111],[-123.09444444444443,44.67916666666667],[-123.12388888888889,44.552499999999995],[-123.13305555555554,44.42166666666667],[-123.12833333333333,44.288888888888884],[-123.12333333333332,44.158055555555556],[-123.11861111111111,44.01638888888889],[-123.11416666666666,43.88583333333333],[-123.11027777777777,43.778888888888886],[-123.10666666666665,43.647777777777776],[-123.10138888888888,43.51555555555556],[-123.0961111111111,43.38444444444444],[-123.09166666666667,43.26833333333333],[-123.09166666666667,43.25055555555556],[-123.08527777777778,43.136944444444445],[-123.08722222222222,43.11833333333333],[-123.08194444444445,43.00555555555555],[-123.08277777777778,42.986666666666665],[-123.07972222222222,42.87416666666667],[-123.07833333333333,42.85666666666667],[-123.0736111111111,42.745],[-123.07388888888889,42.72416666666667],[-123.07055555555556,42.61388888888889],[-123.06916666666666,42.58694444444445],[-123.06583333333333,42.48305555555556],[-123.06083333333333,42.32972222222222],[-123.06083333333333,42.32361111111111],[-123.05638888888889,42.19194444444444],[-123.05638888888889,42.19194444444444],[-123.05222222222221,42.059999999999995],[-123.04777777777778,41.92722222222222],[-123.0436111111111,41.79527777777778],[-123.04388888888889,41.7975],[-123.03972222222222,41.66583333333333],[-123.03555555555555,41.5325],[-123.03111111111112,41.40138888888889],[-123.03111111111112,41.401111111111106],[-123.02638888888889,41.24666666666667],[-123.02333333333333,41.14222222222222],[-123.01972222222223,41.01611111111111],[-123.01944444444445,41.01027777777778],[-123.01527777777778,40.879444444444445],[-123.01527777777778,40.879444444444445],[-123.01166666666667,40.76],[-123.0111111111111,40.73305555555556],[-123.00777777777778,40.62888888888889],[-123.00722222222223,40.60305555555556],[-123.00416666666666,40.4975],[-123.00333333333333,40.472500000000004],[-123.00027777777778,40.367222222222225],[-122.99944444444445,40.34],[-122.99583333333334,40.219722222222224],[-122.9925,40.10305555555556],[-122.99194444444444,40.086111111111116],[-122.98833333333333,39.95388888888889],[-122.98444444444445,39.82194444444445],[-122.98055555555555,39.686388888888885],[-122.98055555555555,39.69083333333333],[-122.97638888888889,39.55611111111111],[-122.97333333333333,39.43861111111111],[-122.96972222222223,39.309999999999995],[-122.96555555555555,39.17861111111111],[-122.96194444444444,39.04611111111111],[-122.96000000000001,38.915],[-122.93138888888889,38.782222222222224],[-122.89361111111111,38.65333333333333],[-122.85749999999999,38.529444444444444],[-122.82333333333332,38.414722222222224],[-122.79166666666667,38.30638888888888],[-122.78333333333333,38.266666666666666],[-122.7611111111111,38.20055555555556],[-122.75,38.15],[-122.73083333333334,38.09666666666667],[-122.71666666666667,38.06666666666667],[-122.70138888888889,37.99722222222222],[-122.7,37.96666666666667],[-122.67111111111112,37.90472222222222],[-122.63333333333334,37.86666666666667],[-122.58583333333333,37.81638888888889],[-122.55,37.78333333333333],[-122.51472222222222,37.75],[-122.48333333333333,37.733333333333334],[-122.45333333333333,37.692499999999995],[-122.43333333333334,37.68333333333333],[-122.39305555555556,37.63527777777778],[-122.36666666666666,37.61666666666667],[-122.34138888888889,37.57472222222223],[-122.33333333333333,37.55],[-122.30722222222222,37.50805555555556],[-122.3,37.483333333333334],[-122.23916666666666,37.467777777777776],[-122.21666666666667,37.46666666666667],[-122.16361111111112,37.43694444444444],[-122.13333333333334,37.43333333333333],[-122.10694444444444,37.466944444444444],[-122.13416666666667,37.516666666666666],[-122.15,37.53333333333333],[-122.19222222222223,37.54361111111111],[-122.2,37.55],[-122.25027777777778,37.56861111111112],[-122.26666666666667,37.56666666666667],[-122.3,37.6],[-122.34694444444445,37.60916666666667]]}
}
