{
  "id": 2048426359,
  "type": "Feature",
  "properties": {
    "geom:area": 0,
    "geom:bbox": "-122.389860,37.624750,-121.275420,37.960390",
    "geom:latitude": 37.83074991342218,
    "geom:longitude": -121.85625655003851,
    "src:alt_label": "swim-takeoff",
    "src:geom": "swim",
    "swim:elevations": [
      122,
      745,
      1272,
      1193,
      1332,
      1777,
      2119,
      2411,
      2825,
      2929,
      3298,
      3473,
      3572,
      4020,
      4337,
      4894,
      4978,
      5360,
      5693,
      5835,
      5994
    ],
    "swim:geom": "takeoff",
    "swim:timestamps": [
      1790249742,
      1790249808,
      1790249839,
      1790249859,
      1790249880,
      1790249916,
      1790249945,
      1790249966,
      1790249994,
      1790250002,
      1790250049,
      1790250082,
      1790250095,
      1790250146,
      1790250171,
      1790250235,
      1790250250,
      1790250295,
      1790250328,
      1790250346,
      1790250376
    ],
    "wof:geomhash": "4a5476564a7038faa85b6ffb8a2beaf7",
    "wof:id": 2048426359,
    "wof:repo": "sfomuseum-data-flights-2026-09"
  },
  "bbox": [
    -122.38986,
    37.62475,
    -121.27542,
    37.96039
  ],
  "geometry": {"type":"LineString","coordinates":[[-122.38986,37.62475],[-122.38454,37.66532],[-122.34804,37.67397],[-122.32292,37.68145],[-122.29353,37.69114],[-122.23897,37.70967],[-122.19297,37.72704],[-122.16177,37.7439],[-122.12076,37.76568],[-122.10833,37.77232],[-122.03558,37.81087],[-121.97018,37.83333],[-121.94235,37.83847],[-121.82815,37.85888],[-121.77226,37.86963],[-121.62165,37.89744],[-121.58606,37.90382],[-121.47574,37.92373],[-121.39459,37.93896],[-121.35195,37.94668],[-121.27542,37.96039]]}
}
