{
  "id": 2048454471,
  "type": "Feature",
  "properties": {
    "geom:area": 0,
    "geom:bbox": "-122.350260,37.491450,-121.248860,37.610630",
    "geom:latitude": 37.54620412586985,
    "geom:longitude": -121.80428996878682,
    "src:alt_label": "swim-approach",
    "src:geom": "swim",
    "swim:elevations": [
      4639,
      4509,
      4136,
      3964,
      3749,
      3604,
      3436,
      3406,
      3071,
      2975,
      2861,
      2725,
      2620,
      2391,
      2236,
      2107,
      1975,
      1828,
      1829,
      1663,
      1395,
      1291,
      1120,
      978,
      906,
      831,
      729,
      605,
      435,
      397,
      226,
      115,
      61
    ],
    "swim:geom": "approach",
    "swim:timestamps": [
      1790591213,
      1790591230,
      1790591277,
      1790591298,
      1790591324,
      1790591345,
      1790591367,
      1790591371,
      1790591418,
      1790591431,
      1790591458,
      1790591483,
      1790591498,
      1790591547,
      1790591578,
      1790591605,
      1790591624,
      1790591666,
      1790591685,
      1790591714,
      1790591748,
      1790591768,
      1790591789,
      1790591803,
      1790591839,
      1790591852,
      1790591864,
      1790591884,
      1790591934,
      1790591946,
      1790591990,
      1790592020,
      1790592031
    ],
    "wof:geomhash": "dc641718606135cbbb1f0cf5089e8b0a",
    "wof:id": 2048454471,
    "wof:repo": "sfomuseum-data-flights-2026-09"
  },
  "bbox": [
    -122.35026,
    37.49145,
    -121.24886,
    37.61063
  ],
  "geometry": {"type":"LineString","coordinates":[[-121.24886,37.59479],[-121.28321,37.59013],[-121.37047,37.58023],[-121.40958,37.57548],[-121.45583,37.57053],[-121.49384,37.56608],[-121.5318,37.56161],[-121.53873,37.56078],[-121.61895,37.55127],[-121.64083,37.54687],[-121.6848,37.53617],[-121.72231,37.52725],[-121.74428,37.52208],[-121.81576,37.50487],[-121.86107,37.49402],[-121.89928,37.49145],[-121.92769,37.49221],[-121.98755,37.49524],[-122.01184,37.5024],[-122.04632,37.51345],[-122.08647,37.52656],[-122.10818,37.5335],[-122.12888,37.54026],[-122.1432,37.54494],[-122.17947,37.55684],[-122.19345,37.56136],[-122.20637,37.56558],[-122.22674,37.57216],[-122.27316,37.58669],[-122.28238,37.5892],[-122.3181,37.59981],[-122.34238,37.60729],[-122.35026,37.61063]]}
}
