{
  "id": 2048448579,
  "type": "Feature",
  "properties": {
    "geom:area": 0,
    "geom:bbox": "-122.757500,37.415278,-87.850000,43.417222",
    "geom:latitude": 42.10072290204153,
    "geom:longitude": -105.99165746315671,
    "src:alt_label": "swim-path",
    "src:geom": "swim",
    "swim:altitudes": [
      "015",
      "047",
      "058",
      "086",
      "097",
      "134",
      "150",
      "149",
      "180",
      "209",
      "237",
      "260",
      "280",
      "298",
      "314",
      "336",
      "356",
      "367",
      "374",
      "380C",
      "380C",
      "380C",
      "380C",
      "380C",
      "380C",
      "380C",
      "380C",
      "380C",
      "380C",
      "380C",
      "380C",
      "380C",
      "380C",
      "380C",
      "380C",
      "380C",
      "380C",
      "380C",
      "380C",
      "380C",
      "380C",
      "380C",
      "380C",
      "380C",
      "380C",
      "380C",
      "380C",
      "380C",
      "380C",
      "380C",
      "380C",
      "380C",
      "380C",
      "380C",
      "380C",
      "380C",
      "380C",
      "380C",
      "380C",
      "380C",
      "380C",
      "380C",
      "380C",
      "380C",
      "380C",
      "380C",
      "380C",
      "380C",
      "380C",
      "380C",
      "380C",
      "380C",
      "380C",
      "380C",
      "380C",
      "380C",
      "380C",
      "380C",
      "380C",
      "380C",
      "380C",
      "380C",
      "380C",
      "380C",
      "380C",
      "380C",
      "380C",
      "380C",
      "380C",
      "380C",
      "380C",
      "380C",
      "380C",
      "380C",
      "380C",
      "380C",
      "380C",
      "380C",
      "380C",
      "380C",
      "380C",
      "380C",
      "380C",
      "380C",
      "380C",
      "380C",
      "380C",
      "380C",
      "380C",
      "380C",
      "380C",
      "380C",
      "380C",
      "380C",
      "380C",
      "380C",
      "380C",
      "380C",
      "380C",
      "380C",
      "380C",
      "380C",
      "380C",
      "380C",
      "380C",
      "380C",
      "380C",
      "380C",
      "380C",
      "380C",
      "380C",
      "380C",
      "380C",
      "380C",
      "380C",
      "380C",
      "380C",
      "380C",
      "380C",
      "380C",
      "380C",
      "380C",
      "380C",
      "380C",
      "380C",
      "380C",
      "380C",
      "380C",
      "380C",
      "380C",
      "380C",
      "380C",
      "380C",
      "380C",
      "380C",
      "380C",
      "380C",
      "380C",
      "380C",
      "380C",
      "380C",
      "380C",
      "380C",
      "380C",
      "380C",
      "380C",
      "380C",
      "380C",
      "380C",
      "380C",
      "380C",
      "380C",
      "380C",
      "380C",
      "380C",
      "380C",
      "380C",
      "380C",
      "380C",
      "380C",
      "380C",
      "380C",
      "380C",
      "380C",
      "380C",
      "380C",
      "380C",
      "380C",
      "380C",
      "380C",
      "380C",
      "380C",
      "380C",
      "380C",
      "380C",
      "380C",
      "380C",
      "380C",
      "380C",
      "380C",
      "380C",
      "380C",
      "380C",
      "380C",
      "380C",
      "380C",
      "380C",
      "380C",
      "380C",
      "380C",
      "380C",
      "380C",
      "380C",
      "380C",
      "380C",
      "380C",
      "380C",
      "380C",
      "380C",
      "380C",
      "380C",
      "380C",
      "380C",
      "380C",
      "380C",
      "380C",
      "380C",
      "380C",
      "380C",
      "380C",
      "380C",
      "380C",
      "380C",
      "380C",
      "380C",
      "380C",
      "380C",
      "380C",
      "380C",
      "380C",
      "380C",
      "380C",
      "380C",
      "380C",
      "380C",
      "380C",
      "380C",
      "380C",
      "380C",
      "380C",
      "380C",
      "380C",
      "380C",
      "380C",
      "380C",
      "380C",
      "380C",
      "380C",
      "380C",
      "380C",
      "380C",
      "380C",
      "380C",
      "380C",
      "380C",
      "380C",
      "380C",
      "380C",
      "380C",
      "380C",
      "380C",
      "380C",
      "380C",
      "380C",
      "380C",
      "380C",
      "380C",
      "380C",
      "380C",
      "380C",
      "380C",
      "380C",
      "380C",
      "380",
      "379",
      "373",
      "356",
      "337",
      "315",
      "299",
      "290C",
      "290C",
      "270",
      "244",
      "224",
      "210",
      "199",
      "189",
      "174",
      "164",
      "151",
      "141",
      "130",
      "119",
      "112C",
      "110",
      "110C",
      "110",
      "110C",
      "109",
      "104",
      "098",
      "093",
      "088",
      "082",
      "076",
      "070",
      "070",
      "070",
      "067",
      "060",
      "052",
      "043",
      "040",
      "037",
      "033",
      "027",
      "023",
      "018",
      "011",
      "007",
      "004",
      "110"
    ],
    "swim:geom": "path",
    "swim:speeds": [
      153,
      226,
      233,
      276,
      274,
      301,
      348,
      398,
      416,
      436,
      447,
      464,
      471,
      479,
      485,
      486,
      481,
      481,
      469,
      463,
      462,
      461,
      461,
      460,
      460,
      459,
      458,
      458,
      457,
      457,
      457,
      457,
      457,
      456,
      456,
      456,
      456,
      456,
      456,
      456,
      457,
      458,
      458,
      460,
      460,
      461,
      462,
      464,
      464,
      466,
      466,
      467,
      468,
      468,
      467,
      466,
      464,
      464,
      463,
      463,
      462,
      462,
      461,
      460,
      460,
      459,
      458,
      458,
      457,
      457,
      457,
      457,
      457,
      457,
      458,
      458,
      460,
      461,
      460,
      460,
      459,
      458,
      456,
      456,
      457,
      457,
      456,
      455,
      454,
      454,
      453,
      452,
      451,
      449,
      449,
      449,
      448,
      447,
      445,
      434,
      435,
      434,
      433,
      432,
      432,
      432,
      432,
      431,
      430,
      429,
      427,
      428,
      428,
      428,
      428,
      429,
      428,
      428,
      427,
      427,
      428,
      428,
      429,
      428,
      427,
      426,
      427,
      425,
      425,
      423,
      422,
      421,
      420,
      420,
      419,
      419,
      420,
      420,
      421,
      418,
      417,
      416,
      415,
      415,
      415,
      415,
      414,
      412,
      411,
      409,
      408,
      408,
      410,
      412,
      412,
      412,
      411,
      410,
      410,
      410,
      413,
      414,
      415,
      415,
      417,
      417,
      416,
      415,
      415,
      416,
      416,
      417,
      417,
      417,
      417,
      417,
      417,
      416,
      415,
      413,
      412,
      413,
      414,
      413,
      413,
      413,
      412,
      412,
      412,
      413,
      413,
      411,
      410,
      409,
      410,
      411,
      410,
      409,
      410,
      414,
      412,
      407,
      404,
      401,
      404,
      412,
      404,
      414,
      411,
      416,
      413,
      403,
      410,
      403,
      407,
      405,
      407,
      406,
      407,
      408,
      407,
      407,
      407,
      403,
      402,
      399,
      400,
      397,
      395,
      395,
      395,
      399,
      400,
      403,
      404,
      405,
      407,
      408,
      409,
      409,
      409,
      407,
      408,
      408,
      408,
      408,
      407,
      407,
      407,
      407,
      407,
      408,
      408,
      411,
      411,
      411,
      407,
      405,
      405,
      405,
      410,
      419,
      421,
      422,
      422,
      423,
      422,
      421,
      421,
      420,
      420,
      420,
      421,
      422,
      420,
      419,
      420,
      434,
      438,
      438,
      438,
      437,
      436,
      436,
      437,
      447,
      438,
      438,
      439,
      438,
      419,
      426,
      424,
      391,
      370,
      375,
      373,
      369,
      369,
      359,
      361,
      357,
      357,
      347,
      338,
      299,
      276,
      253,
      254,
      253,
      246,
      242,
      244,
      243,
      243,
      244,
      246,
      248,
      248,
      233,
      228,
      214,
      214,
      185,
      183,
      179,
      175,
      165,
      170,
      132,
      124,
      122,
      111
    ],
    "swim:timestamps": [
      1790545806,
      1790545879,
      1790545901,
      1790545945,
      1790545961,
      1790546022,
      1790546082,
      1790546142,
      1790546202,
      1790546262,
      1790546322,
      1790546382,
      1790546442,
      1790546502,
      1790546562,
      1790546623,
      1790546683,
      1790546713,
      1790546743,
      1790546773,
      1790546803,
      1790546833,
      1790546863,
      1790546893,
      1790546923,
      1790546953,
      1790546983,
      1790547013,
      1790547043,
      1790547073,
      1790547103,
      1790547133,
      1790547164,
      1790547193,
      1790547224,
      1790547254,
      1790547284,
      1790547314,
      1790547344,
      1790547374,
      1790547404,
      1790547434,
      1790547464,
      1790547494,
      1790547524,
      1790547554,
      1790547584,
      1790547614,
      1790547644,
      1790547674,
      1790547705,
      1790547734,
      1790547765,
      1790547794,
      1790547825,
      1790547854,
      1790547885,
      1790547914,
      1790547945,
      1790547975,
      1790548005,
      1790548035,
      1790548065,
      1790548095,
      1790548125,
      1790548155,
      1790548185,
      1790548215,
      1790548246,
      1790548275,
      1790548335,
      1790548395,
      1790548455,
      1790548515,
      1790548575,
      1790548635,
      1790548696,
      1790548756,
      1790548816,
      1790548876,
      1790548936,
      1790548996,
      1790549056,
      1790549116,
      1790549176,
      1790549248,
      1790549308,
      1790549368,
      1790549429,
      1790549489,
      1790549549,
      1790549609,
      1790549669,
      1790549729,
      1790549789,
      1790549849,
      1790549909,
      1790549969,
      1790550029,
      1790550089,
      1790550149,
      1790550209,
      1790550269,
      1790550329,
      1790550389,
      1790550450,
      1790550509,
      1790550570,
      1790550630,
      1790550690,
      1790550752,
      1790550810,
      1790550870,
      1790550930,
      1790550990,
      1790551050,
      1790551111,
      1790551171,
      1790551231,
      1790551291,
      1790551351,
      1790551411,
      1790551471,
      1790551531,
      1790551591,
      1790551651,
      1790551713,
      1790551771,
      1790551831,
      1790551893,
      1790551951,
      1790552013,
      1790552073,
      1790552133,
      1790552192,
      1790552252,
      1790552312,
      1790552372,
      1790552434,
      1790552492,
      1790552552,
      1790552612,
      1790552672,
      1790552732,
      1790552793,
      1790552853,
      1790552913,
      1790552975,
      1790553033,
      1790553093,
      1790553153,
      1790553213,
      1790553273,
      1790553335,
      1790553393,
      1790553453,
      1790553515,
      1790553575,
      1790553635,
      1790553696,
      1790553756,
      1790553816,
      1790553876,
      1790553936,
      1790553996,
      1790554056,
      1790554116,
      1790554176,
      1790554236,
      1790554296,
      1790554356,
      1790554417,
      1790554477,
      1790554537,
      1790554597,
      1790554657,
      1790554717,
      1790554777,
      1790554837,
      1790554897,
      1790554957,
      1790555017,
      1790555077,
      1790555137,
      1790555198,
      1790555258,
      1790555318,
      1790555378,
      1790555438,
      1790555498,
      1790555558,
      1790555618,
      1790555678,
      1790555738,
      1790555798,
      1790555858,
      1790555919,
      1790555979,
      1790556039,
      1790556099,
      1790556159,
      1790556219,
      1790556279,
      1790556339,
      1790556366,
      1790556399,
      1790556426,
      1790556459,
      1790556486,
      1790556519,
      1790556546,
      1790556579,
      1790556606,
      1790556639,
      1790556666,
      1790556700,
      1790556727,
      1790556760,
      1790556787,
      1790556820,
      1790556847,
      1790556880,
      1790556907,
      1790556940,
      1790556967,
      1790557000,
      1790557027,
      1790557060,
      1790557087,
      1790557120,
      1790557147,
      1790557180,
      1790557207,
      1790557240,
      1790557267,
      1790557300,
      1790557327,
      1790557360,
      1790557387,
      1790557421,
      1790557447,
      1790557481,
      1790557541,
      1790557568,
      1790557601,
      1790557628,
      1790557661,
      1790557688,
      1790557721,
      1790557748,
      1790557781,
      1790557808,
      1790557841,
      1790557868,
      1790557901,
      1790557928,
      1790557961,
      1790557988,
      1790558021,
      1790558048,
      1790558081,
      1790558141,
      1790558168,
      1790558202,
      1790558229,
      1790558262,
      1790558289,
      1790558322,
      1790558349,
      1790558382,
      1790558409,
      1790558469,
      1790558529,
      1790558589,
      1790558649,
      1790558769,
      1790558829,
      1790558889,
      1790558949,
      1790559010,
      1790559070,
      1790559130,
      1790559190,
      1790559250,
      1790559310,
      1790559370,
      1790559430,
      1790559490,
      1790559550,
      1790559610,
      1790559670,
      1790559730,
      1790559791,
      1790559851,
      1790559911,
      1790559941,
      1790559971,
      1790559990,
      1790560031,
      1790560049,
      1790560091,
      1790560109,
      1790560151,
      1790560169,
      1790560211,
      1790560229,
      1790560271,
      1790560289,
      1790560331,
      1790560349,
      1790560391,
      1790560409,
      1790560451,
      1790560469,
      1790560511,
      1790560529,
      1790560572,
      1790560590,
      1790560632,
      1790560649,
      1790560692,
      1790560709,
      1790560752,
      1790560770,
      1790560812,
      1790560830,
      1790560872,
      1790560890,
      1790560932,
      1790560992,
      1790561010,
      1790561052,
      1790561112
    ],
    "wof:geomhash": "01634d1996db03fbd0dc858b1def11e7",
    "wof:id": 2048448579,
    "wof:repo": "sfomuseum-data-flights-2026-09"
  },
  "bbox": [
    -122.7575,
    37.415277777777774,
    -87.85,
    43.41722222222222
  ],
  "geometry": {"type":"LineString","coordinates":[[-87.9,41.983333333333334],[-87.85,42.016666666666666],[-87.85138888888888,42.04472222222222],[-87.88333333333334,42.1],[-87.88083333333333,42.11277777777778],[-87.90361111111112,42.19138888888889],[-87.92694444444444,42.28138888888889],[-87.94500000000001,42.39277777777778],[-87.95694444444445,42.50805555555556],[-87.99444444444444,42.62222222222222],[-88.125,42.70138888888889],[-88.26638888888888,42.77611111111111],[-88.4113888888889,42.852222222222224],[-88.5611111111111,42.93111111111111],[-88.68138888888889,42.99444444444445],[-88.83194444444445,43.073055555555555],[-88.9825,43.15138888888889],[-89.07055555555556,43.196666666666665],[-89.13472222222222,43.223888888888894],[-89.24,43.24194444444444],[-89.30749999999999,43.24388888888889],[-89.41694444444445,43.24722222222222],[-89.48083333333334,43.24861111111111],[-89.59166666666667,43.25111111111111],[-89.65527777777778,43.2525],[-89.765,43.255],[-89.83055555555555,43.256388888888885],[-89.93722222222223,43.26277777777778],[-90.00222222222222,43.26638888888889],[-90.11166666666666,43.2725],[-90.17666666666668,43.275555555555556],[-90.28666666666666,43.28111111111111],[-90.35499999999999,43.284166666666664],[-90.42611111111111,43.2875],[-90.52722222222222,43.29222222222222],[-90.63166666666666,43.29694444444444],[-90.70138888888889,43.30027777777777],[-90.80416666666666,43.305],[-90.87222222222222,43.30777777777777],[-90.94444444444444,43.31111111111111],[-91.04638888888888,43.31527777777777],[-91.15,43.319722222222225],[-91.22111111111111,43.322500000000005],[-91.32444444444444,43.32694444444445],[-91.39472222222223,43.32944444444445],[-91.46583333333334,43.3325],[-91.56916666666666,43.33638888888889],[-91.6763888888889,43.34027777777778],[-91.74555555555555,43.34277777777778],[-91.85499999999999,43.34666666666667],[-91.92416666666666,43.34916666666667],[-92.03027777777778,43.35277777777778],[-92.13694444444445,43.35638888888889],[-92.20833333333334,43.35861111111111],[-92.31305555555555,43.36194444444445],[-92.38444444444445,43.36416666666667],[-92.4888888888889,43.367222222222225],[-92.55888888888889,43.369166666666665],[-92.66333333333334,43.37222222222222],[-92.73472222222222,43.37416666666667],[-92.83916666666666,43.37694444444445],[-92.90916666666668,43.37888888888889],[-93.01472222222222,43.38166666666667],[-93.08416666666666,43.38333333333333],[-93.1888888888889,43.38583333333333],[-93.25611111111111,43.3875],[-93.36194444444443,43.38972222222222],[-93.43055555555556,43.39111111111111],[-93.53472222222221,43.39333333333333],[-93.60527777777777,43.394999999999996],[-93.77777777777777,43.39805555555556],[-93.95111111111112,43.401111111111106],[-94.12583333333333,43.403888888888886],[-94.30361111111111,43.406388888888884],[-94.44277777777778,43.40833333333333],[-94.65444444444445,43.41083333333333],[-94.82944444444443,43.4125],[-95.00666666666666,43.413888888888884],[-95.18222222222222,43.415277777777774],[-95.3586111111111,43.41611111111111],[-95.53361111111111,43.416666666666664],[-95.67305555555556,43.41694444444444],[-95.87972222222221,43.41722222222222],[-96.05499999999999,43.41722222222222],[-96.23194444444445,43.416666666666664],[-96.40555555555557,43.41611111111111],[-96.61444444444444,43.414722222222224],[-96.79055555555556,43.41361111111111],[-96.9625,43.41222222222222],[-97.13777777777779,43.41027777777778],[-97.30888888888889,43.408055555555556],[-97.48055555555555,43.405833333333334],[-97.65361111111112,43.40333333333333],[-97.82527777777777,43.400555555555556],[-97.99388888888889,43.3975],[-98.16638888888889,43.39416666666666],[-98.30111111111111,43.39138888888889],[-98.505,43.386944444444445],[-98.67472222222223,43.382777777777775],[-98.85388888888889,43.37833333333333],[-99.01722222222222,43.37388888888889],[-99.1863888888889,43.369166666666665],[-99.34805555555555,43.364444444444445],[-99.51361111111112,43.35916666666667],[-99.67805555555556,43.35388888888889],[-99.84388888888888,43.34805555555556],[-100.0075,43.3425],[-100.1713888888889,43.33638888888889],[-100.33611111111111,43.330000000000005],[-100.49694444444445,43.32361111111111],[-100.63833333333334,43.316944444444445],[-100.82333333333332,43.309999999999995],[-100.9863888888889,43.302499999999995],[-101.14888888888889,43.29527777777778],[-101.31166666666667,43.28777777777778],[-101.47666666666667,43.27972222222222],[-101.64027777777778,43.271388888888886],[-101.79833333333333,43.263333333333335],[-101.96361111111112,43.25472222222222],[-102.12555555555555,43.24583333333334],[-102.28611111111111,43.23694444444445],[-102.44916666666667,43.22777777777778],[-102.58777777777777,43.219722222222224],[-102.74972222222222,43.21],[-102.91111111111111,43.2],[-103.07083333333333,43.19],[-103.26277777777777,43.17638888888889],[-103.39416666666668,43.16916666666666],[-103.55361111111111,43.15833333333333],[-103.74222222222222,43.14611111111111],[-103.87138888888889,43.13666666666666],[-104.05749999999999,43.12388888888889],[-104.21388888888889,43.111666666666665],[-104.37138888888889,43.10055555555556],[-104.53166666666667,43.088055555555556],[-104.6863888888889,43.07611111111112],[-104.84472222222222,43.06388888888888],[-105.00138888888888,43.05138888888889],[-105.15916666666668,43.03722222222222],[-105.31527777777778,43.02583333333333],[-105.47027777777778,43.0125],[-105.62638888888888,42.99944444444444],[-105.78027777777778,42.98583333333333],[-105.9375,42.97222222222222],[-106.09416666666667,42.95805555555556],[-106.25,42.943888888888885],[-106.40444444444445,42.92972222222222],[-106.55722222222222,42.915277777777774],[-106.70944444444444,42.90083333333333],[-106.86138888888888,42.88611111111111],[-107.01527777777778,42.87111111111111],[-107.16861111111112,42.85583333333334],[-107.33722222222222,42.83888888888889],[-107.49111111111111,42.823055555555555],[-107.64472222222223,42.80722222222222],[-107.79805555555555,42.79111111111111],[-107.95111111111112,42.77472222222222],[-108.10555555555555,42.75833333333333],[-108.25694444444444,42.74166666666667],[-108.40916666666668,42.724722222222226],[-108.56333333333333,42.70777777777778],[-108.7175,42.69],[-108.8736111111111,42.67222222222222],[-109.02694444444444,42.654444444444444],[-109.18166666666667,42.63611111111111],[-109.33694444444444,42.617777777777775],[-109.48972222222223,42.599444444444444],[-109.6438888888889,42.580555555555556],[-109.7961111111111,42.56194444444444],[-109.95111111111112,42.5425],[-110.1036111111111,42.52305555555555],[-110.25833333333334,42.50333333333333],[-110.41250000000001,42.48361111111111],[-110.56527777777778,42.46361111111111],[-110.72083333333333,42.44333333333333],[-110.87222222222222,42.42305555555555],[-111.04222222222222,42.4],[-111.19555555555556,42.37916666666667],[-111.34638888888888,42.358333333333334],[-111.49722222222222,42.33722222222222],[-111.64777777777779,42.31638888888889],[-111.8,42.29472222222222],[-111.95361111111112,42.272777777777776],[-112.10416666666666,42.25083333333333],[-112.25416666666666,42.22916666666667],[-112.40583333333333,42.20638888888889],[-112.55138888888888,42.17194444444444],[-112.69527777777778,42.134166666666665],[-112.83944444444444,42.09388888888889],[-112.98333333333333,42.05333333333333],[-113.12777777777777,42.01305555555555],[-113.27027777777778,41.97277777777778],[-113.41250000000001,41.933055555555555],[-113.55305555555556,41.893055555555556],[-113.69777777777779,41.85194444444445],[-113.83888888888889,41.811388888888885],[-113.97944444444444,41.770833333333336],[-114.12249999999999,41.72916666666667],[-114.26472222222222,41.687777777777775],[-114.40777777777778,41.645833333333336],[-114.53861111111111,41.60722222222223],[-114.68194444444445,41.56472222222222],[-114.82722222222222,41.521388888888886],[-114.95416666666667,41.483333333333334],[-115.01,41.46666666666667],[-115.09444444444443,41.441111111111105],[-115.15027777777779,41.424166666666665],[-115.23666666666666,41.39805555555556],[-115.29416666666667,41.38055555555555],[-115.37972222222221,41.35472222222222],[-115.43527777777778,41.337500000000006],[-115.51666666666667,41.3125],[-115.60083333333333,41.28722222222222],[-115.65361111111112,41.269999999999996],[-115.73722222222223,41.245],[-115.79138888888889,41.2275],[-115.87638888888888,41.20277777777778],[-115.93138888888889,41.18416666666666],[-116.01472222222222,41.159166666666664],[-116.07,41.14083333333333],[-116.15333333333334,41.11527777777778],[-116.23388888888888,41.089444444444446],[-116.29138888888889,41.07194444444445],[-116.36999999999999,41.046388888888885],[-116.42500000000001,41.029444444444444],[-116.50333333333333,41.00388888888889],[-116.55916666666667,40.986666666666665],[-116.63666666666667,40.96138888888889],[-116.69083333333333,40.94472222222222],[-116.76916666666666,40.91888888888889],[-116.82333333333332,40.901944444444446],[-116.90194444444445,40.876111111111115],[-116.95833333333334,40.85777777777778],[-117.03666666666666,40.8325],[-117.095,40.81333333333333],[-117.17333333333333,40.78777777777778],[-117.23083333333334,40.76916666666666],[-117.31138888888889,40.74277777777778],[-117.36805555555554,40.72416666666667],[-117.44777777777779,40.698055555555555],[-117.50361111111111,40.67944444444444],[-117.58305555555555,40.65333333333333],[-117.71944444444445,40.60805555555556],[-117.77472222222222,40.589444444444446],[-117.85444444444444,40.562777777777775],[-117.9113888888889,40.54361111111111],[-117.98944444444444,40.5175],[-118.04694444444445,40.498333333333335],[-118.12527777777777,40.471944444444446],[-118.18166666666667,40.45277777777778],[-118.26,40.42611111111111],[-118.31861111111111,40.406388888888884],[-118.39583333333334,40.37833333333333],[-118.45222222222222,40.35611111111111],[-118.52916666666667,40.325],[-118.58444444444444,40.302499999999995],[-118.66000000000001,40.27194444444444],[-118.71333333333334,40.25],[-118.78861111111111,40.21944444444445],[-118.8425,40.197222222222216],[-118.91861111111112,40.16611111111111],[-119.05222222222221,40.11138888888889],[-119.10777777777777,40.08861111111111],[-119.1863888888889,40.05611111111111],[-119.24305555555556,40.032777777777774],[-119.32277777777777,39.999722222222225],[-119.37666666666667,39.977222222222224],[-119.45527777777778,39.946666666666665],[-119.51166666666667,39.92611111111111],[-119.59277777777777,39.89666666666667],[-119.64777777777779,39.87694444444445],[-119.78555555555555,39.82666666666667],[-119.92194444444445,39.776666666666664],[-120.05888888888889,39.726111111111116],[-120.19694444444445,39.675],[-120.46833333333333,39.573888888888895],[-120.60305555555556,39.52361111111111],[-120.74555555555555,39.469722222222224],[-120.885,39.41694444444444],[-121.0261111111111,39.36333333333334],[-121.16083333333334,39.299166666666665],[-121.28555555555555,39.22666666666667],[-121.4075,39.155277777777776],[-121.55694444444444,39.06777777777778],[-121.68138888888889,38.99472222222222],[-121.80749999999999,38.92027777777778],[-121.93055555555556,38.84722222222222],[-122.05499999999999,38.77361111111111],[-122.17861111111111,38.69944444444444],[-122.30027777777778,38.626666666666665],[-122.41888888888889,38.55472222222222],[-122.51944444444445,38.46666666666667],[-122.61388888888888,38.37416666666667],[-122.70111111111112,38.288888888888884],[-122.7575,38.19888888888889],[-122.75,38.13333333333333],[-122.73111111111112,38.097500000000004],[-122.71666666666667,38.06666666666667],[-122.70166666666667,37.99888888888889],[-122.68333333333334,37.96666666666667],[-122.67166666666667,37.90555555555555],[-122.65,37.86666666666667],[-122.60083333333333,37.83027777777778],[-122.56666666666666,37.8],[-122.52111111111111,37.75611111111111],[-122.48333333333333,37.733333333333334],[-122.45666666666666,37.69555555555555],[-122.43333333333334,37.666666666666664],[-122.39916666666667,37.64138888888889],[-122.36666666666666,37.61666666666667],[-122.35194444444444,37.58361111111111],[-122.33333333333333,37.55],[-122.3175,37.52222222222222],[-122.3,37.5],[-122.27944444444444,37.46222222222222],[-122.26666666666667,37.43333333333333],[-122.22055555555556,37.418055555555554],[-122.18333333333334,37.416666666666664],[-122.13555555555556,37.415277777777774],[-122.1,37.43333333333333],[-122.06944444444444,37.45],[-122.06666666666666,37.483333333333334],[-122.09444444444443,37.5025],[-122.11666666666666,37.516666666666666],[-122.15305555555557,37.527499999999996],[-122.18333333333334,37.53333333333333],[-122.20694444444445,37.550555555555555],[-122.23333333333333,37.56666666666667],[-122.25944444444444,37.57222222222222],[-122.30222222222221,37.59055555555556],[-122.31666666666666,37.6],[-122.34194444444444,37.60722222222223],[-122.37833333333333,37.62222222222222]]}
}
