{
  "id": 2048284281,
  "type": "Feature",
  "properties": {
    "geom:area": 0,
    "geom:bbox": "-122.358700,37.495530,-121.247390,37.614310",
    "geom:latitude": 37.54741206780201,
    "geom:longitude": -121.80798434706163,
    "src:alt_label": "swim-approach",
    "src:geom": "swim",
    "swim:elevations": [
      4775,
      4631,
      4268,
      4080,
      3868,
      3663,
      3328,
      3210,
      3201,
      2880,
      2696,
      2564,
      2414,
      2314,
      1829,
      1737,
      1617,
      1469,
      1207,
      1014,
      942,
      682,
      571,
      473,
      371,
      265,
      122,
      0
    ],
    "swim:geom": "approach",
    "swim:timestamps": [
      1788855896,
      1788855912,
      1788855948,
      1788855966,
      1788855988,
      1788856011,
      1788856044,
      1788856072,
      1788856082,
      1788856132,
      1788856157,
      1788856181,
      1788856217,
      1788856234,
      1788856335,
      1788856347,
      1788856369,
      1788856391,
      1788856434,
      1788856466,
      1788856477,
      1788856522,
      1788856547,
      1788856560,
      1788856583,
      1788856611,
      1788856637,
      1788856666
    ],
    "wof:geomhash": "0a31b03c5f08b1500ad2c43dbb3a7a72",
    "wof:id": 2048284281,
    "wof:repo": "sfomuseum-data-flights-2026-09"
  },
  "bbox": [
    -122.3587,
    37.49553,
    -121.24739,
    37.61431
  ],
  "geometry": {"type":"LineString","coordinates":[[-121.24739,37.5949],[-121.27819,37.59074],[-121.35111,37.58261],[-121.38684,37.57864],[-121.42952,37.57366],[-121.47501,37.56848],[-121.53738,37.56101],[-121.58843,37.555],[-121.60618,37.55294],[-121.68605,37.53626],[-121.72609,37.52666],[-121.76309,37.51769],[-121.81553,37.5053],[-121.84003,37.49948],[-121.98842,37.49553],[-122.00561,37.50042],[-122.03531,37.51012],[-122.06407,37.51914],[-122.1198,37.53738],[-122.15943,37.5503],[-122.1727,37.55464],[-122.22461,37.57125],[-122.25243,37.58048],[-122.26574,37.58462],[-122.28901,37.59119],[-122.31389,37.59846],[-122.33528,37.60485],[-122.3587,37.61431]]}
}
