{
  "id": 2048469967,
  "type": "Feature",
  "properties": {
    "geom:area": 0,
    "geom:bbox": "-122.386210,37.641220,-121.504180,38.307540",
    "geom:latitude": 38.05155589317792,
    "geom:longitude": -122.05607764309029,
    "src:alt_label": "swim-takeoff",
    "src:geom": "swim",
    "swim:elevations": [
      374,
      854,
      875,
      1182,
      1796,
      1988,
      2426,
      2654,
      3046,
      3288,
      3293,
      3575,
      4323,
      5378
    ],
    "swim:geom": "takeoff",
    "swim:timestamps": [
      1790726695,
      1790726751,
      1790726760,
      1790726805,
      1790726866,
      1790726888,
      1790726932,
      1790726953,
      1790726993,
      1790727028,
      1790727031,
      1790727094,
      1790727248,
      1790727411
    ],
    "wof:geomhash": "b7dfca23718a419f13a1889b24248a94",
    "wof:id": 2048469967,
    "wof:repo": "sfomuseum-data-flights-2026-09"
  },
  "bbox": [
    -122.38621,
    37.64122,
    -121.50418,
    38.30754
  ],
  "geometry": {"type":"LineString","coordinates":[[-122.35684,37.64122],[-122.31341,37.67807],[-122.30956,37.68681],[-122.33028,37.73509],[-122.36631,37.80342],[-122.37916,37.82983],[-122.38621,37.88653],[-122.38478,37.91341],[-122.35501,37.95963],[-122.30616,37.98838],[-122.30178,37.991],[-122.20428,38.05045],[-121.89138,38.18652],[-121.50418,38.30754]]}
}
