{
  "id": 2048339807,
  "type": "Feature",
  "properties": {
    "date:cessation_lower": "1970-01-01",
    "date:cessation_upper": "1970-01-01",
    "date:inception_lower": "2026-09-14",
    "date:inception_upper": "2026-09-14",
    "edtf:cessation": "1970-01-01T00:00:00Z",
    "edtf:inception": "2026-09-14T08:20:23-07:00",
    "flysfo:actual_timestamp": -1,
    "flysfo:airline": "UA",
    "flysfo:base_airline": "",
    "flysfo:base_flight_number": "5070",
    "flysfo:date": "2026-09-14",
    "flysfo:estimated_timestamp": 1789420620,
    "flysfo:event": "D",
    "flysfo:flight_number": "UA1596",
    "flysfo:gate": "E7",
    "flysfo:journey": "SFO-DEN",
    "flysfo:scheduled_timestamp": 1789420800,
    "flysfo:timestamp": 1789420800,
    "geom:area": 0,
    "geom:bbox": "-122.370943,37.617990,-104.672219,39.864939",
    "geom:latitude": 38.7414645,
    "geom:longitude": -113.521581,
    "iata:airline": "UA",
    "iata:base_airline": "",
    "icao:aircraft": "B39M",
    "icao:airline": "UAL",
    "icao:base_airline": "ACA",
    "lbl:latitude": 37.618874,
    "lbl:longitude": -122.38419,
    "sfomuseum:aircraft_id": 1528104577,
    "sfomuseum:airline_id": 1159285413,
    "sfomuseum:arrival_id": 102531189,
    "sfomuseum:base_flight_id": "20260914-D-ACA-5070",
    "sfomuseum:departure_id": 102527513,
    "sfomuseum:flight_id": "20260914-D-UAL-1596",
    "sfomuseum:flight_number": [
      "UAL1596",
      "UA1596"
    ],
    "sfomuseum:placetype": "flight",
    "src:geom": "flysfo",
    "src:geom_alt": [
      "swim-takeoff"
    ],
    "swim:tail_number": "N47446",
    "wof:belongsto": [
      1947304067,
      102527513,
      1947304511,
      102191575,
      85633793,
      102087579,
      85922583,
      554784711,
      85688637,
      1947304529,
      1947304447,
      102085387
    ],
    "wof:country": "US",
    "wof:created": 1789488968,
    "wof:geomhash": "976937653dbac6c9c27dd23670ba89bf",
    "wof:hierarchy": [
      {
        "building_id": 1947304067,
        "campus_id": 102527513,
        "concourse_id": 1947304511,
        "continent_id": 102191575,
        "country_id": 85633793,
        "county_id": 102087579,
        "custom_id": 2048339807,
        "flight_id": 2048339807,
        "locality_id": 85922583,
        "postalcode_id": 554784711,
        "region_id": 85688637,
        "venue_id": 1947304529,
        "wing_id": 1947304447
      },
      {
        "building_id": 1947304067,
        "campus_id": 102527513,
        "concourse_id": 1947304511,
        "continent_id": 102191575,
        "country_id": 85633793,
        "county_id": 102085387,
        "custom_id": 2048339807,
        "flight_id": 2048339807,
        "region_id": 85688637,
        "venue_id": 1947304529,
        "wing_id": 1947304447
      }
    ],
    "wof:id": 2048339807,
    "wof:involves": [
      1159285413,
      1947304529,
      1159283597,
      1528104577,
      102531189,
      102527513
    ],
    "wof:lastmodified": 1789489149,
    "wof:name": "UA1596 (SFO-DEN)",
    "wof:parent_id": 1947304529,
    "wof:placetype": "custom",
    "wof:placetype_alt": [
      "flight"
    ],
    "wof:repo": "sfomuseum-data-flights-2026-09",
    "wof:superseded_by": [],
    "wof:supersedes": []
  },
  "bbox": [
    -122.370943,
    37.61799,
    -104.672219,
    39.864939
  ],
  "geometry": {"type":"MultiPoint","coordinates":[[-122.370943,37.61799],[-104.672219,39.864939]]}
}
