{
  "id": 2048412941,
  "type": "Feature",
  "properties": {
    "geom:area": 0,
    "geom:bbox": "-121.902080,37.491740,-121.282330,37.590230",
    "geom:latitude": 37.54689529135504,
    "geom:longitude": -121.59326293050269,
    "src:alt_label": "swim-approach",
    "src:geom": "swim",
    "swim:elevations": [
      4492,
      4236,
      3486,
      3269,
      3175,
      2890,
      2596,
      2591,
      2361,
      2217,
      2020
    ],
    "swim:geom": "approach",
    "swim:timestamps": [
      1790181740,
      1790181771,
      1790181860,
      1790181886,
      1790181900,
      1790181937,
      1790181987,
      1790181990,
      1790182042,
      1790182065,
      1790182103
    ],
    "wof:geomhash": "88f8a4d3fdc88fe31f4b27316f6e9b2c",
    "wof:id": 2048412941,
    "wof:repo": "sfomuseum-data-flights-2026-09"
  },
  "bbox": [
    -121.90208,
    37.49174,
    -121.28233,
    37.59023
  ],
  "geometry": {"type":"LineString","coordinates":[[-121.28233,37.59023],[-121.34556,37.58316],[-121.52069,37.5629],[-121.56993,37.55721],[-121.5941,37.55429],[-121.65821,37.54259],[-121.73579,37.52422],[-121.74026,37.52316],[-121.81402,37.50524],[-121.84756,37.49727],[-121.90208,37.49174]]}
}
