{
  "id": 2048480527,
  "type": "Feature",
  "properties": {
    "geom:area": 0,
    "geom:bbox": "-122.604444,29.992222,-95.345833,37.833333",
    "geom:latitude": 33.05609320575886,
    "geom:longitude": -109.43178396258968,
    "src:alt_label": "swim-path",
    "src:geom": "swim",
    "swim:altitudes": [
      "026",
      "034",
      "039",
      "048",
      "054",
      "065",
      "079",
      "088",
      "099",
      "109",
      "118",
      "125",
      "134",
      "144",
      "165",
      "187",
      "203",
      "220",
      "240",
      "258",
      "274",
      "288",
      "300",
      "312",
      "325",
      "343",
      "351",
      "362",
      "370C",
      "370C",
      "370C",
      "370C",
      "370C",
      "370C",
      "370C",
      "370C",
      "370C",
      "370C",
      "370C",
      "370",
      "371",
      "375",
      "380",
      "387",
      "390C",
      "390C",
      "390C",
      "390C",
      "390C",
      "390C",
      "390C",
      "390C",
      "390C",
      "390C",
      "390C",
      "390C",
      "390C",
      "390C",
      "390C",
      "390C",
      "390C",
      "390C",
      "390C",
      "390C",
      "390C",
      "390C",
      "390C",
      "390C",
      "390C",
      "390C",
      "390C",
      "390C",
      "390C",
      "390C",
      "390C",
      "390C",
      "390C",
      "390C",
      "390C",
      "390C",
      "390C",
      "390C",
      "390C",
      "390C",
      "390C",
      "390C",
      "390C",
      "390C",
      "390C",
      "390C",
      "390C",
      "390C",
      "390C",
      "390C",
      "390C",
      "390C",
      "390C",
      "390C",
      "390C",
      "390C",
      "390C",
      "390C",
      "390C",
      "390C",
      "390C",
      "390C",
      "390C",
      "390C",
      "390C",
      "390C",
      "390C",
      "390C",
      "390C",
      "390C",
      "390C",
      "390C",
      "390C",
      "390C",
      "390C",
      "390C",
      "390C",
      "390C",
      "390C",
      "390C",
      "390C",
      "390C",
      "390C",
      "390C",
      "390C",
      "390C",
      "390C",
      "390C",
      "390C",
      "390C",
      "390C",
      "390C",
      "390C",
      "390C",
      "390C",
      "390C",
      "390C",
      "390C",
      "390C",
      "390C",
      "390C",
      "390C",
      "390C",
      "390C",
      "390C",
      "390C",
      "390C",
      "390C",
      "390C",
      "390C",
      "390C",
      "390C",
      "390C",
      "390C",
      "390C",
      "390C",
      "390C",
      "390C",
      "390C",
      "390C",
      "390C",
      "390C",
      "390C",
      "390C",
      "390C",
      "390C",
      "390C",
      "390C",
      "390C",
      "390C",
      "390C",
      "390C",
      "390C",
      "390C",
      "390C",
      "390C",
      "390C",
      "390C",
      "390C",
      "390C",
      "390C",
      "390C",
      "390C",
      "390C",
      "390C",
      "390C",
      "390C",
      "390C",
      "390C",
      "390C",
      "390C",
      "390C",
      "390C",
      "390C",
      "390C",
      "390C",
      "390C",
      "390C",
      "390C",
      "390C",
      "390C",
      "390C",
      "390C",
      "390C",
      "390C",
      "390C",
      "390C",
      "390C",
      "390C",
      "390C",
      "390C",
      "390C",
      "390C",
      "390C",
      "390C",
      "390C",
      "390",
      "390",
      "385",
      "382",
      "376",
      "374",
      "370",
      "368",
      "363",
      "357",
      "356",
      "353",
      "352",
      "349",
      "344",
      "344",
      "338",
      "335",
      "323",
      "316",
      "312",
      "299",
      "295",
      "268",
      "249",
      "234",
      "216",
      "198",
      "180",
      "162",
      "146",
      "144",
      "132",
      "126",
      "113",
      "107",
      "102",
      "100C",
      "098",
      "095",
      "087",
      "086",
      "075",
      "070",
      "057",
      "054",
      "051",
      "049",
      "044",
      "039",
      "034",
      "030",
      "026",
      "021",
      "017",
      "013",
      "010",
      "008",
      "004",
      "001"
    ],
    "swim:geom": "path",
    "swim:speeds": [
      168,
      168,
      204,
      221,
      259,
      264,
      277,
      288,
      299,
      301,
      339,
      357,
      374,
      382,
      388,
      401,
      424,
      432,
      440,
      451,
      453,
      461,
      480,
      486,
      494,
      495,
      494,
      493,
      494,
      495,
      496,
      497,
      498,
      498,
      499,
      501,
      503,
      505,
      506,
      507,
      508,
      508,
      511,
      516,
      515,
      514,
      510,
      508,
      508,
      508,
      508,
      509,
      510,
      515,
      516,
      518,
      519,
      520,
      520,
      520,
      522,
      524,
      526,
      530,
      533,
      535,
      536,
      537,
      538,
      539,
      539,
      541,
      543,
      544,
      545,
      545,
      545,
      545,
      545,
      544,
      543,
      542,
      542,
      541,
      541,
      535,
      533,
      533,
      532,
      531,
      530,
      528,
      526,
      526,
      526,
      526,
      526,
      527,
      526,
      539,
      560,
      561,
      561,
      561,
      561,
      562,
      561,
      559,
      558,
      558,
      559,
      559,
      558,
      556,
      554,
      544,
      542,
      538,
      537,
      534,
      531,
      528,
      526,
      525,
      525,
      525,
      526,
      524,
      526,
      524,
      526,
      524,
      525,
      520,
      520,
      515,
      514,
      516,
      513,
      516,
      513,
      516,
      512,
      515,
      512,
      515,
      512,
      513,
      514,
      513,
      515,
      515,
      522,
      527,
      527,
      528,
      531,
      528,
      528,
      531,
      528,
      529,
      528,
      529,
      530,
      528,
      528,
      529,
      527,
      527,
      527,
      526,
      526,
      526,
      524,
      524,
      524,
      523,
      523,
      523,
      522,
      522,
      522,
      522,
      522,
      521,
      521,
      521,
      521,
      520,
      520,
      520,
      520,
      517,
      515,
      509,
      509,
      508,
      508,
      507,
      506,
      506,
      504,
      504,
      503,
      501,
      501,
      500,
      500,
      499,
      500,
      500,
      502,
      502,
      508,
      508,
      520,
      520,
      521,
      522,
      523,
      523,
      522,
      521,
      521,
      521,
      519,
      518,
      516,
      513,
      513,
      510,
      509,
      501,
      498,
      497,
      495,
      494,
      492,
      485,
      482,
      467,
      464,
      461,
      457,
      440,
      422,
      410,
      394,
      383,
      371,
      375,
      366,
      367,
      357,
      358,
      326,
      322,
      283,
      286,
      259,
      250,
      233,
      236,
      228,
      230,
      221,
      225,
      227,
      226,
      219,
      194,
      175,
      176,
      156,
      136,
      131,
      132,
      133,
      133
    ],
    "swim:timestamps": [
      1790755534,
      1790755568,
      1790755594,
      1790755628,
      1790755654,
      1790755688,
      1790755714,
      1790755748,
      1790755774,
      1790755809,
      1790755834,
      1790755869,
      1790755894,
      1790755929,
      1790755989,
      1790756048,
      1790756109,
      1790756169,
      1790756228,
      1790756289,
      1790756350,
      1790756409,
      1790756469,
      1790756528,
      1790756589,
      1790756649,
      1790756709,
      1790756769,
      1790756829,
      1790756889,
      1790756949,
      1790757009,
      1790757069,
      1790757128,
      1790757189,
      1790757249,
      1790757309,
      1790757371,
      1790757429,
      1790757489,
      1790757509,
      1790757549,
      1790757609,
      1790757671,
      1790757729,
      1790757789,
      1790757849,
      1790757911,
      1790757971,
      1790758031,
      1790758089,
      1790758151,
      1790758211,
      1790758269,
      1790758330,
      1790758391,
      1790758450,
      1790758511,
      1790758571,
      1790758630,
      1790758691,
      1790758751,
      1790758811,
      1790758871,
      1790758931,
      1790758991,
      1790759049,
      1790759056,
      1790759111,
      1790759169,
      1790759176,
      1790759229,
      1790759289,
      1790759296,
      1790759351,
      1790759409,
      1790759415,
      1790759469,
      1790759475,
      1790759530,
      1790759596,
      1790759649,
      1790759657,
      1790759711,
      1790759777,
      1790759835,
      1790759895,
      1790759956,
      1790760017,
      1790760076,
      1790760135,
      1790760196,
      1790760256,
      1790760316,
      1790760377,
      1790760435,
      1790760497,
      1790760555,
      1790760616,
      1790760677,
      1790760735,
      1790760797,
      1790760857,
      1790760917,
      1790760977,
      1790761036,
      1790761097,
      1790761158,
      1790761217,
      1790761277,
      1790761335,
      1790761395,
      1790761455,
      1790761516,
      1790761577,
      1790761637,
      1790761697,
      1790761757,
      1790761817,
      1790761878,
      1790761938,
      1790761997,
      1790762057,
      1790762117,
      1790762178,
      1790762237,
      1790762268,
      1790762297,
      1790762326,
      1790762357,
      1790762386,
      1790762416,
      1790762447,
      1790762477,
      1790762506,
      1790762537,
      1790762597,
      1790762627,
      1790762658,
      1790762690,
      1790762717,
      1790762750,
      1790762777,
      1790762810,
      1790762838,
      1790762867,
      1790762898,
      1790762918,
      1790762927,
      1790762958,
      1790762978,
      1790762989,
      1790763015,
      1790763048,
      1790763076,
      1790763098,
      1790763109,
      1790763135,
      1790763159,
      1790763170,
      1790763198,
      1790763219,
      1790763257,
      1790763279,
      1790763287,
      1790763318,
      1790763339,
      1790763349,
      1790763377,
      1790763399,
      1790763409,
      1790763437,
      1790763459,
      1790763470,
      1790763496,
      1790763519,
      1790763527,
      1790763557,
      1790763579,
      1790763587,
      1790763617,
      1790763639,
      1790763648,
      1790763699,
      1790763708,
      1790763759,
      1790763767,
      1790763819,
      1790763827,
      1790763879,
      1790763887,
      1790763939,
      1790763947,
      1790763999,
      1790764007,
      1790764059,
      1790764069,
      1790764119,
      1790764129,
      1790764190,
      1790764239,
      1790764250,
      1790764299,
      1790764310,
      1790764370,
      1790764419,
      1790764431,
      1790764479,
      1790764488,
      1790764539,
      1790764599,
      1790764608,
      1790764659,
      1790764668,
      1790764719,
      1790764728,
      1790764779,
      1790764791,
      1790764839,
      1790764848,
      1790764899,
      1790764908,
      1790764959,
      1790764968,
      1790765019,
      1790765028,
      1790765079,
      1790765088,
      1790765139,
      1790765200,
      1790765208,
      1790765260,
      1790765268,
      1790765328,
      1790765380,
      1790765388,
      1790765440,
      1790765448,
      1790765508,
      1790765560,
      1790765568,
      1790765620,
      1790765628,
      1790765689,
      1790765749,
      1790765808,
      1790765869,
      1790765929,
      1790765989,
      1790766049,
      1790766094,
      1790766109,
      1790766142,
      1790766169,
      1790766202,
      1790766229,
      1790766268,
      1790766290,
      1790766329,
      1790766350,
      1790766389,
      1790766410,
      1790766449,
      1790766470,
      1790766509,
      1790766531,
      1790766561,
      1790766591,
      1790766615,
      1790766652,
      1790766676,
      1790766712,
      1790766736,
      1790766772,
      1790766796,
      1790766829,
      1790766856,
      1790766889,
      1790766910,
      1790766949
    ],
    "wof:geomhash": "1fd11873ff13add0ca7130f25a976a31",
    "wof:id": 2048480527,
    "wof:repo": "sfomuseum-data-flights-2026-09"
  },
  "bbox": [
    -122.60444444444444,
    29.992222222222225,
    -95.34583333333333,
    37.833333333333336
  ],
  "geometry": {"type":"LineString","coordinates":[[-122.33333333333333,37.666666666666664],[-122.31055555555555,37.67972222222222],[-122.31666666666666,37.7],[-122.32916666666667,37.7325],[-122.35,37.766666666666666],[-122.36388888888888,37.797777777777775],[-122.4,37.833333333333336],[-122.44027777777778,37.831388888888895],[-122.48333333333333,37.81666666666667],[-122.53888888888889,37.80361111111111],[-122.58333333333333,37.78333333333333],[-122.60444444444444,37.73166666666667],[-122.58333333333333,37.68333333333333],[-122.52833333333334,37.65083333333333],[-122.43055555555556,37.5775],[-122.32277777777777,37.50083333333333],[-122.20777777777778,37.42111111111111],[-122.10194444444444,37.33916666666667],[-121.99083333333333,37.253055555555555],[-121.86666666666666,37.17166666666667],[-121.75583333333333,37.08388888888889],[-121.63444444444445,36.99666666666667],[-121.50722222222223,36.906388888888884],[-121.38722222222223,36.812777777777775],[-121.25972222222222,36.7175],[-121.12472222222222,36.620555555555555],[-121.00194444444445,36.52833333333333],[-120.87305555555555,36.437777777777775],[-120.74194444444444,36.35],[-120.60972222222222,36.26111111111111],[-120.4786111111111,36.172777777777775],[-120.34777777777778,36.08416666666667],[-120.21416666666667,35.99333333333333],[-120.08555555555554,35.905833333333334],[-119.95027777777779,35.812777777777775],[-119.82,35.720555555555556],[-119.68861111111111,35.62777777777778],[-119.5625,35.538333333333334],[-119.45333333333333,35.46194444444445],[-119.29833333333333,35.4],[-119.2175,35.376111111111115],[-119.13388888888889,35.353611111111114],[-118.96805555555555,35.30694444444444],[-118.77416666666666,35.25194444444445],[-118.63833333333334,35.21333333333334],[-118.47416666666666,35.16611111111111],[-118.3111111111111,35.119166666666665],[-118.1236111111111,35.065],[-117.96194444444444,35.01777777777777],[-117.80222222222221,34.97083333333334],[-117.64527777777778,34.92472222222222],[-117.48583333333333,34.87722222222222],[-117.32694444444444,34.830000000000005],[-117.16166666666668,34.780277777777776],[-117,34.731388888888894],[-116.83472222222221,34.68138888888889],[-116.67027777777778,34.63111111111111],[-116.50638888888889,34.58083333333334],[-116.34194444444444,34.530277777777776],[-116.17972222222222,34.47972222222222],[-116.01444444444445,34.42833333333333],[-115.85944444444443,34.37972222222222],[-115.69166666666668,34.32666666666667],[-115.525,34.27388888888889],[-115.35583333333332,34.22],[-115.18972222222223,34.166666666666664],[-115.02027777777778,34.11194444444445],[-114.9825,34.099722222222226],[-114.85138888888888,34.05722222222222],[-114.68388888888889,34.0025],[-114.67277777777778,33.99888888888889],[-114.51305555555555,33.94638888888888],[-114.34388888888888,33.89083333333333],[-114.33555555555554,33.88805555555555],[-114.1725,33.83388888888889],[-114.005,33.778055555555554],[-113.99388888888889,33.77444444444444],[-113.83666666666666,33.72166666666667],[-113.82555555555555,33.717777777777776],[-113.66694444444445,33.66444444444444],[-113.49194444444444,33.60527777777778],[-113.33416666666666,33.55138888888889],[-113.32333333333332,33.547777777777775],[-113.15583333333333,33.49027777777778],[-112.99138888888889,33.43277777777777],[-112.83999999999999,33.355000000000004],[-112.6975,33.26416666666667],[-112.56388888888888,33.17833333333333],[-112.4175,33.08416666666667],[-112.27722222222222,32.993611111111115],[-112.12055555555555,32.89222222222222],[-111.98472222222222,32.80361111111111],[-111.85,32.71527777777778],[-111.71361111111112,32.62583333333333],[-111.57638888888889,32.535555555555554],[-111.44111111111111,32.44611111111111],[-111.30361111111111,32.355000000000004],[-111.16944444444445,32.26555555555556],[-111.03333333333333,32.17472222222222],[-110.8863888888889,32.09916666666667],[-110.70277777777778,32.08527777777778],[-110.52222222222223,32.07805555555556],[-110.34416666666667,32.07027777777778],[-110.1525,32.06111111111111],[-109.97638888888889,32.052499999999995],[-109.79666666666667,32.04333333333333],[-109.61277777777777,32.03388888888889],[-109.42916666666667,32.024166666666666],[-109.24833333333333,32.01444444444444],[-109.06833333333333,32.004444444444445],[-108.88833333333334,31.99388888888889],[-108.7063888888889,31.983333333333334],[-108.52388888888889,31.972499999999997],[-108.34416666666667,31.961388888888887],[-108.165,31.95],[-107.98916666666666,31.93861111111111],[-107.81361111111111,31.927222222222223],[-107.64111111111112,31.915555555555553],[-107.46861111111112,31.90361111111111],[-107.29527777777777,31.891666666666666],[-107.12472222222222,31.879444444444445],[-106.9563888888889,31.86722222222222],[-106.78805555555556,31.854722222222225],[-106.61777777777777,31.841944444444444],[-106.44666666666667,31.828611111111112],[-106.275,31.81527777777778],[-106.19166666666668,31.808611111111112],[-106.08083333333333,31.7925],[-106.02194444444444,31.789166666666667],[-105.91111111111111,31.77138888888889],[-105.85249999999999,31.77],[-105.74222222222222,31.75111111111111],[-105.68583333333333,31.745555555555555],[-105.59527777777777,31.733611111111113],[-105.51944444444445,31.724166666666665],[-105.42694444444444,31.712777777777777],[-105.26027777777777,31.692222222222224],[-105.1888888888889,31.684166666666666],[-105.09638888888888,31.671666666666667],[-105.02444444444444,31.661666666666665],[-104.92833333333334,31.65],[-104.85944444444443,31.641388888888887],[-104.76361111111112,31.628888888888888],[-104.69444444444444,31.62361111111111],[-104.59916666666666,31.6075],[-104.53027777777778,31.59861111111111],[-104.43194444444445,31.585555555555555],[-104.35944444444443,31.575833333333332],[-104.36583333333333,31.57777777777778],[-104.26638888888888,31.56361111111111],[-104.19388888888889,31.556944444444444],[-104.19972222222222,31.557222222222222],[-104.09861111111111,31.563333333333333],[-104.03111111111112,31.578333333333333],[-103.93083333333334,31.601111111111113],[-103.86,31.61777777777778],[-103.86444444444444,31.616388888888892],[-103.76444444444445,31.64],[-103.69333333333334,31.656666666666666],[-103.69777777777779,31.65611111111111],[-103.59027777777777,31.68027777777778],[-103.52666666666667,31.695],[-103.42500000000001,31.71861111111111],[-103.36,31.733611111111113],[-103.36527777777778,31.731944444444444],[-103.26027777777777,31.75611111111111],[-103.19277777777778,31.771666666666665],[-103.19277777777778,31.771666666666665],[-103.09305555555555,31.794444444444448],[-103.02638888888889,31.809444444444445],[-103.02638888888889,31.809444444444445],[-102.92500000000001,31.8325],[-102.8611111111111,31.846944444444443],[-102.8611111111111,31.846944444444443],[-102.75972222222222,31.869444444444444],[-102.69611111111111,31.883888888888887],[-102.69611111111111,31.883888888888887],[-102.59555555555555,31.906388888888888],[-102.56194444444444,31.913888888888888],[-102.53111111111112,31.920555555555556],[-102.46222222222222,31.935833333333335],[-102.39777777777779,31.950277777777778],[-102.36361111111111,31.95777777777778],[-102.23027777777779,31.986944444444447],[-102.1975,31.99416666666667],[-102.06638888888888,32.02305555555555],[-102.03111111111112,32.03055555555555],[-101.9,32.05888888888889],[-101.86694444444444,32.066111111111105],[-101.73583333333333,32.09444444444445],[-101.70111111111112,32.10166666666667],[-101.56916666666666,32.13027777777778],[-101.53611111111111,32.13666666666666],[-101.40222222222222,32.130833333333335],[-101.36999999999999,32.12138888888889],[-101.25166666666667,32.07055555555556],[-101.22055555555556,32.056666666666665],[-101.1036111111111,32.004444444444445],[-101.07388888888889,31.991111111111113],[-100.92583333333334,31.925],[-100.81222222222222,31.874166666666667],[-100.78083333333333,31.859722222222224],[-100.66527777777779,31.80777777777778],[-100.63583333333334,31.794722222222223],[-100.50222222222222,31.734166666666667],[-100.35749999999999,31.668333333333333],[-100.35749999999999,31.668333333333333],[-100.215,31.603333333333335],[-100.215,31.603333333333335],[-100.07166666666666,31.5375],[-99.93111111111112,31.473333333333333],[-99.92861111111111,31.471944444444443],[-99.78694444444444,31.406666666666666],[-99.78444444444445,31.405555555555555],[-99.63444444444445,31.33833333333333],[-99.63722222222223,31.339444444444442],[-99.47583333333334,31.290555555555557],[-99.47583333333334,31.290555555555557],[-99.3461111111111,31.25583333333333],[-99.31361111111111,31.247222222222224],[-99.18277777777779,31.212777777777777],[-99.15055555555556,31.204166666666666],[-99.02166666666666,31.17],[-98.98055555555555,31.159166666666664],[-98.86166666666666,31.1275],[-98.82055555555556,31.116666666666667],[-98.69583333333334,31.08361111111111],[-98.66083333333334,31.074166666666667],[-98.53277777777778,31.040000000000003],[-98.37583333333333,30.997500000000002],[-98.34666666666666,30.989722222222223],[-98.21833333333333,30.955],[-98.18944444444445,30.947222222222223],[-98.03472222222221,30.904722222222222],[-97.91305555555556,30.87388888888889],[-97.88361111111112,30.865000000000002],[-97.76666666666667,30.823055555555555],[-97.73805555555556,30.81222222222222],[-97.59388888888888,30.75638888888889],[-97.48194444444445,30.712777777777777],[-97.45416666666667,30.701944444444443],[-97.34527777777777,30.659444444444443],[-97.32083333333333,30.649722222222223],[-97.18805555555556,30.5975],[-97.05499999999999,30.545],[-96.92722222222223,30.494444444444447],[-96.80277777777778,30.445],[-96.68416666666667,30.397777777777776],[-96.56805555555555,30.35138888888889],[-96.45694444444445,30.30666666666667],[-96.36083333333333,30.266944444444444],[-96.34944444444444,30.26361111111111],[-96.27527777777777,30.232499999999998],[-96.24222222222222,30.220277777777778],[-96.17111111111112,30.190277777777776],[-96.13777777777779,30.17777777777778],[-96.06055555555555,30.145],[-96.04138888888889,30.13888888888889],[-95.97500000000001,30.110277777777778],[-95.95166666666667,30.102500000000003],[-95.89444444444445,30.078055555555554],[-95.87555555555555,30.07138888888889],[-95.825,30.051111111111112],[-95.80777777777777,30.04361111111111],[-95.75833333333334,30.022222222222222],[-95.74055555555556,30.016111111111112],[-95.70111111111112,29.998055555555556],[-95.67500000000001,29.99277777777778],[-95.63666666666667,29.9925],[-95.60277777777777,29.993055555555557],[-95.56416666666667,29.992222222222225],[-95.53444444444445,29.993055555555557],[-95.5038888888889,29.993055555555557],[-95.4786111111111,29.993333333333336],[-95.45083333333334,29.9925],[-95.43,29.993333333333336],[-95.40722222222223,29.99277777777778],[-95.38805555555557,29.993333333333336],[-95.36861111111111,29.993333333333336],[-95.34583333333333,29.993333333333336]]}
}
