{
  "id": 2048421811,
  "type": "Feature",
  "properties": {
    "geom:area": 0,
    "geom:bbox": "-122.737410,37.443540,-122.128380,38.506860",
    "geom:latitude": 37.844068516027114,
    "geom:longitude": -122.46645078517531,
    "src:alt_label": "swim-approach",
    "src:geom": "swim",
    "swim:elevations": [
      7498,
      7009,
      6928,
      6194,
      6022,
      5766,
      5591,
      5072,
      4777,
      4573,
      4572,
      4438,
      4290,
      4268,
      4264,
      3929,
      3483,
      3376,
      3361,
      3356,
      3353,
      3132,
      3079,
      2871,
      2655,
      2410,
      2120,
      1767,
      1528,
      1354,
      981,
      927,
      913,
      751,
      653,
      541,
      440,
      306,
      273,
      159,
      142,
      125,
      320
    ],
    "swim:geom": "approach",
    "swim:timestamps": [
      1790238229,
      1790238267,
      1790238274,
      1790238325,
      1790238338,
      1790238356,
      1790238368,
      1790238407,
      1790238430,
      1790238451,
      1790238506,
      1790238538,
      1790238563,
      1790238576,
      1790238616,
      1790238670,
      1790238729,
      1790238795,
      1790238833,
      1790238844,
      1790238877,
      1790238926,
      1790238933,
      1790238970,
      1790239006,
      1790239036,
      1790239070,
      1790239105,
      1790239127,
      1790239143,
      1790239183,
      1790239227,
      1790239234,
      1790239271,
      1790239290,
      1790239315,
      1790239339,
      1790239368,
      1790239374,
      1790239406,
      1790239412,
      1790239417,
      1790239454
    ],
    "wof:geomhash": "923c3e975fbc43e4f93889d49137b9ea",
    "wof:id": 2048421811,
    "wof:repo": "sfomuseum-data-flights-2026-09"
  },
  "bbox": [
    -122.73741,
    37.44354,
    -122.12838,
    38.50686
  ],
  "geometry": {"type":"LineString","coordinates":[[-122.52333,38.50686],[-122.55357,38.42972],[-122.55679,38.41596],[-122.57968,38.31238],[-122.58558,38.28563],[-122.59328,38.25075],[-122.59869,38.22681],[-122.61577,38.15131],[-122.62522,38.10966],[-122.63381,38.07205],[-122.69132,38.00241],[-122.73416,37.97348],[-122.73741,37.93935],[-122.72705,37.92358],[-122.66891,37.88933],[-122.60361,37.83421],[-122.53708,37.77153],[-122.46547,37.70358],[-122.42354,37.66427],[-122.41272,37.65413],[-122.37982,37.62315],[-122.34846,37.57672],[-122.34468,37.56931],[-122.32433,37.53365],[-122.30318,37.49998],[-122.28281,37.47251],[-122.24018,37.45776],[-122.19496,37.44605],[-122.16535,37.44354],[-122.14662,37.45256],[-122.12838,37.49416],[-122.15941,37.52768],[-122.16718,37.53117],[-122.20512,37.54721],[-122.22471,37.55549],[-122.24977,37.56607],[-122.27241,37.5756],[-122.29895,37.58676],[-122.3043,37.58902],[-122.32885,37.59929],[-122.33343,37.60121],[-122.33689,37.60263],[-122.36417,37.61388]]}
}
