{
  "id": 2048365645,
  "type": "Feature",
  "properties": {
    "geom:area": 0,
    "geom:bbox": "-122.546960,37.283460,-121.243220,37.667300",
    "geom:latitude": 37.41058225321888,
    "geom:longitude": -121.99970680342356,
    "src:alt_label": "swim-takeoff",
    "src:geom": "swim",
    "swim:elevations": [
      244,
      501,
      1064,
      1330,
      1716,
      1971,
      2437,
      3088,
      3562,
      3825,
      4133,
      4660,
      5033,
      5297,
      5797,
      6139,
      6305,
      6646,
      7032,
      7489,
      7522,
      7713,
      7947,
      8090,
      8284,
      8491,
      8508,
      8644,
      8809
    ],
    "swim:geom": "takeoff",
    "swim:timestamps": [
      1789689259,
      1789689280,
      1789689324,
      1789689358,
      1789689388,
      1789689404,
      1789689430,
      1789689471,
      1789689500,
      1789689520,
      1789689544,
      1789689580,
      1789689612,
      1789689633,
      1789689676,
      1789689704,
      1789689732,
      1789689762,
      1789689794,
      1789689837,
      1789689843,
      1789689873,
      1789689925,
      1789689940,
      1789689968,
      1789690017,
      1789690020,
      1789690044,
      1789690071
    ],
    "wof:geomhash": "5c079fbf141e95e20f8082cfd58e174b",
    "wof:id": 2048365645,
    "wof:repo": "sfomuseum-data-flights-2026-09"
  },
  "bbox": [
    -122.54696,
    37.28346,
    -121.24322,
    37.6673
  ],
  "geometry": {"type":"LineString","coordinates":[[-122.394,37.62683],[-122.41146,37.63409],[-122.45339,37.65191],[-122.49235,37.6673],[-122.5359,37.65672],[-122.54696,37.63862],[-122.53749,37.60516],[-122.50985,37.55337],[-122.48874,37.51557],[-122.47103,37.49151],[-122.4363,37.46799],[-122.38062,37.43562],[-122.32611,37.41012],[-122.28546,37.40119],[-122.20122,37.38721],[-122.14317,37.38128],[-122.08473,37.37529],[-122.01848,37.36842],[-121.94902,37.36104],[-121.85058,37.3504],[-121.83672,37.34894],[-121.767,37.34145],[-121.63572,37.32755],[-121.59721,37.32299],[-121.52539,37.31528],[-121.39493,37.30103],[-121.38661,37.30021],[-121.31873,37.29209],[-121.24322,37.28346]]}
}
