{
  "id": 2048281769,
  "type": "Feature",
  "properties": {
    "geom:area": 0,
    "geom:bbox": "-122.360260,37.491710,-121.247370,37.615100",
    "geom:latitude": 37.54702135795619,
    "geom:longitude": -121.80881635302653,
    "src:alt_label": "swim-approach",
    "src:geom": "swim",
    "swim:elevations": [
      4794,
      4586,
      4409,
      4299,
      3944,
      3684,
      3467,
      3399,
      3079,
      2924,
      2739,
      2548,
      2419,
      2283,
      2108,
      1953,
      1859,
      1661,
      1472,
      1420,
      1229,
      1100,
      885,
      749,
      581,
      431,
      288,
      221,
      111,
      0
    ],
    "swim:geom": "approach",
    "swim:timestamps": [
      1788902126,
      1788902155,
      1788902177,
      1788902190,
      1788902241,
      1788902277,
      1788902307,
      1788902316,
      1788902365,
      1788902390,
      1788902422,
      1788902453,
      1788902475,
      1788902499,
      1788902533,
      1788902576,
      1788902601,
      1788902638,
      1788902668,
      1788902680,
      1788902710,
      1788902736,
      1788902775,
      1788902798,
      1788902831,
      1788902865,
      1788902904,
      1788902916,
      1788902951,
      1788902975
    ],
    "wof:geomhash": "9dc9d4a86e040d58b6b2c5938311826b",
    "wof:id": 2048281769,
    "wof:repo": "sfomuseum-data-flights-2026-09"
  },
  "bbox": [
    -122.36026,
    37.49171,
    -121.24737,
    37.6151
  ],
  "geometry": {"type":"LineString","coordinates":[[-121.24737,37.59486],[-121.299,37.58844],[-121.3401,37.58394],[-121.36379,37.58127],[-121.45349,37.5708],[-121.51604,37.56354],[-121.56607,37.55772],[-121.58135,37.55591],[-121.66002,37.54226],[-121.69698,37.53345],[-121.74059,37.52309],[-121.78165,37.51327],[-121.81075,37.50629],[-121.84223,37.49875],[-121.88618,37.49171],[-121.94431,37.49294],[-121.97845,37.49433],[-122.0247,37.50686],[-122.06177,37.51881],[-122.07651,37.52354],[-122.11343,37.53546],[-122.14452,37.5455],[-122.18756,37.55941],[-122.21286,37.56757],[-122.24753,37.57883],[-122.27939,37.58827],[-122.30971,37.59726],[-122.31862,37.59995],[-122.34363,37.60797],[-122.36026,37.6151]]}
}
