{
  "id": 2048370635,
  "type": "Feature",
  "properties": {
    "geom:area": 0,
    "geom:bbox": "-123.126920,37.420580,-122.104570,38.510250",
    "geom:latitude": 37.8726265832052,
    "geom:longitude": -122.55816229018836,
    "src:alt_label": "swim-approach",
    "src:geom": "swim",
    "swim:elevations": [
      7437,
      7186,
      7041,
      6786,
      6433,
      6284,
      5854,
      5706,
      5423,
      5169,
      4902,
      4698,
      4426,
      4065,
      3939,
      3414,
      3352,
      3353,
      3353,
      3223,
      3037,
      2953,
      2691,
      2402,
      2349,
      2161,
      1994,
      1942,
      1710,
      1594,
      1416,
      1330,
      1255,
      1250,
      1219,
      843,
      641,
      528,
      395,
      309,
      187,
      105,
      59
    ],
    "swim:geom": "approach",
    "swim:timestamps": [
      1789727745,
      1789727773,
      1789727796,
      1789727830,
      1789727877,
      1789727896,
      1789727953,
      1789727970,
      1789728009,
      1789728034,
      1789728069,
      1789728094,
      1789728130,
      1789728172,
      1789728186,
      1789728258,
      1789728297,
      1789728301,
      1789728340,
      1789728388,
      1789728418,
      1789728429,
      1789728463,
      1789728500,
      1789728536,
      1789728568,
      1789728596,
      1789728608,
      1789728655,
      1789728676,
      1789728711,
      1789728743,
      1789728755,
      1789728804,
      1789728814,
      1789728856,
      1789728896,
      1789728919,
      1789728951,
      1789728970,
      1789729001,
      1789729015,
      1789729034
    ],
    "wof:geomhash": "a51001e2750d5a9850cc5858ba0b6040",
    "wof:id": 2048370635,
    "wof:repo": "sfomuseum-data-flights-2026-09"
  },
  "bbox": [
    -123.12692,
    37.42058,
    -122.10457,
    38.51025
  ],
  "geometry": {"type":"LineString","coordinates":[[-123.12692,38.51025],[-123.07937,38.4719],[-123.03919,38.44131],[-122.981,38.39503],[-122.90253,38.33249],[-122.8722,38.30818],[-122.78241,38.2322],[-122.76406,38.20479],[-122.74195,38.13646],[-122.72938,38.09369],[-122.71187,38.03305],[-122.70016,37.992],[-122.68278,37.93261],[-122.64318,37.8708],[-122.62462,37.85371],[-122.52913,37.7634],[-122.48537,37.72205],[-122.48154,37.71844],[-122.44172,37.68122],[-122.39454,37.63683],[-122.36594,37.6092],[-122.35671,37.59799],[-122.33451,37.56142],[-122.31098,37.52105],[-122.28906,37.4833],[-122.26589,37.45134],[-122.23266,37.43527],[-122.218,37.42923],[-122.15914,37.42058],[-122.13615,37.43206],[-122.11375,37.46046],[-122.10457,37.48958],[-122.11128,37.49871],[-122.1525,37.52558],[-122.16047,37.53022],[-122.20066,37.54771],[-122.23837,37.56358],[-122.25999,37.57273],[-122.28675,37.58394],[-122.30137,37.59011],[-122.32519,37.6001],[-122.33641,37.60483],[-122.35047,37.61075]]}
}
