{
  "id": 2048456405,
  "type": "Feature",
  "properties": {
    "geom:area": 0,
    "geom:bbox": "-122.753540,37.544840,-122.095580,38.482140",
    "geom:latitude": 37.8992076771942,
    "geom:longitude": -122.47970040568491,
    "src:alt_label": "swim-approach",
    "src:geom": "swim",
    "swim:elevations": [
      7529,
      7288,
      6906,
      6596,
      6277,
      6039,
      5699,
      5464,
      5115,
      5010,
      4788,
      4610,
      4318,
      4031,
      3848,
      3487,
      3443,
      3363,
      3353,
      3353,
      3353,
      3353,
      3337,
      3244,
      2787,
      2516,
      2130,
      1921,
      1769,
      1648,
      1560,
      1524,
      1524,
      1376,
      1186,
      914,
      852,
      667,
      545,
      402,
      257,
      207,
      88,
      0
    ],
    "swim:geom": "approach",
    "swim:timestamps": [
      1790631531,
      1790631553,
      1790631589,
      1790631624,
      1790631656,
      1790631680,
      1790631716,
      1790631740,
      1790631775,
      1790631787,
      1790631814,
      1790631832,
      1790631864,
      1790631896,
      1790631916,
      1790631957,
      1790631965,
      1790631985,
      1790632013,
      1790632033,
      1790632051,
      1790632054,
      1790632063,
      1790632072,
      1790632128,
      1790632156,
      1790632196,
      1790632214,
      1790632232,
      1790632245,
      1790632263,
      1790632306,
      1790632321,
      1790632350,
      1790632387,
      1790632435,
      1790632450,
      1790632490,
      1790632512,
      1790632545,
      1790632579,
      1790632596,
      1790632621,
      1790632643
    ],
    "wof:geomhash": "27c542a2bc96564604850460fb383dfd",
    "wof:id": 2048456405,
    "wof:repo": "sfomuseum-data-flights-2026-09"
  },
  "bbox": [
    -122.75354,
    37.54484,
    -122.09558,
    38.48214
  ],
  "geometry": {"type":"LineString","coordinates":[[-122.50244,38.48214],[-122.54236,38.44429],[-122.60215,38.38635],[-122.65686,38.33264],[-122.70583,38.28425],[-122.74138,38.24687],[-122.75354,38.17918],[-122.74085,38.13467],[-122.72203,38.06831],[-122.71582,38.04664],[-122.70204,37.99868],[-122.69271,37.96667],[-122.67482,37.9123],[-122.63695,37.86562],[-122.60973,37.83974],[-122.55426,37.78715],[-122.54459,37.77797],[-122.51801,37.75286],[-122.48433,37.72161],[-122.45352,37.70887],[-122.42763,37.70164],[-122.42338,37.70043],[-122.41011,37.69661],[-122.39778,37.69304],[-122.32349,37.6725],[-122.28666,37.66318],[-122.23547,37.6504],[-122.21225,37.64464],[-122.18962,37.6389],[-122.17285,37.63442],[-122.1502,37.62822],[-122.10173,37.61147],[-122.09558,37.5978],[-122.10776,37.57067],[-122.13503,37.54484],[-122.18145,37.55726],[-122.19551,37.56206],[-122.23274,37.5744],[-122.25374,37.58104],[-122.28325,37.58935],[-122.31266,37.59795],[-122.32595,37.602],[-122.34623,37.609],[-122.36229,37.61415]]}
}
