{
  "id": 2048458159,
  "type": "Feature",
  "properties": {
    "geom:area": 0,
    "geom:bbox": "-123.134167,37.430556,-122.116667,45.645833",
    "geom:latitude": 41.349786226940424,
    "geom:longitude": -122.92225341306529,
    "src:alt_label": "swim-path",
    "src:geom": "swim",
    "swim:altitudes": [
      "017",
      "038",
      "048",
      "065",
      "077",
      "105",
      "124",
      "147",
      "168",
      "188",
      "205",
      "222",
      "240",
      "250",
      "262",
      "273",
      "283",
      "304",
      "310C",
      "310C",
      "310C",
      "310C",
      "310C",
      "310C",
      "310C",
      "310C",
      "310C",
      "310C",
      "310C",
      "310C",
      "310C",
      "310C",
      "310C",
      "310C",
      "310C",
      "310C",
      "310C",
      "310C",
      "310C",
      "310C",
      "310C",
      "310C",
      "310C",
      "310C",
      "310C",
      "310C",
      "310C",
      "310C",
      "310C",
      "310C",
      "310C",
      "310",
      "310",
      "310",
      "296",
      "273",
      "253",
      "235",
      "215",
      "196",
      "185",
      "177",
      "164",
      "160",
      "145",
      "144",
      "127",
      "126",
      "112",
      "112C",
      "110",
      "110C",
      "110",
      "110C",
      "107",
      "105",
      "091",
      "089",
      "071",
      "056",
      "053",
      "040",
      "032",
      "025",
      "024",
      "014",
      "006",
      "110"
    ],
    "swim:geom": "path",
    "swim:speeds": [
      181,
      235,
      258,
      278,
      279,
      291,
      327,
      344,
      360,
      371,
      390,
      405,
      413,
      424,
      442,
      459,
      472,
      495,
      500,
      501,
      501,
      499,
      498,
      497,
      497,
      499,
      501,
      499,
      502,
      504,
      504,
      505,
      504,
      504,
      504,
      503,
      503,
      504,
      504,
      506,
      508,
      509,
      510,
      510,
      511,
      511,
      512,
      512,
      512,
      512,
      513,
      513,
      514,
      515,
      516,
      514,
      491,
      478,
      473,
      461,
      450,
      445,
      411,
      408,
      384,
      387,
      365,
      369,
      346,
      352,
      314,
      318,
      311,
      314,
      268,
      272,
      255,
      259,
      253,
      233,
      234,
      222,
      220,
      203,
      206,
      174,
      159,
      142
    ],
    "swim:timestamps": [
      1790604507,
      1790604567,
      1790604601,
      1790604633,
      1790604661,
      1790604721,
      1790604781,
      1790604841,
      1790604901,
      1790604961,
      1790605021,
      1790605081,
      1790605141,
      1790605201,
      1790605261,
      1790605321,
      1790605381,
      1790605501,
      1790605561,
      1790605621,
      1790605681,
      1790605741,
      1790605801,
      1790605861,
      1790605922,
      1790605982,
      1790606042,
      1790606058,
      1790606114,
      1790606174,
      1790606234,
      1790606294,
      1790606354,
      1790606414,
      1790606474,
      1790606534,
      1790606594,
      1790606654,
      1790606714,
      1790606774,
      1790606839,
      1790606894,
      1790606954,
      1790607014,
      1790607074,
      1790607135,
      1790607195,
      1790607255,
      1790607315,
      1790607375,
      1790607435,
      1790607499,
      1790607559,
      1790607620,
      1790607680,
      1790607740,
      1790607800,
      1790607860,
      1790607920,
      1790607980,
      1790608014,
      1790608040,
      1790608086,
      1790608100,
      1790608152,
      1790608160,
      1790608212,
      1790608220,
      1790608272,
      1790608280,
      1790608326,
      1790608340,
      1790608386,
      1790608401,
      1790608446,
      1790608461,
      1790608506,
      1790608521,
      1790608581,
      1790608626,
      1790608641,
      1790608701,
      1790608761,
      1790608807,
      1790608821,
      1790608881,
      1790608941,
      1790609001
    ],
    "wof:geomhash": "163eb852c97885207bc4da69e5b10641",
    "wof:id": 2048458159,
    "wof:repo": "sfomuseum-data-flights-2026-09"
  },
  "bbox": [
    -123.13416666666667,
    37.43055555555555,
    -122.11666666666666,
    45.645833333333336
  ],
  "geometry": {"type":"LineString","coordinates":[[-122.63722222222223,45.61083333333333],[-122.71472222222222,45.632777777777775],[-122.76638888888888,45.645833333333336],[-122.80694444444444,45.618611111111115],[-122.81944444444444,45.58583333333333],[-122.85166666666666,45.5075],[-122.88611111111112,45.42444444444444],[-122.92361111111111,45.3325],[-122.96305555555556,45.23638888888889],[-122.98916666666666,45.13472222222222],[-123.01444444444445,45.026944444444446],[-123.03999999999999,44.91611111111111],[-123.06722222222221,44.79944444444444],[-123.0886111111111,44.70638888888889],[-123.11638888888888,44.585],[-123.13416666666667,44.4575],[-123.12972222222221,44.32611111111112],[-123.11916666666666,44.029444444444444],[-123.11416666666666,43.89111111111111],[-123.10916666666667,43.750277777777775],[-123.10444444444444,43.61],[-123.09944444444444,43.47222222222222],[-123.09555555555555,43.36083333333333],[-123.0911111111111,43.223888888888894],[-123.08611111111111,43.084722222222226],[-123.08138888888888,42.94472222222222],[-123.07638888888889,42.80472222222222],[-123.07333333333332,42.74638888888889],[-123.07166666666666,42.660555555555554],[-123.06611111111111,42.49333333333333],[-123.06166666666667,42.35416666666667],[-123.05694444444444,42.21555555555556],[-123.0525,42.074444444444445],[-123.04805555555555,41.93555555555555],[-123.04277777777777,41.769444444444446],[-123.03861111111111,41.62861111111111],[-123.03416666666666,41.490833333333335],[-123.03,41.36],[-123.02583333333334,41.218611111111116],[-123.0213888888889,41.07666666666667],[-123.01722222222222,40.93333333333333],[-123.01305555555555,40.79888888888889],[-123.00861111111111,40.657222222222224],[-123.00444444444445,40.514722222222225],[-123.00055555555555,40.37444444444444],[-122.99583333333334,40.22],[-122.99166666666667,40.07694444444445],[-122.9875,39.933611111111105],[-122.98333333333333,39.79055555555556],[-122.97916666666667,39.64722222222222],[-122.97500000000001,39.50527777777778],[-122.9713888888889,39.37416666666667],[-122.96694444444445,39.22916666666667],[-122.9625,39.05833333333333],[-122.95972222222223,38.91416666666667],[-122.92944444444444,38.775555555555556],[-122.88944444444445,38.63916666666667],[-122.85138888888888,38.51083333333333],[-122.81416666666667,38.38305555555556],[-122.77722222222222,38.2575],[-122.75,38.18333333333333],[-122.7425,38.1375],[-122.71666666666667,38.05],[-122.70972222222223,38.025277777777774],[-122.68333333333334,37.93333333333333],[-122.68,37.92388888888889],[-122.61666666666666,37.85],[-122.61222222222221,37.842222222222226],[-122.53333333333333,37.766666666666666],[-122.53361111111111,37.7675],[-122.46666666666667,37.7],[-122.46027777777778,37.69833333333333],[-122.4,37.63333333333333],[-122.39027777777778,37.6325],[-122.35,37.56666666666667],[-122.33916666666666,37.56583333333333],[-122.3,37.516666666666666],[-122.29388888888889,37.50527777777778],[-122.23222222222222,37.455555555555556],[-122.16666666666667,37.43333333333333],[-122.15555555555557,37.43055555555555],[-122.11666666666666,37.47833333333333],[-122.15944444444445,37.52833333333333],[-122.21666666666667,37.55],[-122.2225,37.55694444444444],[-122.27944444444444,37.58083333333334],[-122.32777777777777,37.60111111111111],[-122.37222222222222,37.61972222222222]]}
}
