{
  "id": 2048257517,
  "type": "Feature",
  "properties": {
    "geom:area": 0,
    "geom:bbox": "-122.363030,36.720690,-121.877310,37.614030",
    "geom:latitude": 37.21665341370055,
    "geom:longitude": -122.07125976941573,
    "src:alt_label": "swim-approach",
    "src:geom": "swim",
    "swim:elevations": [
      5311,
      5033,
      4647,
      4531,
      4360,
      4201,
      4010,
      3803,
      3491,
      3430,
      3058,
      2972,
      2692,
      2630,
      2328,
      2230,
      2077,
      1983,
      1889,
      1771,
      1527,
      1442,
      1219,
      887,
      818,
      577,
      495,
      363,
      189,
      101,
      35
    ],
    "swim:geom": "approach",
    "swim:timestamps": [
      1788648891,
      1788648918,
      1788648956,
      1788648968,
      1788648986,
      1788649007,
      1788649034,
      1788649064,
      1788649104,
      1788649113,
      1788649168,
      1788649184,
      1788649226,
      1788649235,
      1788649284,
      1788649311,
      1788649344,
      1788649359,
      1788649371,
      1788649392,
      1788649431,
      1788649452,
      1788649484,
      1788649526,
      1788649535,
      1788649585,
      1788649600,
      1788649635,
      1788649677,
      1788649701,
      1788649728
    ],
    "wof:geomhash": "56a32a3181f1951fa3e4ffab211e0a16",
    "wof:id": 2048257517,
    "wof:repo": "sfomuseum-data-flights-2026-09"
  },
  "bbox": [
    -122.36303,
    36.72069,
    -121.87731,
    37.61403
  ],
  "geometry": {"type":"LineString","coordinates":[[-121.87731,36.72069],[-121.90021,36.76436],[-121.91862,36.82965],[-121.9243,36.8501],[-121.93294,36.88081],[-121.94277,36.91606],[-121.95581,36.95889],[-121.97324,37.00291],[-121.99531,37.05944],[-122.00026,37.0724],[-122.03009,37.14995],[-122.03873,37.17151],[-122.06052,37.22679],[-122.06506,37.23859],[-122.09004,37.30172],[-122.10289,37.33508],[-122.11799,37.37302],[-122.12414,37.38976],[-122.12868,37.40314],[-122.13653,37.42645],[-122.151,37.46971],[-122.15815,37.49178],[-122.16856,37.52418],[-122.19088,37.56078],[-122.20099,37.56366],[-122.25108,37.57975],[-122.26411,37.58405],[-122.29337,37.58919],[-122.32555,37.60043],[-122.34278,37.60749],[-122.36303,37.61403]]}
}
