{
  "id": 2048331163,
  "type": "Feature",
  "properties": {
    "geom:area": 0,
    "geom:bbox": "-122.547590,36.767590,-122.242040,37.669130",
    "geom:latitude": 37.24710111547305,
    "geom:longitude": -122.46291154601141,
    "src:alt_label": "swim-takeoff",
    "src:geom": "swim",
    "swim:elevations": [
      183,
      309,
      707,
      982,
      1198,
      1617,
      2005,
      2570,
      2905,
      3112,
      3330,
      3668,
      4049,
      4447,
      4611,
      4775,
      4985,
      5304,
      5418,
      5672,
      5972,
      6060,
      6363,
      6443,
      6705,
      6847,
      7038
    ],
    "swim:geom": "takeoff",
    "swim:timestamps": [
      1789336348,
      1789336358,
      1789336393,
      1789336415,
      1789336451,
      1789336488,
      1789336510,
      1789336543,
      1789336573,
      1789336592,
      1789336615,
      1789336640,
      1789336674,
      1789336707,
      1789336725,
      1789336758,
      1789336784,
      1789336824,
      1789336836,
      1789336870,
      1789336908,
      1789336920,
      1789336956,
      1789336968,
      1789337001,
      1789337016,
      1789337043
    ],
    "wof:geomhash": "a72b59f28ffa1bbcbd83ea88080ab0e8",
    "wof:id": 2048331163,
    "wof:repo": "sfomuseum-data-flights-2026-09"
  },
  "bbox": [
    -122.54759,
    36.76759,
    -122.24204,
    37.66913
  ],
  "geometry": {"type":"LineString","coordinates":[[-122.394,37.62669],[-122.40263,37.63031],[-122.43465,37.6445],[-122.45582,37.65357],[-122.4989,37.66913],[-122.54755,37.64654],[-122.54759,37.61715],[-122.52519,37.5765],[-122.5032,37.54005],[-122.48877,37.515],[-122.47791,37.4807],[-122.48341,37.44275],[-122.49334,37.39],[-122.503,37.33771],[-122.5086,37.30892],[-122.5187,37.25201],[-122.52707,37.20561],[-122.54021,37.13383],[-122.54205,37.11135],[-122.51465,37.05084],[-122.45539,36.98996],[-122.43675,36.97055],[-122.38017,36.91163],[-122.36125,36.89195],[-122.30973,36.8382],[-122.28616,36.81358],[-122.24204,36.76759]]}
}
