{
  "id": 2048391561,
  "type": "Feature",
  "properties": {
    "geom:area": 0,
    "geom:bbox": "-122.528150,37.625780,-122.234280,38.517570",
    "geom:latitude": 38.03870463618805,
    "geom:longitude": -122.38262496451668,
    "src:alt_label": "swim-takeoff",
    "src:geom": "swim",
    "swim:elevations": [
      183,
      674,
      1103,
      1389,
      1732,
      1905,
      2238,
      2340,
      2709,
      3017,
      3355,
      3714,
      3977,
      4190,
      4862,
      5268,
      5574,
      5652,
      6131,
      6387,
      6519,
      6643,
      6909,
      7009,
      7432,
      7430
    ],
    "swim:geom": "takeoff",
    "swim:timestamps": [
      1789940960,
      1789940995,
      1789941026,
      1789941056,
      1789941084,
      1789941095,
      1789941118,
      1789941125,
      1789941148,
      1789941166,
      1789941206,
      1789941238,
      1789941261,
      1789941278,
      1789941320,
      1789941349,
      1789941377,
      1789941410,
      1789941446,
      1789941477,
      1789941489,
      1789941501,
      1789941535,
      1789941547,
      1789941598,
      1789941606
    ],
    "wof:geomhash": "0a96c98d0fa0ef2408b7def3e6f064cb",
    "wof:id": 2048391561,
    "wof:repo": "sfomuseum-data-flights-2026-09"
  },
  "bbox": [
    -122.52815,
    37.62578,
    -122.23428,
    38.51757
  ],
  "geometry": {"type":"LineString","coordinates":[[-122.39103,37.62578],[-122.42253,37.63954],[-122.45324,37.65159],[-122.48825,37.66683],[-122.51874,37.68808],[-122.52425,37.70113],[-122.52764,37.73163],[-122.52802,37.74002],[-122.52815,37.77227],[-122.52282,37.79629],[-122.49685,37.85023],[-122.47183,37.89544],[-122.45311,37.93063],[-122.43882,37.95726],[-122.40527,38.02185],[-122.38118,38.0672],[-122.35676,38.11361],[-122.32755,38.17007],[-122.29553,38.22963],[-122.26861,38.28131],[-122.25813,38.30133],[-122.24845,38.32015],[-122.23428,38.3814],[-122.2356,38.4043],[-122.24665,38.50143],[-122.24861,38.51757]]}
}
