{
  "id": 2048469413,
  "type": "Feature",
  "properties": {
    "geom:area": 0,
    "geom:bbox": "-122.359440,37.636750,-121.793340,38.180920",
    "geom:latitude": 37.89321527260216,
    "geom:longitude": -122.06363354663115,
    "src:alt_label": "swim-takeoff",
    "src:geom": "swim",
    "swim:elevations": [
      244,
      695,
      795,
      978,
      1179,
      1786,
      2134,
      2553,
      3115,
      3197,
      3319,
      3516,
      3712,
      4134,
      4512,
      4708,
      5079
    ],
    "swim:geom": "takeoff",
    "swim:timestamps": [
      1790696027,
      1790696066,
      1790696076,
      1790696105,
      1790696130,
      1790696185,
      1790696222,
      1790696253,
      1790696301,
      1790696324,
      1790696347,
      1790696377,
      1790696406,
      1790696445,
      1790696487,
      1790696506,
      1790696544
    ],
    "wof:geomhash": "3f4bdebd115fae45df36251feba3c72b",
    "wof:id": 2048469413,
    "wof:repo": "sfomuseum-data-flights-2026-09"
  },
  "bbox": [
    -122.35944,
    37.63675,
    -121.79334,
    38.18092
  ],
  "geometry": {"type":"LineString","coordinates":[[-122.35944,37.63675],[-122.32555,37.65756],[-122.31657,37.6626],[-122.28945,37.678],[-122.26299,37.69311],[-122.20146,37.73249],[-122.16769,37.76941],[-122.13906,37.80087],[-122.09345,37.85147],[-122.07082,37.87653],[-122.04548,37.9044],[-122.00961,37.94402],[-121.97399,37.9826],[-121.92476,38.03737],[-121.86998,38.09837],[-121.84379,38.12675],[-121.79334,38.18092]]}
}
