{
  "id": 2048293335,
  "type": "Feature",
  "properties": {
    "geom:area": 0,
    "geom:bbox": "-122.402650,37.626390,-121.265850,37.960900",
    "geom:latitude": 37.831930759560045,
    "geom:longitude": -121.86175754476196,
    "src:alt_label": "swim-takeoff",
    "src:geom": "swim",
    "swim:elevations": [
      152,
      522,
      578,
      789,
      927,
      1429,
      1762,
      1934,
      2393,
      2583,
      2780,
      3145,
      3248,
      3359,
      3581,
      3660,
      3864,
      3986,
      4401,
      4682,
      4704,
      5096,
      5256
    ],
    "swim:geom": "takeoff",
    "swim:timestamps": [
      1788956981,
      1788957027,
      1788957041,
      1788957081,
      1788957099,
      1788957144,
      1788957175,
      1788957189,
      1788957235,
      1788957254,
      1788957273,
      1788957315,
      1788957333,
      1788957360,
      1788957414,
      1788957439,
      1788957470,
      1788957487,
      1788957532,
      1788957567,
      1788957570,
      1788957627,
      1788957652
    ],
    "wof:geomhash": "a71db643fe4534df24b100f9b61f727a",
    "wof:id": 2048293335,
    "wof:repo": "sfomuseum-data-flights-2026-09"
  },
  "bbox": [
    -122.40265,
    37.62639,
    -121.26585,
    37.9609
  ],
  "geometry": {"type":"LineString","coordinates":[[-122.39308,37.62639],[-122.40265,37.65847],[-122.38797,37.66498],[-122.33614,37.67875],[-122.3107,37.6867],[-122.24569,37.70854],[-122.21699,37.74064],[-122.20749,37.75775],[-122.15098,37.79268],[-122.12082,37.79827],[-122.08948,37.80434],[-122.01988,37.81779],[-121.98728,37.82402],[-121.93705,37.83375],[-121.82584,37.85527],[-121.77284,37.86542],[-121.70035,37.87919],[-121.66062,37.88672],[-121.55537,37.9066],[-121.47181,37.92241],[-121.46464,37.92377],[-121.32913,37.94915],[-121.26585,37.9609]]}
}
