{
  "id": 2048245489,
  "type": "Feature",
  "properties": {
    "geom:area": 0,
    "geom:bbox": "-122.405610,37.638640,-121.257880,38.163470",
    "geom:latitude": 37.99228288056131,
    "geom:longitude": -121.94009332563468,
    "src:alt_label": "swim-takeoff",
    "src:geom": "swim",
    "swim:elevations": [
      428,
      613,
      1111,
      1130,
      1287,
      1545,
      1695,
      2357,
      2535,
      3231,
      3292,
      3440,
      3822,
      3938,
      4379,
      4600,
      4831,
      5197,
      5326,
      5563,
      5924,
      6121,
      6434,
      6770,
      6958,
      7069,
      7397,
      7596
    ],
    "swim:geom": "takeoff",
    "swim:timestamps": [
      1788473157,
      1788473172,
      1788473217,
      1788473223,
      1788473246,
      1788473273,
      1788473286,
      1788473338,
      1788473351,
      1788473396,
      1788473405,
      1788473422,
      1788473457,
      1788473469,
      1788473514,
      1788473536,
      1788473562,
      1788473601,
      1788473618,
      1788473644,
      1788473685,
      1788473707,
      1788473745,
      1788473787,
      1788473810,
      1788473826,
      1788473871,
      1788473899
    ],
    "wof:geomhash": "a40e69b498f1df18b6f038332c2fdf2d",
    "wof:id": 2048245489,
    "wof:repo": "sfomuseum-data-flights-2026-09"
  },
  "bbox": [
    -122.40561,
    37.63864,
    -121.25788,
    38.16347
  ],
  "geometry": {"type":"LineString","coordinates":[[-122.40561,37.63864],[-122.40432,37.65065],[-122.37333,37.68358],[-122.36892,37.68863],[-122.35035,37.70993],[-122.33861,37.74105],[-122.34356,37.7564],[-122.37526,37.8213],[-122.38203,37.83775],[-122.38429,37.90141],[-122.38051,37.91414],[-122.36325,37.93608],[-122.29946,37.9583],[-122.27542,37.96324],[-122.1812,37.98191],[-122.13515,37.99108],[-122.07783,38.00255],[-121.98886,38.02018],[-121.95014,38.02781],[-121.88836,38.04005],[-121.7914,38.05937],[-121.73831,38.06988],[-121.64678,38.08792],[-121.54253,38.1083],[-121.48416,38.1196],[-121.4456,38.12709],[-121.32958,38.1496],[-121.25788,38.16347]]}
}
