{
  "id": 2048462609,
  "type": "Feature",
  "properties": {
    "geom:area": 0,
    "geom:bbox": "-122.400000,26.076944,-80.169167,38.683611",
    "geom:latitude": 35.62579542345724,
    "geom:longitude": -99.9765397115884,
    "src:alt_label": "swim-path",
    "src:geom": "swim",
    "swim:altitudes": [
      "006",
      "029",
      "051",
      "078",
      "111",
      "134",
      "160",
      "178",
      "200",
      "217",
      "238",
      "260",
      "279",
      "291",
      "302",
      "316",
      "327",
      "330",
      "342",
      "344",
      "348",
      "350",
      "350",
      "350",
      "350",
      "350",
      "350",
      "350",
      "350",
      "350",
      "357",
      "365",
      "369C",
      "370C",
      "370C",
      "370C",
      "370C",
      "370C",
      "370C",
      "370C",
      "370C",
      "370C",
      "370C",
      "370C",
      "370C",
      "370C",
      "370C",
      "370C",
      "370C",
      "370C",
      "370C",
      "370C",
      "370C",
      "370C",
      "370C",
      "370C",
      "370C",
      "370C",
      "370C",
      "370C",
      "370C",
      "370C",
      "370C",
      "370C",
      "370C",
      "370C",
      "370C",
      "370C",
      "370C",
      "370C",
      "370C",
      "370C",
      "370C",
      "370C",
      "370C",
      "370C",
      "370C",
      "370C",
      "370C",
      "370C",
      "370C",
      "370C",
      "370C",
      "370C",
      "370C",
      "370C",
      "370C",
      "370C",
      "370C",
      "370C",
      "370C",
      "370C",
      "370C",
      "370C",
      "370C",
      "370C",
      "370C",
      "370C",
      "370C",
      "370C",
      "370C",
      "370C",
      "370C",
      "370C",
      "370C",
      "370C",
      "370C",
      "370C",
      "370C",
      "370C",
      "370C",
      "370C",
      "370C",
      "370C",
      "370C",
      "370C",
      "370C",
      "370C",
      "370C",
      "370C",
      "370C",
      "370C",
      "370C",
      "370C",
      "370C",
      "370C",
      "370C",
      "370C",
      "370C",
      "370C",
      "370C",
      "370C",
      "370C",
      "370C",
      "370C",
      "370C",
      "370C",
      "370C",
      "370C",
      "370C",
      "370C",
      "370C",
      "370C",
      "370C",
      "370C",
      "370C",
      "370C",
      "370C",
      "370C",
      "370C",
      "370C",
      "370C",
      "370C",
      "370C",
      "370C",
      "370C",
      "370C",
      "370C",
      "370C",
      "370C",
      "370C",
      "370C",
      "370C",
      "370C",
      "370C",
      "370C",
      "370C",
      "370C",
      "370C",
      "370C",
      "370C",
      "370C",
      "370C",
      "370",
      "370",
      "373",
      "374",
      "383",
      "385",
      "388C",
      "389C",
      "390C",
      "390C",
      "390C",
      "390C",
      "390C",
      "390C",
      "390C",
      "390C",
      "390C",
      "390C",
      "390C",
      "390C",
      "390C",
      "390C",
      "390C",
      "390C",
      "390C",
      "390C",
      "390C",
      "390C",
      "390C",
      "390C",
      "390C",
      "390C",
      "390C",
      "390C",
      "390C",
      "390C",
      "390C",
      "390C",
      "390C",
      "390C",
      "390C",
      "390C",
      "390C",
      "390C",
      "390C",
      "390C",
      "390C",
      "390C",
      "390C",
      "390C",
      "390C",
      "390C",
      "390C",
      "390C",
      "390C",
      "390C",
      "390C",
      "390C",
      "390C",
      "390C",
      "390C",
      "390C",
      "390C",
      "390C",
      "390C",
      "390C",
      "390C",
      "390C",
      "390C",
      "390C",
      "390C",
      "390C",
      "390C",
      "390C",
      "390C",
      "390C",
      "390C",
      "390C",
      "390C",
      "390C",
      "390C",
      "390C",
      "390C",
      "390C",
      "390C",
      "390C",
      "390C",
      "390C",
      "390C",
      "390C",
      "390C",
      "390C",
      "390C",
      "390C",
      "390C",
      "390C",
      "390C",
      "390C",
      "390C",
      "390C",
      "390C",
      "390C",
      "390C",
      "390C",
      "390C",
      "390C",
      "390C",
      "390C",
      "390C",
      "390C",
      "390C",
      "390C",
      "390C",
      "390C",
      "390C",
      "390C",
      "390C",
      "390C",
      "390C",
      "390C",
      "390C",
      "390C",
      "390C",
      "390C",
      "390C",
      "390C",
      "390C",
      "390C",
      "390C",
      "390C",
      "390C",
      "390C",
      "390C",
      "390C",
      "390C",
      "390C",
      "390C",
      "390C",
      "390C",
      "390C",
      "390C",
      "390C",
      "390C",
      "390C",
      "390C",
      "390C",
      "390C",
      "390C",
      "390C",
      "390C",
      "390C",
      "390C",
      "390C",
      "390C",
      "390C",
      "390C",
      "390C",
      "390C",
      "390C",
      "390C",
      "390C",
      "390C",
      "390C",
      "390C",
      "390C",
      "390C",
      "390C",
      "390C",
      "390C",
      "390C",
      "390C",
      "390C",
      "390C",
      "390C",
      "390C",
      "390C",
      "390C",
      "390C",
      "390C",
      "390C",
      "390C",
      "390C",
      "390C",
      "390C",
      "390C",
      "390C",
      "390C",
      "390C",
      "390C",
      "390C",
      "390C",
      "390C",
      "390C",
      "390C",
      "390C",
      "390C",
      "390C",
      "390C",
      "390C",
      "390C",
      "390C",
      "390C",
      "390C",
      "390C",
      "390C",
      "390C",
      "390C",
      "390C",
      "390C",
      "390C",
      "390C",
      "390C",
      "390C",
      "390C",
      "390C",
      "390C",
      "390C",
      "390C",
      "390C",
      "390C",
      "390C",
      "390C",
      "390C",
      "390C",
      "390C",
      "390C",
      "390C",
      "390C",
      "390C",
      "390C",
      "390C",
      "390C",
      "390C",
      "390C",
      "390",
      "390",
      "390",
      "390",
      "390",
      "390",
      "390",
      "390",
      "390",
      "390",
      "390",
      "390",
      "390",
      "383",
      "358",
      "341",
      "329",
      "305",
      "284",
      "262",
      "242",
      "220",
      "201",
      "178",
      "158",
      "138",
      "128",
      "116",
      "107",
      "102",
      "090",
      "089",
      "072",
      "070",
      "071",
      "066",
      "063",
      "050",
      "046",
      "045",
      "039",
      "036",
      "026",
      "017",
      "008",
      "001"
    ],
    "swim:geom": "path",
    "swim:speeds": [
      167,
      181,
      231,
      268,
      293,
      319,
      338,
      354,
      368,
      374,
      380,
      382,
      380,
      390,
      402,
      411,
      416,
      418,
      418,
      418,
      420,
      429,
      430,
      429,
      430,
      429,
      430,
      429,
      430,
      429,
      429,
      426,
      410,
      413,
      418,
      420,
      436,
      436,
      438,
      440,
      440,
      443,
      445,
      444,
      446,
      452,
      453,
      454,
      455,
      455,
      455,
      455,
      456,
      456,
      460,
      467,
      468,
      470,
      472,
      472,
      472,
      472,
      472,
      472,
      472,
      471,
      471,
      470,
      470,
      469,
      469,
      468,
      468,
      469,
      470,
      471,
      472,
      472,
      472,
      472,
      473,
      476,
      479,
      483,
      487,
      490,
      493,
      495,
      494,
      492,
      491,
      491,
      491,
      492,
      493,
      493,
      494,
      498,
      495,
      498,
      496,
      497,
      495,
      496,
      495,
      495,
      495,
      496,
      496,
      497,
      498,
      499,
      501,
      504,
      505,
      505,
      505,
      506,
      506,
      505,
      505,
      505,
      505,
      505,
      504,
      504,
      503,
      501,
      498,
      497,
      497,
      497,
      498,
      499,
      498,
      498,
      498,
      499,
      500,
      502,
      503,
      503,
      503,
      502,
      501,
      499,
      497,
      494,
      489,
      487,
      487,
      485,
      483,
      482,
      483,
      484,
      486,
      485,
      487,
      489,
      491,
      491,
      496,
      498,
      501,
      500,
      503,
      503,
      505,
      506,
      506,
      508,
      508,
      509,
      509,
      514,
      516,
      517,
      517,
      517,
      518,
      525,
      527,
      528,
      533,
      533,
      536,
      537,
      537,
      537,
      536,
      535,
      534,
      534,
      529,
      527,
      526,
      525,
      523,
      522,
      521,
      519,
      516,
      513,
      511,
      509,
      506,
      505,
      503,
      502,
      502,
      503,
      503,
      502,
      498,
      501,
      498,
      501,
      498,
      502,
      511,
      504,
      509,
      505,
      505,
      503,
      502,
      501,
      498,
      497,
      496,
      495,
      495,
      495,
      494,
      494,
      493,
      492,
      492,
      491,
      489,
      488,
      481,
      484,
      485,
      487,
      487,
      487,
      486,
      485,
      485,
      485,
      486,
      486,
      485,
      485,
      486,
      487,
      487,
      487,
      487,
      486,
      487,
      485,
      485,
      483,
      484,
      482,
      483,
      480,
      481,
      480,
      479,
      481,
      480,
      479,
      479,
      476,
      476,
      474,
      475,
      472,
      471,
      472,
      471,
      471,
      471,
      470,
      472,
      470,
      471,
      470,
      473,
      470,
      472,
      470,
      471,
      471,
      472,
      471,
      472,
      473,
      474,
      474,
      476,
      476,
      476,
      475,
      475,
      475,
      475,
      475,
      475,
      475,
      472,
      474,
      472,
      475,
      474,
      474,
      474,
      476,
      476,
      474,
      473,
      472,
      472,
      472,
      472,
      472,
      472,
      473,
      473,
      475,
      475,
      478,
      478,
      481,
      481,
      483,
      483,
      485,
      485,
      486,
      486,
      486,
      485,
      484,
      484,
      482,
      484,
      480,
      479,
      477,
      474,
      475,
      474,
      472,
      471,
      471,
      470,
      471,
      470,
      470,
      471,
      470,
      470,
      470,
      470,
      470,
      470,
      470,
      470,
      469,
      470,
      467,
      466,
      465,
      464,
      462,
      462,
      461,
      461,
      461,
      462,
      463,
      463,
      463,
      463,
      463,
      463,
      465,
      465,
      465,
      464,
      462,
      461,
      460,
      460,
      459,
      459,
      459,
      459,
      458,
      459,
      458,
      458,
      458,
      458,
      457,
      457,
      456,
      456,
      454,
      453,
      452,
      452,
      453,
      453,
      452,
      448,
      447,
      447,
      450,
      450,
      438,
      426,
      413,
      404,
      399,
      382,
      351,
      347,
      343,
      345,
      341,
      325,
      299,
      303,
      300,
      297,
      288,
      291,
      286,
      282,
      278,
      268,
      243,
      240,
      209,
      180,
      153,
      152
    ],
    "swim:timestamps": [
      1790657086,
      1790657150,
      1790657210,
      1790657270,
      1790657330,
      1790657390,
      1790657450,
      1790657510,
      1790657570,
      1790657630,
      1790657690,
      1790657750,
      1790657810,
      1790657871,
      1790657931,
      1790657991,
      1790658051,
      1790658076,
      1790658111,
      1790658136,
      1790658171,
      1790658256,
      1790658291,
      1790658316,
      1790658351,
      1790658376,
      1790658411,
      1790658436,
      1790658471,
      1790658496,
      1790658531,
      1790658556,
      1790658591,
      1790658616,
      1790658651,
      1790658676,
      1790658711,
      1790658736,
      1790658771,
      1790658831,
      1790658856,
      1790658891,
      1790658916,
      1790658951,
      1790658976,
      1790659012,
      1790659036,
      1790659072,
      1790659097,
      1790659132,
      1790659157,
      1790659192,
      1790659217,
      1790659252,
      1790659277,
      1790659312,
      1790659337,
      1790659372,
      1790659397,
      1790659432,
      1790659457,
      1790659492,
      1790659517,
      1790659552,
      1790659577,
      1790659612,
      1790659637,
      1790659672,
      1790659697,
      1790659732,
      1790659757,
      1790659792,
      1790659817,
      1790659877,
      1790659937,
      1790659997,
      1790660057,
      1790660117,
      1790660177,
      1790660238,
      1790660298,
      1790660358,
      1790660418,
      1790660478,
      1790660538,
      1790660598,
      1790660658,
      1790660718,
      1790660778,
      1790660838,
      1790660898,
      1790660958,
      1790661018,
      1790661078,
      1790661138,
      1790661198,
      1790661258,
      1790661296,
      1790661318,
      1790661356,
      1790661378,
      1790661416,
      1790661438,
      1790661476,
      1790661499,
      1790661536,
      1790661559,
      1790661596,
      1790661619,
      1790661657,
      1790661679,
      1790661717,
      1790661739,
      1790661777,
      1790661799,
      1790661837,
      1790661859,
      1790661897,
      1790661919,
      1790661957,
      1790661979,
      1790662017,
      1790662039,
      1790662077,
      1790662099,
      1790662137,
      1790662159,
      1790662197,
      1790662219,
      1790662257,
      1790662279,
      1790662317,
      1790662377,
      1790662437,
      1790662497,
      1790662557,
      1790662617,
      1790662677,
      1790662737,
      1790662797,
      1790662857,
      1790662917,
      1790662977,
      1790663037,
      1790663097,
      1790663157,
      1790663217,
      1790663277,
      1790663338,
      1790663398,
      1790663458,
      1790663518,
      1790663578,
      1790663638,
      1790663698,
      1790663758,
      1790663811,
      1790663818,
      1790663878,
      1790663938,
      1790663998,
      1790664053,
      1790664111,
      1790664118,
      1790664172,
      1790664178,
      1790664231,
      1790664238,
      1790664298,
      1790664351,
      1790664358,
      1790664411,
      1790664418,
      1790664471,
      1790664478,
      1790664531,
      1790664538,
      1790664591,
      1790664598,
      1790664651,
      1790664658,
      1790664718,
      1790664771,
      1790664779,
      1790664831,
      1790664839,
      1790664899,
      1790664959,
      1790665011,
      1790665071,
      1790665131,
      1790665193,
      1790665253,
      1790665312,
      1790665373,
      1790665432,
      1790665491,
      1790665551,
      1790665613,
      1790665673,
      1790665731,
      1790665794,
      1790665854,
      1790665912,
      1790665974,
      1790666031,
      1790666091,
      1790666151,
      1790666211,
      1790666274,
      1790666332,
      1790666391,
      1790666452,
      1790666511,
      1790666548,
      1790666572,
      1790666608,
      1790666632,
      1790666668,
      1790666694,
      1790666728,
      1790666752,
      1790666788,
      1790666812,
      1790666848,
      1790666872,
      1790666908,
      1790666932,
      1790666968,
      1790666992,
      1790667028,
      1790667052,
      1790667088,
      1790667112,
      1790667148,
      1790667173,
      1790667208,
      1790667232,
      1790667268,
      1790667293,
      1790667328,
      1790667352,
      1790667508,
      1790667628,
      1790667688,
      1790667868,
      1790667928,
      1790667988,
      1790668048,
      1790668109,
      1790668169,
      1790668229,
      1790668289,
      1790668349,
      1790668409,
      1790668469,
      1790668529,
      1790668589,
      1790668624,
      1790668649,
      1790668684,
      1790668709,
      1790668744,
      1790668769,
      1790668807,
      1790668829,
      1790668865,
      1790668889,
      1790668924,
      1790668949,
      1790668986,
      1790669009,
      1790669044,
      1790669069,
      1790669106,
      1790669129,
      1790669166,
      1790669189,
      1790669227,
      1790669249,
      1790669287,
      1790669309,
      1790669347,
      1790669369,
      1790669405,
      1790669429,
      1790669465,
      1790669489,
      1790669525,
      1790669549,
      1790669585,
      1790669609,
      1790669645,
      1790669669,
      1790669705,
      1790669729,
      1790669765,
      1790669789,
      1790669825,
      1790669849,
      1790669885,
      1790669909,
      1790669946,
      1790669969,
      1790670007,
      1790670029,
      1790670066,
      1790670089,
      1790670127,
      1790670149,
      1790670187,
      1790670210,
      1790670245,
      1790670270,
      1790670303,
      1790670330,
      1790670363,
      1790670390,
      1790670423,
      1790670483,
      1790670543,
      1790670606,
      1790670663,
      1790670723,
      1790670783,
      1790670843,
      1790670870,
      1790670903,
      1790670963,
      1790671023,
      1790671038,
      1790671083,
      1790671097,
      1790671143,
      1790671158,
      1790671203,
      1790671217,
      1790671263,
      1790671278,
      1790671323,
      1790671338,
      1790671383,
      1790671398,
      1790671443,
      1790671457,
      1790671503,
      1790671521,
      1790671563,
      1790671581,
      1790671623,
      1790671641,
      1790671683,
      1790671701,
      1790671743,
      1790671761,
      1790671803,
      1790671821,
      1790671863,
      1790671881,
      1790671923,
      1790671941,
      1790671983,
      1790672001,
      1790672043,
      1790672061,
      1790672103,
      1790672121,
      1790672163,
      1790672181,
      1790672223,
      1790672241,
      1790672283,
      1790672301,
      1790672343,
      1790672361,
      1790672403,
      1790672421,
      1790672463,
      1790672481,
      1790672524,
      1790672542,
      1790672584,
      1790672602,
      1790672644,
      1790672662,
      1790672704,
      1790672722,
      1790672764,
      1790672782,
      1790672824,
      1790672842,
      1790672884,
      1790672902,
      1790672944,
      1790672962,
      1790673004,
      1790673022,
      1790673064,
      1790673082,
      1790673124,
      1790673142,
      1790673184,
      1790673202,
      1790673244,
      1790673262,
      1790673304,
      1790673322,
      1790673364,
      1790673382,
      1790673424,
      1790673442,
      1790673484,
      1790673502,
      1790673544,
      1790673562,
      1790673604,
      1790673622,
      1790673664,
      1790673682,
      1790673724,
      1790673742,
      1790673802,
      1790673844,
      1790673862,
      1790673922,
      1790673982,
      1790674042,
      1790674102,
      1790674162,
      1790674223,
      1790674283,
      1790674343,
      1790674403,
      1790674422,
      1790674463,
      1790674482,
      1790674518,
      1790674573,
      1790674583,
      1790674643,
      1790674650,
      1790674710,
      1790674763,
      1790674770,
      1790674830,
      1790674883,
      1790674890,
      1790674943,
      1790674950,
      1790675003,
      1790675063,
      1790675123,
      1790675183
    ],
    "wof:geomhash": "ed55486debd0865134fade039b7204ea",
    "wof:id": 2048462609,
    "wof:repo": "sfomuseum-data-flights-2026-09"
  },
  "bbox": [
    -122.4,
    26.076944444444443,
    -80.16916666666667,
    38.683611111111105
  ],
  "geometry": {"type":"LineString","coordinates":[[-122.4,37.63333333333333],[-122.39027777777778,37.66083333333333],[-122.31888888888888,37.68083333333333],[-122.23611111111111,37.71],[-122.13472222222222,37.75861111111111],[-122.04277777777777,37.806666666666665],[-121.93277777777779,37.84],[-121.81361111111111,37.861111111111114],[-121.68666666666667,37.885],[-121.58083333333333,37.904444444444444],[-121.45027777777779,37.92833333333333],[-121.31805555555555,37.952222222222225],[-121.19,37.97555555555556],[-121.05722222222222,37.99888888888889],[-120.91861111111112,38.019444444444446],[-120.74861111111112,38.04555555555555],[-120.6036111111111,38.06777777777778],[-120.56166666666667,38.073055555555555],[-120.45777777777778,38.08972222222222],[-120.41833333333334,38.095555555555556],[-120.31472222222222,38.11138888888889],[-120.12194444444444,38.1375],[-120.01472222222222,38.15555555555555],[-119.97305555555556,38.15972222222222],[-119.86638888888888,38.17722222222222],[-119.82472222222222,38.18111111111111],[-119.71694444444445,38.198611111111106],[-119.67555555555556,38.20305555555556],[-119.56805555555555,38.219722222222224],[-119.52666666666667,38.224722222222226],[-119.43805555555556,38.238055555555555],[-119.38083333333333,38.24472222222222],[-119.29722222222222,38.25805555555556],[-119.23972222222223,38.265277777777776],[-119.15277777777779,38.27833333333333],[-119.09277777777777,38.285555555555554],[-119.00055555555555,38.299166666666665],[-118.94,38.306666666666665],[-118.84888888888888,38.319722222222225],[-118.69611111111111,38.34027777777778],[-118.63416666666667,38.34805555555556],[-118.54138888888889,38.36083333333333],[-118.44972222222222,38.37305555555555],[-118.38527777777779,38.38166666666667],[-118.32194444444444,38.39],[-118.2286111111111,38.40222222222222],[-118.16277777777778,38.41083333333333],[-118.06944444444444,38.4225],[-118.00083333333333,38.43111111111111],[-117.90555555555557,38.44333333333333],[-117.84277777777777,38.45138888888889],[-117.74472222222222,38.46388888888889],[-117.68138888888889,38.47166666666667],[-117.58361111111111,38.48416666666667],[-117.51944444444445,38.49194444444444],[-117.41777777777779,38.50472222222222],[-117.35249999999999,38.51277777777778],[-117.25083333333333,38.52222222222222],[-117.18222222222222,38.525555555555556],[-117.07972222222222,38.530833333333334],[-117.01361111111112,38.53444444444444],[-116.91194444444444,38.53944444444444],[-116.84666666666666,38.54277777777778],[-116.74388888888889,38.54805555555556],[-116.67805555555556,38.551111111111105],[-116.5761111111111,38.55583333333333],[-116.51222222222222,38.55888888888889],[-116.40861111111111,38.56361111111111],[-116.34388888888888,38.56666666666667],[-116.24444444444444,38.571111111111115],[-116.18027777777779,38.57416666666667],[-116.0786111111111,38.57833333333333],[-116.01083333333334,38.58111111111111],[-115.84638888888888,38.58777777777778],[-115.67833333333334,38.594166666666666],[-115.50916666666667,38.600833333333334],[-115.34138888888889,38.60722222222223],[-115.19222222222223,38.61277777777778],[-115.02527777777777,38.61833333333333],[-114.85583333333332,38.62388888888889],[-114.68722222222223,38.62916666666667],[-114.51916666666666,38.634166666666665],[-114.3475,38.638888888888886],[-114.17555555555556,38.64361111111111],[-114.00083333333333,38.64805555555556],[-113.8261111111111,38.65222222222222],[-113.64972222222222,38.65611111111111],[-113.4738888888889,38.66],[-113.2975,38.663333333333334],[-113.12333333333332,38.66638888888889],[-112.94805555555556,38.66916666666666],[-112.77444444444444,38.67194444444444],[-112.59833333333333,38.67444444444444],[-112.42444444444445,38.67666666666666],[-112.24722222222222,38.67777777777778],[-112.07222222222222,38.67944444444444],[-111.89527777777778,38.68111111111111],[-111.76888888888888,38.68194444444444],[-111.71972222222223,38.68222222222222],[-111.61277777777777,38.6825],[-111.54277777777777,38.68277777777777],[-111.43805555555556,38.68333333333333],[-111.36611111111111,38.683611111111105],[-111.26333333333334,38.683611111111105],[-111.19027777777778,38.683611111111105],[-111.08555555555554,38.683611111111105],[-111.01416666666667,38.683611111111105],[-110.88777777777779,38.683611111111105],[-110.81555555555555,38.68333333333333],[-110.71027777777778,38.68277777777777],[-110.63666666666667,38.6825],[-110.53277777777778,38.68222222222222],[-110.45944444444444,38.68194444444444],[-110.35249999999999,38.68138888888889],[-110.28111111111112,38.68083333333333],[-110.17472222222223,38.68],[-110.10194444444444,38.67916666666667],[-109.99305555555556,38.67805555555555],[-109.92027777777778,38.67666666666666],[-109.81666666666666,38.671388888888885],[-109.74333333333334,38.66777777777777],[-109.63777777777779,38.6625],[-109.56694444444445,38.65888888888889],[-109.4588888888889,38.653055555555554],[-109.3888888888889,38.64944444444444],[-109.28361111111111,38.64388888888889],[-109.21194444444444,38.64],[-109.10777777777777,38.634166666666665],[-109.03805555555556,38.63027777777778],[-108.93166666666667,38.62416666666667],[-108.8611111111111,38.62],[-108.75833333333334,38.61388888888889],[-108.5825,38.603611111111114],[-108.40777777777778,38.59305555555556],[-108.23305555555555,38.58222222222223],[-108.05555555555556,38.57055555555556],[-107.87972222222221,38.55888888888889],[-107.7063888888889,38.54722222222222],[-107.52833333333334,38.535],[-107.35138888888888,38.522777777777776],[-107.155,38.50861111111111],[-106.97694444444444,38.495555555555555],[-106.79944444444445,38.481944444444444],[-106.62305555555555,38.468611111111116],[-106.44666666666667,38.45472222222222],[-106.27472222222222,38.44083333333333],[-106.10055555555554,38.42722222222222],[-105.92861111111111,38.41277777777778],[-105.75527777777778,38.39833333333333],[-105.58527777777778,38.38361111111111],[-105.41444444444446,38.368611111111115],[-105.24555555555555,38.35388888888889],[-105.0775,38.33861111111111],[-104.90777777777778,38.318333333333335],[-104.73805555555556,38.29805555555556],[-104.56944444444444,38.278055555555554],[-104.43472222222222,38.26027777777778],[-104.39833333333334,38.257777777777775],[-104.22722222222222,38.23694444444445],[-104.05638888888889,38.215833333333336],[-103.88166666666666,38.19416666666666],[-103.74888888888889,38.17722222222222],[-103.57444444444444,38.15416666666667],[-103.56583333333333,38.153888888888886],[-103.40111111111112,38.132777777777775],[-103.39222222222223,38.13166666666667],[-103.22555555555556,38.109722222222224],[-103.21361111111112,38.10805555555556],[-103.0125,38.081388888888895],[-102.87388888888889,38.062777777777775],[-102.83611111111111,38.05777777777777],[-102.69805555555556,38.03861111111111],[-102.6588888888889,38.03333333333333],[-102.52222222222223,38.014722222222225],[-102.47833333333334,38.00861111111111],[-102.3436111111111,37.99],[-102.30305555555556,37.98416666666667],[-102.16250000000001,37.961666666666666],[-102.12472222222222,37.955555555555556],[-101.98555555555555,37.933055555555555],[-101.94722222222222,37.926944444444445],[-101.765,37.897777777777776],[-101.62194444444444,37.874722222222225],[-101.585,37.868611111111115],[-101.44083333333333,37.845],[-101.39888888888889,37.838055555555556],[-101.21416666666667,37.8075],[-101.02833333333334,37.776666666666664],[-100.89166666666668,37.75361111111111],[-100.70777777777778,37.72222222222222],[-100.5225,37.69027777777777],[-100.32027777777778,37.655],[-100.13972222222223,37.623333333333335],[-99.95722222222223,37.590833333333336],[-99.7761111111111,37.55833333333333],[-99.59888888888888,37.52638888888889],[-99.41083333333334,37.492222222222225],[-99.23277777777778,37.45944444444445],[-99.05805555555555,37.426944444444445],[-98.88305555555554,37.39416666666666],[-98.70555555555556,37.36027777777778],[-98.53027777777778,37.32694444444445],[-98.35833333333333,37.29416666666666],[-98.18777777777778,37.26083333333333],[-98.01638888888888,37.227222222222224],[-97.84833333333333,37.19416666666666],[-97.67805555555556,37.16027777777778],[-97.51,37.126666666666665],[-97.34222222222222,37.09277777777778],[-97.17416666666666,37.058611111111105],[-97.00722222222223,37.024166666666666],[-96.83722222222222,36.98888888888889],[-96.66888888888889,36.95388888888889],[-96.50083333333333,36.91861111111111],[-96.40777777777778,36.90138888888889],[-96.33277777777778,36.88333333333333],[-96.24333333333334,36.861666666666665],[-96.17444444444445,36.849444444444444],[-96.07305555555556,36.82944444444445],[-96.00527777777778,36.8125],[-95.90694444444445,36.78444444444444],[-95.83916666666666,36.765],[-95.74111111111111,36.736666666666665],[-95.67527777777778,36.717777777777776],[-95.57694444444444,36.689722222222215],[-95.51277777777777,36.67111111111111],[-95.41472222222222,36.64277777777778],[-95.34861111111111,36.623333333333335],[-95.25555555555556,36.596111111111114],[-95.18944444444445,36.57666666666667],[-95.09333333333333,36.54861111111111],[-95.03027777777778,36.53],[-94.93388888888889,36.501666666666665],[-94.86944444444444,36.4825],[-94.775,36.45444444444445],[-94.7125,36.43583333333333],[-94.61722222222221,36.4075],[-94.55388888888889,36.388333333333335],[-94.45805555555556,36.359722222222224],[-94.39583333333334,36.340833333333336],[-94.30138888888888,36.3125],[-94.23861111111111,36.29333333333333],[-93.83694444444444,36.17194444444444],[-93.5261111111111,36.07694444444445],[-93.36861111111111,36.02861111111111],[-92.89833333333334,35.882222222222225],[-92.74166666666667,35.83305555555556],[-92.585,35.78361111111111],[-92.42888888888889,35.73388888888889],[-92.27416666666666,35.68444444444444],[-92.11999999999999,35.63527777777778],[-91.96638888888889,35.58527777777778],[-91.81333333333333,35.53472222222222],[-91.66055555555556,35.48277777777778],[-91.50833333333334,35.43111111111111],[-91.35638888888889,35.379444444444445],[-91.20361111111112,35.32666666666667],[-91.05,35.27305555555555],[-90.96666666666667,35.24444444444445],[-90.89861111111112,35.220555555555556],[-90.81555555555555,35.19194444444444],[-90.7475,35.168055555555554],[-90.66388888888889,35.14055555555556],[-90.59805555555555,35.11555555555556],[-90.51444444444445,35.08833333333334],[-90.44638888888889,35.06194444444444],[-90.36555555555555,35.03527777777778],[-90.2975,35.00944444444445],[-90.21666666666667,34.981944444444444],[-90.14916666666667,34.95611111111111],[-90.07333333333332,34.919999999999995],[-90.01666666666667,34.88111111111111],[-89.9475,34.83694444444445],[-89.89222222222223,34.79888888888889],[-89.82166666666666,34.7525],[-89.7713888888889,34.71805555555556],[-89.69805555555556,34.66888888888889],[-89.64916666666667,34.63611111111111],[-89.57527777777777,34.586111111111116],[-89.52777777777777,34.55444444444444],[-89.45305555555557,34.50388888888889],[-89.40611111111112,34.47222222222222],[-89.33,34.42111111111111],[-89.28361111111111,34.38944444444444],[-89.20916666666668,34.33888888888889],[-89.16250000000001,34.30722222222222],[-89.08611111111111,34.25416666666667],[-89.03916666666666,34.223055555555554],[-88.96527777777779,34.17111111111111],[-88.9175,34.14],[-88.84388888888888,34.08888888888889],[-88.795,34.05555555555555],[-88.72194444444445,34.00555555555555],[-88.67444444444445,33.97277777777778],[-88.60249999999999,33.92305555555555],[-88.55388888888889,33.88944444444444],[-88.48138888888889,33.83916666666667],[-88.43333333333334,33.80583333333333],[-88.36138888888888,33.755833333333335],[-88.31277777777777,33.721944444444446],[-88.24,33.671388888888885],[-88.19277777777778,33.63805555555555],[-88.12027777777777,33.58722222222222],[-88.07055555555556,33.552499999999995],[-87.99805555555555,33.50111111111111],[-87.94888888888889,33.46666666666667],[-87.87916666666666,33.4175],[-87.82972222222222,33.382777777777775],[-87.75722222222223,33.33166666666667],[-87.71138888888889,33.295833333333334],[-87.64416666666668,33.24166666666667],[-87.59694444444445,33.20416666666667],[-87.53027777777778,33.15083333333333],[-87.48527777777778,33.115],[-87.41444444444446,33.056666666666665],[-87.37194444444444,33.02333333333333],[-87.30138888888888,32.96555555555556],[-87.25833333333334,32.93111111111111],[-87.18861111111111,32.873333333333335],[-87.08277777777778,32.775277777777774],[-86.98083333333334,32.67444444444444],[-86.89861111111112,32.59388888888889],[-86.77805555555555,32.475],[-86.67722222222223,32.37555555555556],[-86.57777777777777,32.27638888888889],[-86.47833333333334,32.17722222222222],[-86.43944444444445,32.138333333333335],[-86.37972222222221,32.07888888888889],[-86.28194444444445,31.980833333333333],[-86.18361111111112,31.881944444444446],[-86.14277777777778,31.840555555555554],[-86.06361111111111,31.761111111111113],[-86.04388888888889,31.74138888888889],[-85.96388888888889,31.660555555555554],[-85.94361111111111,31.64],[-85.86361111111111,31.558333333333334],[-85.84222222222222,31.53666666666667],[-85.76277777777777,31.455555555555556],[-85.74277777777777,31.435],[-85.66083333333334,31.351666666666667],[-85.64,31.330277777777777],[-85.55916666666667,31.247500000000002],[-85.53861111111111,31.226388888888888],[-85.47777777777777,31.163888888888888],[-85.4375,31.1225],[-85.35777777777777,31.040555555555557],[-85.33222222222221,31.015833333333333],[-85.25638888888889,30.935833333333335],[-85.23305555555555,30.91222222222222],[-85.15694444444445,30.83277777777778],[-85.13361111111112,30.809444444444445],[-85.0786111111111,30.75138888888889],[-85.0375,30.7075],[-84.97944444444444,30.648055555555555],[-84.94027777777778,30.60611111111111],[-84.88194444444444,30.546666666666667],[-84.84333333333333,30.505277777777778],[-84.78583333333333,30.445833333333333],[-84.7475,30.404999999999998],[-84.69,30.345277777777778],[-84.65138888888889,30.304166666666667],[-84.5936111111111,30.24388888888889],[-84.55527777777777,30.202222222222222],[-84.4975,30.142222222222223],[-84.45972222222223,30.101944444444445],[-84.40138888888889,30.040555555555557],[-84.36416666666666,30.00111111111111],[-84.30499999999999,29.938055555555557],[-84.26916666666666,29.90083333333333],[-84.20972222222223,29.836388888888887],[-84.17500000000001,29.79888888888889],[-84.11861111111111,29.73888888888889],[-84.08027777777778,29.698055555555555],[-84.00583333333333,29.61888888888889],[-83.98222222222222,29.59361111111111],[-83.91166666666668,29.517777777777777],[-83.89361111111111,29.498333333333335],[-83.81972222222223,29.41888888888889],[-83.80138888888888,29.398888888888887],[-83.72777777777777,29.31972222222222],[-83.70972222222223,29.3],[-83.6375,29.221666666666664],[-83.61944444444444,29.201944444444443],[-83.54472222222222,29.121111111111112],[-83.52666666666667,29.10138888888889],[-83.45333333333333,29.021666666666665],[-83.435,29.00138888888889],[-83.36194444444443,28.921666666666667],[-83.34444444444443,28.902777777777775],[-83.26944444444445,28.820833333333333],[-83.25222222222222,28.801944444444445],[-83.17777777777778,28.720555555555553],[-83.15972222222223,28.700833333333332],[-83.08722222222222,28.6175],[-83.0736111111111,28.598055555555554],[-83.01166666666667,28.509166666666665],[-82.9975,28.48888888888889],[-82.93583333333333,28.40083333333333],[-82.92222222222223,28.38138888888889],[-82.8611111111111,28.29361111111111],[-82.84583333333333,28.271944444444443],[-82.78583333333333,28.185277777777777],[-82.77083333333333,28.16333333333333],[-82.71027777777778,28.07611111111111],[-82.69583333333334,28.05527777777778],[-82.63472222222222,27.966666666666665],[-82.62083333333332,27.946944444444444],[-82.56055555555555,27.859444444444446],[-82.5461111111111,27.83861111111111],[-82.48611111111111,27.751666666666665],[-82.47111111111111,27.729999999999997],[-82.41250000000001,27.644444444444446],[-82.39833333333334,27.62388888888889],[-82.34027777777777,27.539166666666667],[-82.31055555555555,27.495833333333334],[-82.26777777777778,27.433333333333334],[-82.23861111111111,27.390555555555554],[-82.19444444444444,27.325833333333332],[-82.16611111111112,27.284444444444446],[-82.12138888888889,27.21861111111111],[-82.0936111111111,27.177500000000002],[-82.02166666666666,27.07138888888889],[-81.9786111111111,27.00777777777778],[-81.94972222222222,26.96527777777778],[-81.87416666666665,26.85388888888889],[-81.8,26.75638888888889],[-81.70138888888889,26.670555555555556],[-81.60805555555555,26.599166666666665],[-81.505,26.529722222222222],[-81.41777777777779,26.47083333333333],[-81.32111111111111,26.405555555555555],[-81.2363888888889,26.341944444444444],[-81.15555555555557,26.28111111111111],[-81.12027777777777,26.252222222222223],[-81.07444444444444,26.219166666666666],[-81.03861111111111,26.192777777777778],[-80.99138888888889,26.156388888888888],[-80.91055555555556,26.134444444444444],[-80.90583333333333,26.134999999999998],[-80.81583333333333,26.119722222222222],[-80.79305555555555,26.11527777777778],[-80.7063888888889,26.104166666666668],[-80.63861111111112,26.095],[-80.61694444444444,26.09111111111111],[-80.53277777777778,26.08],[-80.46583333333334,26.078333333333333],[-80.44666666666667,26.076944444444443],[-80.38833333333334,26.078055555555554],[-80.37249999999999,26.0775],[-80.31888888888888,26.07777777777778],[-80.2625,26.0775],[-80.21472222222222,26.076944444444443],[-80.16916666666667,26.076944444444443]]}
}
