{
  "id": 2048475931,
  "type": "Feature",
  "properties": {
    "geom:area": 0,
    "geom:bbox": "-122.346389,37.483333,-75.283333,40.335278",
    "geom:latitude": 39.64573408507644,
    "geom:longitude": -98.8736217380439,
    "src:alt_label": "swim-path",
    "src:geom": "swim",
    "swim:altitudes": [
      "007",
      "013",
      "021",
      "033",
      "045",
      "061",
      "086",
      "104",
      "119",
      "137",
      "158",
      "174",
      "192",
      "208",
      "222",
      "234",
      "248",
      "259",
      "268",
      "278",
      "293",
      "304",
      "314",
      "324",
      "335",
      "340C",
      "340C",
      "340C",
      "340C",
      "340C",
      "340C",
      "340C",
      "340C",
      "340C",
      "340C",
      "340C",
      "340C",
      "340C",
      "340C",
      "340C",
      "340C",
      "340C",
      "340C",
      "340C",
      "340",
      "333",
      "303",
      "300C",
      "300C",
      "300C",
      "300C",
      "300C",
      "300C",
      "300C",
      "300C",
      "300C",
      "300C",
      "300C",
      "300C",
      "300C",
      "300C",
      "300C",
      "300C",
      "300C",
      "300C",
      "300C",
      "300C",
      "300C",
      "300C",
      "300C",
      "300C",
      "300C",
      "300C",
      "300C",
      "300",
      "296",
      "290",
      "287",
      "281C",
      "280C",
      "280C",
      "280C",
      "280C",
      "280C",
      "280C",
      "280C",
      "280C",
      "280C",
      "280C",
      "280C",
      "280C",
      "280C",
      "280C",
      "280C",
      "280C",
      "280C",
      "280C",
      "280C",
      "280C",
      "280C",
      "280C",
      "280C",
      "280C",
      "280C",
      "280C",
      "280C",
      "280C",
      "280C",
      "280C",
      "280C",
      "280C",
      "280C",
      "280C",
      "280C",
      "280C",
      "280C",
      "280C",
      "280C",
      "280C",
      "280C",
      "280C",
      "280C",
      "280C",
      "280C",
      "280C",
      "280C",
      "280C",
      "280C",
      "280C",
      "280C",
      "280C",
      "280C",
      "280C",
      "280C",
      "280C",
      "280C",
      "280C",
      "280C",
      "280C",
      "280C",
      "280C",
      "280C",
      "280C",
      "280C",
      "280C",
      "280C",
      "280C",
      "280C",
      "280C",
      "280C",
      "280C",
      "280C",
      "280C",
      "280C",
      "280C",
      "280C",
      "280C",
      "280C",
      "280C",
      "280C",
      "280C",
      "280C",
      "280C",
      "280C",
      "280C",
      "280C",
      "280C",
      "280C",
      "280C",
      "280C",
      "280C",
      "280C",
      "280C",
      "280C",
      "280C",
      "280C",
      "280C",
      "280C",
      "280C",
      "280C",
      "280C",
      "280C",
      "280C",
      "280C",
      "280C",
      "280C",
      "280C",
      "280C",
      "280C",
      "280C",
      "280C",
      "280C",
      "280C",
      "280C",
      "280C",
      "280C",
      "280C",
      "280C",
      "280C",
      "280C",
      "280C",
      "280C",
      "280C",
      "280C",
      "280C",
      "280C",
      "280C",
      "280C",
      "280C",
      "280C",
      "280C",
      "280C",
      "280C",
      "280C",
      "280C",
      "280C",
      "280C",
      "280C",
      "280C",
      "280",
      "280",
      "280",
      "284",
      "292",
      "297",
      "303",
      "307",
      "316",
      "323",
      "335",
      "341",
      "350",
      "354",
      "360C",
      "360C",
      "360C",
      "360C",
      "360C",
      "360C",
      "360C",
      "360C",
      "360C",
      "360C",
      "360C",
      "360C",
      "360C",
      "360C",
      "360C",
      "360C",
      "360C",
      "360C",
      "360C",
      "360C",
      "360C",
      "360C",
      "360C",
      "360C",
      "360C",
      "360C",
      "360C",
      "360C",
      "360C",
      "360C",
      "360C",
      "360C",
      "360C",
      "360C",
      "360C",
      "360C",
      "360C",
      "360",
      "360",
      "360",
      "360",
      "360",
      "360",
      "360",
      "360",
      "360",
      "360",
      "360",
      "360",
      "360",
      "360",
      "360",
      "360",
      "360",
      "360",
      "360",
      "360",
      "360",
      "360C",
      "360C",
      "360C",
      "360C",
      "360C",
      "360C",
      "360C",
      "360C",
      "360C",
      "360C",
      "360C",
      "360C",
      "360C",
      "360C",
      "360C",
      "360C",
      "360C",
      "360C",
      "360C",
      "360C",
      "360C",
      "360C",
      "360C",
      "360C",
      "360C",
      "360C",
      "360C",
      "360C",
      "360C",
      "360C",
      "360C",
      "360C",
      "360C",
      "360C",
      "360C",
      "360C",
      "360C",
      "363",
      "378C",
      "380C",
      "380C",
      "380C",
      "380C",
      "380C",
      "380C",
      "380C",
      "380C",
      "380C",
      "380C",
      "380C",
      "380C",
      "380C",
      "380C",
      "380C",
      "380C",
      "380C",
      "380C",
      "380C",
      "380C",
      "380C",
      "380C",
      "380C",
      "380C",
      "380C",
      "380C",
      "380C",
      "380C",
      "380C",
      "380C",
      "380C",
      "380C",
      "380C",
      "380C",
      "380C",
      "380C",
      "380C",
      "380C",
      "380C",
      "380C",
      "380C",
      "380C",
      "380C",
      "380C",
      "380C",
      "380C",
      "380C",
      "380C",
      "380C",
      "380C",
      "380C",
      "380C",
      "380C",
      "380C",
      "380C",
      "380C",
      "380C",
      "380C",
      "380C",
      "380C",
      "380C",
      "380C",
      "380C",
      "380C",
      "380C",
      "380C",
      "380C",
      "380C",
      "380C",
      "380C",
      "380C",
      "380C",
      "380C",
      "380C",
      "380C",
      "380C",
      "380C",
      "380C",
      "380C",
      "380C",
      "380C",
      "380C",
      "380C",
      "380C",
      "380C",
      "380C",
      "380C",
      "380C",
      "380C",
      "380C",
      "380C",
      "380C",
      "380C",
      "380C",
      "380C",
      "380C",
      "380C",
      "380C",
      "380C",
      "380C",
      "380C",
      "380C",
      "380C",
      "380C",
      "380C",
      "380C",
      "380C",
      "380C",
      "380C",
      "380C",
      "380C",
      "380C",
      "380C",
      "380C",
      "380C",
      "380C",
      "380C",
      "380C",
      "380",
      "380",
      "380",
      "364",
      "332",
      "321",
      "299",
      "293",
      "273",
      "255",
      "232",
      "229",
      "211",
      "194",
      "189",
      "173",
      "167",
      "154",
      "148",
      "134",
      "121",
      "104",
      "098",
      "084",
      "079",
      "072",
      "069",
      "063",
      "050",
      "046",
      "042",
      "032",
      "027",
      "020",
      "018",
      "010",
      "003"
    ],
    "swim:geom": "path",
    "swim:speeds": [
      186,
      186,
      217,
      226,
      248,
      249,
      274,
      311,
      359,
      373,
      384,
      392,
      396,
      397,
      406,
      413,
      420,
      432,
      441,
      448,
      450,
      452,
      453,
      454,
      454,
      453,
      451,
      451,
      450,
      446,
      444,
      442,
      441,
      439,
      438,
      436,
      436,
      436,
      436,
      437,
      437,
      437,
      437,
      437,
      437,
      436,
      437,
      441,
      443,
      445,
      447,
      448,
      448,
      448,
      447,
      446,
      446,
      448,
      445,
      447,
      444,
      446,
      443,
      444,
      441,
      442,
      440,
      441,
      439,
      440,
      438,
      440,
      439,
      440,
      440,
      441,
      442,
      445,
      451,
      451,
      453,
      447,
      453,
      454,
      454,
      457,
      454,
      454,
      457,
      453,
      453,
      452,
      452,
      453,
      452,
      452,
      453,
      452,
      453,
      453,
      452,
      453,
      453,
      453,
      453,
      453,
      452,
      452,
      452,
      451,
      449,
      445,
      444,
      443,
      441,
      440,
      439,
      440,
      439,
      439,
      440,
      439,
      438,
      439,
      438,
      438,
      438,
      438,
      438,
      438,
      439,
      439,
      439,
      439,
      439,
      439,
      440,
      440,
      440,
      440,
      440,
      440,
      441,
      441,
      441,
      441,
      440,
      440,
      439,
      439,
      438,
      438,
      438,
      437,
      437,
      437,
      437,
      439,
      440,
      441,
      442,
      450,
      443,
      444,
      449,
      444,
      445,
      448,
      445,
      445,
      447,
      445,
      445,
      447,
      445,
      447,
      445,
      445,
      447,
      446,
      446,
      447,
      447,
      447,
      448,
      448,
      448,
      449,
      448,
      448,
      448,
      447,
      447,
      447,
      447,
      447,
      446,
      447,
      445,
      444,
      443,
      443,
      442,
      442,
      442,
      442,
      442,
      441,
      442,
      442,
      442,
      443,
      443,
      443,
      443,
      443,
      443,
      443,
      443,
      443,
      443,
      443,
      444,
      444,
      444,
      443,
      444,
      443,
      440,
      426,
      418,
      411,
      409,
      406,
      404,
      403,
      403,
      402,
      401,
      398,
      397,
      395,
      394,
      393,
      393,
      393,
      393,
      394,
      394,
      395,
      395,
      395,
      395,
      396,
      396,
      397,
      397,
      398,
      398,
      399,
      401,
      399,
      400,
      399,
      400,
      399,
      400,
      400,
      401,
      401,
      402,
      403,
      404,
      404,
      406,
      406,
      408,
      408,
      409,
      409,
      411,
      410,
      412,
      411,
      408,
      408,
      407,
      407,
      406,
      406,
      406,
      406,
      406,
      407,
      411,
      413,
      413,
      413,
      412,
      413,
      414,
      415,
      417,
      419,
      420,
      420,
      420,
      421,
      421,
      421,
      421,
      421,
      422,
      421,
      423,
      421,
      425,
      422,
      426,
      423,
      427,
      424,
      424,
      430,
      427,
      439,
      432,
      442,
      444,
      432,
      427,
      437,
      435,
      437,
      439,
      440,
      441,
      441,
      440,
      441,
      441,
      441,
      440,
      442,
      443,
      444,
      446,
      453,
      448,
      452,
      453,
      455,
      456,
      458,
      457,
      458,
      458,
      457,
      457,
      456,
      457,
      457,
      458,
      458,
      458,
      457,
      456,
      455,
      455,
      454,
      454,
      454,
      454,
      456,
      457,
      458,
      458,
      459,
      459,
      459,
      459,
      459,
      461,
      463,
      464,
      466,
      468,
      469,
      469,
      463,
      462,
      461,
      461,
      460,
      460,
      460,
      459,
      459,
      460,
      477,
      461,
      464,
      461,
      463,
      462,
      463,
      462,
      463,
      463,
      463,
      463,
      463,
      463,
      463,
      463,
      462,
      462,
      461,
      459,
      460,
      458,
      459,
      456,
      457,
      456,
      454,
      454,
      453,
      453,
      452,
      452,
      452,
      452,
      451,
      451,
      450,
      449,
      449,
      448,
      447,
      446,
      444,
      442,
      441,
      441,
      442,
      442,
      441,
      440,
      438,
      437,
      436,
      450,
      459,
      462,
      465,
      449,
      437,
      427,
      419,
      412,
      408,
      400,
      393,
      383,
      376,
      369,
      367,
      328,
      296,
      284,
      268,
      270,
      255,
      243,
      239,
      225,
      211,
      207,
      209,
      204,
      184,
      180,
      164,
      152
    ],
    "swim:timestamps": [
      1790775599,
      1790775620,
      1790775647,
      1790775680,
      1790775708,
      1790775740,
      1790775800,
      1790775860,
      1790775920,
      1790775980,
      1790776040,
      1790776100,
      1790776160,
      1790776220,
      1790776281,
      1790776341,
      1790776401,
      1790776461,
      1790776522,
      1790776582,
      1790776641,
      1790776701,
      1790776761,
      1790776821,
      1790776881,
      1790776943,
      1790777003,
      1790777063,
      1790777123,
      1790777183,
      1790777243,
      1790777303,
      1790777363,
      1790777423,
      1790777483,
      1790777544,
      1790777604,
      1790777664,
      1790777726,
      1790777781,
      1790777841,
      1790777901,
      1790777961,
      1790778021,
      1790778081,
      1790778142,
      1790778202,
      1790778262,
      1790778322,
      1790778382,
      1790778442,
      1790778502,
      1790778562,
      1790778622,
      1790778682,
      1790778742,
      1790778807,
      1790778839,
      1790778863,
      1790778900,
      1790778923,
      1790778960,
      1790778983,
      1790779020,
      1790779043,
      1790779080,
      1790779103,
      1790779140,
      1790779168,
      1790779200,
      1790779228,
      1790779260,
      1790779288,
      1790779320,
      1790779348,
      1790779380,
      1790779408,
      1790779441,
      1790779468,
      1790779501,
      1790779528,
      1790779542,
      1790779561,
      1790779588,
      1790779621,
      1790779662,
      1790779681,
      1790779709,
      1790779722,
      1790779741,
      1790779769,
      1790779783,
      1790779801,
      1790779829,
      1790779843,
      1790779861,
      1790779889,
      1790779903,
      1790779921,
      1790779949,
      1790779963,
      1790779981,
      1790780009,
      1790780023,
      1790780042,
      1790780083,
      1790780102,
      1790780129,
      1790780143,
      1790780162,
      1790780189,
      1790780203,
      1790780222,
      1790780249,
      1790780309,
      1790780323,
      1790780342,
      1790780370,
      1790780383,
      1790780402,
      1790780430,
      1790780444,
      1790780462,
      1790780490,
      1790780504,
      1790780522,
      1790780564,
      1790780582,
      1790780610,
      1790780643,
      1790780684,
      1790780703,
      1790780744,
      1790780763,
      1790780804,
      1790780823,
      1790780864,
      1790780883,
      1790780924,
      1790780943,
      1790780984,
      1790781003,
      1790781044,
      1790781063,
      1790781105,
      1790781123,
      1790781165,
      1790781183,
      1790781225,
      1790781244,
      1790781285,
      1790781304,
      1790781345,
      1790781364,
      1790781405,
      1790781424,
      1790781465,
      1790781496,
      1790781525,
      1790781556,
      1790781585,
      1790781624,
      1790781645,
      1790781676,
      1790781684,
      1790781705,
      1790781736,
      1790781744,
      1790781766,
      1790781796,
      1790781804,
      1790781826,
      1790781857,
      1790781864,
      1790781886,
      1790781924,
      1790781946,
      1790781977,
      1790781984,
      1790782006,
      1790782037,
      1790782044,
      1790782066,
      1790782097,
      1790782104,
      1790782126,
      1790782157,
      1790782164,
      1790782217,
      1790782225,
      1790782246,
      1790782274,
      1790782285,
      1790782306,
      1790782345,
      1790782366,
      1790782394,
      1790782405,
      1790782427,
      1790782465,
      1790782487,
      1790782525,
      1790782547,
      1790782585,
      1790782607,
      1790782645,
      1790782667,
      1790782705,
      1790782727,
      1790782765,
      1790782787,
      1790782825,
      1790782847,
      1790782885,
      1790782907,
      1790782946,
      1790782967,
      1790783006,
      1790783027,
      1790783066,
      1790783088,
      1790783126,
      1790783148,
      1790783186,
      1790783208,
      1790783246,
      1790783268,
      1790783306,
      1790783328,
      1790783366,
      1790783388,
      1790783426,
      1790783448,
      1790783486,
      1790783508,
      1790783546,
      1790783568,
      1790783606,
      1790783628,
      1790783666,
      1790783688,
      1790783727,
      1790783748,
      1790783787,
      1790783809,
      1790783847,
      1790783869,
      1790783907,
      1790783929,
      1790783967,
      1790783989,
      1790784027,
      1790784049,
      1790784087,
      1790784109,
      1790784147,
      1790784169,
      1790784207,
      1790784229,
      1790784267,
      1790784307,
      1790784327,
      1790784367,
      1790784387,
      1790784427,
      1790784448,
      1790784499,
      1790784508,
      1790784560,
      1790784568,
      1790784620,
      1790784628,
      1790784680,
      1790784688,
      1790784740,
      1790784748,
      1790784800,
      1790784808,
      1790784860,
      1790784868,
      1790784920,
      1790784928,
      1790784980,
      1790784988,
      1790785040,
      1790785048,
      1790785100,
      1790785108,
      1790785160,
      1790785169,
      1790785220,
      1790785229,
      1790785281,
      1790785349,
      1790785401,
      1790785461,
      1790785521,
      1790785581,
      1790785641,
      1790785701,
      1790785761,
      1790785821,
      1790785881,
      1790785941,
      1790786002,
      1790786055,
      1790786062,
      1790786122,
      1790786182,
      1790786235,
      1790786242,
      1790786295,
      1790786302,
      1790786355,
      1790786362,
      1790786416,
      1790786422,
      1790786476,
      1790786482,
      1790786536,
      1790786542,
      1790786596,
      1790786656,
      1790786662,
      1790786716,
      1790786723,
      1790786776,
      1790786783,
      1790786843,
      1790786903,
      1790786963,
      1790787016,
      1790787083,
      1790787143,
      1790787203,
      1790787263,
      1790787323,
      1790787383,
      1790787437,
      1790787504,
      1790787564,
      1790787624,
      1790787677,
      1790787684,
      1790787744,
      1790787804,
      1790787864,
      1790787924,
      1790787984,
      1790788044,
      1790788104,
      1790788165,
      1790788225,
      1790788278,
      1790788345,
      1790788405,
      1790788458,
      1790788525,
      1790788578,
      1790788645,
      1790788699,
      1790788765,
      1790788825,
      1790788886,
      1790788946,
      1790789006,
      1790789066,
      1790789119,
      1790789126,
      1790789179,
      1790789186,
      1790789239,
      1790789246,
      1790789299,
      1790789360,
      1790789420,
      1790789480,
      1790789540,
      1790789600,
      1790789660,
      1790789720,
      1790789780,
      1790789840,
      1790789900,
      1790789960,
      1790790020,
      1790790080,
      1790790141,
      1790790201,
      1790790261,
      1790790321,
      1790790381,
      1790790441,
      1790790501,
      1790790561,
      1790790621,
      1790790681,
      1790790741,
      1790790801,
      1790790815,
      1790790862,
      1790790875,
      1790790922,
      1790790935,
      1790790982,
      1790790995,
      1790791042,
      1790791055,
      1790791115,
      1790791162,
      1790791175,
      1790791222,
      1790791235,
      1790791282,
      1790791295,
      1790791342,
      1790791356,
      1790791416,
      1790791462,
      1790791476,
      1790791522,
      1790791536,
      1790791582,
      1790791596,
      1790791656,
      1790791703,
      1790791716,
      1790791763,
      1790791776,
      1790791823,
      1790791836,
      1790791883,
      1790791896,
      1790791943,
      1790791956,
      1790792003,
      1790792017,
      1790792063,
      1790792077,
      1790792123,
      1790792137,
      1790792197,
      1790792257,
      1790792317,
      1790792377,
      1790792437,
      1790792497,
      1790792557,
      1790792617,
      1790792677,
      1790792738,
      1790792798,
      1790792858,
      1790792870,
      1790792918,
      1790792924,
      1790792984,
      1790793038,
      1790793098,
      1790793104,
      1790793160,
      1790793218,
      1790793224,
      1790793278,
      1790793285,
      1790793338,
      1790793345,
      1790793399,
      1790793459,
      1790793525,
      1790793579,
      1790793639,
      1790793645,
      1790793699,
      1790793705,
      1790793759,
      1790793825,
      1790793879,
      1790793885,
      1790793939,
      1790793945,
      1790793999,
      1790794005,
      1790794060,
      1790794120
    ],
    "wof:geomhash": "524a9ae4d794b1911384090f99cd02f4",
    "wof:id": 2048475931,
    "wof:repo": "sfomuseum-data-flights-2026-09"
  },
  "bbox": [
    -122.34638888888888,
    37.483333333333334,
    -75.28333333333333,
    40.33527777777778
  ],
  "geometry": {"type":"LineString","coordinates":[[-75.28333333333333,39.86666666666667],[-75.30444444444444,39.85444444444445],[-75.33333333333333,39.85],[-75.37833333333333,39.837500000000006],[-75.41666666666667,39.833333333333336],[-75.47027777777778,39.85666666666667],[-75.5611111111111,39.88444444444444],[-75.65972222222223,39.91416666666667],[-75.78583333333333,39.91611111111111],[-75.91361111111112,39.913888888888884],[-76.05749999999999,39.910555555555554],[-76.19555555555556,39.90861111111111],[-76.34666666666666,39.91444444444444],[-76.48388888888888,39.919999999999995],[-76.63583333333334,39.92611111111111],[-76.77416666666666,39.94194444444444],[-76.9263888888889,39.95722222222223],[-77.08305555555555,39.97166666666667],[-77.21888888888888,39.98416666666667],[-77.3825,39.99888888888889],[-77.57722222222222,40.01583333333333],[-77.74166666666667,40.030277777777776],[-77.90277777777779,40.04388888888889],[-78.06638888888888,40.05777777777777],[-78.23361111111112,40.07166666666667],[-78.36583333333333,40.0825],[-78.52638888888889,40.095555555555556],[-78.68972222222223,40.108333333333334],[-78.85333333333332,40.12083333333334],[-79.01416666666667,40.13305555555556],[-79.17305555555556,40.14416666666666],[-79.33361111111111,40.147777777777776],[-79.48972222222223,40.15138888888889],[-79.64944444444446,40.15472222222222],[-79.80694444444444,40.157777777777774],[-79.96611111111112,40.16083333333333],[-80.12666666666667,40.163333333333334],[-80.28888888888889,40.16583333333333],[-80.44888888888889,40.16833333333333],[-80.6061111111111,40.17027777777778],[-80.7675,40.17222222222222],[-80.92611111111111,40.17361111111111],[-81.08444444444444,40.17333333333333],[-81.24305555555556,40.17111111111111],[-81.40083333333334,40.169444444444444],[-81.5586111111111,40.1675],[-81.71694444444445,40.169999999999995],[-81.88972222222223,40.175555555555555],[-82.05111111111111,40.18083333333333],[-82.2125,40.18583333333333],[-82.37555555555555,40.190555555555555],[-82.53888888888889,40.19499999999999],[-82.69805555555556,40.19916666666666],[-82.85944444444443,40.20333333333333],[-83.02194444444444,40.20722222222223],[-83.18305555555555,40.21083333333333],[-83.35472222222222,40.217222222222226],[-83.42277777777778,40.223888888888894],[-83.50111111111111,40.231944444444444],[-83.58388888888888,40.240833333333335],[-83.65833333333335,40.24916666666667],[-83.74361111111111,40.25861111111111],[-83.81444444444445,40.26638888888889],[-83.90083333333334,40.27472222222222],[-83.97333333333333,40.282222222222224],[-84.05888888888889,40.29138888888889],[-84.12916666666666,40.29861111111111],[-84.21472222222222,40.3075],[-84.28666666666666,40.315],[-84.36916666666666,40.323888888888895],[-84.44416666666667,40.33222222222223],[-84.52555555555556,40.33527777777778],[-84.60277777777777,40.335],[-84.68444444444445,40.334722222222226],[-84.76361111111112,40.33444444444444],[-84.84638888888888,40.33444444444444],[-84.94416666666667,40.33388888888889],[-85.01,40.33361111111111],[-85.11,40.333333333333336],[-85.17527777777778,40.33305555555556],[-85.27583333333334,40.33222222222223],[-85.3086111111111,40.33027777777778],[-85.37222222222222,40.33111111111111],[-85.43944444444445,40.33083333333334],[-85.5411111111111,40.32972222222222],[-85.64583333333334,40.32916666666667],[-85.70444444444445,40.32833333333333],[-85.78111111111112,40.3275],[-85.8111111111111,40.32777777777778],[-85.86833333333333,40.32638888888889],[-85.94305555555556,40.32555555555556],[-85.97333333333333,40.32527777777778],[-86.02888888888889,40.32416666666667],[-86.1061111111111,40.32333333333334],[-86.13722222222223,40.32361111111111],[-86.19277777777778,40.32194444444445],[-86.27083333333333,40.32083333333334],[-86.30305555555556,40.32027777777778],[-86.35805555555555,40.31944444444445],[-86.43694444444445,40.318333333333335],[-86.46722222222222,40.31722222222223],[-86.52083333333333,40.31666666666667],[-86.5975,40.31527777777777],[-86.63333333333334,40.31527777777777],[-86.68444444444445,40.31361111111111],[-86.79722222222222,40.311388888888885],[-86.8461111111111,40.31027777777778],[-86.9238888888889,40.30888888888889],[-86.96027777777778,40.308055555555555],[-87.00944444444444,40.30722222222222],[-87.06944444444444,40.30583333333333],[-87.12138888888889,40.30444444444444],[-87.17027777777778,40.30333333333333],[-87.22916666666667,40.301944444444445],[-87.39194444444445,40.29805555555556],[-87.43916666666667,40.29694444444444],[-87.48472222222222,40.295833333333334],[-87.55694444444444,40.29388888888889],[-87.61083333333333,40.29277777777778],[-87.655,40.2925],[-87.71611111111112,40.29194444444444],[-87.76888888888888,40.291666666666664],[-87.81416666666667,40.29111111111111],[-87.87638888888888,40.29055555555556],[-87.92722222222223,40.28972222222222],[-87.97500000000001,40.28916666666667],[-88.08888888888889,40.28722222222222],[-88.13472222222222,40.28666666666666],[-88.19527777777778,40.28583333333333],[-88.2936111111111,40.284166666666664],[-88.40722222222223,40.282222222222224],[-88.45333333333333,40.28138888888889],[-88.56638888888888,40.279444444444444],[-88.59638888888888,40.278888888888886],[-88.72638888888889,40.27638888888889],[-88.75805555555556,40.27583333333333],[-88.88666666666667,40.27305555555555],[-88.91777777777779,40.2725],[-89.04555555555555,40.26972222222222],[-89.07805555555555,40.26888888888889],[-89.2075,40.26583333333333],[-89.23777777777778,40.265277777777776],[-89.36888888888888,40.261944444444445],[-89.39833333333334,40.26111111111111],[-89.53027777777778,40.257777777777775],[-89.55916666666667,40.25694444444444],[-89.69055555555556,40.25333333333333],[-89.72,40.2525],[-89.81722222222221,40.249722222222225],[-89.88166666666666,40.24777777777778],[-89.97722222222222,40.245],[-90.04083333333332,40.24277777777778],[-90.13555555555556,40.24],[-90.19861111111112,40.238055555555555],[-90.29527777777777,40.234722222222224],[-90.35916666666667,40.2325],[-90.45472222222223,40.22916666666667],[-90.55111111111111,40.225833333333334],[-90.615,40.22361111111111],[-90.7125,40.22],[-90.77888888888889,40.2175],[-90.90138888888889,40.21222222222222],[-90.93805555555556,40.21138888888889],[-91.035,40.2075],[-91.06333333333333,40.205555555555556],[-91.12805555555555,40.20388888888889],[-91.19583333333334,40.20111111111111],[-91.22500000000001,40.19916666666666],[-91.28944444444444,40.197222222222216],[-91.35444444444444,40.19444444444444],[-91.38611111111112,40.19277777777778],[-91.45,40.19],[-91.4825,40.18888888888888],[-91.54666666666667,40.184999999999995],[-91.61194444444443,40.18333333333333],[-91.70861111111111,40.17833333333333],[-91.77472222222222,40.175555555555555],[-91.83833333333332,40.172777777777775],[-91.86972222222222,40.17111111111111],[-91.90166666666667,40.16972222222222],[-92.00055555555555,40.165],[-92.03194444444445,40.163333333333334],[-92.06444444444445,40.161944444444444],[-92.12888888888888,40.15888888888889],[-92.19722222222222,40.15555555555555],[-92.22972222222222,40.153888888888886],[-92.3261111111111,40.14888888888889],[-92.36083333333333,40.14694444444444],[-92.49083333333333,40.140277777777776],[-92.52361111111111,40.13861111111111],[-92.57055555555556,40.13611111111111],[-92.62194444444444,40.13611111111111],[-92.69,40.138333333333335],[-92.73138888888889,40.13972222222222],[-92.82138888888889,40.1425],[-92.89555555555556,40.14472222222222],[-92.98361111111112,40.1475],[-92.98388888888888,40.1475],[-93.05472222222222,40.14944444444444],[-93.14361111111111,40.15222222222222],[-93.20722222222223,40.15416666666667],[-93.30333333333333,40.156666666666666],[-93.36833333333333,40.15833333333333],[-93.46305555555556,40.16111111111111],[-93.52916666666667,40.16277777777778],[-93.62333333333332,40.165277777777774],[-93.68944444444445,40.16694444444444],[-93.78361111111111,40.16916666666666],[-93.84972222222221,40.17055555555555],[-93.94527777777778,40.1725],[-94.00805555555556,40.17388888888889],[-94.10388888888889,40.17583333333333],[-94.17333333333333,40.177499999999995],[-94.26527777777778,40.17944444444444],[-94.33194444444445,40.18055555555555],[-94.42583333333334,40.18222222222222],[-94.49333333333334,40.18333333333333],[-94.58888888888889,40.184999999999995],[-94.65361111111112,40.18583333333333],[-94.74833333333333,40.18722222222222],[-94.81222222222222,40.18833333333333],[-94.91027777777778,40.189722222222215],[-94.97333333333333,40.190555555555555],[-95.06944444444444,40.19194444444444],[-95.13416666666667,40.19277777777778],[-95.23194444444445,40.19361111111111],[-95.29333333333334,40.19444444444444],[-95.39416666666668,40.195277777777775],[-95.45333333333333,40.19583333333333],[-95.54861111111111,40.196666666666665],[-95.60444444444444,40.197222222222216],[-95.69888888888889,40.198055555555555],[-95.7525,40.19833333333333],[-95.8461111111111,40.19888888888889],[-95.89694444444446,40.19916666666666],[-95.99083333333333,40.19944444444444],[-96.04166666666667,40.19972222222222],[-96.13611111111112,40.2],[-96.19916666666667,40.2],[-96.28083333333333,40.20138888888889],[-96.34166666666667,40.20277777777778],[-96.42222222222223,40.20444444444445],[-96.48194444444445,40.20527777777778],[-96.56388888888888,40.20666666666667],[-96.6111111111111,40.2075],[-96.70833333333334,40.20888888888889],[-96.75333333333333,40.209722222222226],[-96.85083333333333,40.211111111111116],[-96.8963888888889,40.211666666666666],[-96.99472222222222,40.213055555555556],[-97.03972222222222,40.21361111111111],[-97.13944444444445,40.21472222222223],[-97.18416666666667,40.21555555555556],[-97.28333333333333,40.21666666666667],[-97.32972222222222,40.216944444444444],[-97.42777777777778,40.217777777777776],[-97.4738888888889,40.218333333333334],[-97.57249999999999,40.219166666666666],[-97.64305555555556,40.219722222222224],[-97.71888888888888,40.22027777777778],[-97.83166666666666,40.22083333333334],[-97.86305555555555,40.221111111111114],[-97.97472222222223,40.22166666666667],[-98.00666666666666,40.22166666666667],[-98.12166666666666,40.22222222222222],[-98.15333333333334,40.22222222222222],[-98.2675,40.22277777777778],[-98.29944444444445,40.22277777777778],[-98.44,40.22277777777778],[-98.44527777777778,40.22277777777778],[-98.58749999999999,40.22277777777778],[-98.59222222222222,40.22277777777778],[-98.735,40.222500000000004],[-98.73861111111111,40.222500000000004],[-98.885,40.22222222222222],[-98.8875,40.22222222222222],[-99.035,40.22138888888889],[-99.03777777777778,40.22138888888889],[-99.18416666666667,40.22083333333334],[-99.1863888888889,40.22083333333334],[-99.33333333333333,40.219722222222224],[-99.33444444444444,40.219722222222224],[-99.48333333333333,40.218611111111116],[-99.485,40.218611111111116],[-99.63,40.217222222222226],[-99.63222222222221,40.217222222222226],[-99.77777777777777,40.21555555555556],[-99.77666666666667,40.21555555555556],[-99.9238888888889,40.21388888888889],[-99.92527777777778,40.21416666666667],[-100.0736111111111,40.21194444444445],[-100.07222222222222,40.21194444444445],[-100.21944444444445,40.21],[-100.39472222222223,40.20722222222223],[-100.52055555555556,40.205000000000005],[-100.67194444444445,40.200833333333335],[-100.82277777777777,40.19333333333333],[-100.97277777777778,40.186388888888885],[-101.1211111111111,40.17944444444444],[-101.27277777777778,40.17222222222222],[-101.42222222222223,40.16444444444444],[-101.57249999999999,40.15694444444444],[-101.72527777777778,40.14861111111111],[-101.87722222222222,40.14083333333333],[-102.03138888888888,40.13194444444444],[-102.15194444444445,40.12361111111111],[-102.18416666666667,40.123333333333335],[-102.335,40.11472222222223],[-102.48666666666666,40.105555555555554],[-102.6086111111111,40.096944444444446],[-102.63944444444445,40.096111111111114],[-102.76194444444444,40.08777777777778],[-102.78472222222221,40.08722222222222],[-102.91277777777778,40.078611111111115],[-102.93777777777778,40.0775],[-103.06722222222221,40.06861111111112],[-103.0925,40.06777777777778],[-103.22277777777778,40.058611111111105],[-103.24666666666667,40.05722222222222],[-103.37694444444443,40.04833333333333],[-103.40083333333334,40.04666666666667],[-103.53194444444445,40.03722222222222],[-103.68611111111112,40.02583333333333],[-103.71111111111111,40.025],[-103.84333333333333,40.015],[-103.86944444444444,40.01361111111111],[-104.00222222222222,40.00416666666667],[-104.02777777777777,40.00222222222222],[-104.1888888888889,39.99],[-104.34333333333333,39.97805555555556],[-104.49583333333334,39.96611111111111],[-104.63416666666667,39.95416666666667],[-104.80777777777777,39.94138888888889],[-104.96416666666667,39.92861111111111],[-105.12055555555555,39.91555555555556],[-105.2786111111111,39.90222222222222],[-105.43694444444445,39.88861111111111],[-105.59277777777777,39.875],[-105.74638888888889,39.862500000000004],[-105.90916666666668,39.846944444444446],[-106.06833333333333,39.83222222222223],[-106.22472222222223,39.8175],[-106.37888888888888,39.80277777777778],[-106.3825,39.802499999999995],[-106.54527777777777,39.78722222222222],[-106.70416666666667,39.76972222222222],[-106.8625,39.75194444444445],[-107.02166666666666,39.734722222222224],[-107.2125,39.71333333333334],[-107.3736111111111,39.69499999999999],[-107.5375,39.67611111111111],[-107.70111111111112,39.656388888888884],[-107.86138888888888,39.6375],[-107.9925,39.62166666666667],[-108.18833333333333,39.59805555555556],[-108.35277777777777,39.57777777777778],[-108.4825,39.56166666666666],[-108.64777777777779,39.54083333333333],[-108.81555555555555,39.519444444444446],[-108.97944444444444,39.498333333333335],[-109.14166666666668,39.477222222222224],[-109.30305555555556,39.45611111111111],[-109.46527777777779,39.43416666666666],[-109.62722222222222,39.4125],[-109.79083333333332,39.39],[-109.95027777777779,39.36805555555556],[-110.10972222222222,39.34666666666667],[-110.27111111111111,39.325],[-110.27111111111111,39.325],[-110.43222222222222,39.30305555555555],[-110.43222222222222,39.30305555555555],[-110.59194444444444,39.280833333333334],[-110.59194444444444,39.280833333333334],[-110.75444444444445,39.25833333333333],[-110.91305555555556,39.236111111111114],[-111.075,39.213055555555556],[-111.23611111111111,39.19],[-111.37444444444444,39.16972222222222],[-111.53583333333333,39.14611111111111],[-111.69638888888889,39.1225],[-111.85638888888889,39.098333333333336],[-112.04833333333333,39.07],[-112.21055555555556,39.044999999999995],[-112.37222222222222,39.019999999999996],[-112.53444444444445,38.99472222222222],[-112.69861111111112,38.96888888888889],[-112.86222222222221,38.94305555555555],[-113.02527777777777,38.916666666666664],[-113.1888888888889,38.890277777777776],[-113.35027777777778,38.864444444444445],[-113.50861111111111,38.83833333333334],[-113.66722222222222,38.81166666666666],[-113.82694444444444,38.785],[-113.98805555555556,38.757777777777775],[-114.14472222222223,38.73111111111111],[-114.30361111111111,38.70444444444445],[-114.46277777777777,38.678888888888885],[-114.62249999999999,38.65277777777778],[-114.78222222222222,38.626666666666665],[-114.81666666666666,38.62138888888889],[-114.94277777777778,38.60027777777778],[-114.97666666666667,38.594722222222224],[-115.10333333333332,38.57333333333334],[-115.1363888888889,38.56861111111112],[-115.26222222222222,38.546388888888885],[-115.29972222222221,38.540277777777774],[-115.42666666666668,38.51861111111111],[-115.46083333333334,38.51277777777778],[-115.62166666666666,38.48527777777778],[-115.74805555555555,38.463055555555556],[-115.78194444444445,38.45722222222223],[-115.90805555555556,38.43527777777778],[-115.94277777777778,38.428888888888885],[-116.06805555555555,38.40694444444444],[-116.10249999999999,38.40083333333333],[-116.22805555555556,38.37861111111111],[-116.26138888888889,38.37277777777778],[-116.41833333333334,38.34444444444445],[-116.54416666666667,38.32166666666667],[-116.57555555555555,38.316111111111105],[-116.70111111111112,38.293055555555554],[-116.73222222222222,38.2875],[-116.85777777777777,38.26444444444444],[-116.88805555555557,38.25888888888889],[-117.04333333333334,38.230000000000004],[-117.16444444444446,38.20722222222223],[-117.18611111111112,38.20333333333333],[-117.31194444444444,38.17972222222222],[-117.34166666666667,38.174166666666665],[-117.46361111111112,38.151111111111106],[-117.49805555555555,38.144444444444446],[-117.61999999999999,38.12111111111111],[-117.65111111111112,38.11527777777778],[-117.77055555555556,38.092222222222226],[-117.80472222222222,38.08555555555556],[-117.92527777777778,38.06222222222222],[-117.95722222222223,38.05611111111111],[-118.07805555555555,38.0325],[-118.10972222222222,38.02611111111111],[-118.2286111111111,38.00277777777778],[-118.2611111111111,37.99638888888889],[-118.41166666666668,37.96638888888889],[-118.56361111111111,37.93611111111111],[-118.71222222222222,37.906388888888884],[-118.865,37.884166666666665],[-119.01527777777778,37.867222222222225],[-119.16972222222223,37.84916666666667],[-119.32083333333333,37.83166666666667],[-119.47361111111111,37.81361111111111],[-119.6261111111111,37.79527777777778],[-119.77722222222222,37.77722222222222],[-119.92833333333334,37.75861111111111],[-120.08388888888888,37.739444444444445],[-120.13333333333334,37.733333333333334],[-120.24444444444444,37.71944444444445],[-120.28333333333333,37.71666666666667],[-120.43333333333334,37.7],[-120.55611111111111,37.68138888888889],[-120.70166666666667,37.66444444444444],[-120.73333333333333,37.666666666666664],[-120.86666666666666,37.65],[-120.99027777777778,37.629444444444445],[-121.01666666666667,37.61666666666667],[-121.12472222222222,37.61138888888889],[-121.16666666666667,37.6],[-121.25027777777778,37.59444444444445],[-121.28333333333333,37.583333333333336],[-121.37583333333333,37.57972222222222],[-121.49527777777777,37.56583333333333],[-121.63333333333334,37.55],[-121.69888888888889,37.533055555555556],[-121.78833333333333,37.51166666666666],[-121.81666666666666,37.5],[-121.8775,37.49166666666667],[-121.9,37.483333333333334],[-121.96000000000001,37.49305555555556],[-122.06666666666666,37.516666666666666],[-122.10944444444443,37.534166666666664],[-122.13333333333334,37.53333333333333],[-122.1763888888889,37.55583333333333],[-122.2,37.56666666666667],[-122.23916666666666,37.575833333333335],[-122.25,37.583333333333336],[-122.29833333333333,37.59388888888889],[-122.34638888888888,37.60888888888889]]}
}
