{
  "id": 2048391343,
  "type": "Feature",
  "properties": {
    "geom:area": 0,
    "geom:bbox": "-122.407070,37.625500,-121.279810,38.158750",
    "geom:latitude": 37.984809880539636,
    "geom:longitude": -121.95546520857522,
    "src:alt_label": "swim-takeoff",
    "src:geom": "swim",
    "swim:elevations": [
      122,
      443,
      599,
      1065,
      1294,
      1474,
      1733,
      2212,
      2864,
      3273,
      3470,
      3625,
      3843,
      4219,
      4391,
      4860,
      5085,
      5254,
      5684,
      5901,
      6270,
      6659,
      7292,
      7572,
      7743,
      7874,
      7923
    ],
    "swim:geom": "takeoff",
    "swim:timestamps": [
      1789942975,
      1789943004,
      1789943018,
      1789943058,
      1789943095,
      1789943111,
      1789943130,
      1789943165,
      1789943213,
      1789943246,
      1789943278,
      1789943307,
      1789943333,
      1789943364,
      1789943382,
      1789943422,
      1789943446,
      1789943466,
      1789943508,
      1789943535,
      1789943568,
      1789943589,
      1789943637,
      1789943667,
      1789943688,
      1789943724,
      1789943746
    ],
    "wof:geomhash": "6bdaa80e776550d2b1ee244108cae7a7",
    "wof:id": 2048391343,
    "wof:repo": "sfomuseum-data-flights-2026-09"
  },
  "bbox": [
    -122.40707,
    37.6255,
    -121.27981,
    38.15875
  ],
  "geometry": {"type":"LineString","coordinates":[[-122.39111,37.6255],[-122.40707,37.64397],[-122.40018,37.65532],[-122.37203,37.68436],[-122.34382,37.71769],[-122.3381,37.73626],[-122.34552,37.7606],[-122.36663,37.80432],[-122.3855,37.86726],[-122.37841,37.91362],[-122.33906,37.94832],[-122.28261,37.96174],[-122.22489,37.97311],[-122.15895,37.98622],[-122.11921,37.99408],[-122.02841,38.01217],[-121.97381,38.02306],[-121.92887,38.03199],[-121.8307,38.05155],[-121.76648,38.06424],[-121.68766,38.07978],[-121.63881,38.08943],[-121.53206,38.11019],[-121.46459,38.12317],[-121.41699,38.13251],[-121.333,38.14845],[-121.27981,38.15875]]}
}
