{
  "id": 2048472521,
  "type": "Feature",
  "properties": {
    "geom:area": 0,
    "geom:bbox": "-122.322500,25.804167,-80.157778,37.700000",
    "geom:latitude": 31.87565383087587,
    "geom:longitude": -101.15235471977144,
    "src:alt_label": "swim-path",
    "src:geom": "swim",
    "swim:altitudes": [
      "021",
      "029",
      "038",
      "057",
      "066",
      "069",
      "072",
      "094",
      "108",
      "128",
      "151",
      "169",
      "187",
      "195",
      "202",
      "208",
      "213",
      "216",
      "221",
      "228",
      "235",
      "242",
      "249",
      "254",
      "259",
      "264",
      "268",
      "273",
      "275",
      "280",
      "283",
      "287",
      "288",
      "295",
      "296",
      "303",
      "304",
      "311",
      "312",
      "318",
      "320",
      "324",
      "325",
      "329",
      "330",
      "334",
      "335",
      "340C",
      "340C",
      "340C",
      "340C",
      "340C",
      "340C",
      "340C",
      "340C",
      "340C",
      "340C",
      "340C",
      "340C",
      "340C",
      "340C",
      "340C",
      "340C",
      "340C",
      "340C",
      "340C",
      "340C",
      "340C",
      "340C",
      "340C",
      "340C",
      "340",
      "340",
      "347",
      "348",
      "356",
      "358C",
      "360C",
      "360C",
      "360C",
      "360C",
      "360C",
      "360C",
      "360C",
      "360C",
      "360C",
      "360C",
      "360C",
      "360C",
      "360C",
      "360C",
      "360C",
      "360C",
      "360C",
      "360C",
      "360C",
      "360C",
      "360C",
      "360C",
      "360C",
      "360C",
      "360C",
      "360C",
      "360C",
      "360C",
      "360C",
      "360C",
      "360C",
      "360C",
      "360C",
      "360C",
      "360C",
      "360C",
      "360C",
      "360C",
      "360C",
      "360C",
      "360C",
      "360C",
      "360C",
      "360C",
      "360C",
      "360C",
      "360C",
      "360C",
      "360C",
      "360C",
      "360C",
      "360C",
      "360C",
      "360C",
      "360C",
      "360C",
      "360C",
      "360C",
      "360C",
      "360C",
      "360C",
      "360C",
      "360C",
      "360C",
      "360C",
      "360C",
      "360C",
      "360C",
      "360C",
      "360C",
      "360C",
      "360C",
      "360C",
      "360C",
      "360C",
      "360C",
      "360C",
      "360C",
      "360C",
      "360C",
      "360C",
      "360C",
      "360C",
      "360C",
      "360C",
      "360C",
      "360C",
      "360C",
      "360C",
      "360C",
      "360C",
      "360C",
      "360C",
      "360C",
      "360C",
      "360C",
      "360C",
      "360C",
      "360C",
      "360C",
      "360C",
      "360C",
      "360C",
      "360C",
      "360C",
      "360C",
      "360C",
      "360C",
      "360C",
      "360C",
      "360C",
      "360C",
      "360C",
      "360C",
      "360C",
      "360C",
      "360C",
      "360C",
      "360C",
      "360C",
      "360C",
      "360C",
      "360C",
      "360C",
      "360C",
      "360C",
      "360C",
      "360C",
      "360C",
      "360C",
      "360C",
      "360C",
      "360C",
      "360C",
      "360C",
      "360C",
      "360C",
      "360C",
      "360C",
      "360C",
      "360C",
      "360C",
      "360C",
      "360C",
      "360C",
      "360C",
      "360C",
      "360C",
      "360C",
      "360C",
      "360C",
      "360C",
      "360C",
      "360C",
      "360C",
      "360C",
      "360C",
      "360C",
      "360C",
      "360C",
      "360C",
      "360C",
      "360C",
      "360C",
      "360C",
      "360C",
      "360C",
      "360C",
      "360C",
      "360C",
      "360C",
      "360C",
      "360C",
      "360C",
      "360C",
      "360C",
      "360C",
      "360C",
      "360C",
      "360C",
      "360C",
      "360C",
      "360C",
      "360C",
      "360C",
      "360C",
      "360C",
      "360C",
      "360C",
      "360C",
      "360C",
      "360C",
      "360C",
      "360C",
      "360C",
      "360C",
      "360C",
      "360C",
      "360C",
      "360C",
      "360C",
      "360C",
      "360C",
      "360C",
      "360C",
      "360C",
      "360C",
      "360C",
      "360C",
      "360C",
      "360C",
      "360C",
      "360C",
      "360C",
      "360C",
      "360C",
      "360C",
      "360C",
      "360C",
      "360C",
      "360C",
      "360C",
      "360C",
      "360C",
      "360C",
      "360C",
      "360C",
      "360C",
      "360C",
      "360C",
      "360C",
      "360C",
      "360C",
      "360C",
      "360C",
      "360C",
      "360C",
      "360C",
      "360C",
      "360C",
      "360",
      "364",
      "368",
      "371",
      "375",
      "379C",
      "380C",
      "380C",
      "380C",
      "380C",
      "380C",
      "380C",
      "380C",
      "380C",
      "380C",
      "380C",
      "380C",
      "380C",
      "380C",
      "380C",
      "380C",
      "380C",
      "380C",
      "380C",
      "380C",
      "380C",
      "380C",
      "380C",
      "380C",
      "380C",
      "380C",
      "380C",
      "380C",
      "380C",
      "380C",
      "380C",
      "380C",
      "380C",
      "380C",
      "380C",
      "380C",
      "380C",
      "380C",
      "380C",
      "380C",
      "380C",
      "380C",
      "380C",
      "380C",
      "380C",
      "380C",
      "380C",
      "380C",
      "380C",
      "380C",
      "380C",
      "380C",
      "380C",
      "380C",
      "380C",
      "380C",
      "380C",
      "380C",
      "380C",
      "380C",
      "380C",
      "380C",
      "380C",
      "380C",
      "380C",
      "380C",
      "380C",
      "380C",
      "380C",
      "380C",
      "380C",
      "380C",
      "380C",
      "380C",
      "380C",
      "380C",
      "380C",
      "380C",
      "374",
      "360C",
      "360",
      "341",
      "320",
      "304",
      "267",
      "270",
      "230",
      "208",
      "208",
      "188",
      "188",
      "168",
      "165",
      "148",
      "135",
      "131",
      "118",
      "116",
      "101",
      "092",
      "077",
      "065",
      "058",
      "056",
      "044",
      "034",
      "033",
      "024",
      "024",
      "016",
      "015",
      "009",
      "007"
    ],
    "swim:geom": "path",
    "swim:speeds": [
      199,
      232,
      267,
      271,
      285,
      288,
      297,
      298,
      319,
      355,
      360,
      357,
      370,
      372,
      375,
      373,
      373,
      384,
      388,
      385,
      389,
      390,
      388,
      389,
      391,
      389,
      404,
      412,
      417,
      418,
      429,
      428,
      437,
      444,
      443,
      449,
      448,
      451,
      451,
      453,
      452,
      448,
      448,
      451,
      452,
      456,
      458,
      459,
      459,
      458,
      458,
      458,
      457,
      456,
      456,
      455,
      455,
      453,
      453,
      451,
      451,
      450,
      449,
      449,
      449,
      449,
      449,
      448,
      448,
      449,
      449,
      449,
      449,
      450,
      450,
      445,
      443,
      440,
      440,
      440,
      440,
      442,
      443,
      443,
      444,
      446,
      446,
      450,
      453,
      454,
      454,
      457,
      457,
      460,
      461,
      463,
      463,
      464,
      464,
      465,
      465,
      466,
      466,
      468,
      470,
      471,
      472,
      473,
      474,
      476,
      477,
      477,
      474,
      467,
      464,
      463,
      462,
      462,
      461,
      460,
      458,
      458,
      457,
      454,
      450,
      446,
      444,
      442,
      441,
      440,
      439,
      440,
      442,
      443,
      443,
      443,
      443,
      443,
      443,
      444,
      444,
      444,
      445,
      446,
      448,
      449,
      449,
      450,
      451,
      451,
      450,
      449,
      448,
      447,
      446,
      448,
      449,
      448,
      447,
      447,
      445,
      444,
      444,
      444,
      444,
      444,
      443,
      441,
      439,
      436,
      434,
      432,
      432,
      432,
      434,
      437,
      439,
      441,
      443,
      444,
      444,
      443,
      443,
      442,
      443,
      443,
      444,
      445,
      446,
      446,
      445,
      443,
      442,
      441,
      439,
      437,
      435,
      433,
      432,
      431,
      432,
      432,
      433,
      434,
      434,
      433,
      431,
      431,
      429,
      428,
      427,
      426,
      425,
      424,
      423,
      421,
      419,
      418,
      418,
      421,
      428,
      429,
      430,
      428,
      427,
      426,
      425,
      425,
      424,
      418,
      410,
      405,
      403,
      399,
      396,
      395,
      384,
      384,
      384,
      385,
      384,
      384,
      383,
      382,
      383,
      387,
      387,
      401,
      426,
      434,
      435,
      437,
      437,
      437,
      435,
      433,
      432,
      432,
      436,
      432,
      431,
      431,
      430,
      431,
      432,
      431,
      429,
      428,
      429,
      430,
      432,
      434,
      436,
      438,
      438,
      437,
      444,
      436,
      436,
      434,
      434,
      433,
      430,
      431,
      430,
      429,
      429,
      427,
      428,
      425,
      426,
      423,
      423,
      422,
      420,
      421,
      419,
      423,
      425,
      431,
      437,
      432,
      436,
      433,
      435,
      433,
      433,
      431,
      432,
      430,
      430,
      428,
      427,
      426,
      430,
      439,
      447,
      448,
      447,
      447,
      446,
      446,
      444,
      441,
      440,
      440,
      439,
      439,
      438,
      438,
      437,
      437,
      434,
      429,
      422,
      425,
      427,
      427,
      423,
      421,
      418,
      415,
      413,
      412,
      411,
      411,
      412,
      413,
      414,
      414,
      415,
      416,
      420,
      418,
      420,
      418,
      420,
      420,
      421,
      421,
      423,
      424,
      425,
      425,
      425,
      426,
      425,
      425,
      426,
      426,
      426,
      426,
      426,
      427,
      428,
      428,
      429,
      429,
      430,
      430,
      430,
      430,
      430,
      430,
      429,
      429,
      429,
      429,
      428,
      428,
      428,
      428,
      428,
      428,
      428,
      429,
      428,
      428,
      427,
      426,
      426,
      425,
      426,
      427,
      432,
      439,
      446,
      444,
      457,
      437,
      441,
      415,
      419,
      394,
      395,
      375,
      357,
      358,
      342,
      343,
      330,
      290,
      272,
      247,
      232,
      235,
      233,
      206,
      208,
      168,
      170,
      158,
      162,
      153,
      154
    ],
    "swim:timestamps": [
      1790792021,
      1790792071,
      1790792081,
      1790792131,
      1790792147,
      1790792191,
      1790792251,
      1790792311,
      1790792371,
      1790792431,
      1790792491,
      1790792551,
      1790792611,
      1790792652,
      1790792672,
      1790792712,
      1790792732,
      1790792772,
      1790792792,
      1790792832,
      1790792852,
      1790792892,
      1790792912,
      1790792952,
      1790792972,
      1790793012,
      1790793032,
      1790793072,
      1790793092,
      1790793132,
      1790793152,
      1790793193,
      1790793212,
      1790793253,
      1790793273,
      1790793313,
      1790793333,
      1790793373,
      1790793393,
      1790793433,
      1790793453,
      1790793493,
      1790793513,
      1790793553,
      1790793573,
      1790793613,
      1790793633,
      1790793673,
      1790793693,
      1790793733,
      1790793753,
      1790793793,
      1790793813,
      1790793853,
      1790793873,
      1790793914,
      1790793934,
      1790793974,
      1790793994,
      1790794034,
      1790794054,
      1790794094,
      1790794114,
      1790794154,
      1790794174,
      1790794214,
      1790794234,
      1790794274,
      1790794294,
      1790794334,
      1790794354,
      1790794394,
      1790794414,
      1790794454,
      1790794474,
      1790794514,
      1790794534,
      1790794574,
      1790794595,
      1790794635,
      1790794655,
      1790794695,
      1790794715,
      1790794755,
      1790794775,
      1790794815,
      1790794835,
      1790794875,
      1790794895,
      1790794935,
      1790794955,
      1790794995,
      1790795015,
      1790795055,
      1790795075,
      1790795115,
      1790795135,
      1790795175,
      1790795195,
      1790795235,
      1790795256,
      1790795295,
      1790795316,
      1790795356,
      1790795416,
      1790795476,
      1790795536,
      1790795596,
      1790795656,
      1790795716,
      1790795776,
      1790795836,
      1790795896,
      1790795956,
      1790796016,
      1790796076,
      1790796137,
      1790796197,
      1790796257,
      1790796317,
      1790796377,
      1790796437,
      1790796497,
      1790796561,
      1790796622,
      1790796682,
      1790796742,
      1790796802,
      1790796862,
      1790796922,
      1790796982,
      1790797042,
      1790797102,
      1790797162,
      1790797223,
      1790797283,
      1790797343,
      1790797403,
      1790797463,
      1790797523,
      1790797583,
      1790797643,
      1790797703,
      1790797763,
      1790797823,
      1790797884,
      1790797944,
      1790798004,
      1790798064,
      1790798124,
      1790798184,
      1790798244,
      1790798304,
      1790798361,
      1790798421,
      1790798542,
      1790798602,
      1790798722,
      1790798782,
      1790798842,
      1790798902,
      1790798962,
      1790799022,
      1790799083,
      1790799143,
      1790799203,
      1790799263,
      1790799323,
      1790799383,
      1790799443,
      1790799503,
      1790799563,
      1790799623,
      1790799683,
      1790799744,
      1790799804,
      1790799864,
      1790799924,
      1790799984,
      1790800044,
      1790800104,
      1790800164,
      1790800224,
      1790800284,
      1790800345,
      1790800405,
      1790800465,
      1790800525,
      1790800585,
      1790800645,
      1790800705,
      1790800765,
      1790800825,
      1790800885,
      1790800946,
      1790801006,
      1790801066,
      1790801126,
      1790801186,
      1790801246,
      1790801306,
      1790801366,
      1790801426,
      1790801486,
      1790801547,
      1790801607,
      1790801667,
      1790801723,
      1790801783,
      1790801847,
      1790801904,
      1790801968,
      1790802028,
      1790802084,
      1790802144,
      1790802204,
      1790802269,
      1790802329,
      1790802389,
      1790802444,
      1790802509,
      1790802565,
      1790802630,
      1790802685,
      1790802745,
      1790802805,
      1790802865,
      1790802925,
      1790802985,
      1790803045,
      1790803106,
      1790803166,
      1790803226,
      1790803286,
      1790803346,
      1790803406,
      1790803466,
      1790803526,
      1790803586,
      1790803646,
      1790803706,
      1790803767,
      1790803827,
      1790803887,
      1790803947,
      1790804007,
      1790804067,
      1790804127,
      1790804187,
      1790804247,
      1790804307,
      1790804368,
      1790804428,
      1790804488,
      1790804548,
      1790804608,
      1790804668,
      1790804728,
      1790804848,
      1790804969,
      1790805029,
      1790805089,
      1790805149,
      1790805209,
      1790805269,
      1790805329,
      1790805389,
      1790805449,
      1790805509,
      1790805570,
      1790805630,
      1790805690,
      1790805750,
      1790805810,
      1790805870,
      1790805930,
      1790805954,
      1790805990,
      1790806014,
      1790806050,
      1790806074,
      1790806110,
      1790806134,
      1790806170,
      1790806194,
      1790806231,
      1790806254,
      1790806291,
      1790806314,
      1790806351,
      1790806374,
      1790806411,
      1790806434,
      1790806471,
      1790806494,
      1790806531,
      1790806555,
      1790806591,
      1790806615,
      1790806651,
      1790806675,
      1790806711,
      1790806735,
      1790806771,
      1790806795,
      1790806832,
      1790806855,
      1790806892,
      1790806915,
      1790806952,
      1790806975,
      1790807012,
      1790807035,
      1790807072,
      1790807132,
      1790807156,
      1790807192,
      1790807216,
      1790807252,
      1790807276,
      1790807312,
      1790807336,
      1790807372,
      1790807432,
      1790807456,
      1790807493,
      1790807516,
      1790807553,
      1790807576,
      1790807613,
      1790807636,
      1790807673,
      1790807757,
      1790807817,
      1790807877,
      1790807996,
      1790808057,
      1790808117,
      1790808177,
      1790808237,
      1790808297,
      1790808357,
      1790808417,
      1790808477,
      1790808537,
      1790808597,
      1790808658,
      1790808718,
      1790808778,
      1790808838,
      1790808898,
      1790809018,
      1790809045,
      1790809078,
      1790809105,
      1790809138,
      1790809165,
      1790809198,
      1790809225,
      1790809258,
      1790809286,
      1790809319,
      1790809346,
      1790809379,
      1790809406,
      1790809439,
      1790809466,
      1790809499,
      1790809526,
      1790809559,
      1790809586,
      1790809619,
      1790809646,
      1790809679,
      1790809706,
      1790809739,
      1790809766,
      1790809799,
      1790809826,
      1790809859,
      1790809886,
      1790809919,
      1790809946,
      1790809980,
      1790810006,
      1790810040,
      1790810067,
      1790810100,
      1790810127,
      1790810160,
      1790810187,
      1790810220,
      1790810247,
      1790810280,
      1790810307,
      1790810367,
      1790810427,
      1790810487,
      1790810547,
      1790810607,
      1790810667,
      1790810727,
      1790810787,
      1790810848,
      1790810877,
      1790810908,
      1790810962,
      1790810968,
      1790811028,
      1790811077,
      1790811088,
      1790811136,
      1790811148,
      1790811197,
      1790811208,
      1790811268,
      1790811316,
      1790811328,
      1790811376,
      1790811388,
      1790811448,
      1790811508,
      1790811569,
      1790811629,
      1790811677,
      1790811689,
      1790811749,
      1790811802,
      1790811809,
      1790811863,
      1790811869,
      1790811917,
      1790811929,
      1790811971,
      1790811989
    ],
    "wof:geomhash": "87f46bd4b23f73ef25ca096aeee72213",
    "wof:id": 2048472521,
    "wof:repo": "sfomuseum-data-flights-2026-09"
  },
  "bbox": [
    -122.32249999999999,
    25.804166666666667,
    -80.15777777777778,
    37.7
  ],
  "geometry": {"type":"LineString","coordinates":[[-80.2238888888889,25.804166666666667],[-80.18916666666667,25.808055555555555],[-80.16361111111112,25.833055555555557],[-80.15777777777778,25.886666666666667],[-80.16555555555556,25.91888888888889],[-80.18166666666667,25.963055555555556],[-80.2375,26.026666666666667],[-80.27944444444444,26.098888888888887],[-80.30166666666666,26.16611111111111],[-80.33833333333332,26.27861111111111],[-80.36861111111111,26.374166666666667],[-80.39777777777779,26.470555555555553],[-80.43111111111112,26.586666666666666],[-80.44555555555556,26.640277777777776],[-80.45916666666668,26.685],[-80.47472222222223,26.741666666666667],[-80.52277777777778,26.76861111111111],[-80.57916666666667,26.78805555555556],[-80.63027777777778,26.80666666666667],[-80.69472222222223,26.81972222222222],[-80.75416666666666,26.824444444444445],[-80.81527777777778,26.83111111111111],[-80.87055555555555,26.83611111111111],[-80.93555555555555,26.841666666666665],[-80.99777777777778,26.84722222222222],[-81.05749999999999,26.852777777777778],[-81.11527777777778,26.868055555555557],[-81.18694444444445,26.905555555555555],[-81.22277777777778,26.924166666666668],[-81.30055555555555,26.965833333333332],[-81.3436111111111,26.988055555555558],[-81.41833333333334,27.02638888888889],[-81.44194444444445,27.039722222222224],[-81.54527777777777,27.094166666666666],[-81.56333333333333,27.103611111111114],[-81.66055555555556,27.154722222222222],[-81.68416666666667,27.16722222222222],[-81.7825,27.21861111111111],[-81.80583333333333,27.231111111111108],[-81.9063888888889,27.279722222222222],[-81.93416666666667,27.288611111111113],[-82.04416666666667,27.310555555555556],[-82.06944444444444,27.31527777777778],[-82.18388888888889,27.336666666666666],[-82.21194444444444,27.341944444444444],[-82.32555555555555,27.363055555555558],[-82.35305555555556,27.368055555555557],[-82.46694444444445,27.389166666666664],[-82.49388888888889,27.394166666666667],[-82.60638888888889,27.41472222222222],[-82.63527777777779,27.42027777777778],[-82.74722222222222,27.441111111111113],[-82.77472222222222,27.44638888888889],[-82.88666666666667,27.46722222222222],[-82.88666666666667,27.46722222222222],[-83.02388888888889,27.4925],[-83.05277777777778,27.497777777777777],[-83.16277777777778,27.517777777777777],[-83.19,27.522777777777776],[-83.30166666666666,27.543055555555558],[-83.3286111111111,27.548055555555557],[-83.43861111111111,27.568055555555556],[-83.46472222222222,27.572777777777777],[-83.57638888888889,27.592777777777776],[-83.60416666666666,27.597777777777775],[-83.71305555555556,27.61722222222222],[-83.74083333333333,27.622222222222224],[-83.84944444444444,27.641666666666666],[-83.8775,27.646666666666665],[-83.99,27.66638888888889],[-84.01583333333333,27.671111111111113],[-84.12694444444443,27.690555555555555],[-84.15472222222223,27.69527777777778],[-84.26638888888888,27.715],[-84.29277777777777,27.71944444444444],[-84.40111111111112,27.738611111111112],[-84.42805555555556,27.743333333333336],[-84.5363888888889,27.761666666666667],[-84.56444444444445,27.76638888888889],[-84.67333333333333,27.785],[-84.69972222222222,27.789444444444445],[-84.8025,27.8075],[-84.83527777777778,27.813055555555557],[-84.93833333333333,27.830277777777777],[-84.97416666666666,27.836388888888887],[-85.07777777777777,27.853611111111114],[-85.11888888888888,27.860555555555557],[-85.21666666666667,27.876944444444444],[-85.25861111111111,27.884999999999998],[-85.35305555555556,27.913055555555555],[-85.39416666666668,27.92527777777778],[-85.49138888888889,27.954722222222223],[-85.52916666666667,27.965833333333332],[-85.62944444444443,27.99638888888889],[-85.67083333333333,28.00861111111111],[-85.76611111111112,28.037222222222223],[-85.80888888888889,28.05027777777778],[-85.90666666666667,28.079444444444444],[-85.94805555555556,28.091666666666665],[-86.045,28.12027777777778],[-86.08694444444444,28.133055555555558],[-86.18416666666667,28.161666666666665],[-86.2275,28.174444444444447],[-86.32638888888889,28.203611111111112],[-86.46694444444445,28.244722222222222],[-86.60916666666667,28.28638888888889],[-86.75138888888888,28.328055555555554],[-86.89222222222223,28.369444444444444],[-87.03388888888888,28.410833333333333],[-87.17861111111111,28.4525],[-87.32277777777777,28.49416666666667],[-87.46444444444445,28.535],[-87.60555555555555,28.575277777777778],[-87.74666666666667,28.61527777777778],[-87.88527777777779,28.654999999999998],[-88.0225,28.69361111111111],[-88.16305555555556,28.733333333333334],[-88.29944444444445,28.771666666666665],[-88.43944444444445,28.810277777777777],[-88.58,28.849166666666665],[-88.71666666666667,28.88611111111111],[-88.85777777777777,28.91611111111111],[-88.99555555555555,28.945555555555554],[-89.14611111111111,28.97722222222222],[-89.28527777777778,29.006666666666668],[-89.42333333333333,29.03527777777778],[-89.55916666666667,29.06361111111111],[-89.69500000000001,29.091666666666665],[-89.82972222222222,29.119444444444444],[-89.96805555555555,29.1475],[-90.1036111111111,29.175],[-90.24,29.198333333333334],[-90.37972222222221,29.221944444444443],[-90.51888888888888,29.245],[-90.65722222222223,29.267777777777777],[-90.79472222222222,29.290833333333335],[-90.93333333333334,29.313333333333333],[-91.07222222222222,29.33611111111111],[-91.21305555555556,29.35888888888889],[-91.35138888888888,29.38111111111111],[-91.49,29.403333333333332],[-91.63111111111111,29.425555555555558],[-91.76555555555555,29.446666666666665],[-91.90555555555557,29.46861111111111],[-92.04638888888888,29.490277777777777],[-92.18722222222223,29.51222222222222],[-92.33,29.534166666666668],[-92.47027777777778,29.55527777777778],[-92.61333333333333,29.576944444444443],[-92.75555555555556,29.597777777777775],[-92.89583333333334,29.61861111111111],[-93.03861111111111,29.639722222222222],[-93.17777777777778,29.66],[-93.31972222222223,29.680833333333336],[-93.46194444444444,29.70111111111111],[-93.74527777777777,29.74138888888889],[-93.88666666666667,29.761388888888888],[-94.17277777777778,29.800833333333333],[-94.31222222222222,29.82],[-94.45194444444445,29.83888888888889],[-94.5925,29.858055555555556],[-94.73277777777778,29.87666666666667],[-94.87222222222222,29.895555555555553],[-95.01055555555556,29.91361111111111],[-95.14694444444446,29.93111111111111],[-95.28694444444444,29.949166666666667],[-95.42444444444445,29.96972222222222],[-95.56388888888888,29.991944444444446],[-95.69861111111112,30.013333333333332],[-95.83611111111111,30.035],[-95.9713888888889,30.05638888888889],[-96.11749999999999,30.079166666666666],[-96.25333333333333,30.10027777777778],[-96.39055555555557,30.121111111111112],[-96.51138888888889,30.139444444444443],[-96.66416666666667,30.170555555555556],[-96.79888888888888,30.198888888888888],[-96.93805555555556,30.228055555555553],[-97.07555555555555,30.25722222222222],[-97.21361111111112,30.28611111111111],[-97.35416666666666,30.314444444444444],[-97.48972222222223,30.342222222222222],[-97.62249999999999,30.369444444444444],[-97.76166666666667,30.397777777777776],[-97.89944444444446,30.425555555555558],[-98.03999999999999,30.453611111111112],[-98.17888888888889,30.481388888888887],[-98.32055555555556,30.509444444444444],[-98.46027777777778,30.537222222222223],[-98.60055555555554,30.564444444444444],[-98.74,30.591388888888886],[-98.8786111111111,30.618333333333332],[-99.01666666666667,30.645],[-99.15611111111112,30.671666666666667],[-99.28972222222222,30.696944444444444],[-99.42611111111111,30.722499999999997],[-99.56194444444444,30.748055555555556],[-99.69777777777779,30.773333333333333],[-99.83194444444445,30.798333333333336],[-99.96833333333333,30.823333333333334],[-100.10333333333332,30.848055555555554],[-100.24027777777778,30.873055555555556],[-100.37722222222222,30.897777777777776],[-100.51361111111112,30.922222222222224],[-100.64944444444446,30.946666666666665],[-100.78611111111111,30.97083333333333],[-100.94861111111112,30.999166666666667],[-101.07194444444444,31.020833333333332],[-101.20694444444445,31.044444444444448],[-101.35499999999999,31.06972222222222],[-101.47944444444444,31.091388888888886],[-101.6125,31.11388888888889],[-101.7475,31.136944444444445],[-101.88194444444444,31.159166666666664],[-102,31.17888888888889],[-102.13333333333334,31.20111111111111],[-102.28722222222223,31.226388888888888],[-102.42583333333334,31.249166666666667],[-102.5586111111111,31.270555555555553],[-102.66722222222222,31.28805555555556],[-102.8325,31.315],[-102.94194444444445,31.3325],[-103.10638888888889,31.358055555555556],[-103.21611111111112,31.37527777777778],[-103.35249999999999,31.396666666666665],[-103.4888888888889,31.41777777777778],[-103.62277777777777,31.438055555555557],[-103.75972222222222,31.459166666666665],[-103.89055555555557,31.478888888888886],[-104.05027777777778,31.503055555555555],[-104.17888888888889,31.521944444444443],[-104.30777777777777,31.541111111111114],[-104.43666666666667,31.560000000000002],[-104.56305555555555,31.578333333333333],[-104.68833333333333,31.596666666666664],[-104.81472222222222,31.615000000000002],[-104.93666666666667,31.631944444444446],[-105.05833333333334,31.649444444444445],[-105.18111111111112,31.666666666666668],[-105.30611111111111,31.684166666666666],[-105.42861111111111,31.70111111111111],[-105.55138888888888,31.717777777777776],[-105.68,31.735833333333336],[-105.80222222222221,31.752222222222223],[-105.92583333333334,31.76861111111111],[-106.05166666666666,31.785555555555558],[-106.17555555555556,31.801944444444445],[-106.2863888888889,31.825555555555557],[-106.39194444444445,31.9],[-106.50722222222223,31.9875],[-106.60472222222222,32.06194444444444],[-106.71333333333334,32.14388888888889],[-106.81916666666666,32.22361111111111],[-106.93527777777778,32.31083333333333],[-107.04138888888889,32.39111111111111],[-107.14361111111111,32.4675],[-107.25083333333333,32.54722222222222],[-107.35777777777777,32.626666666666665],[-107.58027777777778,32.79194444444444],[-107.79472222222222,32.94916666666666],[-107.8913888888889,33.02027777777778],[-107.99916666666667,33.099444444444444],[-108.10666666666665,33.17777777777778],[-108.21555555555555,33.257222222222225],[-108.32249999999999,33.33583333333333],[-108.42944444444444,33.41361111111111],[-108.53666666666666,33.49138888888889],[-108.64500000000001,33.57055555555556],[-108.75277777777778,33.64861111111111],[-108.86083333333333,33.72666666666667],[-108.9713888888889,33.80611111111111],[-109.0975,33.89611111111111],[-109.20833333333334,33.97555555555556],[-109.31888888888888,34.055],[-109.43,34.134166666666665],[-109.53277777777778,34.20138888888889],[-109.58277777777778,34.23527777777778],[-109.64833333333334,34.275277777777774],[-109.69611111111111,34.311388888888885],[-109.76027777777777,34.35277777777778],[-109.80694444444444,34.386944444444445],[-109.87194444444444,34.430277777777775],[-109.9175,34.464444444444446],[-109.98083333333334,34.50611111111111],[-110.02777777777777,34.53944444444444],[-110.09194444444444,34.58305555555556],[-110.13666666666667,34.61555555555556],[-110.20111111111112,34.6575],[-110.24722222222222,34.69138888888889],[-110.31222222222222,34.733333333333334],[-110.35666666666665,34.76555555555556],[-110.42083333333333,34.8075],[-110.46527777777779,34.839444444444446],[-110.53138888888888,34.88305555555556],[-110.57416666666666,34.91277777777778],[-110.6413888888889,34.9575],[-110.68333333333334,34.986666666666665],[-110.75194444444445,35.032222222222224],[-110.795,35.06222222222222],[-110.87388888888889,35.10027777777778],[-110.92222222222223,35.12444444444444],[-110.99972222222222,35.16277777777778],[-111.0475,35.18611111111111],[-111.12194444444444,35.222500000000004],[-111.17333333333333,35.2475],[-111.24666666666667,35.283055555555556],[-111.29833333333333,35.30833333333333],[-111.37777777777777,35.346944444444446],[-111.42361111111111,35.369166666666665],[-111.5075,35.41],[-111.56,35.43527777777778],[-111.63305555555554,35.47083333333334],[-111.68388888888889,35.495],[-111.75638888888889,35.53],[-111.88472222222222,35.58416666666667],[-111.94361111111111,35.59111111111111],[-112.03444444444445,35.594166666666666],[-112.09805555555555,35.59638888888889],[-112.18583333333333,35.598888888888894],[-112.24888888888889,35.600833333333334],[-112.3386111111111,35.60333333333333],[-112.39944444444446,35.605000000000004],[-112.48777777777778,35.606944444444444],[-112.6363888888889,35.61],[-112.7,35.611111111111114],[-112.77888888888889,35.61277777777778],[-112.84944444444444,35.61416666666667],[-112.92916666666667,35.61555555555556],[-112.9925,35.61666666666667],[-113.07333333333332,35.617777777777775],[-113.14083333333333,35.61888888888889],[-113.22111111111111,35.62027777777778],[-113.42916666666667,35.623333333333335],[-113.575,35.634166666666665],[-113.70916666666668,35.67194444444444],[-113.98916666666666,35.751666666666665],[-114.12805555555555,35.79083333333333],[-114.26555555555555,35.82972222222222],[-114.40222222222222,35.86805555555556],[-114.5363888888889,35.90555555555555],[-114.67111111111112,35.942499999999995],[-114.80444444444444,35.97944444444445],[-114.93416666666667,36.026944444444446],[-115.05638888888889,36.08027777777778],[-115.18138888888889,36.13472222222222],[-115.30611111111111,36.18888888888888],[-115.43055555555556,36.24277777777778],[-115.55888888888889,36.29833333333333],[-115.69444444444444,36.35638888888889],[-115.82055555555556,36.41027777777778],[-115.95027777777779,36.46555555555556],[-116.20583333333333,36.573888888888895],[-116.25777777777778,36.59583333333334],[-116.33444444444444,36.628055555555555],[-116.385,36.649166666666666],[-116.46361111111112,36.68222222222222],[-116.51472222222222,36.703611111111115],[-116.5936111111111,36.736666666666665],[-116.64555555555556,36.75833333333333],[-116.7225,36.79138888888889],[-116.76555555555555,36.82361111111111],[-116.81583333333333,36.88194444444444],[-116.84944444444444,36.92222222222222],[-116.89861111111112,36.98111111111111],[-116.93222222222222,37.02111111111111],[-116.98111111111112,37.07916666666667],[-117.01444444444445,37.11888888888889],[-117.06444444444445,37.17777777777778],[-117.09777777777778,37.217222222222226],[-117.14777777777779,37.27638888888889],[-117.18111111111112,37.316111111111105],[-117.21527777777779,37.35638888888889],[-117.29055555555556,37.393055555555556],[-117.34972222222221,37.4],[-117.4388888888889,37.40972222222222],[-117.49861111111112,37.41638888888889],[-117.58916666666666,37.42611111111111],[-117.65,37.43277777777777],[-117.73861111111111,37.442499999999995],[-117.79805555555555,37.44888888888889],[-117.88805555555557,37.45861111111111],[-117.94916666666667,37.465],[-118.03805555555556,37.474444444444444],[-118.09722222222221,37.48083333333334],[-118.18805555555556,37.49027777777778],[-118.24694444444445,37.49638888888889],[-118.33555555555554,37.50527777777778],[-118.39166666666668,37.51111111111111],[-118.48472222222222,37.52055555555555],[-118.53972222222222,37.52611111111111],[-118.63333333333334,37.535555555555554],[-118.69416666666667,37.541666666666664],[-118.78194444444445,37.55027777777777],[-118.84166666666667,37.55611111111111],[-118.92361111111111,37.564166666666665],[-119.07277777777777,37.578611111111115],[-119.22027777777778,37.59277777777778],[-119.36666666666666,37.60666666666667],[-119.50472222222223,37.61944444444445],[-119.65222222222222,37.63305555555556],[-119.80083333333333,37.646388888888886],[-119.94777777777779,37.65972222222222],[-120.09805555555555,37.672777777777775],[-120.24722222222222,37.68583333333333],[-120.33333333333333,37.7],[-120.39888888888889,37.69694444444444],[-120.56666666666666,37.68333333333333],[-120.55472222222222,37.681666666666665],[-120.71277777777777,37.66305555555555],[-120.86666666666666,37.65],[-120.86805555555554,37.644444444444446],[-121.01666666666667,37.63333333333333],[-121.01444444444445,37.62638888888889],[-121.15,37.6],[-121.17083333333333,37.60527777777778],[-121.30166666666666,37.588055555555556],[-121.4,37.583333333333336],[-121.42750000000001,37.573888888888895],[-121.51666666666667,37.56666666666667],[-121.54583333333333,37.559999999999995],[-121.65916666666668,37.5425],[-121.75972222222222,37.51861111111111],[-121.85083333333333,37.49666666666667],[-121.93666666666667,37.4925],[-122,37.5],[-122.01666666666667,37.50416666666667],[-122.0911111111111,37.528055555555554],[-122.15,37.55],[-122.16166666666668,37.551111111111105],[-122.21666666666667,37.56666666666667],[-122.22027777777778,37.569722222222225],[-122.26666666666667,37.583333333333336],[-122.2725,37.58638888888889],[-122.31666666666666,37.6],[-122.32249999999999,37.60111111111111]]}
}
