{
  "id": 2048434889,
  "type": "Feature",
  "properties": {
    "geom:area": 0,
    "geom:bbox": "-122.550000,32.003889,-110.869167,37.666667",
    "geom:latitude": 34.27674206202739,
    "geom:longitude": -117.1066019225828,
    "src:alt_label": "swim-path",
    "src:geom": "swim",
    "swim:altitudes": [
      "008",
      "020",
      "029",
      "040",
      "049",
      "065",
      "083",
      "103",
      "110",
      "116",
      "146",
      "149",
      "174",
      "177",
      "205",
      "203",
      "222",
      "227",
      "252",
      "250",
      "274",
      "272",
      "297",
      "315",
      "335",
      "334",
      "348C",
      "350C",
      "350C",
      "350C",
      "350C",
      "350C",
      "350C",
      "350C",
      "350C",
      "350C",
      "350C",
      "350C",
      "350C",
      "350C",
      "350C",
      "350C",
      "350C",
      "350C",
      "350C",
      "350C",
      "350C",
      "350C",
      "350C",
      "350",
      "350",
      "350",
      "348",
      "340",
      "317",
      "312",
      "293",
      "290",
      "276",
      "257",
      "254",
      "234",
      "231",
      "210",
      "200",
      "188",
      "166",
      "147",
      "127",
      "118",
      "105",
      "092",
      "093",
      "079",
      "080",
      "073",
      "062",
      "062",
      "050",
      "050",
      "038",
      "039",
      "028",
      "020",
      "012",
      "004",
      "014",
      "020",
      "047",
      "062",
      "094",
      "120",
      "120",
      "120",
      "128",
      "157",
      "180",
      "206",
      "231",
      "254",
      "271",
      "288",
      "306",
      "325",
      "344",
      "362",
      "376",
      "385",
      "390C",
      "390C",
      "390C",
      "390C",
      "390C",
      "390C",
      "390C",
      "390C",
      "390C",
      "385",
      "376",
      "370C",
      "370C",
      "370C",
      "370C",
      "365",
      "353",
      "343",
      "333",
      "324",
      "314",
      "304",
      "295",
      "285",
      "275",
      "266",
      "260",
      "252",
      "229",
      "190",
      "169",
      "167",
      "162",
      "158",
      "144",
      "135",
      "112",
      "101",
      "100",
      "099",
      "099",
      "089",
      "088",
      "080",
      "080",
      "074",
      "070",
      "061",
      "057",
      "049",
      "047",
      "044",
      "044",
      "042",
      "040",
      "035",
      "033",
      "025"
    ],
    "swim:geom": "path",
    "swim:speeds": [
      141,
      149,
      193,
      195,
      249,
      264,
      280,
      277,
      317,
      364,
      400,
      371,
      424,
      402,
      446,
      425,
      462,
      450,
      475,
      466,
      482,
      476,
      479,
      480,
      488,
      484,
      485,
      491,
      479,
      481,
      480,
      481,
      480,
      480,
      480,
      480,
      479,
      480,
      478,
      479,
      478,
      478,
      475,
      473,
      473,
      472,
      472,
      471,
      471,
      470,
      470,
      473,
      475,
      475,
      479,
      477,
      462,
      457,
      429,
      427,
      427,
      422,
      421,
      406,
      395,
      390,
      371,
      365,
      345,
      306,
      301,
      284,
      283,
      279,
      282,
      267,
      250,
      255,
      239,
      244,
      220,
      221,
      192,
      183,
      147,
      129,
      152,
      190,
      208,
      275,
      280,
      293,
      306,
      306,
      340,
      359,
      395,
      410,
      426,
      439,
      460,
      473,
      492,
      498,
      496,
      492,
      490,
      488,
      489,
      489,
      487,
      486,
      485,
      484,
      483,
      482,
      482,
      481,
      482,
      483,
      484,
      485,
      486,
      483,
      457,
      450,
      448,
      448,
      448,
      449,
      450,
      452,
      453,
      454,
      455,
      456,
      441,
      438,
      400,
      404,
      385,
      389,
      378,
      382,
      374,
      350,
      345,
      329,
      311,
      289,
      292,
      280,
      282,
      274,
      278,
      274,
      275,
      261,
      261,
      225,
      225,
      174,
      173,
      145,
      149,
      148
    ],
    "swim:timestamps": [
      1790366870,
      1790366913,
      1790366931,
      1790366973,
      1790366991,
      1790367033,
      1790367051,
      1790367093,
      1790367111,
      1790367153,
      1790367213,
      1790367220,
      1790367273,
      1790367280,
      1790367333,
      1790367340,
      1790367394,
      1790367400,
      1790367454,
      1790367460,
      1790367514,
      1790367520,
      1790367581,
      1790367641,
      1790367694,
      1790367701,
      1790367761,
      1790367821,
      1790367874,
      1790367881,
      1790367934,
      1790367941,
      1790367994,
      1790368001,
      1790368055,
      1790368061,
      1790368115,
      1790368122,
      1790368175,
      1790368182,
      1790368235,
      1790368242,
      1790368302,
      1790368355,
      1790368362,
      1790368415,
      1790368422,
      1790368475,
      1790368482,
      1790368535,
      1790368542,
      1790368595,
      1790368655,
      1790368662,
      1790368716,
      1790368723,
      1790368776,
      1790368783,
      1790368843,
      1790368896,
      1790368903,
      1790368956,
      1790368963,
      1790369023,
      1790369040,
      1790369083,
      1790369138,
      1790369203,
      1790369258,
      1790369317,
      1790369384,
      1790369438,
      1790369444,
      1790369498,
      1790369504,
      1790369564,
      1790369617,
      1790369624,
      1790369678,
      1790369684,
      1790369738,
      1790369744,
      1790369798,
      1790369864,
      1790369925,
      1790369978,
      1790373412,
      1790373446,
      1790373507,
      1790373567,
      1790373627,
      1790373687,
      1790373747,
      1790373807,
      1790373867,
      1790373927,
      1790373987,
      1790374047,
      1790374108,
      1790374168,
      1790374228,
      1790374288,
      1790374348,
      1790374408,
      1790374468,
      1790374528,
      1790374588,
      1790374648,
      1790374708,
      1790374769,
      1790374829,
      1790374889,
      1790374949,
      1790375009,
      1790375065,
      1790375125,
      1790375185,
      1790375245,
      1790375306,
      1790375366,
      1790375426,
      1790375486,
      1790375546,
      1790375606,
      1790375666,
      1790375726,
      1790375786,
      1790375846,
      1790375907,
      1790375967,
      1790376027,
      1790376087,
      1790376147,
      1790376207,
      1790376267,
      1790376327,
      1790376387,
      1790376447,
      1790376498,
      1790376507,
      1790376537,
      1790376568,
      1790376598,
      1790376628,
      1790376688,
      1790376718,
      1790376748,
      1790376778,
      1790376808,
      1790376850,
      1790376868,
      1790376898,
      1790376928,
      1790376958,
      1790376988,
      1790377018,
      1790377048,
      1790377084,
      1790377108,
      1790377144,
      1790377168,
      1790377204,
      1790377228,
      1790377265,
      1790377289,
      1790377349
    ],
    "wof:geomhash": "940f5328523296ebfe4cce75e94803dd",
    "wof:id": 2048434889,
    "wof:repo": "sfomuseum-data-flights-2026-09"
  },
  "bbox": [
    -122.55,
    32.00388888888889,
    -110.86916666666666,
    37.666666666666664
  ],
  "geometry": {"type":"LineString","coordinates":[[-122.38333333333334,37.61666666666667],[-122.41083333333334,37.63388888888889],[-122.43333333333334,37.65],[-122.46916666666667,37.659166666666664],[-122.5,37.666666666666664],[-122.545,37.649166666666666],[-122.55,37.61666666666667],[-122.52388888888889,37.57694444444445],[-122.5,37.53333333333333],[-122.4738888888889,37.49527777777778],[-122.3761111111111,37.41722222222222],[-122.36638888888888,37.40222222222222],[-122.26888888888888,37.33833333333334],[-122.25583333333333,37.32416666666667],[-122.13388888888889,37.23861111111111],[-122.14055555555557,37.242222222222225],[-122.03999999999999,37.16916666666666],[-122.0225,37.153888888888886],[-121.8938888888889,37.06055555555555],[-121.90194444444445,37.0625],[-121.77111111111111,36.96888888888889],[-121.77833333333334,36.97166666666667],[-121.65611111111112,36.87972222222222],[-121.53222222222222,36.78777777777778],[-121.40194444444445,36.69083333333333],[-121.40916666666668,36.695277777777775],[-121.28722222222223,36.60166666666667],[-121.15722222222223,36.504444444444445],[-121.04083333333332,36.41694444444444],[-121.045,36.41972222222222],[-120.915,36.32944444444445],[-120.91916666666667,36.3325],[-120.78999999999999,36.242222222222225],[-120.79416666666667,36.24527777777778],[-120.66555555555556,36.155],[-120.66777777777779,36.156388888888884],[-120.54194444444444,36.06666666666667],[-120.5461111111111,36.06944444444445],[-120.41861111111112,35.97944444444445],[-120.42111111111112,35.98111111111111],[-120.31777777777778,35.90861111111111],[-120.2975,35.89416666666666],[-120.2,35.78777777777778],[-120.12916666666666,35.69444444444444],[-120.11388888888888,35.674166666666665],[-120.04388888888889,35.581388888888895],[-120.0286111111111,35.56111111111111],[-119.9588888888889,35.468611111111116],[-119.94361111111111,35.44833333333333],[-119.875,35.35666666666667],[-119.8611111111111,35.338055555555556],[-119.78388888888888,35.24583333333334],[-119.6863888888889,35.14138888888889],[-119.66833333333334,35.12166666666667],[-119.58694444444444,35.03361111111111],[-119.56944444444444,35.015],[-119.49194444444444,34.931666666666665],[-119.47527777777778,34.913888888888884],[-119.38861111111112,34.81722222222223],[-119.31666666666666,34.736111111111114],[-119.30361111111111,34.72138888888889],[-119.23444444444445,34.64194444444444],[-119.22111111111111,34.626666666666665],[-119.14611111111111,34.54],[-119.11666666666666,34.5],[-119.06777777777778,34.452222222222225],[-118.98333333333333,34.36666666666667],[-118.92111111111112,34.28472222222222],[-118.85,34.2],[-118.78333333333333,34.13333333333333],[-118.71583333333334,34.07777777777778],[-118.63333333333334,34.03333333333333],[-118.64361111111111,34.02777777777778],[-118.55,34.016666666666666],[-118.55027777777778,34.01861111111111],[-118.45944444444444,34.01111111111111],[-118.36666666666666,34.016666666666666],[-118.3761111111111,34.024166666666666],[-118.28333333333333,34.03333333333333],[-118.2936111111111,34.03388888888889],[-118.21666666666667,34.016666666666666],[-118.2238888888889,34.02361111111111],[-118.23333333333333,33.96666666666667],[-118.29055555555556,33.96333333333334],[-118.34194444444444,33.95805555555556],[-118.38333333333334,33.95],[-118.45,33.95],[-118.47555555555556,33.94333333333333],[-118.53416666666666,33.92055555555555],[-118.53111111111112,33.85138888888889],[-118.52583333333334,33.77305555555555],[-118.5025,33.7],[-118.41222222222223,33.66555555555556],[-118.31611111111111,33.644999999999996],[-118.21305555555556,33.64472222222222],[-118.09694444444445,33.644444444444446],[-117.96861111111112,33.62555555555556],[-117.83555555555554,33.60388888888889],[-117.69638888888889,33.581388888888895],[-117.55194444444444,33.55777777777777],[-117.40361111111112,33.53333333333333],[-117.25027777777778,33.50805555555556],[-117.06,33.50277777777778],[-116.89361111111111,33.500277777777775],[-116.73055555555555,33.49777777777778],[-116.56611111111111,33.495],[-116.40416666666667,33.492222222222225],[-116.27361111111111,33.49027777777778],[-116.10916666666667,33.487500000000004],[-115.94722222222222,33.47361111111111],[-115.78777777777778,33.45055555555556],[-115.62916666666666,33.42777777777778],[-115.46916666666667,33.403888888888886],[-115.31222222222222,33.38027777777778],[-115.15,33.35583333333334],[-114.99166666666667,33.33222222222223],[-114.83638888888889,33.30833333333333],[-114.67861111111111,33.28388888888889],[-114.52472222222222,33.26027777777778],[-114.36333333333333,33.234722222222224],[-114.20305555555557,33.20916666666667],[-114.04861111111111,33.18472222222222],[-113.88611111111112,33.15861111111111],[-113.7275,33.132777777777775],[-113.57777777777777,33.10777777777778],[-113.43361111111112,33.08416666666667],[-113.28833333333333,33.06027777777778],[-113.14055555555557,33.035555555555554],[-112.99666666666667,33.01111111111111],[-112.84972222222221,32.986111111111114],[-112.70111111111112,32.96083333333333],[-112.55166666666666,32.94499999999999],[-112.39944444444446,32.93111111111111],[-112.25083333333333,32.91777777777777],[-112.11527777777778,32.905],[-111.96583333333334,32.89083333333333],[-111.83777777777777,32.82972222222222],[-111.71555555555555,32.76638888888889],[-111.60833333333333,32.6975],[-111.60583333333332,32.69583333333333],[-111.58222222222221,32.62416666666667],[-111.57305555555556,32.592222222222226],[-111.55305555555556,32.52444444444444],[-111.53416666666666,32.493611111111115],[-111.44888888888889,32.41888888888889],[-111.39472222222223,32.37027777777778],[-111.36861111111111,32.348888888888894],[-111.31722222222221,32.301944444444445],[-111.29388888888889,32.28361111111111],[-111.23555555555555,32.23027777777778],[-111.22722222222222,32.224722222222226],[-111.18444444444445,32.18611111111111],[-111.165,32.16861111111111],[-111.1236111111111,32.13166666666667],[-111.10166666666666,32.11333333333334],[-111.05805555555555,32.07611111111112],[-111.03805555555556,32.05916666666666],[-110.99,32.019999999999996],[-110.97638888888889,32.00944444444445],[-110.91888888888889,32.00388888888889],[-110.905,32.009166666666665],[-110.87222222222222,32.0375],[-110.86916666666666,32.04861111111111],[-110.89027777777778,32.073055555555555],[-110.89750000000001,32.080000000000005],[-110.93111111111112,32.10888888888889]]}
}
