{
  "id": 2048297525,
  "type": "Feature",
  "properties": {
    "geom:area": 0,
    "geom:bbox": "-122.349350,36.720410,-121.877550,37.607880",
    "geom:latitude": 37.20674688683734,
    "geom:longitude": -122.06698984359039,
    "src:alt_label": "swim-approach",
    "src:geom": "swim",
    "swim:elevations": [
      5310,
      5096,
      4965,
      4844,
      4672,
      4413,
      4021,
      3795,
      3538,
      3298,
      3269,
      2990,
      2876,
      2679,
      2227,
      2133,
      1869,
      1615,
      1417,
      1235,
      1036,
      1020,
      792,
      792,
      725,
      635,
      473,
      430,
      281,
      157,
      48
    ],
    "swim:geom": "approach",
    "swim:timestamps": [
      1789042535,
      1789042570,
      1789042585,
      1789042601,
      1789042621,
      1789042654,
      1789042705,
      1789042738,
      1789042766,
      1789042797,
      1789042801,
      1789042849,
      1789042869,
      1789042898,
      1789042946,
      1789042955,
      1789042983,
      1789043029,
      1789043067,
      1789043092,
      1789043126,
      1789043131,
      1789043186,
      1789043194,
      1789043216,
      1789043238,
      1789043277,
      1789043293,
      1789043338,
      1789043371,
      1789043401
    ],
    "wof:geomhash": "ad47d22a73f2201a117db51381d32666",
    "wof:id": 2048297525,
    "wof:repo": "sfomuseum-data-flights-2026-09"
  },
  "bbox": [
    -122.34935,
    36.72041,
    -121.87755,
    37.60788
  ],
  "geometry": {"type":"LineString","coordinates":[[-121.87755,36.72041],[-121.90292,36.77265],[-121.90943,36.79622],[-121.91657,36.82125],[-121.92498,36.85157],[-121.93873,36.90054],[-121.96163,36.97468],[-121.97969,37.02019],[-121.99457,37.05835],[-122.01067,37.09981],[-122.01286,37.10542],[-122.03715,37.16753],[-122.04662,37.19167],[-122.06095,37.22791],[-122.08415,37.28675],[-122.08834,37.29748],[-122.10149,37.33127],[-122.12251,37.3851],[-122.13575,37.42502],[-122.14444,37.4501],[-122.15612,37.48345],[-122.15748,37.48739],[-122.17831,37.53551],[-122.1865,37.53953],[-122.20645,37.54766],[-122.22714,37.55666],[-122.25948,37.57018],[-122.27146,37.57516],[-122.30372,37.58871],[-122.32747,37.59868],[-122.34935,37.60788]]}
}
