{
  "id": 2048250759,
  "type": "Feature",
  "properties": {
    "geom:area": 0,
    "geom:bbox": "-122.359200,37.491370,-121.289100,37.614310",
    "geom:latitude": 37.545121570593835,
    "geom:longitude": -121.82891613347729,
    "src:alt_label": "swim-approach",
    "src:geom": "swim",
    "swim:elevations": [
      4657,
      4441,
      4021,
      3919,
      3810,
      3622,
      3385,
      3292,
      3275,
      3026,
      2968,
      2892,
      2811,
      2665,
      2503,
      2415,
      2195,
      2133,
      1908,
      1830,
      1636,
      1407,
      1210,
      1049,
      991,
      907,
      643,
      518,
      487,
      346,
      213,
      201,
      150,
      90,
      0
    ],
    "swim:geom": "approach",
    "swim:timestamps": [
      1788556133,
      1788556155,
      1788556196,
      1788556205,
      1788556216,
      1788556235,
      1788556269,
      1788556290,
      1788556297,
      1788556344,
      1788556351,
      1788556372,
      1788556387,
      1788556408,
      1788556433,
      1788556449,
      1788556487,
      1788556507,
      1788556556,
      1788556586,
      1788556611,
      1788556642,
      1788556671,
      1788556699,
      1788556712,
      1788556745,
      1788556784,
      1788556812,
      1788556837,
      1788556875,
      1788556919,
      1788556922,
      1788556937,
      1788556953,
      1788556975
    ],
    "wof:geomhash": "aea98a379ea82e0a88b667f003ea6db1",
    "wof:id": 2048250759,
    "wof:repo": "sfomuseum-data-flights-2026-09"
  },
  "bbox": [
    -122.3592,
    37.49137,
    -121.2891,
    37.61431
  ],
  "geometry": {"type":"LineString","coordinates":[[-121.2891,37.58932],[-121.33063,37.58467],[-121.40808,37.5761],[-121.42453,37.57428],[-121.44676,37.57181],[-121.48242,37.56756],[-121.54565,37.56013],[-121.58299,37.55574],[-121.59401,37.55437],[-121.67017,37.53985],[-121.68125,37.53721],[-121.71092,37.53013],[-121.73243,37.52507],[-121.76045,37.51819],[-121.79343,37.51041],[-121.81432,37.50542],[-121.86231,37.49381],[-121.88928,37.49137],[-121.95476,37.49315],[-121.99432,37.49712],[-122.02543,37.50699],[-122.06513,37.51993],[-122.10094,37.5315],[-122.13202,37.54142],[-122.14507,37.54555],[-122.17852,37.55642],[-122.21831,37.56926],[-122.24594,37.57816],[-122.26551,37.5843],[-122.29137,37.59185],[-122.32064,37.60073],[-122.3227,37.60135],[-122.33319,37.60451],[-122.34501,37.60844],[-122.3592,37.61431]]}
}
