{
  "id": 2048326725,
  "type": "Feature",
  "properties": {
    "geom:area": 0,
    "geom:bbox": "-122.847690,37.421970,-122.094890,38.498470",
    "geom:latitude": 37.81522769232806,
    "geom:longitude": -122.48859903172905,
    "src:alt_label": "swim-approach",
    "src:geom": "swim",
    "swim:elevations": [
      7620,
      7351,
      7003,
      6655,
      6380,
      6036,
      5770,
      5611,
      5548,
      5139,
      4987,
      4791,
      4768,
      4452,
      3999,
      3792,
      3700,
      3433,
      3405,
      3353,
      3353,
      3353,
      3336,
      3290,
      3270,
      3176,
      3035,
      2788,
      2665,
      2621,
      2330,
      2276,
      2146,
      1975,
      1912,
      1661,
      1349,
      1263,
      1219,
      1162,
      972,
      823,
      613,
      501,
      391,
      194,
      72,
      0
    ],
    "swim:geom": "approach",
    "swim:timestamps": [
      1789334480,
      1789334506,
      1789334538,
      1789334573,
      1789334598,
      1789334632,
      1789334660,
      1789334675,
      1789334681,
      1789334724,
      1789334738,
      1789334757,
      1789334761,
      1789334792,
      1789334840,
      1789334861,
      1789334873,
      1789334907,
      1789334915,
      1789334965,
      1789334980,
      1789335018,
      1789335049,
      1789335058,
      1789335061,
      1789335077,
      1789335101,
      1789335145,
      1789335169,
      1789335181,
      1789335235,
      1789335247,
      1789335265,
      1789335289,
      1789335302,
      1789335346,
      1789335388,
      1789335400,
      1789335449,
      1789335469,
      1789335492,
      1789335527,
      1789335562,
      1789335579,
      1789335602,
      1789335649,
      1789335681,
      1789335699
    ],
    "wof:geomhash": "df1bbb9dd73e5028037c5116ec0f703c",
    "wof:id": 2048326725,
    "wof:repo": "sfomuseum-data-flights-2026-09"
  },
  "bbox": [
    -122.84769,
    37.42197,
    -122.09489,
    38.49847
  ],
  "geometry": {"type":"LineString","coordinates":[[-122.84769,38.49847],[-122.83302,38.44854],[-122.81502,38.38737],[-122.79619,38.32309],[-122.78249,38.2757],[-122.76472,38.21455],[-122.7498,38.16294],[-122.74214,38.13608],[-122.73909,38.1254],[-122.71695,38.05041],[-122.70987,38.02602],[-122.70004,37.9921],[-122.6985,37.98685],[-122.6827,37.93317],[-122.63286,37.86178],[-122.60378,37.83399],[-122.58856,37.8195],[-122.5427,37.77635],[-122.53224,37.76656],[-122.47045,37.70801],[-122.45316,37.69179],[-122.41239,37.65351],[-122.38089,37.62386],[-122.37181,37.61534],[-122.36884,37.61247],[-122.35471,37.59597],[-122.33776,37.56916],[-122.31444,37.51953],[-122.29889,37.4941],[-122.29129,37.4816],[-122.2348,37.4427],[-122.22027,37.43433],[-122.19983,37.4235],[-122.16731,37.42197],[-122.14994,37.42517],[-122.09595,37.44027],[-122.09489,37.4788],[-122.10434,37.48802],[-122.1448,37.52143],[-122.16616,37.53034],[-122.18978,37.54051],[-122.22536,37.55512],[-122.25595,37.56807],[-122.27061,37.57469],[-122.29062,37.58308],[-122.32713,37.59862],[-122.35078,37.60853],[-122.36394,37.61372]]}
}
