{
  "id": 2048443643,
  "type": "Feature",
  "properties": {
    "geom:area": 0,
    "geom:bbox": "-121.488333,29.991667,-95.335833,38.518611",
    "geom:latitude": 35.866163108097396,
    "geom:longitude": -107.74493486880709,
    "src:alt_label": "swim-path",
    "src:geom": "swim",
    "swim:altitudes": [
      "244",
      "262",
      "288",
      "299",
      "310",
      "316",
      "321",
      "327",
      "333",
      "340",
      "350",
      "355",
      "359",
      "366",
      "369C",
      "370C",
      "370C",
      "370C",
      "370C",
      "370C",
      "370C",
      "370C",
      "370C",
      "370C",
      "370C",
      "370C",
      "370C",
      "370C",
      "370C",
      "370C",
      "370C",
      "370C",
      "370C",
      "370C",
      "370C",
      "370C",
      "370C",
      "370C",
      "370C",
      "370C",
      "370C",
      "370C",
      "370C",
      "370C",
      "370C",
      "370C",
      "370C",
      "370C",
      "370C",
      "370C",
      "370C",
      "370C",
      "370C",
      "370C",
      "370C",
      "370C",
      "370C",
      "370C",
      "370C",
      "370C",
      "370C",
      "370C",
      "370C",
      "370C",
      "370C",
      "370C",
      "370C",
      "370C",
      "370C",
      "370C",
      "370C",
      "370C",
      "370C",
      "370C",
      "370C",
      "370C",
      "370C",
      "370C",
      "370C",
      "370C",
      "370C",
      "370C",
      "370C",
      "370C",
      "370C",
      "370C",
      "370C",
      "370C",
      "370C",
      "370C",
      "370C",
      "370C",
      "370C",
      "370C",
      "370C",
      "370C",
      "370C",
      "370C",
      "370C",
      "370C",
      "370C",
      "370C",
      "370C",
      "370C",
      "370C",
      "370C",
      "370C",
      "370C",
      "370C",
      "370C",
      "370C",
      "370C",
      "370C",
      "370C",
      "370C",
      "370C",
      "370C",
      "370C",
      "370C",
      "370C",
      "370",
      "373",
      "374",
      "380",
      "382",
      "387",
      "389C",
      "390C",
      "390C",
      "390C",
      "390C",
      "390C",
      "390C",
      "390C",
      "390C",
      "390C",
      "390C",
      "390C",
      "390C",
      "390C",
      "390C",
      "390C",
      "390C",
      "390C",
      "390C",
      "390C",
      "390C",
      "390C",
      "390C",
      "390C",
      "390C",
      "390C",
      "390C",
      "390C",
      "390C",
      "390C",
      "390C",
      "390C",
      "390C",
      "390C",
      "390C",
      "390C",
      "390C",
      "390C",
      "390C",
      "390C",
      "390C",
      "390C",
      "390C",
      "390C",
      "390C",
      "390C",
      "390C",
      "390C",
      "390C",
      "390C",
      "390C",
      "390C",
      "390C",
      "390C",
      "390C",
      "390C",
      "390C",
      "390C",
      "390C",
      "390C",
      "390C",
      "390C",
      "390C",
      "390C",
      "390C",
      "390C",
      "390C",
      "390C",
      "390",
      "390",
      "380",
      "378",
      "363",
      "361",
      "342",
      "340",
      "318",
      "311",
      "290C",
      "290C",
      "290C",
      "290C",
      "290",
      "290",
      "282",
      "280",
      "271",
      "269",
      "252",
      "248",
      "230",
      "226",
      "209",
      "205",
      "188",
      "184",
      "176",
      "167",
      "164",
      "154",
      "149",
      "148",
      "143",
      "136",
      "133",
      "128",
      "121",
      "118",
      "111",
      "110",
      "109",
      "102",
      "098",
      "095",
      "087",
      "083",
      "080",
      "075",
      "069",
      "066",
      "063",
      "058",
      "053",
      "041",
      "040",
      "040",
      "040",
      "038",
      "032",
      "030",
      "022",
      "020",
      "013",
      "011",
      "006",
      "90"
    ],
    "swim:geom": "path",
    "swim:speeds": [
      436,
      446,
      467,
      480,
      490,
      489,
      496,
      497,
      500,
      500,
      500,
      500,
      500,
      501,
      500,
      500,
      500,
      499,
      499,
      499,
      499,
      500,
      500,
      502,
      501,
      503,
      503,
      504,
      504,
      505,
      505,
      505,
      505,
      505,
      505,
      505,
      506,
      507,
      507,
      508,
      508,
      509,
      509,
      509,
      508,
      508,
      508,
      508,
      508,
      508,
      508,
      509,
      509,
      509,
      510,
      512,
      513,
      515,
      517,
      515,
      512,
      510,
      510,
      510,
      511,
      513,
      512,
      511,
      512,
      514,
      516,
      517,
      516,
      515,
      514,
      514,
      514,
      515,
      517,
      523,
      525,
      526,
      526,
      526,
      526,
      525,
      525,
      525,
      526,
      527,
      528,
      524,
      523,
      523,
      523,
      523,
      524,
      526,
      527,
      530,
      534,
      533,
      535,
      537,
      538,
      544,
      544,
      546,
      547,
      547,
      547,
      547,
      547,
      547,
      546,
      546,
      546,
      546,
      546,
      546,
      546,
      547,
      548,
      551,
      551,
      552,
      552,
      553,
      555,
      557,
      557,
      558,
      558,
      559,
      559,
      559,
      559,
      559,
      558,
      558,
      558,
      559,
      560,
      560,
      560,
      560,
      560,
      560,
      560,
      561,
      562,
      562,
      563,
      563,
      563,
      563,
      562,
      561,
      561,
      560,
      559,
      559,
      559,
      558,
      559,
      560,
      561,
      561,
      561,
      561,
      562,
      562,
      562,
      563,
      563,
      562,
      562,
      558,
      561,
      560,
      560,
      559,
      558,
      558,
      558,
      558,
      558,
      558,
      558,
      561,
      558,
      554,
      554,
      554,
      545,
      545,
      534,
      533,
      515,
      513,
      509,
      504,
      493,
      493,
      498,
      498,
      500,
      500,
      500,
      500,
      472,
      466,
      443,
      443,
      436,
      434,
      426,
      424,
      417,
      415,
      407,
      404,
      394,
      396,
      395,
      387,
      379,
      374,
      366,
      370,
      369,
      361,
      361,
      357,
      343,
      332,
      322,
      310,
      311,
      308,
      304,
      306,
      305,
      299,
      299,
      296,
      287,
      285,
      270,
      273,
      255,
      222,
      218,
      208,
      197,
      189,
      192,
      185,
      152,
      142,
      143,
      143
    ],
    "swim:timestamps": [
      1790471294,
      1790471354,
      1790471474,
      1790471534,
      1790471594,
      1790471620,
      1790471654,
      1790471680,
      1790471714,
      1790471741,
      1790471801,
      1790471834,
      1790471861,
      1790471894,
      1790471921,
      1790471954,
      1790471981,
      1790472014,
      1790472041,
      1790472074,
      1790472101,
      1790472134,
      1790472161,
      1790472195,
      1790472221,
      1790472255,
      1790472281,
      1790472315,
      1790472341,
      1790472375,
      1790472401,
      1790472435,
      1790472462,
      1790472495,
      1790472522,
      1790472555,
      1790472582,
      1790472615,
      1790472642,
      1790472675,
      1790472702,
      1790472735,
      1790472762,
      1790472795,
      1790472822,
      1790472855,
      1790472882,
      1790472915,
      1790472942,
      1790472975,
      1790473002,
      1790473035,
      1790473062,
      1790473096,
      1790473122,
      1790473156,
      1790473182,
      1790473243,
      1790473303,
      1790473363,
      1790473423,
      1790473483,
      1790473543,
      1790473603,
      1790473663,
      1790473723,
      1790473783,
      1790473843,
      1790473903,
      1790473963,
      1790474024,
      1790474084,
      1790474144,
      1790474204,
      1790474261,
      1790474324,
      1790474381,
      1790474441,
      1790474504,
      1790474561,
      1790474621,
      1790474684,
      1790474741,
      1790474802,
      1790474865,
      1790474925,
      1790474982,
      1790475045,
      1790475105,
      1790475162,
      1790475225,
      1790475285,
      1790475342,
      1790475402,
      1790475462,
      1790475522,
      1790475582,
      1790475643,
      1790475703,
      1790475763,
      1790475776,
      1790475823,
      1790475837,
      1790475883,
      1790475897,
      1790475943,
      1790475957,
      1790476003,
      1790476017,
      1790476063,
      1790476077,
      1790476123,
      1790476137,
      1790476183,
      1790476197,
      1790476243,
      1790476258,
      1790476303,
      1790476318,
      1790476363,
      1790476378,
      1790476423,
      1790476438,
      1790476483,
      1790476498,
      1790476544,
      1790476558,
      1790476618,
      1790476679,
      1790476740,
      1790476797,
      1790476857,
      1790476918,
      1790476977,
      1790477037,
      1790477098,
      1790477159,
      1790477220,
      1790477273,
      1790477333,
      1790477398,
      1790477453,
      1790477513,
      1790477577,
      1790477633,
      1790477693,
      1790477753,
      1790477759,
      1790477819,
      1790477879,
      1790477933,
      1790477939,
      1790477993,
      1790478053,
      1790478060,
      1790478113,
      1790478173,
      1790478233,
      1790478240,
      1790478294,
      1790478300,
      1790478354,
      1790478414,
      1790478421,
      1790478474,
      1790478534,
      1790478594,
      1790478654,
      1790478714,
      1790478774,
      1790478834,
      1790478894,
      1790478954,
      1790479014,
      1790479074,
      1790479134,
      1790479194,
      1790479209,
      1790479254,
      1790479269,
      1790479314,
      1790479330,
      1790479374,
      1790479390,
      1790479434,
      1790479451,
      1790479494,
      1790479511,
      1790479555,
      1790479571,
      1790479615,
      1790479631,
      1790479675,
      1790479689,
      1790479735,
      1790479750,
      1790479795,
      1790479810,
      1790479855,
      1790479870,
      1790479915,
      1790479930,
      1790479975,
      1790479990,
      1790480035,
      1790480050,
      1790480095,
      1790480111,
      1790480155,
      1790480171,
      1790480215,
      1790480231,
      1790480275,
      1790480291,
      1790480335,
      1790480351,
      1790480395,
      1790480411,
      1790480455,
      1790480471,
      1790480515,
      1790480532,
      1790480550,
      1790480575,
      1790480592,
      1790480610,
      1790480635,
      1790480652,
      1790480670,
      1790480695,
      1790480712,
      1790480724,
      1790480755,
      1790480769,
      1790480796,
      1790480815,
      1790480829,
      1790480856,
      1790480875,
      1790480889,
      1790480916,
      1790480935,
      1790480949,
      1790480964,
      1790480995,
      1790481011,
      1790481023,
      1790481055,
      1790481078,
      1790481132,
      1790481192,
      1790481210,
      1790481253,
      1790481271,
      1790481313,
      1790481325,
      1790481370,
      1790481385,
      1790481430,
      1790481445,
      1790481490,
      1790481550
    ],
    "wof:geomhash": "b009af6172473e46ae2df17c96356143",
    "wof:id": 2048443643,
    "wof:repo": "sfomuseum-data-flights-2026-09"
  },
  "bbox": [
    -121.48833333333333,
    29.991666666666667,
    -95.33583333333333,
    38.51861111111111
  ],
  "geometry": {"type":"LineString","coordinates":[[-121.48833333333333,37.92166666666667],[-121.33666666666666,37.94916666666666],[-121.0213888888889,38.004444444444445],[-120.85388888888889,38.02972222222222],[-120.68694444444445,38.055],[-120.60055555555554,38.06666666666667],[-120.51611111111112,38.08111111111111],[-120.42777777777778,38.093333333333334],[-120.3411111111111,38.1075],[-120.25444444444445,38.119166666666665],[-120.08166666666666,38.14388888888889],[-119.99388888888889,38.15888888888889],[-119.90833333333335,38.16916666666666],[-119.78833333333333,38.18861111111111],[-119.73444444444445,38.19361111111111],[-119.64888888888889,38.20805555555556],[-119.56305555555555,38.218333333333334],[-119.44027777777778,38.23722222222222],[-119.39111111111112,38.24277777777778],[-119.28805555555556,38.25888888888889],[-119.21833333333333,38.26833333333333],[-119.11583333333333,38.283055555555556],[-119.04416666666667,38.2925],[-118.9388888888889,38.3075],[-118.86916666666666,38.31638888888889],[-118.765,38.33111111111111],[-118.69444444444444,38.34027777777778],[-118.58972222222222,38.35472222222222],[-118.51972222222223,38.36388888888889],[-118.41444444444446,38.37777777777778],[-118.31305555555555,38.39111111111111],[-118.23944444444444,38.40083333333333],[-118.13555555555556,38.41444444444444],[-118.06277777777777,38.42361111111111],[-117.96027777777778,38.43666666666666],[-117.88722222222223,38.44583333333333],[-117.78277777777778,38.45888888888889],[-117.70833333333334,38.468333333333334],[-117.6388888888889,38.47694444444445],[-117.52722222222222,38.490833333333335],[-117.45833333333334,38.49944444444444],[-117.34666666666666,38.51305555555555],[-117.27666666666667,38.51861111111111],[-117.16583333333334,38.51694444444444],[-117.09388888888888,38.515],[-116.9825,38.51138888888889],[-116.91277777777778,38.509166666666665],[-116.80277777777778,38.505833333333335],[-116.73,38.50361111111111],[-116.62194444444444,38.5],[-116.54833333333333,38.4975],[-116.43944444444445,38.493611111111115],[-116.36777777777777,38.490833333333335],[-116.25722222222223,38.48694444444445],[-116.18666666666667,38.48444444444444],[-116.07305555555556,38.48027777777778],[-116.00305555555556,38.4775],[-115.81944444444444,38.469722222222224],[-115.63694444444445,38.46222222222222],[-115.45222222222222,38.45472222222222],[-115.28611111111111,38.447222222222216],[-115.10666666666665,38.43888888888888],[-114.9263888888889,38.43],[-114.74555555555555,38.421388888888885],[-114.56472222222222,38.411944444444444],[-114.38361111111112,38.402499999999996],[-114.20944444444444,38.370555555555555],[-114.03305555555555,38.32916666666667],[-113.8611111111111,38.288333333333334],[-113.68555555555555,38.24666666666667],[-113.51083333333334,38.205000000000005],[-113.33722222222222,38.16277777777778],[-113.16277777777778,38.12],[-112.98861111111111,38.07694444444445],[-112.81472222222222,38.03388888888889],[-112.63972222222223,37.99027777777778],[-112.465,37.946666666666665],[-112.29083333333332,37.902499999999996],[-112.11694444444444,37.85805555555556],[-111.93916666666667,37.81888888888889],[-111.75888888888889,37.790277777777774],[-111.57694444444444,37.76166666666666],[-111.39444444444445,37.7325],[-111.21472222222222,37.703611111111115],[-111.03416666666666,37.67444444444444],[-110.85583333333332,37.64472222222222],[-110.67444444444445,37.61472222222223],[-110.49694444444445,37.585],[-110.31555555555555,37.55416666666667],[-110.12833333333333,37.52194444444444],[-109.9563888888889,37.48277777777778],[-109.77972222222222,37.415277777777774],[-109.62166666666666,37.35416666666667],[-109.45722222222223,37.29],[-109.29555555555555,37.22638888888889],[-109.13111111111111,37.161944444444444],[-108.96638888888889,37.096944444444446],[-108.80027777777778,37.03111111111111],[-108.63611111111112,36.96527777777778],[-108.47027777777778,36.89888888888889],[-108.43611111111112,36.885],[-108.3025,36.83111111111111],[-108.26861111111111,36.81722222222223],[-108.13472222222222,36.76305555555555],[-108.1,36.74916666666667],[-107.95944444444444,36.703611111111115],[-107.92583333333334,36.69277777777778],[-107.78611111111111,36.64694444444444],[-107.74944444444445,36.635],[-107.60972222222222,36.58916666666667],[-107.57194444444444,36.57666666666667],[-107.43277777777779,36.530833333333334],[-107.39888888888889,36.51972222222222],[-107.2575,36.473055555555554],[-107.22361111111111,36.461666666666666],[-107.08333333333333,36.415],[-107.04888888888888,36.40333333333333],[-106.91166666666668,36.35777777777778],[-106.87666666666667,36.34583333333334],[-106.73805555555556,36.299166666666665],[-106.70166666666667,36.28666666666666],[-106.56277777777777,36.239444444444445],[-106.52833333333334,36.22777777777778],[-106.38722222222223,36.17972222222222],[-106.35027777777778,36.16694444444444],[-106.21333333333334,36.12027777777778],[-106.18388888888889,36.11],[-106.00444444444445,36.04833333333333],[-105.8261111111111,35.98638888888889],[-105.66000000000001,35.92833333333333],[-105.505,35.87388888888889],[-105.31972222222223,35.808611111111105],[-105.14500000000001,35.74638888888889],[-104.97,35.68388888888889],[-104.79472222222222,35.62111111111111],[-104.61972222222222,35.55777777777777],[-104.44555555555556,35.49472222222222],[-104.27166666666666,35.43138888888889],[-104.11416666666666,35.37277777777778],[-103.94111111111111,35.31055555555555],[-103.73833333333333,35.23416666666667],[-103.5961111111111,35.18111111111111],[-103.42583333333334,35.11083333333333],[-103.22666666666667,35.028888888888886],[-103.0886111111111,34.97138888888889],[-102.92111111111112,34.901666666666664],[-102.75361111111111,34.831388888888895],[-102.72222222222223,34.818333333333335],[-102.55111111111111,34.74611111111111],[-102.38166666666666,34.674166666666665],[-102.25138888888888,34.618611111111115],[-102.215,34.60305555555556],[-102.08361111111111,34.54694444444444],[-101.88305555555554,34.46055555555556],[-101.88027777777778,34.45944444444445],[-101.71611111111112,34.38861111111111],[-101.55194444444444,34.31722222222223],[-101.38444444444445,34.244166666666665],[-101.38444444444445,34.244166666666665],[-101.22083333333333,34.17222222222222],[-101.21777777777778,34.170833333333334],[-101.05583333333333,34.099444444444444],[-100.88666666666667,34.02444444444444],[-100.88916666666667,34.025555555555556],[-100.74722222222222,33.962500000000006],[-100.58166666666666,33.88861111111111],[-100.415,33.81388888888888],[-100.25111111111111,33.74055555555556],[-100.08555555555554,33.66583333333333],[-99.93055555555556,33.57694444444445],[-99.77583333333334,33.488055555555555],[-99.6211111111111,33.39833333333333],[-99.46694444444445,33.30888888888889],[-99.31027777777777,33.2175],[-99.15722222222223,33.12777777777778],[-99.00527777777778,33.038333333333334],[-98.85027777777778,32.946666666666665],[-98.82388888888889,32.93055555555555],[-98.69861111111112,32.85666666666667],[-98.6725,32.84138888888889],[-98.54861111111111,32.7675],[-98.52222222222223,32.75138888888889],[-98.41250000000001,32.68611111111111],[-98.37416666666665,32.661944444444444],[-98.26277777777777,32.59638888888889],[-98.22361111111111,32.57166666666667],[-98.115,32.5075],[-98.07388888888889,32.48222222222223],[-97.96638888888889,32.4175],[-97.91777777777779,32.38777777777778],[-97.78861111111111,32.30916666666666],[-97.7761111111111,32.30138888888889],[-97.64166666666668,32.219722222222224],[-97.62916666666666,32.21194444444445],[-97.49861111111112,32.13194444444444],[-97.48472222222222,32.12361111111111],[-97.35777777777777,32.04555555555555],[-97.34166666666667,32.035555555555554],[-97.22111111111111,31.961388888888887],[-97.20583333333333,31.951666666666664],[-97.09722222222221,31.883888888888887],[-97.07277777777777,31.86861111111111],[-96.9675,31.803611111111113],[-96.94166666666668,31.7875],[-96.83555555555554,31.72111111111111],[-96.80916666666667,31.704722222222223],[-96.70333333333333,31.63861111111111],[-96.67666666666668,31.621944444444445],[-96.57083333333333,31.555555555555557],[-96.54555555555555,31.537222222222223],[-96.47194444444445,31.45],[-96.45916666666668,31.42888888888889],[-96.40416666666667,31.340277777777775],[-96.39111111111112,31.31833333333333],[-96.33833333333332,31.231666666666666],[-96.32638888888889,31.21222222222222],[-96.27388888888889,31.12611111111111],[-96.26222222222222,31.10666666666667],[-96.21166666666667,31.023333333333333],[-96.20027777777779,31.004444444444445],[-96.14888888888889,30.924444444444447],[-96.13666666666667,30.90611111111111],[-96.10944444444443,30.864722222222223],[-96.08666666666666,30.828611111111112],[-96.07472222222222,30.809722222222224],[-96.04972222222221,30.769444444444442],[-96.03055555555555,30.733333333333334],[-96.01916666666666,30.70861111111111],[-96.00222222222222,30.675],[-95.98583333333333,30.63861111111111],[-95.97500000000001,30.61527777777778],[-95.96361111111112,30.59],[-95.94194444444445,30.545555555555556],[-95.93111111111112,30.522499999999997],[-95.91305555555556,30.480555555555554],[-95.9,30.45611111111111],[-95.89111111111112,30.4375],[-95.87416666666665,30.399722222222223],[-95.8625,30.37611111111111],[-95.85388888888889,30.35777777777778],[-95.83722222222222,30.320833333333333],[-95.82583333333334,30.298333333333336],[-95.8175,30.279999999999998],[-95.80805555555555,30.259444444444444],[-95.79027777777777,30.22138888888889],[-95.78222222222222,30.203888888888887],[-95.77361111111111,30.18305555555556],[-95.75527777777778,30.148055555555555],[-95.74222222222222,30.119444444444444],[-95.71555555555555,30.06222222222222],[-95.67861111111111,29.999166666666667],[-95.65111111111112,29.991666666666667],[-95.60888888888888,29.99277777777778],[-95.58361111111111,29.991944444444446],[-95.54444444444444,29.993055555555557],[-95.52777777777777,29.993055555555557],[-95.48388888888888,29.993055555555557],[-95.46777777777778,29.991944444444446],[-95.42944444444444,29.993333333333336],[-95.41694444444445,29.99361111111111],[-95.38472222222222,29.993333333333336],[-95.33583333333333,29.993333333333336]]}
}
