{
  "id": 2048407167,
  "type": "Feature",
  "properties": {
    "geom:area": 0,
    "geom:bbox": "-122.397790,37.629010,-121.249110,38.423300",
    "geom:latitude": 38.03160595283719,
    "geom:longitude": -121.83478079404885,
    "src:alt_label": "swim-takeoff",
    "src:geom": "swim",
    "swim:elevations": [
      270,
      348,
      755,
      1105,
      1215,
      1377,
      1465,
      1772,
      2213,
      2517,
      3068,
      3313,
      3481,
      3581,
      4031,
      4170,
      4773,
      5023,
      5217,
      5584,
      5857,
      6137,
      6347,
      6531,
      6592,
      6807,
      7068,
      7225,
      7349,
      7541
    ],
    "swim:geom": "takeoff",
    "swim:timestamps": [
      1790061715,
      1790061721,
      1790061751,
      1790061791,
      1790061806,
      1790061830,
      1790061848,
      1790061882,
      1790061917,
      1790061938,
      1790061983,
      1790062016,
      1790062044,
      1790062058,
      1790062103,
      1790062115,
      1790062166,
      1790062196,
      1790062219,
      1790062249,
      1790062283,
      1790062314,
      1790062335,
      1790062361,
      1790062370,
      1790062399,
      1790062436,
      1790062461,
      1790062479,
      1790062506
    ],
    "wof:geomhash": "e1da76a12655ae24f9801d81e4e10ce0",
    "wof:id": 2048407167,
    "wof:repo": "sfomuseum-data-flights-2026-09"
  },
  "bbox": [
    -122.39779,
    37.62901,
    -121.24911,
    38.4233
  ],
  "geometry": {"type":"LineString","coordinates":[[-122.39349,37.62901],[-122.39779,37.63222],[-122.39691,37.65388],[-122.36113,37.66955],[-122.34797,37.6784],[-122.32548,37.69458],[-122.30646,37.70777],[-122.26603,37.73579],[-122.22251,37.76572],[-122.19676,37.78366],[-122.1394,37.82331],[-122.09541,37.85385],[-122.05484,37.88186],[-122.03328,37.89676],[-121.96226,37.94575],[-121.94283,37.95917],[-121.85924,38.01647],[-121.80828,38.05128],[-121.77046,38.0774],[-121.71738,38.11343],[-121.65923,38.15322],[-121.6053,38.18994],[-121.56763,38.21569],[-121.52217,38.24647],[-121.50608,38.25737],[-121.45252,38.29343],[-121.38479,38.33923],[-121.3379,38.36832],[-121.30146,38.39085],[-121.24911,38.4233]]}
}
