{
  "id": 2048446145,
  "type": "Feature",
  "properties": {
    "geom:area": 0,
    "geom:bbox": "-122.361610,36.725510,-121.880470,37.612910",
    "geom:latitude": 37.214260566932936,
    "geom:longitude": -122.07157261259073,
    "src:alt_label": "swim-approach",
    "src:geom": "swim",
    "swim:elevations": [
      5158,
      5031,
      4576,
      4342,
      4063,
      3944,
      3484,
      3319,
      3118,
      3044,
      2862,
      2737,
      2434,
      2281,
      2019,
      1937,
      1565,
      1496,
      1401,
      925,
      621,
      496,
      378,
      265,
      155,
      12,
      233
    ],
    "swim:geom": "approach",
    "swim:timestamps": [
      1790508648,
      1790508662,
      1790508713,
      1790508739,
      1790508769,
      1790508783,
      1790508832,
      1790508852,
      1790508896,
      1790508926,
      1790508952,
      1790508975,
      1790509018,
      1790509039,
      1790509073,
      1790509084,
      1790509137,
      1790509147,
      1790509161,
      1790509248,
      1790509313,
      1790509340,
      1790509369,
      1790509398,
      1790509429,
      1790509468,
      1790509471
    ],
    "wof:geomhash": "b221883e1ef6448c7a0410e6fdbc4803",
    "wof:id": 2048446145,
    "wof:repo": "sfomuseum-data-flights-2026-09"
  },
  "bbox": [
    -122.36161,
    36.72551,
    -121.88047,
    37.61291
  ],
  "geometry": {"type":"LineString","coordinates":[[-121.88047,36.72551],[-121.89292,36.74756],[-121.91991,36.83321],[-121.93206,36.87678],[-121.94567,36.9261],[-121.95212,36.94829],[-121.98135,37.02457],[-121.99276,37.05384],[-122.01791,37.11876],[-122.03409,37.16007],[-122.04732,37.19347],[-122.05869,37.22211],[-122.07979,37.2758],[-122.08955,37.30076],[-122.106,37.34276],[-122.11142,37.3561],[-122.13426,37.42026],[-122.13836,37.43242],[-122.14379,37.44797],[-122.1782,37.53474],[-122.23844,37.56126],[-122.26111,37.57084],[-122.28413,37.58052],[-122.30766,37.59037],[-122.33091,37.60017],[-122.35918,37.61202],[-122.36161,37.61291]]}
}
