{
  "id": 2048387047,
  "type": "Feature",
  "properties": {
    "geom:area": 0,
    "geom:bbox": "-122.354210,37.492190,-121.275000,37.609980",
    "geom:latitude": 37.54163734433514,
    "geom:longitude": -121.82107163191087,
    "src:alt_label": "swim-approach",
    "src:geom": "swim",
    "swim:elevations": [
      4434,
      4304,
      4118,
      3641,
      3540,
      3268,
      3134,
      3079,
      2755,
      2719,
      2407,
      2209,
      2089,
      1946,
      1626,
      1528,
      1300,
      1246,
      1026,
      783,
      684,
      620,
      543,
      440,
      313,
      151,
      40
    ],
    "swim:geom": "approach",
    "swim:timestamps": [
      1789929746,
      1789929761,
      1789929781,
      1789929838,
      1789929847,
      1789929887,
      1789929920,
      1789929933,
      1789929986,
      1789929991,
      1789930043,
      1789930073,
      1789930090,
      1789930111,
      1789930166,
      1789930179,
      1789930226,
      1789930234,
      1789930270,
      1789930312,
      1789930333,
      1789930343,
      1789930357,
      1789930380,
      1789930415,
      1789930454,
      1789930480
    ],
    "wof:geomhash": "f86afc306a2f4cc00f0ddebb4153e6a9",
    "wof:id": 2048387047,
    "wof:repo": "sfomuseum-data-flights-2026-09"
  },
  "bbox": [
    -122.35421,
    37.49219,
    -121.275,
    37.60998
  ],
  "geometry": {"type":"LineString","coordinates":[[-121.275,37.59105],[-121.30654,37.5875],[-121.34683,37.58323],[-121.4612,37.5699],[-121.47892,37.56784],[-121.55687,37.55873],[-121.61739,37.55163],[-121.63883,37.54744],[-121.72564,37.52676],[-121.73278,37.52505],[-121.81562,37.50519],[-121.8627,37.49395],[-121.88978,37.49219],[-121.92421,37.49479],[-122.01256,37.50211],[-122.03342,37.5037],[-122.1022,37.50938],[-122.11361,37.51061],[-122.15586,37.52743],[-122.20441,37.54694],[-122.22664,37.5564],[-122.23746,37.5609],[-122.25085,37.56652],[-122.27174,37.57548],[-122.30076,37.58759],[-122.33319,37.60109],[-122.35421,37.60998]]}
}
