{
  "id": 2048333443,
  "type": "Feature",
  "properties": {
    "geom:area": 0,
    "geom:bbox": "-122.849690,37.570570,-122.103730,38.504740",
    "geom:latitude": 37.89048951473185,
    "geom:longitude": -122.51490931405048,
    "src:alt_label": "swim-approach",
    "src:geom": "swim",
    "swim:elevations": [
      7315,
      7194,
      7001,
      6792,
      6518,
      6172,
      5933,
      5701,
      5381,
      5284,
      5152,
      5001,
      4696,
      4422,
      4167,
      3879,
      3801,
      3575,
      3359,
      3306,
      3218,
      3021,
      2829,
      2560,
      2393,
      2059,
      1867,
      1858,
      1642,
      1575,
      1217,
      1130,
      974,
      772,
      661,
      427,
      365,
      225,
      123,
      3
    ],
    "swim:geom": "approach",
    "swim:timestamps": [
      1789399345,
      1789399369,
      1789399401,
      1789399425,
      1789399455,
      1789399494,
      1789399522,
      1789399547,
      1789399583,
      1789399593,
      1789399609,
      1789399630,
      1789399666,
      1789399699,
      1789399730,
      1789399766,
      1789399778,
      1789399807,
      1789399847,
      1789399877,
      1789399910,
      1789399944,
      1789399967,
      1789400002,
      1789400026,
      1789400068,
      1789400096,
      1789400100,
      1789400146,
      1789400162,
      1789400211,
      1789400229,
      1789400255,
      1789400284,
      1789400312,
      1789400362,
      1789400379,
      1789400407,
      1789400437,
      1789400461
    ],
    "wof:geomhash": "55324c67c1905e5c518b926d7935e5c1",
    "wof:id": 2048333443,
    "wof:repo": "sfomuseum-data-flights-2026-09"
  },
  "bbox": [
    -122.84969,
    37.57057,
    -122.10373,
    38.50474
  ],
  "geometry": {"type":"LineString","coordinates":[[-122.84969,38.50474],[-122.83679,38.46135],[-122.82022,38.40448],[-122.80782,38.3623],[-122.79278,38.31127],[-122.77365,38.24604],[-122.76045,38.20038],[-122.74815,38.15824],[-122.7316,38.10099],[-122.72711,38.08526],[-122.71964,38.0599],[-122.71013,38.02714],[-122.69423,37.97188],[-122.67945,37.92169],[-122.65164,37.8793],[-122.60805,37.83784],[-122.59333,37.824],[-122.55812,37.79084],[-122.51199,37.74725],[-122.47897,37.71798],[-122.43317,37.70419],[-122.38711,37.69194],[-122.355,37.6832],[-122.30696,37.66968],[-122.27382,37.66038],[-122.21681,37.64461],[-122.17996,37.63433],[-122.17557,37.63314],[-122.11831,37.61741],[-122.10373,37.6087],[-122.11962,37.57074],[-122.14028,37.57057],[-122.16918,37.57324],[-122.19982,37.57646],[-122.22806,37.5788],[-122.27785,37.58774],[-122.29263,37.59223],[-122.31519,37.599],[-122.3388,37.60653],[-122.35681,37.61348]]}
}
