{
  "id": 2048400571,
  "type": "Feature",
  "properties": {
    "geom:area": 0,
    "geom:bbox": "-122.411280,37.630110,-121.282520,38.402560",
    "geom:latitude": 38.01301591143839,
    "geom:longitude": -121.85685862732758,
    "src:alt_label": "swim-takeoff",
    "src:geom": "swim",
    "swim:elevations": [
      223,
      510,
      656,
      1040,
      1247,
      1343,
      1904,
      2063,
      2533,
      3013,
      3180,
      3348,
      3679,
      3900,
      4199,
      4612,
      4903,
      5038,
      5397,
      5583,
      5727,
      6070,
      6344,
      6470,
      6697,
      7036,
      7159,
      7280
    ],
    "swim:geom": "takeoff",
    "swim:timestamps": [
      1789983056,
      1789983082,
      1789983093,
      1789983138,
      1789983173,
      1789983187,
      1789983231,
      1789983245,
      1789983283,
      1789983325,
      1789983352,
      1789983384,
      1789983414,
      1789983439,
      1789983467,
      1789983505,
      1789983538,
      1789983553,
      1789983595,
      1789983618,
      1789983636,
      1789983676,
      1789983711,
      1789983724,
      1789983755,
      1789983808,
      1789983827,
      1789983848
    ],
    "wof:geomhash": "efe61fb68d7f53fd79c3d228d776bad8",
    "wof:id": 2048400571,
    "wof:repo": "sfomuseum-data-flights-2026-09"
  },
  "bbox": [
    -122.41128,
    37.63011,
    -121.28252,
    38.40256
  ],
  "geometry": {"type":"LineString","coordinates":[[-122.40186,37.63011],[-122.41128,37.65007],[-122.40426,37.65909],[-122.35546,37.67515],[-122.3096,37.68904],[-122.2901,37.69509],[-122.22368,37.71642],[-122.20648,37.72716],[-122.16933,37.76786],[-122.12784,37.81333],[-122.09875,37.84485],[-122.06171,37.88403],[-122.0169,37.91506],[-121.97844,37.94092],[-121.93368,37.97109],[-121.87379,38.01155],[-121.82052,38.04727],[-121.79683,38.06329],[-121.72866,38.10931],[-121.68904,38.13602],[-121.65863,38.15641],[-121.59049,38.20211],[-121.53014,38.24249],[-121.50667,38.25812],[-121.45243,38.29429],[-121.35769,38.35691],[-121.32293,38.37804],[-121.28252,38.40256]]}
}
