{
  "id": 2048475671,
  "type": "Feature",
  "properties": {
    "geom:area": 0,
    "geom:bbox": "-122.349980,37.415100,-121.293460,37.610370",
    "geom:latitude": 37.53136753837679,
    "geom:longitude": -121.83262916236758,
    "src:alt_label": "swim-approach",
    "src:geom": "swim",
    "swim:elevations": [
      4378,
      4286,
      3796,
      3546,
      3272,
      3144,
      3020,
      2938,
      2571,
      2499,
      2355,
      2288,
      2133,
      2134,
      2134,
      2010,
      1829,
      1829,
      1829,
      1829,
      1829,
      1679,
      1461,
      1307,
      1256,
      945,
      599,
      576,
      306,
      68
    ],
    "swim:geom": "approach",
    "swim:timestamps": [
      1790766417,
      1790766427,
      1790766479,
      1790766505,
      1790766535,
      1790766559,
      1790766598,
      1790766609,
      1790766659,
      1790766679,
      1790766711,
      1790766725,
      1790766777,
      1790766792,
      1790766810,
      1790766842,
      1790766898,
      1790766902,
      1790766946,
      1790766963,
      1790766998,
      1790767021,
      1790767046,
      1790767076,
      1790767089,
      1790767125,
      1790767167,
      1790767171,
      1790767226,
      1790767286
    ],
    "wof:geomhash": "a07046da71b4121e4fc7763e67353667",
    "wof:id": 2048475671,
    "wof:repo": "sfomuseum-data-flights-2026-09"
  },
  "bbox": [
    -122.34998,
    37.4151,
    -121.29346,
    37.61037
  ],
  "geometry": {"type":"LineString","coordinates":[[-121.29346,37.58882],[-121.31247,37.58684],[-121.4165,37.57515],[-121.46889,37.56904],[-121.52666,37.56224],[-121.57191,37.55696],[-121.63936,37.54728],[-121.65698,37.54298],[-121.73626,37.52417],[-121.76944,37.51615],[-121.82049,37.50399],[-121.84114,37.49717],[-121.87434,37.4406],[-121.88202,37.42561],[-121.8999,37.4151],[-121.93812,37.4165],[-121.96914,37.45905],[-121.97067,37.46236],[-121.99441,37.496],[-122.01311,37.50262],[-122.05132,37.51526],[-122.07977,37.5246],[-122.11139,37.53473],[-122.14757,37.54641],[-122.16185,37.55093],[-122.2002,37.56352],[-122.2428,37.57717],[-122.24671,37.57834],[-122.29915,37.59411],[-122.34998,37.61037]]}
}
