{
  "id": 2048275849,
  "type": "Feature",
  "properties": {
    "geom:area": 0,
    "geom:bbox": "-122.355920,36.727030,-121.882540,37.610660",
    "geom:latitude": 37.21139523049367,
    "geom:longitude": -122.0700397537763,
    "src:alt_label": "swim-approach",
    "src:geom": "swim",
    "swim:elevations": [
      5428,
      5398,
      5095,
      4636,
      4461,
      4107,
      3909,
      3642,
      3407,
      3158,
      3128,
      2939,
      2874,
      2558,
      2349,
      2322,
      2090,
      2061,
      1588,
      1317,
      942,
      792,
      792,
      792,
      612,
      427,
      280,
      213,
      41,
      29
    ],
    "swim:geom": "approach",
    "swim:timestamps": [
      1788778616,
      1788778620,
      1788778658,
      1788778692,
      1788778711,
      1788778750,
      1788778771,
      1788778800,
      1788778825,
      1788778858,
      1788778866,
      1788778914,
      1788778923,
      1788778969,
      1788779006,
      1788779010,
      1788779068,
      1788779072,
      1788779122,
      1788779147,
      1788779187,
      1788779217,
      1788779246,
      1788779250,
      1788779296,
      1788779333,
      1788779368,
      1788779383,
      1788779428,
      1788779432
    ],
    "wof:geomhash": "c8535a0e97ffa96943d867e1314c18c1",
    "wof:id": 2048275849,
    "wof:repo": "sfomuseum-data-flights-2026-09"
  },
  "bbox": [
    -122.35592,
    36.72703,
    -121.88254,
    37.61066
  ],
  "geometry": {"type":"LineString","coordinates":[[-121.88254,36.72703],[-121.88567,36.73137],[-121.9072,36.78835],[-121.9219,36.84073],[-121.93052,36.87183],[-121.94744,36.93222],[-121.95839,36.96532],[-121.97579,37.01023],[-121.99035,37.04778],[-122.00915,37.09579],[-122.01359,37.10711],[-122.03888,37.17187],[-122.04371,37.18419],[-122.0669,37.24303],[-122.08515,37.28956],[-122.08703,37.29441],[-122.11289,37.36],[-122.11459,37.36421],[-122.13315,37.41687],[-122.14198,37.44269],[-122.15659,37.48479],[-122.17065,37.51292],[-122.19187,37.53484],[-122.19457,37.53771],[-122.23747,37.56072],[-122.2735,37.57605],[-122.30313,37.58851],[-122.31531,37.59375],[-122.35271,37.60931],[-122.35592,37.61066]]}
}
