{
  "id": 2048429353,
  "type": "Feature",
  "properties": {
    "geom:area": 0,
    "geom:bbox": "-122.345278,37.494722,-76.173056,44.436667",
    "geom:latitude": 41.726720133895114,
    "geom:longitude": -99.34866227892627,
    "src:alt_label": "swim-path",
    "src:geom": "swim",
    "swim:altitudes": [
      "023",
      "040",
      "040",
      "068",
      "072",
      "094",
      "100",
      "113",
      "114",
      "123",
      "126",
      "144",
      "147",
      "166",
      "168",
      "182",
      "185",
      "198",
      "201",
      "213",
      "217",
      "229",
      "240",
      "253",
      "267",
      "280",
      "340C",
      "340C",
      "340C",
      "340C",
      "340C",
      "340C",
      "340C",
      "340C",
      "340C",
      "340C",
      "340C",
      "340C",
      "340C",
      "340C",
      "340C",
      "340C",
      "341C",
      "340C",
      "340C",
      "340C",
      "340C",
      "340C",
      "340C",
      "340C",
      "340C",
      "340C",
      "341C",
      "340C",
      "340C",
      "340C",
      "340C",
      "340C",
      "340C",
      "340C",
      "340C",
      "340C",
      "340C",
      "341C",
      "341C",
      "340C",
      "340C",
      "340C",
      "340C",
      "340C",
      "340C",
      "340C",
      "340C",
      "340C",
      "340C",
      "340C",
      "340C",
      "340C",
      "340C",
      "340C",
      "340C",
      "340C",
      "340C",
      "340C",
      "340C",
      "340C",
      "340C",
      "340C",
      "340C",
      "340C",
      "340C",
      "340C",
      "340C",
      "340C",
      "340C",
      "340C",
      "340C",
      "340C",
      "340C",
      "340C",
      "340C",
      "341C",
      "340C",
      "340C",
      "340C",
      "340C",
      "340C",
      "340C",
      "340C",
      "340C",
      "340C",
      "340C",
      "340C",
      "340C",
      "340C",
      "340C",
      "340C",
      "340C",
      "340C",
      "340C",
      "340C",
      "340C",
      "340C",
      "340C",
      "340C",
      "340C",
      "340C",
      "340C",
      "340C",
      "340C",
      "340C",
      "340C",
      "340C",
      "340C",
      "340C",
      "340C",
      "340C",
      "340C",
      "340C",
      "340C",
      "340C",
      "340C",
      "340C",
      "340C",
      "340C",
      "340C",
      "340C",
      "340C",
      "340C",
      "340C",
      "340C",
      "340C",
      "340C",
      "340C",
      "340C",
      "340C",
      "340C",
      "340C",
      "340C",
      "340C",
      "341",
      "347",
      "352",
      "357",
      "363",
      "375",
      "380C",
      "380C",
      "380C",
      "380C",
      "380C",
      "380C",
      "380C",
      "380C",
      "380C",
      "380C",
      "380C",
      "380C",
      "380C",
      "380C",
      "380C",
      "380C",
      "380C",
      "380C",
      "380C",
      "380C",
      "380C",
      "380C",
      "379C",
      "380C",
      "379C",
      "380C",
      "380C",
      "380C",
      "380C",
      "380C",
      "380C",
      "380C",
      "380C",
      "379C",
      "380C",
      "380C",
      "380C",
      "380C",
      "380C",
      "380C",
      "380C",
      "380C",
      "380C",
      "379C",
      "380C",
      "380C",
      "380C",
      "381C",
      "380C",
      "380C",
      "380C",
      "380C",
      "380C",
      "380C",
      "380C",
      "380C",
      "380C",
      "380C",
      "380C",
      "380C",
      "380C",
      "381C",
      "381C",
      "380C",
      "380C",
      "380C",
      "380C",
      "381C",
      "380C",
      "380C",
      "380C",
      "381C",
      "380C",
      "380C",
      "381C",
      "381C",
      "380C",
      "380C",
      "380C",
      "380C",
      "380C",
      "380C",
      "380C",
      "380C",
      "380C",
      "380C",
      "380C",
      "380C",
      "380C",
      "380C",
      "380C",
      "380C",
      "380C",
      "380C",
      "381C",
      "380C",
      "380C",
      "380C",
      "380C",
      "380C",
      "380C",
      "380C",
      "380C",
      "380C",
      "380C",
      "380C",
      "380C",
      "380C",
      "380C",
      "380C",
      "380C",
      "380C",
      "380C",
      "380C",
      "380C",
      "380C",
      "380C",
      "380C",
      "380C",
      "380C",
      "380C",
      "380C",
      "380C",
      "380C",
      "380C",
      "380C",
      "380C",
      "380C",
      "380C",
      "381C",
      "380C",
      "380C",
      "380C",
      "380C",
      "380C",
      "380C",
      "380C",
      "381C",
      "380C",
      "380C",
      "380C",
      "380C",
      "380C",
      "380C",
      "380C",
      "380C",
      "380C",
      "380C",
      "380C",
      "380C",
      "381C",
      "380C",
      "380C",
      "380C",
      "380C",
      "380C",
      "380C",
      "380C",
      "380C",
      "380C",
      "380C",
      "380C",
      "380C",
      "380C",
      "380C",
      "380C",
      "380C",
      "380C",
      "380C",
      "380C",
      "380C",
      "380C",
      "380C",
      "380C",
      "380C",
      "380C",
      "380C",
      "380C",
      "380C",
      "380C",
      "380C",
      "380C",
      "380C",
      "380C",
      "380C",
      "380C",
      "380C",
      "380C",
      "380C",
      "380C",
      "380C",
      "380C",
      "380C",
      "380C",
      "380C",
      "380C",
      "380C",
      "380C",
      "380C",
      "380C",
      "380C",
      "380C",
      "380C",
      "380C",
      "380C",
      "380C",
      "380C",
      "380C",
      "380C",
      "380C",
      "380C",
      "380C",
      "380C",
      "380C",
      "380C",
      "380C",
      "380C",
      "380C",
      "380C",
      "380C",
      "380C",
      "380",
      "374",
      "365",
      "356",
      "345",
      "313",
      "300",
      "273",
      "267",
      "258",
      "253",
      "239",
      "230",
      "215",
      "207",
      "184",
      "169",
      "162",
      "147",
      "141",
      "127",
      "120",
      "110",
      "108",
      "097",
      "093",
      "083",
      "081",
      "072",
      "070",
      "063",
      "060",
      "053",
      "049",
      "040",
      "038",
      "032",
      "031",
      "025",
      "023",
      "016",
      "014",
      "009",
      "008",
      "003"
    ],
    "swim:geom": "path",
    "swim:speeds": [
      191,
      277,
      276,
      276,
      279,
      294,
      294,
      340,
      353,
      400,
      407,
      417,
      421,
      428,
      432,
      440,
      441,
      449,
      451,
      459,
      460,
      466,
      473,
      477,
      476,
      476,
      464,
      461,
      463,
      464,
      464,
      463,
      463,
      462,
      461,
      461,
      460,
      460,
      460,
      466,
      468,
      469,
      470,
      469,
      469,
      469,
      468,
      467,
      467,
      466,
      467,
      467,
      467,
      467,
      467,
      466,
      465,
      464,
      464,
      463,
      462,
      461,
      462,
      461,
      460,
      459,
      458,
      456,
      454,
      450,
      448,
      445,
      443,
      441,
      440,
      439,
      438,
      437,
      437,
      436,
      436,
      435,
      434,
      433,
      432,
      429,
      428,
      427,
      426,
      425,
      425,
      424,
      424,
      424,
      424,
      424,
      425,
      425,
      426,
      426,
      427,
      427,
      427,
      427,
      427,
      427,
      427,
      427,
      427,
      427,
      426,
      426,
      425,
      425,
      425,
      425,
      425,
      425,
      425,
      425,
      425,
      424,
      424,
      423,
      423,
      423,
      423,
      423,
      423,
      424,
      424,
      425,
      425,
      425,
      425,
      424,
      424,
      423,
      423,
      423,
      423,
      423,
      423,
      423,
      423,
      423,
      424,
      425,
      425,
      426,
      427,
      428,
      429,
      431,
      431,
      432,
      433,
      433,
      433,
      433,
      433,
      432,
      432,
      431,
      431,
      420,
      416,
      415,
      415,
      414,
      414,
      415,
      416,
      418,
      420,
      421,
      421,
      420,
      420,
      419,
      418,
      418,
      417,
      417,
      416,
      415,
      413,
      412,
      377,
      412,
      411,
      413,
      414,
      414,
      414,
      414,
      414,
      413,
      412,
      412,
      412,
      411,
      411,
      412,
      412,
      413,
      415,
      414,
      417,
      422,
      420,
      426,
      421,
      429,
      429,
      425,
      427,
      423,
      427,
      424,
      428,
      425,
      430,
      427,
      430,
      432,
      433,
      434,
      432,
      428,
      425,
      424,
      425,
      427,
      425,
      432,
      428,
      432,
      433,
      433,
      426,
      430,
      426,
      428,
      422,
      425,
      424,
      425,
      425,
      426,
      425,
      425,
      424,
      422,
      420,
      419,
      420,
      421,
      423,
      427,
      428,
      419,
      416,
      417,
      419,
      416,
      427,
      431,
      429,
      421,
      427,
      421,
      421,
      420,
      422,
      422,
      421,
      422,
      419,
      418,
      417,
      416,
      415,
      414,
      415,
      415,
      416,
      416,
      416,
      416,
      415,
      414,
      414,
      414,
      415,
      417,
      419,
      419,
      419,
      419,
      420,
      421,
      423,
      425,
      425,
      423,
      422,
      420,
      419,
      416,
      415,
      414,
      415,
      415,
      416,
      418,
      419,
      418,
      417,
      417,
      418,
      420,
      420,
      420,
      419,
      419,
      422,
      422,
      422,
      423,
      421,
      423,
      422,
      424,
      422,
      424,
      422,
      423,
      422,
      422,
      422,
      422,
      422,
      422,
      422,
      421,
      421,
      421,
      420,
      420,
      419,
      419,
      418,
      418,
      418,
      417,
      417,
      417,
      417,
      417,
      418,
      418,
      419,
      419,
      419,
      420,
      420,
      420,
      420,
      419,
      419,
      421,
      421,
      422,
      422,
      425,
      425,
      428,
      428,
      430,
      431,
      431,
      431,
      421,
      414,
      419,
      422,
      425,
      425,
      424,
      421,
      421,
      424,
      432,
      435,
      432,
      395,
      383,
      373,
      368,
      369,
      363,
      355,
      354,
      346,
      346,
      339,
      339,
      331,
      322,
      306,
      287,
      280,
      276,
      260,
      251,
      246,
      232,
      225,
      227,
      221,
      224,
      220,
      200,
      187,
      189,
      184,
      156,
      128,
      127,
      123,
      125
    ],
    "swim:timestamps": [
      1790393891,
      1790393951,
      1790393960,
      1790394009,
      1790394020,
      1790394070,
      1790394080,
      1790394130,
      1790394141,
      1790394190,
      1790394201,
      1790394250,
      1790394261,
      1790394307,
      1790394321,
      1790394367,
      1790394381,
      1790394427,
      1790394441,
      1790394487,
      1790394501,
      1790394547,
      1790394607,
      1790394667,
      1790394727,
      1790394787,
      1790395797,
      1790395857,
      1790395917,
      1790395977,
      1790396037,
      1790396097,
      1790396157,
      1790396217,
      1790396277,
      1790396337,
      1790396397,
      1790396457,
      1790396517,
      1790396577,
      1790396637,
      1790396675,
      1790396697,
      1790396736,
      1790396757,
      1790396795,
      1790396817,
      1790396854,
      1790396877,
      1790396914,
      1790396937,
      1790396975,
      1790396997,
      1790397035,
      1790397058,
      1790397095,
      1790397118,
      1790397155,
      1790397178,
      1790397216,
      1790397238,
      1790397276,
      1790397298,
      1790397336,
      1790397358,
      1790397396,
      1790397418,
      1790397454,
      1790397478,
      1790397514,
      1790397538,
      1790397574,
      1790397598,
      1790397636,
      1790397658,
      1790397697,
      1790397718,
      1790397757,
      1790397778,
      1790397817,
      1790397838,
      1790397876,
      1790397898,
      1790397934,
      1790397958,
      1790397994,
      1790398018,
      1790398055,
      1790398078,
      1790398116,
      1790398138,
      1790398177,
      1790398198,
      1790398235,
      1790398258,
      1790398296,
      1790398318,
      1790398356,
      1790398378,
      1790398415,
      1790398438,
      1790398476,
      1790398498,
      1790398534,
      1790398559,
      1790398597,
      1790398619,
      1790398655,
      1790398679,
      1790398715,
      1790398739,
      1790398774,
      1790398799,
      1790398836,
      1790398859,
      1790398896,
      1790398919,
      1790398957,
      1790398979,
      1790399016,
      1790399039,
      1790399076,
      1790399099,
      1790399135,
      1790399159,
      1790399195,
      1790399219,
      1790399257,
      1790399279,
      1790399316,
      1790399339,
      1790399377,
      1790399399,
      1790399435,
      1790399459,
      1790399498,
      1790399519,
      1790399555,
      1790399579,
      1790399616,
      1790399639,
      1790399675,
      1790399699,
      1790399735,
      1790399759,
      1790399795,
      1790399819,
      1790399856,
      1790399879,
      1790399915,
      1790399939,
      1790399975,
      1790399999,
      1790400035,
      1790400059,
      1790400097,
      1790400119,
      1790400156,
      1790400179,
      1790400215,
      1790400239,
      1790400278,
      1790400299,
      1790400338,
      1790400359,
      1790400419,
      1790400480,
      1790400540,
      1790400600,
      1790400660,
      1790400720,
      1790400780,
      1790400840,
      1790400900,
      1790400960,
      1790401020,
      1790401080,
      1790401140,
      1790401200,
      1790401260,
      1790401320,
      1790401380,
      1790401440,
      1790401500,
      1790401560,
      1790401620,
      1790401680,
      1790401740,
      1790401790,
      1790401800,
      1790401850,
      1790401860,
      1790401920,
      1790401970,
      1790401980,
      1790402030,
      1790402040,
      1790402090,
      1790402150,
      1790402160,
      1790402210,
      1790402220,
      1790402270,
      1790402330,
      1790402340,
      1790402390,
      1790402396,
      1790402456,
      1790402510,
      1790402570,
      1790402576,
      1790402630,
      1790402636,
      1790402690,
      1790402750,
      1790402756,
      1790402810,
      1790402816,
      1790402870,
      1790402876,
      1790402930,
      1790402936,
      1790402990,
      1790402996,
      1790403056,
      1790403111,
      1790403171,
      1790403231,
      1790403291,
      1790403351,
      1790403411,
      1790403471,
      1790403531,
      1790403591,
      1790403657,
      1790403711,
      1790403717,
      1790403777,
      1790403837,
      1790403897,
      1790403951,
      1790403957,
      1790404011,
      1790404077,
      1790404131,
      1790404137,
      1790404191,
      1790404251,
      1790404257,
      1790404311,
      1790404317,
      1790404371,
      1790404432,
      1790404492,
      1790404552,
      1790404612,
      1790404672,
      1790404732,
      1790404792,
      1790404852,
      1790404918,
      1790404972,
      1790405032,
      1790405038,
      1790405092,
      1790405098,
      1790405152,
      1790405212,
      1790405218,
      1790405272,
      1790405278,
      1790405332,
      1790405392,
      1790405398,
      1790405452,
      1790405458,
      1790405512,
      1790405578,
      1790405632,
      1790405638,
      1790405698,
      1790405758,
      1790405813,
      1790405873,
      1790405933,
      1790405993,
      1790406053,
      1790406113,
      1790406173,
      1790406179,
      1790406239,
      1790406299,
      1790406353,
      1790406359,
      1790406413,
      1790406473,
      1790406533,
      1790406539,
      1790406593,
      1790406599,
      1790406659,
      1790406719,
      1790406779,
      1790406839,
      1790406899,
      1790406959,
      1790407019,
      1790407079,
      1790407139,
      1790407199,
      1790407259,
      1790407319,
      1790407379,
      1790407439,
      1790407499,
      1790407560,
      1790407620,
      1790407680,
      1790407740,
      1790407800,
      1790407860,
      1790407920,
      1790407980,
      1790408040,
      1790408100,
      1790408340,
      1790408580,
      1790408640,
      1790408700,
      1790408760,
      1790408806,
      1790408820,
      1790408867,
      1790408880,
      1790408927,
      1790408940,
      1790408987,
      1790409001,
      1790409047,
      1790409061,
      1790409107,
      1790409121,
      1790409167,
      1790409181,
      1790409227,
      1790409241,
      1790409287,
      1790409301,
      1790409347,
      1790409361,
      1790409407,
      1790409421,
      1790409467,
      1790409481,
      1790409527,
      1790409541,
      1790409587,
      1790409601,
      1790409647,
      1790409661,
      1790409707,
      1790409721,
      1790409767,
      1790409781,
      1790409841,
      1790409887,
      1790409901,
      1790409947,
      1790409961,
      1790410007,
      1790410021,
      1790410067,
      1790410081,
      1790410127,
      1790410141,
      1790410187,
      1790410201,
      1790410247,
      1790410261,
      1790410307,
      1790410367,
      1790410427,
      1790410487,
      1790410547,
      1790410607,
      1790410667,
      1790410727,
      1790410787,
      1790410847,
      1790410907,
      1790410967,
      1790411027,
      1790411087,
      1790411101,
      1790411147,
      1790411161,
      1790411207,
      1790411221,
      1790411267,
      1790411281,
      1790411327,
      1790411341,
      1790411401,
      1790411447,
      1790411461,
      1790411507,
      1790411521,
      1790411568,
      1790411581,
      1790411628,
      1790411641,
      1790411688,
      1790411701,
      1790411748,
      1790411761,
      1790411808,
      1790411821,
      1790411868,
      1790411881,
      1790411928,
      1790411941,
      1790411988,
      1790412001,
      1790412048,
      1790412061,
      1790412108,
      1790412121,
      1790412168,
      1790412181,
      1790412228,
      1790412241,
      1790412288
    ],
    "wof:geomhash": "55eeb661722c89ee9f1b71f10e8838d8",
    "wof:id": 2048429353,
    "wof:repo": "sfomuseum-data-flights-2026-09"
  },
  "bbox": [
    -122.34527777777777,
    37.49472222222222,
    -76.17305555555556,
    44.43666666666666
  ],
  "geometry": {"type":"LineString","coordinates":[[-76.17305555555556,43.11361111111111],[-76.26444444444445,43.13444444444444],[-76.26305555555555,43.134166666666665],[-76.34388888888888,43.150555555555556],[-76.36305555555555,43.154444444444444],[-76.45055555555555,43.17305555555555],[-76.47194444444445,43.177499999999995],[-76.56861111111111,43.198055555555555],[-76.59305555555555,43.20305555555556],[-76.7063888888889,43.22666666666667],[-76.7363888888889,43.23305555555556],[-76.8611111111111,43.25861111111111],[-76.88972222222223,43.26444444444444],[-77.01916666666666,43.29083333333333],[-77.0475,43.29666666666667],[-77.18055555555556,43.32055555555556],[-77.21111111111111,43.325],[-77.34944444444444,43.34583333333334],[-77.38,43.35027777777778],[-77.52083333333333,43.37083333333334],[-77.55222222222221,43.37555555555556],[-77.71611111111112,43.399166666666666],[-77.89583333333334,43.425],[-78.07277777777777,43.45],[-78.24944444444445,43.474722222222226],[-78.42833333333334,43.49944444444444],[-81.30305555555556,44.02777777777778],[-81.48277777777778,44.065555555555555],[-81.655,44.10166666666667],[-81.82583333333334,44.13722222222222],[-81.99777777777778,44.172777777777775],[-82.16972222222223,44.20777777777778],[-82.34083333333332,44.2425],[-82.51305555555555,44.27722222222222],[-82.68333333333334,44.31111111111111],[-82.8561111111111,44.345],[-83.03,44.37916666666667],[-83.19888888888889,44.41166666666666],[-83.37583333333333,44.43666666666666],[-83.55694444444444,44.43277777777777],[-83.73611111111111,44.413888888888884],[-83.83944444444444,44.403055555555554],[-83.91861111111112,44.39472222222222],[-84.02,44.38388888888889],[-84.09666666666666,44.37555555555556],[-84.20055555555555,44.36416666666667],[-84.27527777777777,44.35611111111111],[-84.38,44.34444444444445],[-84.45583333333333,44.336111111111116],[-84.55694444444444,44.32472222222223],[-84.63472222222222,44.31583333333333],[-84.73611111111111,44.30444444444444],[-84.81277777777777,44.29555555555555],[-84.91583333333334,44.28361111111111],[-84.98972222222223,44.275277777777774],[-85.09083333333332,44.263333333333335],[-85.16694444444445,44.254444444444445],[-85.26888888888888,44.242222222222225],[-85.34527777777777,44.23305555555556],[-85.44527777777778,44.221111111111114],[-85.52111111111111,44.21194444444445],[-85.62222222222222,44.19972222222222],[-85.69805555555556,44.19027777777777],[-85.79833333333333,44.17777777777778],[-85.87638888888888,44.16833333333333],[-85.97361111111111,44.15611111111111],[-86.04555555555555,44.14694444444444],[-86.14611111111111,44.134166666666665],[-86.22,44.125],[-86.31527777777778,44.11277777777778],[-86.38222222222221,44.10416666666667],[-86.4825,44.09111111111111],[-86.54972222222221,44.08222222222223],[-86.64833333333334,44.06944444444445],[-86.71416666666667,44.06055555555555],[-86.81333333333333,44.0475],[-86.88,44.038333333333334],[-86.97583333333334,44.025555555555556],[-87.0436111111111,44.01638888888889],[-87.14222222222223,44.003055555555555],[-87.20833333333334,43.99388888888889],[-87.30444444444444,43.98083333333334],[-87.37388888888889,43.971111111111114],[-87.46861111111112,43.95805555555556],[-87.53527777777778,43.948611111111106],[-87.62694444444443,43.93583333333333],[-87.69555555555556,43.92611111111111],[-87.78583333333333,43.913333333333334],[-87.85472222222222,43.90361111111111],[-87.94555555555556,43.89055555555556],[-88.01444444444445,43.88055555555555],[-88.10388888888889,43.8675],[-88.17305555555556,43.8575],[-88.26444444444445,43.84444444444445],[-88.33138888888888,43.83444444444444],[-88.42305555555556,43.82083333333334],[-88.49,43.81083333333333],[-88.58083333333333,43.79722222222222],[-88.64777777777779,43.78722222222222],[-88.73833333333333,43.77333333333333],[-88.80777777777777,43.76277777777778],[-88.89861111111112,43.74916666666667],[-88.96555555555555,43.73888888888889],[-89.0586111111111,43.724444444444444],[-89.12444444444444,43.714444444444446],[-89.21583333333334,43.7],[-89.28611111111111,43.689166666666665],[-89.3761111111111,43.675],[-89.44416666666667,43.66416666666667],[-89.53444444444445,43.65],[-89.6036111111111,43.638888888888886],[-89.69416666666667,43.62444444444444],[-89.76166666666667,43.61361111111111],[-89.85138888888888,43.59916666666667],[-89.91972222222223,43.588055555555556],[-90.00916666666667,43.57333333333334],[-90.0775,43.56194444444444],[-90.16722222222222,43.5475],[-90.25722222222223,43.5325],[-90.35222222222221,43.516666666666666],[-90.41472222222222,43.506388888888885],[-90.50861111111111,43.49055555555556],[-90.57138888888889,43.480000000000004],[-90.66666666666667,43.46388888888889],[-90.72888888888889,43.45333333333333],[-90.82222222222222,43.43722222222222],[-90.88472222222222,43.42638888888889],[-90.9775,43.410555555555554],[-91.04305555555555,43.399166666666666],[-91.13666666666667,43.38305555555556],[-91.20027777777779,43.37166666666667],[-91.2925,43.355555555555554],[-91.35527777777777,43.34444444444445],[-91.44916666666667,43.32805555555556],[-91.51361111111112,43.31666666666667],[-91.60305555555556,43.300555555555555],[-91.66805555555555,43.288888888888884],[-91.76055555555556,43.27222222222222],[-91.82277777777777,43.26083333333333],[-91.91388888888889,43.24444444444445],[-91.97694444444444,43.23277777777778],[-92.07,43.215833333333336],[-92.13194444444444,43.20444444444445],[-92.22277777777778,43.1875],[-92.28583333333333,43.17583333333333],[-92.37944444444443,43.15833333333333],[-92.44416666666667,43.146388888888886],[-92.53527777777778,43.129444444444445],[-92.59861111111111,43.1175],[-92.69277777777778,43.099444444444444],[-92.75583333333333,43.087500000000006],[-92.84972222222221,43.069722222222225],[-92.91361111111112,43.0575],[-93.01,43.038888888888884],[-93.07305555555556,43.026666666666664],[-93.1675,43.00833333333333],[-93.23138888888889,42.99611111111111],[-93.32666666666667,42.977222222222224],[-93.39083333333333,42.96472222222223],[-93.48444444444445,42.94638888888888],[-93.54777777777778,42.93388888888889],[-93.64277777777778,42.91583333333333],[-93.70666666666666,42.90861111111111],[-93.8025,42.90083333333333],[-93.86638888888888,42.89555555555555],[-94.02527777777777,42.8825],[-94.18194444444445,42.869166666666665],[-94.33527777777778,42.85611111111111],[-94.49222222222222,42.8425],[-94.65333333333334,42.82833333333333],[-94.80722222222222,42.81444444444444],[-94.96361111111112,42.8],[-95.11972222222222,42.78583333333333],[-95.27972222222222,42.77055555555555],[-95.43694444444445,42.75555555555555],[-95.59388888888888,42.74055555555556],[-95.75166666666667,42.725],[-95.88972222222223,42.711111111111116],[-96.0436111111111,42.69555555555555],[-96.20138888888889,42.67944444444444],[-96.35527777777777,42.66361111111111],[-96.51222222222222,42.64722222222222],[-96.66527777777779,42.630833333333335],[-96.81777777777778,42.60861111111111],[-96.9713888888889,42.58444444444444],[-97.15527777777778,42.55583333333333],[-97.30277777777778,42.525277777777774],[-97.45277777777778,42.50277777777778],[-97.56166666666667,42.489444444444445],[-97.60638888888889,42.48527777777778],[-97.71722222222222,42.47277777777778],[-97.75916666666667,42.467777777777776],[-97.90472222222223,42.450833333333335],[-98.03,42.43611111111111],[-98.05805555555555,42.43277777777777],[-98.18166666666667,42.418055555555554],[-98.2088888888889,42.414722222222224],[-98.335,42.39972222222222],[-98.48583333333333,42.38138888888889],[-98.5125,42.378055555555555],[-98.63833333333334,42.362500000000004],[-98.66527777777779,42.35916666666667],[-98.78611111111111,42.344166666666666],[-98.93666666666667,42.32527777777778],[-98.97083333333333,42.32083333333334],[-99.09166666666667,42.30555555555555],[-99.11388888888888,42.30222222222222],[-99.26666666666667,42.282777777777774],[-99.39750000000001,42.26611111111111],[-99.55416666666666,42.245555555555555],[-99.58472222222221,42.24194444444444],[-99.71388888888889,42.224444444444444],[-99.74111111111111,42.22083333333334],[-99.86722222222221,42.20388888888889],[-100.025,42.18277777777777],[-100.05805555555555,42.17833333333333],[-100.18055555555556,42.16138888888889],[-100.19416666666667,42.15833333333333],[-100.33833333333332,42.13916666666667],[-100.35166666666666,42.13638888888889],[-100.49444444444444,42.1175],[-100.50861111111111,42.11416666666667],[-100.65361111111112,42.094722222222224],[-100.66722222222222,42.0925],[-100.8261111111111,42.06888888888889],[-100.97055555555556,42.04944444444444],[-101.12805555555555,42.02638888888889],[-101.28527777777778,42.00333333333333],[-101.44361111111111,41.97972222222222],[-101.59722222222221,41.95666666666667],[-101.74972222222222,41.933611111111105],[-101.90416666666667,41.91],[-102.08972222222222,41.88111111111111],[-102.24666666666667,41.85638888888889],[-102.39166666666668,41.83361111111111],[-102.55305555555556,41.808055555555555],[-102.54944444444445,41.80833333333333],[-102.70916666666668,41.78333333333333],[-102.86638888888888,41.7575],[-103.02027777777778,41.731388888888894],[-103.1738888888889,41.70666666666667],[-103.17333333333333,41.70527777777778],[-103.32916666666667,41.68083333333333],[-103.48083333333334,41.65472222222222],[-103.63527777777779,41.62916666666667],[-103.63388888888889,41.628055555555555],[-103.78805555555556,41.60277777777778],[-103.94333333333334,41.57611111111112],[-103.94305555555556,41.57472222222223],[-104.09805555555555,41.549166666666665],[-104.09833333333333,41.5475],[-104.25166666666667,41.52222222222222],[-104.40527777777778,41.495],[-104.55472222222222,41.468333333333334],[-104.70611111111111,41.441111111111105],[-104.85749999999999,41.41361111111111],[-105.00833333333334,41.38611111111111],[-105.15916666666668,41.358333333333334],[-105.31166666666667,41.330000000000005],[-105.46694444444445,41.30083333333333],[-105.61444444444444,41.2725],[-105.77111111111111,41.24333333333333],[-105.92027777777778,41.21472222222223],[-105.91250000000001,41.21472222222223],[-106.06972222222223,41.18583333333333],[-106.06222222222222,41.186388888888885],[-106.21666666666667,41.157222222222224],[-106.36916666666666,41.12722222222222],[-106.36999999999999,41.12555555555556],[-106.52027777777778,41.097500000000004],[-106.52027777777778,41.09666666666667],[-106.66861111111112,41.06777777777778],[-106.81944444444444,41.03777777777778],[-106.81861111111111,41.03583333333333],[-106.97583333333334,41.00611111111111],[-106.99305555555556,41.0025],[-107.12555555555555,40.97555555555556],[-107.26805555555555,40.94638888888888],[-107.41527777777779,40.91583333333333],[-107.41277777777778,40.91638888888889],[-107.56361111111111,40.88527777777778],[-107.70944444444444,40.85472222222222],[-107.85388888888889,40.82416666666667],[-108.00083333333333,40.79277777777778],[-108.14611111111111,40.761944444444445],[-108.28999999999999,40.73083333333334],[-108.43722222222223,40.69888888888889],[-108.58277777777778,40.66722222222222],[-108.72833333333334,40.63527777777778],[-108.73333333333333,40.634166666666665],[-108.88,40.60166666666667],[-109.01888888888888,40.57083333333334],[-109.1613888888889,40.538888888888884],[-109.16111111111111,40.538888888888884],[-109.30694444444444,40.50611111111111],[-109.4525,40.473055555555554],[-109.59833333333333,40.439722222222215],[-109.62777777777777,40.433055555555555],[-109.74388888888889,40.40611111111111],[-109.77333333333333,40.39944444444444],[-109.92,40.36555555555556],[-110.06638888888888,40.331388888888895],[-110.21416666666667,40.29666666666667],[-110.36194444444443,40.26166666666666],[-110.50861111111111,40.22694444444445],[-110.65472222222223,40.19222222222222],[-110.79944444444445,40.157222222222224],[-110.94444444444444,40.121944444444445],[-111.07555555555555,40.09],[-111.22,40.05444444444444],[-111.37138888888889,40.01722222222222],[-111.51416666666667,39.981944444444444],[-111.6563888888889,39.94638888888888],[-111.79027777777777,39.91277777777778],[-111.935,39.876111111111115],[-112.07888888888888,39.839444444444446],[-112.22416666666666,39.802499999999995],[-112.36722222222221,39.76555555555556],[-112.50888888888889,39.72916666666667],[-112.65083333333334,39.69222222222222],[-112.80333333333333,39.65222222222222],[-112.94611111111111,39.61472222222223],[-113.08972222222222,39.57666666666667],[-113.23111111111112,39.53916666666667],[-113.37388888888889,39.50083333333333],[-113.9375,39.34805555555556],[-114.50333333333333,39.19083333333333],[-114.64916666666667,39.15],[-114.78916666666666,39.11055555555556],[-114.93,39.07027777777778],[-115.04444444444444,39.03666666666666],[-115.07194444444444,39.02972222222222],[-115.1875,38.996944444444445],[-115.21666666666667,38.988055555555555],[-115.30111111111111,38.96361111111111],[-115.35555555555555,38.948055555555555],[-115.44277777777778,38.922777777777775],[-115.50583333333333,38.904444444444444],[-115.58277777777778,38.882777777777775],[-115.64777777777779,38.863055555555555],[-115.7238888888889,38.840833333333336],[-115.78694444444444,38.82194444444445],[-115.8736111111111,38.796388888888885],[-115.90027777777779,38.78861111111111],[-116.01416666666667,38.75472222222222],[-116.04027777777777,38.746944444444445],[-116.15472222222223,38.71277777777778],[-116.18111111111112,38.705000000000005],[-116.29138888888889,38.67194444444444],[-116.31861111111111,38.663888888888884],[-116.43138888888889,38.63],[-116.45777777777778,38.621944444444445],[-116.56944444444444,38.588055555555556],[-116.59388888888888,38.58083333333334],[-116.70694444444445,38.546388888888885],[-116.73361111111112,38.538333333333334],[-116.84416666666667,38.504444444444445],[-116.89611111111111,38.48861111111111],[-116.98194444444445,38.46222222222222],[-117.035,38.44583333333333],[-117.11666666666666,38.420833333333334],[-117.17111111111112,38.403888888888886],[-117.25305555555556,38.37833333333333],[-117.30833333333334,38.361111111111114],[-117.44388888888889,38.31888888888889],[-117.55388888888889,38.28444444444444],[-117.57944444444443,38.27638888888889],[-117.69027777777778,38.24138888888889],[-117.71666666666667,38.23305555555556],[-117.82888888888888,38.20055555555556],[-117.85666666666665,38.19499999999999],[-117.97277777777778,38.17388888888889],[-118.00083333333333,38.16861111111111],[-118.11888888888888,38.14694444444444],[-118.14694444444446,38.141666666666666],[-118.25694444444444,38.12138888888889],[-118.29277777777777,38.114444444444445],[-118.41277777777778,38.091944444444444],[-118.44083333333333,38.086666666666666],[-118.5625,38.06361111111111],[-118.71083333333334,38.035555555555554],[-118.85722222222222,38.0075],[-119.00472222222223,37.97916666666667],[-119.14888888888889,37.95138888888889],[-119.26333333333334,37.92916666666667],[-119.40777777777778,37.900555555555556],[-119.55416666666666,37.87166666666667],[-119.7,37.8425],[-119.84333333333333,37.81388888888888],[-119.99,37.784166666666664],[-120.13111111111111,37.75555555555555],[-120.27527777777777,37.726111111111116],[-120.4213888888889,37.6975],[-120.46666666666667,37.7],[-120.57333333333332,37.67972222222222],[-120.61666666666666,37.666666666666664],[-120.71388888888889,37.66305555555555],[-120.76666666666667,37.65],[-120.84277777777777,37.647777777777776],[-120.88333333333334,37.65],[-120.9713888888889,37.632222222222225],[-121.01666666666667,37.63333333333333],[-121.15,37.61666666666667],[-121.22888888888889,37.597500000000004],[-121.26666666666667,37.6],[-121.3475,37.58305555555556],[-121.38333333333334,37.583333333333336],[-121.46361111111112,37.569722222222225],[-121.5,37.56666666666667],[-121.57833333333333,37.556666666666665],[-121.6,37.55],[-121.67777777777778,37.53805555555555],[-121.7,37.53333333333333],[-121.77,37.51638888888889],[-121.8,37.516666666666666],[-121.85472222222222,37.49583333333334],[-121.88333333333334,37.5],[-121.93611111111112,37.49472222222222],[-121.95,37.5],[-122.01416666666667,37.49888888888889],[-122.03333333333333,37.5],[-122.09194444444444,37.50361111111111],[-122.11666666666666,37.516666666666666],[-122.15777777777778,37.52972222222222],[-122.16666666666667,37.53333333333333],[-122.21527777777779,37.553888888888885],[-122.23333333333333,37.56666666666667],[-122.26861111111111,37.57638888888889],[-122.28333333333333,37.583333333333336],[-122.30694444444444,37.5925],[-122.31666666666666,37.6],[-122.34527777777777,37.608333333333334]]}
}
