{
  "id": 2048466871,
  "type": "Feature",
  "properties": {
    "geom:area": 0,
    "geom:bbox": "-122.848260,37.422950,-122.104180,38.502340",
    "geom:latitude": 37.82327929980486,
    "geom:longitude": -122.49528896314416,
    "src:alt_label": "swim-approach",
    "src:geom": "swim",
    "swim:elevations": [
      7256,
      7038,
      6899,
      6514,
      6185,
      5825,
      5518,
      5260,
      5081,
      4998,
      4769,
      4561,
      4444,
      4190,
      4019,
      3750,
      3656,
      3499,
      3351,
      3353,
      3353,
      3353,
      3289,
      3057,
      2750,
      2419,
      2168,
      1955,
      1829,
      1727,
      1444,
      1222,
      1016,
      974,
      883,
      823,
      635,
      495,
      367,
      316,
      112,
      65
    ],
    "swim:geom": "approach",
    "swim:timestamps": [
      1790677587,
      1790677607,
      1790677622,
      1790677662,
      1790677694,
      1790677735,
      1790677768,
      1790677798,
      1790677824,
      1790677832,
      1790677863,
      1790677888,
      1790677906,
      1790677936,
      1790677960,
      1790678002,
      1790678027,
      1790678044,
      1790678090,
      1790678125,
      1790678140,
      1790678166,
      1790678190,
      1790678226,
      1790678261,
      1790678304,
      1790678328,
      1790678347,
      1790678388,
      1790678418,
      1790678449,
      1790678476,
      1790678506,
      1790678523,
      1790678556,
      1790678580,
      1790678636,
      1790678664,
      1790678684,
      1790678700,
      1790678751,
      1790678768
    ],
    "wof:geomhash": "c8c01b86de73201df022200dd3fc1daa",
    "wof:id": 2048466871,
    "wof:repo": "sfomuseum-data-flights-2026-09"
  },
  "bbox": [
    -122.84826,
    37.42295,
    -122.10418,
    38.50234
  ],
  "geometry": {"type":"LineString","coordinates":[[-122.84826,38.50234],[-122.83705,38.4639],[-122.82885,38.43515],[-122.80708,38.36088],[-122.78988,38.3018],[-122.76811,38.22842],[-122.75123,38.16998],[-122.73574,38.1163],[-122.72254,38.07148],[-122.7182,38.05648],[-122.703,38.0035],[-122.69005,37.95919],[-122.68138,37.92878],[-122.6535,37.88203],[-122.62053,37.8511],[-122.56521,37.79817],[-122.53372,37.76811],[-122.51318,37.74858],[-122.45905,37.69781],[-122.4187,37.65988],[-122.40063,37.64281],[-122.37199,37.61501],[-122.35626,37.58748],[-122.33146,37.54826],[-122.30845,37.51038],[-122.27407,37.47068],[-122.24451,37.45792],[-122.22031,37.44737],[-122.16779,37.42471],[-122.12826,37.42295],[-122.10542,37.4475],[-122.10418,37.47292],[-122.12003,37.49786],[-122.13198,37.51214],[-122.16623,37.52981],[-122.19171,37.54091],[-122.24638,37.56324],[-122.2735,37.57511],[-122.29077,37.58255],[-122.30385,37.58821],[-122.33946,37.60344],[-122.35206,37.60904]]}
}
