{
  "id": 2048309831,
  "type": "Feature",
  "properties": {
    "geom:area": 0,
    "geom:bbox": "-122.357240,37.491920,-121.255500,37.613650",
    "geom:latitude": 37.546410496815064,
    "geom:longitude": -121.81124565641996,
    "src:alt_label": "swim-approach",
    "src:geom": "swim",
    "swim:elevations": [
      5025,
      4771,
      4506,
      4032,
      3921,
      3569,
      3455,
      3248,
      3170,
      2823,
      2659,
      2590,
      2510,
      2351,
      2261,
      2077,
      1718,
      1516,
      1385,
      1129,
      952,
      815,
      733,
      564,
      490,
      336,
      165,
      71,
      0
    ],
    "swim:geom": "approach",
    "swim:timestamps": [
      1789147978,
      1789148003,
      1789148025,
      1789148067,
      1789148079,
      1789148115,
      1789148132,
      1789148184,
      1789148196,
      1789148241,
      1789148273,
      1789148302,
      1789148333,
      1789148364,
      1789148384,
      1789148409,
      1789148453,
      1789148476,
      1789148497,
      1789148544,
      1789148575,
      1789148607,
      1789148622,
      1789148658,
      1789148675,
      1789148715,
      1789148754,
      1789148781,
      1789148793
    ],
    "wof:geomhash": "25aaf147f5a6f05710d34dcd862d19be",
    "wof:id": 2048309831,
    "wof:repo": "sfomuseum-data-flights-2026-09"
  },
  "bbox": [
    -122.35724,
    37.49192,
    -121.2555,
    37.61365
  ],
  "geometry": {"type":"LineString","coordinates":[[-121.2555,37.59386],[-121.30413,37.58759],[-121.34853,37.58282],[-121.43055,37.57366],[-121.45402,37.57091],[-121.52151,37.56297],[-121.55498,37.55906],[-121.64564,37.54564],[-121.66534,37.54094],[-121.73586,37.52429],[-121.78826,37.51173],[-121.83123,37.50136],[-121.87401,37.49196],[-121.91632,37.49192],[-121.9437,37.49266],[-121.97628,37.49371],[-122.03075,37.5086],[-122.059,37.51769],[-122.08357,37.52574],[-122.13789,37.54332],[-122.17017,37.55377],[-122.20191,37.56394],[-122.21591,37.56846],[-122.24927,37.57951],[-122.26411,37.58393],[-122.29823,37.5938],[-122.32821,37.60302],[-122.34801,37.60968],[-122.35724,37.61365]]}
}
