{
  "id": 2048453101,
  "type": "Feature",
  "properties": {
    "geom:area": 0,
    "geom:bbox": "-122.407830,37.625140,-121.295950,38.139900",
    "geom:latitude": 37.95013782014017,
    "geom:longitude": -121.93424293119476,
    "src:alt_label": "swim-takeoff",
    "src:geom": "swim",
    "swim:elevations": [
      122,
      574,
      923,
      1236,
      1788,
      2502,
      3160,
      3334,
      3569,
      3868,
      4144,
      4276,
      4521,
      4871,
      4993,
      5199,
      5561,
      5977,
      6144,
      6328,
      6616,
      6864
    ],
    "swim:geom": "takeoff",
    "swim:timestamps": [
      1790552728,
      1790552765,
      1790552792,
      1790552835,
      1790552887,
      1790552940,
      1790552990,
      1790553024,
      1790553045,
      1790553071,
      1790553104,
      1790553125,
      1790553161,
      1790553200,
      1790553213,
      1790553236,
      1790553276,
      1790553321,
      1790553348,
      1790553377,
      1790553416,
      1790553453
    ],
    "wof:geomhash": "4accc7b56a446c6ffb33bd3b4ba24073",
    "wof:id": 2048453101,
    "wof:repo": "sfomuseum-data-flights-2026-09"
  },
  "bbox": [
    -122.40783,
    37.62514,
    -121.29595,
    38.1399
  ],
  "geometry": {"type":"LineString","coordinates":[[-122.39036,37.62514],[-122.40783,37.6483],[-122.39029,37.66758],[-122.35845,37.70031],[-122.3402,37.75699],[-122.37203,37.81805],[-122.33699,37.8723],[-122.27828,37.88824],[-122.23802,37.89673],[-122.18724,37.90882],[-122.1214,37.92631],[-122.07748,37.93814],[-121.99923,37.95898],[-121.91158,37.98213],[-121.88106,37.9901],[-121.82764,38.00337],[-121.73377,38.02731],[-121.62682,38.05522],[-121.56155,38.07188],[-121.49009,38.09012],[-121.39189,38.11541],[-121.29595,38.1399]]}
}
