{
  "id": 2048361607,
  "type": "Feature",
  "properties": {
    "geom:area": 0,
    "geom:bbox": "-122.669990,37.525910,-122.067350,38.512390",
    "geom:latitude": 37.86669852532258,
    "geom:longitude": -122.44942033832129,
    "src:alt_label": "swim-approach",
    "src:geom": "swim",
    "swim:elevations": [
      7650,
      7559,
      7154,
      7047,
      6663,
      6444,
      5989,
      5881,
      5426,
      5114,
      4744,
      4507,
      4304,
      3899,
      3748,
      3442,
      3418,
      3355,
      3353,
      3353,
      3259,
      3215,
      2904,
      2645,
      2385,
      2068,
      1784,
      1581,
      1523,
      1452,
      1317,
      1120,
      919,
      818,
      750,
      577,
      455,
      336,
      197,
      116
    ],
    "swim:geom": "approach",
    "swim:timestamps": [
      1789657369,
      1789657380,
      1789657428,
      1789657440,
      1789657481,
      1789657505,
      1789657552,
      1789657563,
      1789657610,
      1789657639,
      1789657676,
      1789657700,
      1789657722,
      1789657766,
      1789657782,
      1789657824,
      1789657837,
      1789657861,
      1789657902,
      1789657925,
      1789657974,
      1789657981,
      1789658021,
      1789658052,
      1789658082,
      1789658114,
      1789658142,
      1789658172,
      1789658209,
      1789658232,
      1789658257,
      1789658295,
      1789658324,
      1789658362,
      1789658373,
      1789658404,
      1789658433,
      1789658465,
      1789658504,
      1789658532
    ],
    "wof:geomhash": "a545300267ffa5522125dcc36c0fbd86",
    "wof:id": 2048361607,
    "wof:repo": "sfomuseum-data-flights-2026-09"
  },
  "bbox": [
    -122.66999,
    37.52591,
    -122.06735,
    38.51239
  ],
  "geometry": {"type":"LineString","coordinates":[[-122.63047,38.51239],[-122.63122,38.49394],[-122.637,38.4123],[-122.63843,38.3923],[-122.64365,38.3217],[-122.64652,38.2794],[-122.65223,38.19793],[-122.65369,38.17764],[-122.6592,38.09724],[-122.6627,38.04687],[-122.66703,37.9841],[-122.66999,37.94352],[-122.66727,37.90916],[-122.61971,37.84855],[-122.59919,37.8291],[-122.54614,37.77962],[-122.5291,37.76371],[-122.50177,37.73789],[-122.44582,37.7071],[-122.41298,37.69623],[-122.34309,37.67237],[-122.33404,37.66927],[-122.2792,37.65013],[-122.2378,37.63514],[-122.19835,37.62086],[-122.15927,37.60732],[-122.12423,37.59536],[-122.09158,37.57699],[-122.06735,37.54874],[-122.07826,37.53148],[-122.10539,37.52591],[-122.14477,37.53162],[-122.17518,37.53748],[-122.21228,37.55262],[-122.22265,37.55703],[-122.25152,37.56916],[-122.27477,37.57899],[-122.29688,37.58843],[-122.32291,37.59913],[-122.34146,37.60698]]}
}
