{
  "id": 2048447887,
  "type": "Feature",
  "properties": {
    "geom:area": 0,
    "geom:bbox": "-122.353940,36.747170,-121.893220,37.609910",
    "geom:latitude": 37.236514930453225,
    "geom:longitude": -122.07043007108254,
    "src:alt_label": "swim-approach",
    "src:geom": "swim",
    "swim:elevations": [
      5151,
      4912,
      4826,
      4577,
      4397,
      4076,
      3909,
      3677,
      3490,
      3444,
      3218,
      3065,
      2903,
      2734,
      2455,
      2437,
      2389,
      2224,
      2108,
      2088,
      2006,
      1825,
      1379,
      1157,
      925,
      759,
      646,
      624,
      580,
      426,
      292,
      211,
      120,
      58,
      30
    ],
    "swim:geom": "approach",
    "swim:timestamps": [
      1790497288,
      1790497313,
      1790497325,
      1790497361,
      1790497382,
      1790497432,
      1790497459,
      1790497492,
      1790497514,
      1790497521,
      1790497551,
      1790497571,
      1790497606,
      1790497632,
      1790497677,
      1790497683,
      1790497708,
      1790497739,
      1790497758,
      1790497764,
      1790497774,
      1790497802,
      1790497910,
      1790497954,
      1790498000,
      1790498038,
      1790498068,
      1790498071,
      1790498083,
      1790498120,
      1790498156,
      1790498174,
      1790498197,
      1790498214,
      1790498223
    ],
    "wof:geomhash": "f37f2520bde2fc5e4a1e409f21149bb4",
    "wof:id": 2048447887,
    "wof:repo": "sfomuseum-data-flights-2026-09"
  },
  "bbox": [
    -122.35394,
    36.74717,
    -121.89322,
    37.60991
  ],
  "geometry": {"type":"LineString","coordinates":[[-121.89322,36.74717],[-121.90639,36.78616],[-121.91182,36.80541],[-121.92789,36.86196],[-121.93684,36.89425],[-121.95956,36.96796],[-121.97348,37.0041],[-121.98976,37.04595],[-122.00082,37.0743],[-122.00416,37.08297],[-122.01818,37.11882],[-122.02795,37.14376],[-122.0435,37.18363],[-122.05476,37.21191],[-122.074,37.26133],[-122.07644,37.2674],[-122.08718,37.29482],[-122.09993,37.32772],[-122.1083,37.34859],[-122.1108,37.35484],[-122.11326,37.36542],[-122.10476,37.39536],[-122.09086,37.49851],[-122.13322,37.51721],[-122.17801,37.53587],[-122.20971,37.54925],[-122.23397,37.5595],[-122.23641,37.56055],[-122.24663,37.56478],[-122.27684,37.57751],[-122.30408,37.58887],[-122.31804,37.59482],[-122.33534,37.60206],[-122.34799,37.60735],[-122.35394,37.60991]]}
}
