{
  "id": 2048475937,
  "type": "Feature",
  "properties": {
    "geom:area": 0,
    "geom:bbox": "-122.333333,29.991111,-95.275000,38.334167",
    "geom:latitude": 36.15761080377092,
    "geom:longitude": -107.98115317585334,
    "src:alt_label": "swim-path",
    "src:geom": "swim",
    "swim:altitudes": [
      "015",
      "025",
      "030",
      "041",
      "043",
      "070",
      "077",
      "098",
      "115",
      "156",
      "175",
      "194",
      "227",
      "245",
      "262",
      "276",
      "285",
      "291",
      "301",
      "312",
      "321",
      "338C",
      "340C",
      "340C",
      "340",
      "359C",
      "360C",
      "360C",
      "360C",
      "360C",
      "360C",
      "360C",
      "360C",
      "360C",
      "360C",
      "360C",
      "360C",
      "360C",
      "360C",
      "360C",
      "360C",
      "360C",
      "360C",
      "360C",
      "360C",
      "360C",
      "360C",
      "360C",
      "360C",
      "360C",
      "360C",
      "360C",
      "360C",
      "360C",
      "360C",
      "360C",
      "360C",
      "360C",
      "360C",
      "360C",
      "360C",
      "360C",
      "360C",
      "360C",
      "360C",
      "360C",
      "360C",
      "360C",
      "360C",
      "360C",
      "360C",
      "360C",
      "360C",
      "360C",
      "360C",
      "360C",
      "360C",
      "360C",
      "360C",
      "360C",
      "360C",
      "360C",
      "360C",
      "360C",
      "360C",
      "360C",
      "360C",
      "360C",
      "360C",
      "360C",
      "360C",
      "360C",
      "360C",
      "360C",
      "360C",
      "360C",
      "360C",
      "360C",
      "360C",
      "360C",
      "360C",
      "360C",
      "360C",
      "360C",
      "360C",
      "360C",
      "360C",
      "360C",
      "360C",
      "360C",
      "360C",
      "360C",
      "360C",
      "360C",
      "360C",
      "360C",
      "360C",
      "360C",
      "360C",
      "360C",
      "360C",
      "360C",
      "360C",
      "360C",
      "360C",
      "360C",
      "360C",
      "360C",
      "360C",
      "360C",
      "360C",
      "360C",
      "360C",
      "360C",
      "360C",
      "360C",
      "360C",
      "360C",
      "360C",
      "360C",
      "360C",
      "360C",
      "360C",
      "360C",
      "360C",
      "360C",
      "360C",
      "360C",
      "360C",
      "360C",
      "360C",
      "360C",
      "360C",
      "360C",
      "360C",
      "360C",
      "360C",
      "360C",
      "360C",
      "360C",
      "360C",
      "360C",
      "360C",
      "360C",
      "360C",
      "360C",
      "360C",
      "360C",
      "360C",
      "360C",
      "360C",
      "360C",
      "360C",
      "360C",
      "369",
      "380C",
      "380C",
      "380C",
      "380C",
      "380C",
      "380C",
      "380C",
      "380C",
      "380C",
      "380C",
      "380C",
      "380C",
      "380C",
      "380C",
      "380C",
      "380C",
      "380C",
      "380C",
      "380C",
      "380C",
      "380C",
      "380C",
      "380C",
      "380C",
      "380C",
      "380C",
      "380C",
      "380C",
      "380C",
      "380C",
      "380C",
      "380C",
      "380C",
      "380C",
      "380C",
      "380C",
      "380C",
      "380C",
      "380C",
      "380C",
      "380C",
      "380C",
      "380C",
      "380C",
      "380C",
      "380C",
      "380C",
      "380C",
      "380C",
      "380C",
      "380C",
      "380C",
      "380C",
      "380C",
      "380C",
      "380C",
      "380C",
      "380C",
      "380C",
      "380C",
      "380C",
      "380C",
      "380C",
      "380C",
      "380C",
      "380C",
      "380C",
      "380C",
      "380C",
      "380",
      "380",
      "361",
      "340",
      "319",
      "289",
      "257",
      "235",
      "225",
      "214",
      "192",
      "175",
      "160",
      "142",
      "124",
      "114",
      "102",
      "095",
      "083",
      "076",
      "067",
      "060",
      "053",
      "042",
      "032",
      "022",
      "013",
      "005"
    ],
    "swim:geom": "path",
    "swim:speeds": [
      200,
      239,
      249,
      283,
      291,
      285,
      288,
      296,
      352,
      412,
      425,
      440,
      418,
      431,
      440,
      448,
      472,
      491,
      500,
      509,
      502,
      488,
      484,
      482,
      481,
      465,
      464,
      465,
      466,
      468,
      468,
      468,
      469,
      471,
      473,
      473,
      473,
      475,
      476,
      475,
      475,
      474,
      475,
      475,
      479,
      481,
      483,
      485,
      485,
      486,
      486,
      486,
      487,
      486,
      486,
      486,
      487,
      487,
      488,
      488,
      489,
      488,
      488,
      488,
      487,
      486,
      485,
      483,
      482,
      481,
      481,
      481,
      482,
      484,
      485,
      486,
      483,
      482,
      482,
      481,
      481,
      481,
      482,
      482,
      483,
      484,
      484,
      484,
      484,
      479,
      484,
      485,
      485,
      486,
      486,
      488,
      490,
      487,
      489,
      487,
      487,
      486,
      486,
      486,
      486,
      486,
      486,
      485,
      486,
      485,
      486,
      486,
      487,
      488,
      488,
      490,
      490,
      491,
      491,
      492,
      493,
      494,
      496,
      498,
      505,
      506,
      508,
      508,
      508,
      511,
      509,
      511,
      511,
      511,
      513,
      512,
      514,
      512,
      516,
      514,
      516,
      514,
      516,
      514,
      515,
      514,
      513,
      514,
      512,
      514,
      511,
      514,
      510,
      510,
      509,
      510,
      509,
      510,
      510,
      511,
      511,
      513,
      514,
      515,
      516,
      516,
      517,
      517,
      517,
      517,
      516,
      516,
      515,
      503,
      501,
      487,
      486,
      487,
      487,
      489,
      490,
      489,
      488,
      487,
      487,
      488,
      491,
      491,
      492,
      492,
      485,
      483,
      481,
      480,
      479,
      480,
      480,
      480,
      481,
      482,
      480,
      482,
      481,
      480,
      468,
      469,
      467,
      466,
      467,
      465,
      465,
      466,
      467,
      466,
      466,
      466,
      464,
      464,
      463,
      463,
      461,
      461,
      460,
      459,
      458,
      457,
      457,
      456,
      453,
      452,
      449,
      450,
      448,
      448,
      447,
      446,
      446,
      445,
      444,
      443,
      442,
      442,
      442,
      442,
      441,
      441,
      440,
      445,
      453,
      467,
      433,
      431,
      424,
      414,
      395,
      372,
      349,
      319,
      309,
      271,
      254,
      250,
      251,
      256,
      237,
      235,
      239,
      235,
      213,
      176,
      146,
      137
    ],
    "swim:timestamps": [
      1790779940,
      1790779988,
      1790780003,
      1790780048,
      1790780063,
      1790780108,
      1790780123,
      1790780168,
      1790780228,
      1790780348,
      1790780408,
      1790780469,
      1790780529,
      1790780649,
      1790780709,
      1790780769,
      1790780829,
      1790780889,
      1790780949,
      1790781009,
      1790781070,
      1790781130,
      1790781190,
      1790781250,
      1790781310,
      1790781371,
      1790781431,
      1790781491,
      1790781551,
      1790781671,
      1790781731,
      1790781792,
      1790781852,
      1790781912,
      1790781972,
      1790782032,
      1790782092,
      1790782152,
      1790782212,
      1790782272,
      1790782332,
      1790782392,
      1790782452,
      1790782513,
      1790782573,
      1790782633,
      1790782693,
      1790782724,
      1790782753,
      1790782784,
      1790782813,
      1790782873,
      1790782905,
      1790782933,
      1790782965,
      1790782993,
      1790783025,
      1790783053,
      1790783085,
      1790783113,
      1790783145,
      1790783173,
      1790783205,
      1790783234,
      1790783265,
      1790783294,
      1790783325,
      1790783354,
      1790783385,
      1790783414,
      1790783446,
      1790783474,
      1790783506,
      1790783534,
      1790783566,
      1790783594,
      1790783654,
      1790783686,
      1790783714,
      1790783746,
      1790783774,
      1790783806,
      1790783834,
      1790783866,
      1790783894,
      1790783926,
      1790783986,
      1790784046,
      1790784107,
      1790784127,
      1790784187,
      1790784227,
      1790784247,
      1790784287,
      1790784367,
      1790784407,
      1790784427,
      1790784467,
      1790784499,
      1790784527,
      1790784560,
      1790784587,
      1790784620,
      1790784647,
      1790784680,
      1790784707,
      1790784740,
      1790784768,
      1790784800,
      1790784828,
      1790784860,
      1790784888,
      1790784920,
      1790784948,
      1790784980,
      1790785008,
      1790785040,
      1790785068,
      1790785100,
      1790785128,
      1790785160,
      1790785188,
      1790785220,
      1790785248,
      1790785341,
      1790785401,
      1790785461,
      1790785521,
      1790785581,
      1790785622,
      1790785641,
      1790785683,
      1790785701,
      1790785743,
      1790785761,
      1790785803,
      1790785821,
      1790785863,
      1790785881,
      1790785923,
      1790785941,
      1790785983,
      1790786002,
      1790786043,
      1790786062,
      1790786103,
      1790786122,
      1790786163,
      1790786182,
      1790786223,
      1790786242,
      1790786283,
      1790786302,
      1790786343,
      1790786362,
      1790786404,
      1790786422,
      1790786464,
      1790786482,
      1790786524,
      1790786542,
      1790786584,
      1790786602,
      1790786644,
      1790786662,
      1790786704,
      1790786723,
      1790786764,
      1790786783,
      1790786836,
      1790786843,
      1790786903,
      1790786956,
      1790787023,
      1790787083,
      1790787143,
      1790787203,
      1790787263,
      1790787323,
      1790787377,
      1790787437,
      1790787497,
      1790787557,
      1790787617,
      1790787677,
      1790787737,
      1790787797,
      1790787857,
      1790787918,
      1790787978,
      1790788038,
      1790788098,
      1790788158,
      1790788218,
      1790788278,
      1790788338,
      1790788398,
      1790788458,
      1790788518,
      1790788578,
      1790788592,
      1790788639,
      1790788652,
      1790788712,
      1790788759,
      1790788772,
      1790788819,
      1790788879,
      1790788892,
      1790788939,
      1790788952,
      1790789012,
      1790789059,
      1790789072,
      1790789119,
      1790789132,
      1790789179,
      1790789192,
      1790789239,
      1790789253,
      1790789299,
      1790789313,
      1790789360,
      1790789373,
      1790789420,
      1790789433,
      1790789480,
      1790789493,
      1790789540,
      1790789553,
      1790789600,
      1790789613,
      1790789660,
      1790789673,
      1790789720,
      1790789733,
      1790789780,
      1790789793,
      1790789853,
      1790789913,
      1790789974,
      1790790034,
      1790790094,
      1790790154,
      1790790214,
      1790790274,
      1790790334,
      1790790394,
      1790790454,
      1790790514,
      1790790574,
      1790790635,
      1790790654,
      1790790695,
      1790790751,
      1790790815,
      1790790875,
      1790790931,
      1790790992,
      1790791055,
      1790791115,
      1790791175,
      1790791235,
      1790791295,
      1790791356,
      1790791416,
      1790791477,
      1790791536,
      1790791596,
      1790791656,
      1790791712,
      1790791777
    ],
    "wof:geomhash": "bfbef98fce838ac1bfb701c69170b1ba",
    "wof:id": 2048475937,
    "wof:repo": "sfomuseum-data-flights-2026-09"
  },
  "bbox": [
    -122.33333333333333,
    29.991111111111113,
    -95.275,
    38.33416666666667
  ],
  "geometry": {"type":"LineString","coordinates":[[-95.275,29.991111111111113],[-95.28999999999999,30.038333333333334],[-95.29888888888888,30.052222222222223],[-95.32666666666667,30.102777777777778],[-95.33888888888889,30.120833333333334],[-95.38388888888889,30.16638888888889],[-95.39944444444446,30.17888888888889],[-95.44888888888889,30.22472222222222],[-95.51666666666667,30.295],[-95.6286111111111,30.494444444444447],[-95.68694444444445,30.599722222222223],[-95.74583333333334,30.711111111111112],[-95.80361111111111,30.81888888888889],[-95.92083333333333,31.03666666666667],[-95.97777777777777,31.15],[-96.02444444444444,31.269444444444442],[-96.07249999999999,31.393333333333334],[-96.11694444444444,31.50722222222222],[-96.16805555555555,31.63861111111111],[-96.2213888888889,31.774166666666666],[-96.27833333333334,31.9025],[-96.40583333333333,31.985833333333336],[-96.53,32.066944444444445],[-96.6613888888889,32.13916666666667],[-96.79277777777777,32.211666666666666],[-96.93,32.28722222222222],[-97.05916666666667,32.35777777777778],[-97.18944444444445,32.42916666666667],[-97.31833333333333,32.49916666666667],[-97.57944444444443,32.64055555555556],[-97.7125,32.71194444444445],[-97.84277777777777,32.781666666666666],[-97.97555555555556,32.85277777777778],[-98.10666666666665,32.9225],[-98.24027777777778,32.993611111111115],[-98.37305555555555,33.06361111111111],[-98.49694444444445,33.12888888888889],[-98.63027777777778,33.19888888888889],[-98.76472222222222,33.26916666666666],[-98.89916666666667,33.33916666666667],[-99.03222222222222,33.40833333333333],[-99.16694444444445,33.47805555555556],[-99.3,33.54666666666667],[-99.435,33.61833333333333],[-99.55722222222222,33.70444444444445],[-99.67611111111111,33.79416666666666],[-99.80138888888888,33.88638888888889],[-99.87555555555555,33.94027777777777],[-99.94111111111111,33.98777777777778],[-100.00111111111111,34.03111111111111],[-100.06388888888888,34.07666666666667],[-100.18611111111112,34.165],[-100.24,34.20388888888889],[-100.30888888888889,34.25361111111111],[-100.36194444444443,34.291666666666664],[-100.43305555555555,34.34277777777778],[-100.48694444444445,34.38138888888889],[-100.56083333333333,34.43444444444444],[-100.61138888888888,34.470555555555556],[-100.68472222222222,34.522777777777776],[-100.73472222222222,34.558611111111105],[-100.80888888888889,34.611111111111114],[-100.86083333333333,34.64805555555556],[-100.93305555555555,34.69916666666666],[-100.98416666666667,34.73527777777778],[-101.05833333333334,34.7875],[-101.10694444444444,34.82194444444445],[-101.18055555555556,34.87361111111111],[-101.23166666666667,34.909444444444446],[-101.30416666666666,34.96],[-101.36972222222222,35.00611111111111],[-101.42861111111111,35.04722222222222],[-101.47027777777778,35.07611111111112],[-101.55416666666666,35.13444444444444],[-101.59638888888888,35.163888888888884],[-101.65833333333335,35.20666666666667],[-101.80722222222222,35.28],[-101.88722222222223,35.31305555555555],[-101.95166666666667,35.33972222222222],[-102.04194444444444,35.376666666666665],[-102.09888888888888,35.4],[-102.18722222222223,35.436388888888885],[-102.24527777777777,35.46],[-102.33638888888889,35.49722222222222],[-102.39250000000001,35.519999999999996],[-102.48388888888888,35.55722222222222],[-102.62972222222221,35.61638888888889],[-102.77777777777777,35.67611111111111],[-102.92777777777778,35.73638888888889],[-102.9713888888889,35.7525],[-103.12222222222222,35.81222222222222],[-103.2125,35.849722222222226],[-103.27083333333333,35.871944444444445],[-103.36277777777777,35.909166666666664],[-103.57166666666666,35.99027777777778],[-103.66333333333334,36.027499999999996],[-103.72500000000001,36.05138888888889],[-103.81416666666667,36.08638888888889],[-103.90333333333334,36.12083333333334],[-103.96416666666667,36.144444444444446],[-104.05666666666666,36.180277777777775],[-104.11444444444444,36.2025],[-104.2063888888889,36.238055555555555],[-104.25777777777778,36.257777777777775],[-104.35833333333333,36.296388888888885],[-104.4088888888889,36.315555555555555],[-104.50861111111111,36.35388888888889],[-104.56,36.373333333333335],[-104.66027777777778,36.41111111111111],[-104.71138888888889,36.43055555555555],[-104.81055555555555,36.46805555555556],[-104.86138888888888,36.48722222222222],[-104.97416666666666,36.527499999999996],[-105.01777777777778,36.54222222222222],[-105.12916666666666,36.580000000000005],[-105.17277777777778,36.595],[-105.28138888888888,36.6325],[-105.35833333333333,36.65888888888889],[-105.43694444444445,36.68555555555555],[-105.50027777777778,36.70722222222223],[-105.59583333333333,36.73972222222222],[-105.66694444444445,36.763888888888886],[-105.75305555555556,36.793055555555554],[-105.82888888888888,36.81888888888889],[-106.08416666666666,36.90416666666667],[-106.23694444444445,36.955000000000005],[-106.40222222222222,37.00972222222222],[-106.56472222222222,37.06333333333333],[-106.72805555555556,37.11666666666667],[-106.81833333333333,37.14861111111111],[-106.8913888888889,37.169999999999995],[-106.98388888888888,37.20111111111111],[-107.05666666666666,37.223333333333336],[-107.15055555555556,37.25333333333333],[-107.22305555555556,37.276944444444446],[-107.31638888888888,37.30833333333333],[-107.38944444444445,37.330000000000005],[-107.48472222222222,37.361111111111114],[-107.55499999999999,37.382777777777775],[-107.65305555555557,37.41416666666667],[-107.72277777777778,37.43583333333333],[-107.82027777777778,37.46638888888889],[-107.89027777777778,37.48861111111111],[-107.9888888888889,37.51916666666666],[-108.05722222222222,37.54055555555556],[-108.15666666666667,37.57055555555556],[-108.2213888888889,37.59166666666667],[-108.32333333333332,37.62305555555555],[-108.38722222222223,37.64277777777778],[-108.49,37.67388888888889],[-108.55444444444444,37.69416666666666],[-108.6575,37.725],[-108.7213888888889,37.74527777777778],[-108.85666666666665,37.78611111111111],[-108.885,37.794444444444444],[-109.03055555555555,37.82],[-109.06027777777777,37.823055555555555],[-109.20472222222223,37.83916666666667],[-109.23833333333333,37.84305555555556],[-109.385,37.85888888888889],[-109.41527777777779,37.86222222222222],[-109.56416666666667,37.878055555555555],[-109.5936111111111,37.88138888888889],[-109.74583333333334,37.8975],[-109.77527777777777,37.900555555555556],[-109.89055555555557,37.91277777777778],[-109.95472222222223,37.919444444444444],[-110.07027777777778,37.93138888888889],[-110.13277777777778,37.937777777777775],[-110.25055555555555,37.94972222222222],[-110.31138888888889,37.95583333333334],[-110.49361111111111,37.973888888888894],[-110.6463888888889,37.98916666666667],[-110.85722222222222,38.00944444444445],[-111.0475,38.027499999999996],[-111.21833333333333,38.04333333333333],[-111.38805555555557,38.05888888888889],[-111.55916666666667,38.074444444444445],[-111.73,38.08972222222222],[-111.86527777777778,38.10138888888889],[-112.0363888888889,38.11611111111111],[-112.205,38.13027777777778],[-112.37638888888888,38.14472222222222],[-112.5461111111111,38.15861111111111],[-112.71611111111112,38.17222222222222],[-112.8863888888889,38.18555555555555],[-113.05722222222222,38.19888888888889],[-113.22888888888889,38.21194444444445],[-113.40222222222222,38.224722222222226],[-113.57333333333332,38.23722222222222],[-113.77527777777777,38.251666666666665],[-113.94416666666667,38.263333333333335],[-114.11305555555555,38.27472222222222],[-114.28166666666667,38.28611111111111],[-114.44888888888889,38.29694444444444],[-114.61833333333333,38.30777777777777],[-114.78583333333333,38.318333333333335],[-114.95555555555556,38.32777777777778],[-115.12583333333333,38.33027777777778],[-115.29416666666667,38.331388888888895],[-115.32472222222222,38.33083333333334],[-115.45944444444444,38.3325],[-115.49583333333334,38.333333333333336],[-115.66305555555556,38.33388888888889],[-115.79333333333334,38.33361111111111],[-115.82694444444444,38.33416666666667],[-115.95694444444445,38.33361111111111],[-116.12277777777777,38.33361111111111],[-116.15722222222223,38.33361111111111],[-116.28555555555555,38.333333333333336],[-116.31944444444444,38.331388888888895],[-116.47916666666667,38.30083333333333],[-116.60444444444444,38.2725],[-116.63861111111112,38.264722222222225],[-116.76277777777777,38.23638888888889],[-116.79694444444445,38.228611111111114],[-116.92111111111112,38.20027777777778],[-116.95166666666667,38.19333333333333],[-117.07666666666667,38.16444444444444],[-117.1086111111111,38.157222222222224],[-117.20833333333334,38.13388888888889],[-117.25944444444444,38.12222222222222],[-117.36833333333333,38.096944444444446],[-117.40527777777778,38.08833333333334],[-117.52555555555556,38.06055555555555],[-117.55694444444444,38.05333333333333],[-117.67833333333334,38.025],[-117.71138888888889,38.01722222222222],[-117.8325,37.99666666666667],[-117.86472222222221,37.99333333333333],[-117.99055555555556,37.98027777777778],[-118.02305555555556,37.97666666666667],[-118.14583333333334,37.96361111111111],[-118.17805555555556,37.96027777777778],[-118.29805555555555,37.947222222222216],[-118.33305555555555,37.94361111111111],[-118.45222222222222,37.930277777777775],[-118.48666666666666,37.92666666666666],[-118.64222222222223,37.909444444444446],[-118.79555555555555,37.89222222222222],[-118.94944444444445,37.874722222222225],[-119.10194444444444,37.85722222222223],[-119.25527777777778,37.839444444444446],[-119.40861111111111,37.82138888888889],[-119.56222222222222,37.80305555555555],[-119.71638888888889,37.78444444444444],[-119.86722222222221,37.76611111111111],[-120.02194444444444,37.74722222222222],[-120.17888888888889,37.72777777777778],[-120.34166666666667,37.706944444444446],[-120.49527777777777,37.68833333333333],[-120.64416666666668,37.671388888888885],[-120.71666666666667,37.666666666666664],[-120.78972222222222,37.653888888888886],[-120.93333333333334,37.63333333333333],[-121.06166666666667,37.61972222222222],[-121.18444444444445,37.60333333333333],[-121.3,37.583333333333336],[-121.41666666666667,37.583333333333336],[-121.50555555555556,37.56472222222222],[-121.59277777777777,37.55444444444444],[-121.67694444444444,37.538333333333334],[-121.72638888888889,37.481944444444444],[-121.78805555555556,37.439166666666665],[-121.86722222222221,37.45805555555556],[-121.94305555555556,37.48111111111111],[-122.03333333333333,37.516666666666666],[-122.09722222222221,37.53],[-122.16805555555555,37.55305555555555],[-122.2275,37.57222222222222],[-122.28333333333333,37.583333333333336],[-122.33333333333333,37.6]]}
}
