{
  "id": 2048453051,
  "type": "Feature",
  "properties": {
    "geom:area": 0,
    "geom:bbox": "-156.466667,20.783333,-122.392500,37.664722",
    "geom:latitude": 29.221784987527748,
    "geom:longitude": -139.48296301535095,
    "src:alt_label": "swim-path",
    "src:geom": "swim",
    "swim:altitudes": [
      "006",
      "031",
      "045",
      "074",
      "101",
      "119",
      "141",
      "164",
      "188",
      "206",
      "228",
      "242",
      "257",
      "268",
      "278",
      "289",
      "290",
      "290",
      "292",
      "300C",
      "300C",
      "300C",
      "300C",
      "300C",
      "300C",
      "300C",
      "300C",
      "300C",
      "300C",
      "300C",
      "300C",
      "300C",
      "300C",
      "300C",
      "360",
      "360",
      "360",
      "360",
      "360",
      "360",
      "360",
      "360",
      "360",
      "360",
      "360",
      "360",
      "360",
      "360",
      "360",
      "360",
      "360",
      "360",
      "360",
      "360",
      "360",
      "344C",
      "313T",
      "281T",
      "261T",
      "237T",
      "216T",
      "196T",
      "176T",
      "157T",
      "139T",
      "120T",
      "107T",
      "099T",
      "089T",
      "078T",
      "068T",
      "055T",
      "048T",
      "036T",
      "027T",
      "019T",
      "011T",
      "003"
    ],
    "swim:geom": "path",
    "swim:speeds": [
      163,
      177,
      245,
      269,
      278,
      318,
      337,
      343,
      343,
      356,
      352,
      357,
      364,
      374,
      386,
      392,
      395,
      396,
      397,
      405,
      409,
      410,
      412,
      414,
      416,
      417,
      418,
      419,
      421,
      423,
      425,
      426,
      426,
      427,
      450,
      450,
      460,
      460,
      460,
      460,
      460,
      460,
      460,
      460,
      460,
      460,
      450,
      450,
      450,
      450,
      450,
      450,
      450,
      450,
      450,
      450,
      460,
      480,
      450,
      450,
      440,
      420,
      390,
      380,
      370,
      360,
      340,
      310,
      300,
      290,
      290,
      290,
      260,
      220,
      180,
      150,
      150,
      150
    ],
    "swim:timestamps": [
      1790546248,
      1790546308,
      1790546368,
      1790546428,
      1790546488,
      1790546548,
      1790546608,
      1790546668,
      1790546728,
      1790546788,
      1790546848,
      1790546909,
      1790546969,
      1790547029,
      1790547089,
      1790547149,
      1790547209,
      1790547269,
      1790547329,
      1790547389,
      1790547449,
      1790547509,
      1790547570,
      1790547630,
      1790547690,
      1790547750,
      1790547810,
      1790547870,
      1790547930,
      1790547990,
      1790548050,
      1790548110,
      1790548170,
      1790548230,
      1790560843,
      1790560903,
      1790560963,
      1790561023,
      1790561083,
      1790561143,
      1790561203,
      1790561264,
      1790561323,
      1790561384,
      1790561444,
      1790561504,
      1790561564,
      1790561624,
      1790561684,
      1790561744,
      1790561804,
      1790561864,
      1790561924,
      1790561984,
      1790562045,
      1790562105,
      1790562165,
      1790562225,
      1790562285,
      1790562345,
      1790562405,
      1790562465,
      1790562525,
      1790562585,
      1790562645,
      1790562705,
      1790562766,
      1790562826,
      1790562886,
      1790562946,
      1790563006,
      1790563066,
      1790563126,
      1790563186,
      1790563246,
      1790563306,
      1790563366,
      1790563424
    ],
    "wof:geomhash": "5c323d748bb966d5b5b0a1f233bd36c5",
    "wof:id": 2048453051,
    "wof:repo": "sfomuseum-data-flights-2026-09"
  },
  "bbox": [
    -156.46666666666667,
    20.783333333333335,
    -122.39250000000001,
    37.664722222222224
  ],
  "geometry": {"type":"LineString","coordinates":[[-122.39250000000001,37.62638888888889],[-122.44861111111112,37.65138888888889],[-122.51916666666666,37.664722222222224],[-122.59333333333333,37.617222222222225],[-122.66972222222223,37.56666666666667],[-122.75444444444445,37.51555555555556],[-122.85083333333333,37.46055555555556],[-122.94722222222222,37.40472222222222],[-123.04555555555555,37.34777777777778],[-123.14611111111111,37.28944444444444],[-123.24416666666667,37.2325],[-123.34555555555555,37.17333333333333],[-123.44833333333334,37.113055555555555],[-123.55333333333333,37.05138888888889],[-123.6613888888889,36.987500000000004],[-123.77111111111111,36.922777777777775],[-123.88194444444444,36.85722222222223],[-123.99277777777777,36.79111111111111],[-124.10388888888889,36.724722222222226],[-124.21611111111112,36.6575],[-124.32916666666667,36.589444444444446],[-124.44333333333334,36.520833333333336],[-124.5586111111111,36.45111111111111],[-124.67194444444445,36.382222222222225],[-124.78722222222223,36.31166666666666],[-124.9025,36.24111111111111],[-125.01611111111112,36.17166666666667],[-125.13138888888888,36.10111111111111],[-125.24777777777778,36.02916666666667],[-125.36444444444444,35.956944444444446],[-125.47916666666667,35.885555555555555],[-125.5961111111111,35.8125],[-125.71111111111111,35.74055555555556],[-125.8275,35.66777777777777],[-152.3,23.15],[-152.41666666666666,23.083333333333332],[-152.53333333333333,23.033333333333335],[-152.66666666666666,22.966666666666665],[-152.78333333333333,22.916666666666668],[-152.9,22.85],[-153.03333333333333,22.783333333333335],[-153.15,22.716666666666665],[-153.26666666666668,22.666666666666668],[-153.4,22.6],[-153.51666666666668,22.533333333333335],[-153.63333333333333,22.483333333333334],[-153.75,22.416666666666668],[-153.86666666666667,22.35],[-153.98333333333332,22.283333333333335],[-154.1,22.233333333333334],[-154.21666666666667,22.166666666666668],[-154.33333333333334,22.1],[-154.45,22.05],[-154.58333333333334,21.983333333333334],[-154.7,21.916666666666668],[-154.81666666666666,21.866666666666667],[-154.93333333333334,21.816666666666666],[-155.06666666666666,21.766666666666666],[-155.2,21.716666666666665],[-155.31666666666666,21.65],[-155.41666666666666,21.583333333333332],[-155.53333333333333,21.516666666666666],[-155.63333333333333,21.466666666666665],[-155.71666666666667,21.4],[-155.81666666666666,21.35],[-155.9,21.3],[-155.98333333333332,21.233333333333334],[-156.05,21.166666666666668],[-156.11666666666667,21.1],[-156.16666666666666,21.05],[-156.23333333333332,20.983333333333334],[-156.28333333333333,20.933333333333334],[-156.33333333333334,20.866666666666667],[-156.38333333333333,20.816666666666666],[-156.41666666666666,20.783333333333335],[-156.46666666666667,20.8],[-156.45,20.833333333333332],[-156.43333333333334,20.866666666666667]]}
}
