{
  "id": 2048330013,
  "type": "Feature",
  "properties": {
    "geom:area": 0,
    "geom:bbox": "-122.404550,37.624970,-121.392840,38.493250",
    "geom:latitude": 38.05581549289633,
    "geom:longitude": -121.91041860896031,
    "src:alt_label": "swim-takeoff",
    "src:geom": "swim",
    "swim:elevations": [
      122,
      474,
      559,
      912,
      1078,
      1463,
      1792,
      2186,
      2551,
      2833,
      3040,
      3385,
      3567,
      3760,
      3994,
      4439,
      4606,
      4895,
      5055,
      5345,
      5593,
      5692,
      5763,
      5862,
      6079,
      6227
    ],
    "swim:geom": "takeoff",
    "swim:timestamps": [
      1789298416,
      1789298446,
      1789298460,
      1789298518,
      1789298534,
      1789298566,
      1789298592,
      1789298630,
      1789298660,
      1789298689,
      1789298711,
      1789298746,
      1789298771,
      1789298802,
      1789298851,
      1789298906,
      1789298926,
      1789298958,
      1789298981,
      1789299019,
      1789299054,
      1789299079,
      1789299102,
      1789299121,
      1789299161,
      1789299191
    ],
    "wof:geomhash": "dc4399b20b98bd33fb6dd77581cd6eeb",
    "wof:id": 2048330013,
    "wof:repo": "sfomuseum-data-flights-2026-09"
  },
  "bbox": [
    -122.40455,
    37.62497,
    -121.39284,
    38.49325
  ],
  "geometry": {"type":"LineString","coordinates":[[-122.38428,37.62497],[-122.40408,37.63985],[-122.40455,37.65066],[-122.34001,37.68063],[-122.31693,37.68695],[-122.26854,37.70135],[-122.23115,37.71295],[-122.18703,37.74722],[-122.15833,37.78032],[-122.12996,37.81197],[-122.10737,37.8366],[-122.07077,37.87654],[-122.04284,37.90724],[-122.00715,37.94642],[-121.94719,38.01233],[-121.87541,38.09093],[-121.84911,38.1198],[-121.80555,38.1675],[-121.77338,38.20267],[-121.72044,38.26059],[-121.67051,38.31506],[-121.63393,38.35485],[-121.59854,38.39078],[-121.55734,38.41565],[-121.46297,38.45952],[-121.39284,38.49325]]}
}
