{
  "id": 2048430819,
  "type": "Feature",
  "properties": {
    "geom:area": 0,
    "geom:bbox": "-122.336389,37.413889,-104.783333,39.860278",
    "geom:latitude": 38.735428997172384,
    "geom:longitude": -113.70767957025132,
    "src:alt_label": "swim-path",
    "src:geom": "swim",
    "swim:altitudes": [
      "074",
      "085",
      "114",
      "136",
      "153",
      "174",
      "188",
      "202",
      "213",
      "222",
      "244",
      "257",
      "268",
      "278",
      "289",
      "302",
      "315",
      "320C",
      "320C",
      "320C",
      "320C",
      "320C",
      "320C",
      "320C",
      "320C",
      "320C",
      "320C",
      "320C",
      "320C",
      "320C",
      "320C",
      "320C",
      "320C",
      "320C",
      "320C",
      "320C",
      "320C",
      "320C",
      "320C",
      "320C",
      "320C",
      "320C",
      "320C",
      "320C",
      "320C",
      "320C",
      "320C",
      "320C",
      "320C",
      "320C",
      "320C",
      "320C",
      "320C",
      "320C",
      "320C",
      "320C",
      "320C",
      "320C",
      "320C",
      "320C",
      "320C",
      "320C",
      "320C",
      "320C",
      "320C",
      "320C",
      "320C",
      "320C",
      "320C",
      "320C",
      "320C",
      "320C",
      "320C",
      "320C",
      "320C",
      "320C",
      "320C",
      "320C",
      "320C",
      "320C",
      "320C",
      "320C",
      "320C",
      "320C",
      "320C",
      "319C",
      "319C",
      "319C",
      "320C",
      "320C",
      "320C",
      "320C",
      "320C",
      "320C",
      "320C",
      "320C",
      "320C",
      "320C",
      "320C",
      "320C",
      "320C",
      "320C",
      "320C",
      "320C",
      "320C",
      "320C",
      "320C",
      "320C",
      "320C",
      "320C",
      "320C",
      "320C",
      "320C",
      "320C",
      "320C",
      "320C",
      "320C",
      "320C",
      "320C",
      "320C",
      "320C",
      "316",
      "307",
      "297",
      "287",
      "284",
      "279",
      "262",
      "251",
      "235",
      "223",
      "206",
      "196",
      "185",
      "183",
      "183",
      "181",
      "178",
      "173",
      "168",
      "164",
      "161",
      "156",
      "152",
      "148",
      "143",
      "135",
      "127",
      "122",
      "114",
      "111",
      "108",
      "109",
      "106",
      "102",
      "096",
      "091",
      "083",
      "077",
      "071",
      "070",
      "070",
      "065",
      "060",
      "055",
      "041",
      "034",
      "029",
      "024",
      "020",
      "015",
      "011",
      "008",
      "004"
    ],
    "swim:geom": "path",
    "swim:speeds": [
      203,
      274,
      287,
      292,
      314,
      319,
      336,
      353,
      375,
      396,
      416,
      419,
      430,
      430,
      433,
      441,
      440,
      438,
      438,
      435,
      435,
      437,
      436,
      437,
      437,
      437,
      437,
      438,
      437,
      438,
      437,
      437,
      437,
      438,
      438,
      438,
      439,
      439,
      439,
      439,
      439,
      438,
      438,
      438,
      438,
      438,
      438,
      438,
      438,
      437,
      436,
      435,
      435,
      434,
      434,
      432,
      430,
      428,
      428,
      428,
      428,
      428,
      429,
      430,
      431,
      431,
      431,
      432,
      432,
      432,
      432,
      432,
      432,
      433,
      434,
      433,
      432,
      430,
      429,
      428,
      427,
      426,
      426,
      425,
      424,
      423,
      422,
      421,
      421,
      421,
      421,
      421,
      420,
      420,
      419,
      419,
      420,
      420,
      421,
      421,
      422,
      422,
      421,
      418,
      417,
      417,
      416,
      417,
      418,
      420,
      422,
      421,
      419,
      416,
      414,
      420,
      424,
      426,
      427,
      426,
      425,
      425,
      425,
      419,
      410,
      409,
      408,
      403,
      396,
      380,
      376,
      363,
      362,
      352,
      354,
      311,
      301,
      269,
      255,
      262,
      280,
      291,
      288,
      255,
      247,
      238,
      241,
      235,
      238,
      230,
      234,
      227,
      230,
      230,
      229,
      231,
      229,
      230,
      229,
      225,
      228,
      223,
      226,
      224,
      225,
      218,
      211,
      211,
      178,
      178,
      152,
      144,
      135,
      134
    ],
    "swim:timestamps": [
      1790352783,
      1790352845,
      1790352910,
      1790352970,
      1790353031,
      1790353091,
      1790353151,
      1790353211,
      1790353271,
      1790353331,
      1790353446,
      1790353506,
      1790353571,
      1790353627,
      1790353687,
      1790353752,
      1790353812,
      1790353867,
      1790353927,
      1790353992,
      1790354052,
      1790354107,
      1790354172,
      1790354232,
      1790354292,
      1790354300,
      1790354352,
      1790354360,
      1790354412,
      1790354420,
      1790354473,
      1790354480,
      1790354533,
      1790354540,
      1790354593,
      1790354600,
      1790354653,
      1790354660,
      1790354720,
      1790354773,
      1790354780,
      1790354833,
      1790354840,
      1790354893,
      1790354900,
      1790354953,
      1790354960,
      1790355013,
      1790355020,
      1790355073,
      1790355081,
      1790355133,
      1790355141,
      1790355194,
      1790355201,
      1790355261,
      1790355321,
      1790355381,
      1790355441,
      1790355501,
      1790355561,
      1790355621,
      1790355681,
      1790355741,
      1790355801,
      1790355862,
      1790355922,
      1790355982,
      1790356042,
      1790356102,
      1790356162,
      1790356222,
      1790356282,
      1790356342,
      1790356402,
      1790356462,
      1790356522,
      1790356583,
      1790356643,
      1790356703,
      1790356763,
      1790356823,
      1790356883,
      1790356938,
      1790356998,
      1790357058,
      1790357118,
      1790357178,
      1790357238,
      1790357298,
      1790357358,
      1790357364,
      1790357424,
      1790357478,
      1790357484,
      1790357539,
      1790357599,
      1790357659,
      1790357719,
      1790357779,
      1790357839,
      1790357899,
      1790357959,
      1790358019,
      1790358079,
      1790358085,
      1790358139,
      1790358200,
      1790358260,
      1790358320,
      1790358380,
      1790358440,
      1790358500,
      1790358560,
      1790358620,
      1790358680,
      1790358740,
      1790358800,
      1790358861,
      1790358921,
      1790358981,
      1790359041,
      1790359101,
      1790359161,
      1790359221,
      1790359238,
      1790359281,
      1790359316,
      1790359341,
      1790359371,
      1790359401,
      1790359431,
      1790359461,
      1790359496,
      1790359522,
      1790359556,
      1790359582,
      1790359611,
      1790359642,
      1790359671,
      1790359702,
      1790359731,
      1790359762,
      1790359796,
      1790359822,
      1790359857,
      1790359882,
      1790359917,
      1790359942,
      1790359977,
      1790360002,
      1790360037,
      1790360062,
      1790360097,
      1790360122,
      1790360157,
      1790360183,
      1790360217,
      1790360243,
      1790360277,
      1790360303,
      1790360337,
      1790360363,
      1790360397,
      1790360423,
      1790360483,
      1790360517,
      1790360543,
      1790360578,
      1790360603,
      1790360638,
      1790360663,
      1790360697,
      1790360723
    ],
    "wof:geomhash": "b76605538baa778be842deffc659ca0e",
    "wof:id": 2048430819,
    "wof:repo": "sfomuseum-data-flights-2026-09"
  },
  "bbox": [
    -122.33638888888889,
    37.413888888888884,
    -104.78333333333333,
    39.86027777777778
  ],
  "geometry": {"type":"LineString","coordinates":[[-104.78333333333333,39.85],[-104.86666666666666,39.85],[-104.98361111111112,39.845],[-105.08749999999999,39.847500000000004],[-105.2,39.85027777777778],[-105.31527777777778,39.8525],[-105.4363888888889,39.85527777777778],[-105.56138888888889,39.8575],[-105.68611111111112,39.86027777777778],[-105.82805555555555,39.85138888888889],[-106.12388888888889,39.823888888888895],[-106.2775,39.81055555555555],[-106.43666666666667,39.7975],[-106.59055555555555,39.7825],[-106.74805555555555,39.765277777777776],[-106.89972222222222,39.74861111111111],[-107.08777777777777,39.7275],[-107.22055555555556,39.71055555555556],[-107.37527777777777,39.69305555555555],[-107.54527777777777,39.67527777777777],[-107.68722222222223,39.65861111111111],[-107.83944444444444,39.63972222222222],[-107.99888888888889,39.62138888888889],[-108.1563888888889,39.602222222222224],[-108.31361111111111,39.58277777777778],[-108.33416666666666,39.58027777777778],[-108.47055555555556,39.56333333333333],[-108.49166666666667,39.56083333333333],[-108.62888888888888,39.54333333333333],[-108.64694444444446,39.54111111111111],[-108.795,39.52222222222222],[-108.80194444444444,39.521388888888886],[-108.94861111111112,39.5025],[-108.95666666666666,39.50138888888889],[-109.10527777777777,39.48222222222223],[-109.11583333333333,39.48083333333334],[-109.26083333333334,39.461666666666666],[-109.27027777777778,39.46055555555556],[-109.42611111111111,39.439722222222215],[-109.54583333333333,39.42361111111111],[-109.58166666666666,39.41888888888889],[-109.70111111111112,39.402499999999996],[-109.7375,39.3975],[-109.85777777777777,39.38111111111111],[-109.89111111111112,39.376666666666665],[-110.01333333333334,39.359722222222224],[-110.04722222222222,39.35527777777778],[-110.16722222222222,39.339444444444446],[-110.20055555555555,39.334722222222226],[-110.32,39.31861111111112],[-110.35333333333332,39.314166666666665],[-110.47222222222223,39.297777777777775],[-110.5075,39.293055555555554],[-110.62527777777777,39.276666666666664],[-110.66027777777778,39.27166666666667],[-110.81083333333333,39.25055555555556],[-110.94833333333334,39.231388888888894],[-111.09777777777778,39.21],[-111.24638888888889,39.18861111111111],[-111.39916666666667,39.16638888888889],[-111.54944444444445,39.144444444444446],[-111.69888888888889,39.1225],[-111.84805555555555,39.1],[-112.00083333333333,39.07694444444445],[-112.15138888888889,39.05416666666667],[-112.30138888888888,39.03111111111111],[-112.45166666666667,39.007777777777775],[-112.6036111111111,38.98416666666667],[-112.75166666666667,38.96055555555556],[-112.90444444444445,38.936388888888885],[-113.05444444444444,38.9125],[-113.20416666666667,38.88805555555555],[-113.35388888888889,38.86361111111111],[-113.53388888888888,38.83416666666667],[-113.68361111111112,38.80916666666666],[-113.83416666666666,38.784166666666664],[-113.98305555555555,38.75861111111111],[-114.13166666666666,38.733333333333334],[-114.28055555555555,38.70777777777778],[-114.42750000000001,38.68222222222222],[-114.57416666666666,38.656666666666666],[-114.72055555555556,38.630833333333335],[-114.86861111111111,38.60472222222222],[-114.9863888888889,38.5825],[-115.13222222222221,38.5575],[-115.26972222222223,38.53194444444444],[-115.41472222222222,38.50611111111111],[-115.55916666666667,38.478611111111114],[-115.70555555555556,38.4525],[-115.87416666666665,38.42055555555555],[-115.99444444444444,38.39805555555556],[-116.02361111111111,38.3925],[-116.16722222222222,38.36527777777778],[-116.28361111111111,38.34305555555556],[-116.31083333333333,38.33777777777778],[-116.42555555555556,38.312777777777775],[-116.56722222222221,38.280833333333334],[-116.71194444444444,38.248333333333335],[-116.85527777777777,38.21555555555556],[-116.99833333333333,38.18277777777777],[-117.165,38.14416666666666],[-117.30805555555555,38.11083333333333],[-117.44111111111111,38.08027777777778],[-117.58027777777778,38.047777777777775],[-117.72194444444445,38.014722222222225],[-117.71833333333333,38.01555555555556],[-117.86527777777778,37.99388888888889],[-118.01083333333334,37.97833333333333],[-118.15777777777778,37.962500000000006],[-118.30472222222222,37.946666666666665],[-118.45194444444445,37.93055555555555],[-118.59944444444444,37.91444444444444],[-118.74472222222222,37.89805555555556],[-118.8875,37.88194444444444],[-119.02305555555556,37.86638888888889],[-119.17055555555557,37.849444444444444],[-119.31666666666666,37.83222222222223],[-119.46666666666667,37.81472222222222],[-119.61472222222221,37.79694444444444],[-119.76333333333334,37.778888888888886],[-119.91250000000001,37.76083333333333],[-120.05888888888889,37.74277777777778],[-120.20722222222223,37.72416666666667],[-120.35138888888888,37.70611111111111],[-120.49416666666667,37.68888888888888],[-120.53333333333333,37.68333333333333],[-120.63527777777779,37.6725],[-120.71666666666667,37.666666666666664],[-120.77361111111111,37.65611111111111],[-120.85,37.65],[-120.90361111111112,37.640277777777776],[-120.98333333333333,37.63333333333333],[-121.03,37.62416666666667],[-121.1,37.6],[-121.12083333333332,37.56916666666667],[-121.13333333333334,37.516666666666666],[-121.13666666666667,37.48111111111111],[-121.15,37.43333333333333],[-121.17027777777778,37.413888888888884],[-121.21666666666667,37.416666666666664],[-121.23138888888889,37.45444444444445],[-121.21666666666667,37.5],[-121.20361111111112,37.531666666666666],[-121.23333333333333,37.56666666666667],[-121.25722222222223,37.580555555555556],[-121.3,37.583333333333336],[-121.33999999999999,37.574444444444445],[-121.38333333333334,37.56666666666667],[-121.42111111111112,37.56777777777778],[-121.46666666666667,37.56666666666667],[-121.50166666666667,37.56111111111111],[-121.55,37.55],[-121.58111111111111,37.55444444444444],[-121.63333333333334,37.55],[-121.66027777777778,37.54194444444444],[-121.7,37.53333333333333],[-121.73611111111111,37.524166666666666],[-121.78333333333333,37.516666666666666],[-121.81472222222222,37.51416666666667],[-121.86666666666666,37.516666666666666],[-121.89500000000001,37.51111111111111],[-121.95,37.516666666666666],[-121.97222222222223,37.50833333333333],[-122.01666666666667,37.5],[-122.05083333333333,37.50527777777778],[-122.1236111111111,37.515],[-122.16666666666667,37.53333333333333],[-122.18861111111111,37.5425],[-122.23333333333333,37.55],[-122.24583333333334,37.56666666666667],[-122.28333333333333,37.583333333333336],[-122.295,37.587500000000006],[-122.31666666666666,37.6],[-122.33638888888889,37.60472222222222]]}
}
