{
  "id": 2048245675,
  "type": "Feature",
  "properties": {
    "geom:area": 0,
    "geom:bbox": "-122.543060,36.750980,-122.156240,37.666040",
    "geom:latitude": 37.23299265445006,
    "geom:longitude": -122.4259956346775,
    "src:alt_label": "swim-takeoff",
    "src:geom": "swim",
    "swim:elevations": [
      305,
      743,
      1044,
      1395,
      1807,
      2409,
      2508,
      3263,
      3457,
      3500,
      3670,
      4287,
      4747,
      5005,
      5635,
      5795,
      6215,
      6379,
      6874,
      7111,
      7206,
      7592,
      7767
    ],
    "swim:geom": "takeoff",
    "swim:timestamps": [
      1788434424,
      1788434457,
      1788434476,
      1788434518,
      1788434545,
      1788434577,
      1788434581,
      1788434638,
      1788434664,
      1788434671,
      1788434703,
      1788434748,
      1788434788,
      1788434811,
      1788434868,
      1788434885,
      1788434927,
      1788434943,
      1788434994,
      1788435022,
      1788435031,
      1788435084,
      1788435107
    ],
    "wof:geomhash": "832a6aad14b81e534b95ef66261c4853",
    "wof:id": 2048245675,
    "wof:repo": "sfomuseum-data-flights-2026-09"
  },
  "bbox": [
    -122.54306,
    36.75098,
    -122.15624,
    37.66604
  ],
  "geometry": {"type":"LineString","coordinates":[[-122.39831,37.63139],[-122.42666,37.64285],[-122.44256,37.64888],[-122.48647,37.66604],[-122.52232,37.66304],[-122.54306,37.63316],[-122.54299,37.62864],[-122.5111,37.56182],[-122.49416,37.52803],[-122.48946,37.51843],[-122.47896,37.46738],[-122.49364,37.3895],[-122.5073,37.3193],[-122.51499,37.27717],[-122.52321,37.17153],[-122.50776,37.14146],[-122.4424,37.06909],[-122.41853,37.04265],[-122.33797,36.95345],[-122.29385,36.90466],[-122.27904,36.88827],[-122.19324,36.79325],[-122.15624,36.75098]]}
}
