{
  "id": 2048451313,
  "type": "Feature",
  "properties": {
    "geom:area": 0,
    "geom:bbox": "-122.400000,37.616667,-93.252500,44.950000",
    "geom:latitude": 42.414092746330674,
    "geom:longitude": -108.20219495251538,
    "src:alt_label": "swim-path",
    "src:geom": "swim",
    "swim:altitudes": [
      "006",
      "018",
      "022",
      "044",
      "071",
      "097",
      "114",
      "128",
      "148",
      "166",
      "185",
      "203",
      "218",
      "230",
      "246",
      "258",
      "267",
      "276",
      "290",
      "303",
      "305",
      "317",
      "326",
      "327",
      "330C",
      "330C",
      "330C",
      "330C",
      "330C",
      "330C",
      "330C",
      "330C",
      "330C",
      "330C",
      "330C",
      "330C",
      "330C",
      "330C",
      "330C",
      "330C",
      "330C",
      "330C",
      "330C",
      "330C",
      "330C",
      "330C",
      "330C",
      "330C",
      "330C",
      "330C",
      "330C",
      "330C",
      "330C",
      "330C",
      "330C",
      "330C",
      "330",
      "330",
      "334",
      "338",
      "344",
      "348C",
      "350C",
      "350C",
      "350C",
      "350C",
      "350C",
      "350C",
      "350C",
      "350C",
      "350C",
      "350C",
      "350C",
      "350C",
      "350C",
      "350C",
      "350C",
      "350C",
      "350C",
      "350C",
      "350C",
      "350C",
      "350C",
      "350C",
      "350C",
      "350C",
      "350C",
      "350C",
      "350C",
      "350C",
      "350C",
      "350C",
      "350C",
      "350C",
      "350C",
      "350C",
      "350C",
      "350C",
      "350C",
      "350C",
      "350C",
      "350C",
      "350C",
      "350C",
      "350C",
      "350C",
      "350C",
      "350C",
      "350C",
      "350C",
      "350C",
      "350C",
      "350C",
      "350C",
      "350C",
      "350C",
      "350C",
      "350C",
      "350C",
      "350C",
      "350C",
      "350C",
      "350C",
      "350C",
      "350C",
      "350C",
      "350C",
      "350C",
      "350C",
      "350C",
      "350C",
      "350C",
      "350C",
      "350C",
      "350C",
      "350C",
      "350C",
      "350C",
      "350C",
      "350C",
      "350C",
      "350C",
      "350C",
      "350C",
      "350C",
      "350C",
      "350C",
      "350C",
      "350C",
      "350C",
      "350C",
      "350C",
      "350C",
      "350C",
      "350C",
      "350C",
      "350C",
      "350C",
      "350C",
      "350C",
      "350C",
      "350C",
      "350C",
      "350C",
      "350C",
      "350C",
      "350C",
      "350C",
      "350C",
      "350C",
      "350C",
      "350C",
      "350C",
      "350C",
      "350C",
      "350C",
      "350C",
      "350C",
      "350C",
      "350C",
      "344",
      "334",
      "330",
      "330",
      "330",
      "330",
      "330",
      "310",
      "289",
      "269",
      "249",
      "229",
      "209",
      "199",
      "191",
      "184",
      "171",
      "161",
      "152",
      "146",
      "134",
      "126",
      "116",
      "111",
      "103",
      "101",
      "095",
      "091",
      "081",
      "072",
      "069",
      "062",
      "058",
      "052",
      "042",
      "039",
      "029",
      "027",
      "020",
      "015",
      "012"
    ],
    "swim:geom": "path",
    "swim:speeds": [
      159,
      173,
      210,
      262,
      283,
      294,
      336,
      386,
      412,
      433,
      451,
      464,
      479,
      498,
      507,
      515,
      528,
      540,
      542,
      541,
      541,
      540,
      533,
      531,
      535,
      531,
      537,
      537,
      538,
      538,
      538,
      538,
      538,
      538,
      538,
      542,
      538,
      539,
      536,
      537,
      534,
      535,
      533,
      533,
      533,
      533,
      533,
      533,
      534,
      534,
      534,
      534,
      534,
      534,
      534,
      534,
      534,
      533,
      533,
      534,
      534,
      533,
      531,
      531,
      531,
      531,
      532,
      533,
      534,
      535,
      535,
      537,
      539,
      542,
      544,
      546,
      547,
      547,
      547,
      546,
      544,
      542,
      540,
      539,
      537,
      537,
      536,
      536,
      535,
      534,
      534,
      532,
      530,
      529,
      530,
      530,
      531,
      531,
      532,
      533,
      533,
      532,
      532,
      531,
      529,
      528,
      526,
      524,
      523,
      524,
      523,
      524,
      523,
      523,
      523,
      523,
      524,
      523,
      523,
      523,
      522,
      522,
      520,
      520,
      519,
      519,
      518,
      518,
      518,
      518,
      518,
      518,
      519,
      519,
      519,
      519,
      519,
      519,
      519,
      518,
      517,
      516,
      515,
      514,
      513,
      513,
      513,
      513,
      513,
      513,
      513,
      510,
      510,
      510,
      509,
      508,
      504,
      503,
      503,
      503,
      505,
      506,
      508,
      509,
      509,
      510,
      511,
      511,
      510,
      509,
      509,
      508,
      507,
      505,
      503,
      500,
      498,
      498,
      499,
      499,
      496,
      489,
      489,
      489,
      489,
      489,
      489,
      480,
      463,
      450,
      437,
      424,
      410,
      409,
      398,
      399,
      382,
      373,
      371,
      363,
      359,
      351,
      348,
      341,
      327,
      302,
      285,
      279,
      264,
      265,
      257,
      252,
      242,
      241,
      243,
      220,
      206,
      190,
      162,
      152,
      155
    ],
    "swim:timestamps": [
      1790550658,
      1790550683,
      1790550718,
      1790550778,
      1790550838,
      1790550898,
      1790550958,
      1790551018,
      1790551079,
      1790551139,
      1790551199,
      1790551259,
      1790551319,
      1790551379,
      1790551439,
      1790551499,
      1790551559,
      1790551619,
      1790551679,
      1790551740,
      1790551761,
      1790551821,
      1790551860,
      1790551881,
      1790551920,
      1790551941,
      1790551980,
      1790552001,
      1790552040,
      1790552061,
      1790552100,
      1790552121,
      1790552160,
      1790552182,
      1790552220,
      1790552242,
      1790552280,
      1790552302,
      1790552340,
      1790552362,
      1790552400,
      1790552422,
      1790552461,
      1790552482,
      1790552521,
      1790552542,
      1790552581,
      1790552602,
      1790552641,
      1790552662,
      1790552701,
      1790552722,
      1790552761,
      1790552782,
      1790552821,
      1790552842,
      1790552881,
      1790552903,
      1790552941,
      1790552963,
      1790553001,
      1790553023,
      1790553061,
      1790553083,
      1790553121,
      1790553143,
      1790553203,
      1790553263,
      1790553323,
      1790553383,
      1790553443,
      1790553503,
      1790553563,
      1790553623,
      1790553684,
      1790553744,
      1790553804,
      1790553864,
      1790553924,
      1790553984,
      1790554044,
      1790554104,
      1790554164,
      1790554224,
      1790554284,
      1790554344,
      1790554405,
      1790554465,
      1790554525,
      1790554585,
      1790554645,
      1790554705,
      1790554765,
      1790554825,
      1790554885,
      1790554945,
      1790555005,
      1790555065,
      1790555125,
      1790555186,
      1790555246,
      1790555306,
      1790555366,
      1790555426,
      1790555486,
      1790555546,
      1790555606,
      1790555666,
      1790555726,
      1790555761,
      1790555786,
      1790555821,
      1790555846,
      1790555907,
      1790555953,
      1790555967,
      1790556013,
      1790556027,
      1790556073,
      1790556087,
      1790556133,
      1790556147,
      1790556193,
      1790556207,
      1790556253,
      1790556267,
      1790556313,
      1790556327,
      1790556373,
      1790556387,
      1790556434,
      1790556447,
      1790556494,
      1790556507,
      1790556554,
      1790556567,
      1790556614,
      1790556674,
      1790556734,
      1790556794,
      1790556854,
      1790556914,
      1790556974,
      1790557034,
      1790557094,
      1790557155,
      1790557215,
      1790557275,
      1790557335,
      1790557395,
      1790557455,
      1790557516,
      1790557576,
      1790557636,
      1790557696,
      1790557756,
      1790557876,
      1790557936,
      1790557996,
      1790558056,
      1790558116,
      1790558176,
      1790558237,
      1790558297,
      1790558357,
      1790558417,
      1790558477,
      1790558537,
      1790558597,
      1790558657,
      1790558717,
      1790558777,
      1790558837,
      1790558897,
      1790558958,
      1790559018,
      1790559078,
      1790559138,
      1790559198,
      1790559270,
      1790559330,
      1790559390,
      1790559450,
      1790559510,
      1790559570,
      1790559630,
      1790559691,
      1790559751,
      1790559811,
      1790559871,
      1790559931,
      1790559991,
      1790560051,
      1790560086,
      1790560123,
      1790560134,
      1790560183,
      1790560206,
      1790560243,
      1790560255,
      1790560303,
      1790560321,
      1790560363,
      1790560375,
      1790560424,
      1790560441,
      1790560484,
      1790560495,
      1790560555,
      1790560604,
      1790560615,
      1790560664,
      1790560681,
      1790560724,
      1790560741,
      1790560784,
      1790560844,
      1790560855,
      1790560904,
      1790560933,
      1790560964
    ],
    "wof:geomhash": "6c940146c0db19837a5d6092e90a7cb7",
    "wof:id": 2048451313,
    "wof:repo": "sfomuseum-data-flights-2026-09"
  },
  "bbox": [
    -122.4,
    37.61666666666667,
    -93.2525,
    44.95
  ],
  "geometry": {"type":"LineString","coordinates":[[-122.38333333333334,37.61666666666667],[-122.4,37.63333333333333],[-122.385,37.65888888888889],[-122.30388888888889,37.68583333333333],[-122.21666666666667,37.719166666666666],[-122.1538888888889,37.785],[-122.08972222222222,37.85666666666667],[-122.01305555555555,37.94027777777777],[-121.92888888888889,38.03388888888889],[-121.84083333333332,38.13],[-121.74027777777778,38.23888888888889],[-121.64444444444445,38.34305555555556],[-121.53833333333333,38.44888888888889],[-121.40194444444445,38.53527777777778],[-121.24888888888889,38.62888888888889],[-121.10194444444444,38.717777777777776],[-120.95305555555557,38.8075],[-120.79972222222221,38.89972222222222],[-120.6438888888889,38.99305555555556],[-120.49194444444444,39.08305555555556],[-120.46694444444445,39.095555555555556],[-120.315,39.18583333333333],[-120.21833333333333,39.24472222222222],[-120.16388888888889,39.27444444444444],[-120.03999999999999,39.349444444444444],[-120.01027777777777,39.36416666666667],[-119.88666666666667,39.43861111111111],[-119.85472222222222,39.45527777777778],[-119.72972222222222,39.530277777777776],[-119.70027777777779,39.54694444444444],[-119.57583333333334,39.61888888888889],[-119.54444444444444,39.63666666666666],[-119.41833333333334,39.70944444444445],[-119.38805555555557,39.726111111111116],[-119.2611111111111,39.799166666666665],[-119.23027777777779,39.816944444444445],[-119.10388888888889,39.888888888888886],[-119.07277777777777,39.905277777777776],[-118.94305555555556,39.970555555555556],[-118.91000000000001,39.98694444444445],[-118.77361111111111,40.04527777777778],[-118.74083333333333,40.05916666666666],[-118.60472222222222,40.1175],[-118.57194444444444,40.13138888888889],[-118.46972222222223,40.175],[-118.4063888888889,40.20194444444445],[-118.29861111111111,40.24722222222222],[-118.23555555555555,40.27388888888889],[-118.12638888888888,40.31916666666667],[-118.06222222222222,40.34055555555556],[-117.91583333333334,40.388333333333335],[-117.88388888888889,40.39861111111111],[-117.73527777777778,40.44638888888888],[-117.70277777777778,40.45666666666667],[-117.55638888888889,40.503055555555555],[-117.52194444444444,40.513888888888886],[-117.41083333333334,40.549166666666665],[-117.3411111111111,40.57138888888889],[-117.22916666666667,40.60722222222223],[-117.1588888888889,40.629444444444445],[-117.0475,40.66444444444444],[-116.97805555555556,40.686388888888885],[-116.86722222222221,40.72138888888889],[-116.79694444444445,40.74305555555556],[-116.68472222222222,40.778055555555554],[-116.615,40.79972222222222],[-116.43222222222222,40.85638888888889],[-116.25138888888888,40.91166666666666],[-116.07027777777778,40.96666666666667],[-115.88666666666667,41.0225],[-115.70416666666667,41.077222222222225],[-115.51805555555555,41.132777777777775],[-115.3325,41.187777777777775],[-115.14527777777778,41.24277777777778],[-114.9575,41.2975],[-114.76277777777777,41.35416666666667],[-114.56833333333333,41.40972222222222],[-114.38055555555555,41.46361111111111],[-114.18944444444445,41.51777777777777],[-114.00194444444445,41.57055555555556],[-113.8125,41.623333333333335],[-113.62472222222222,41.675555555555555],[-113.43611111111112,41.7275],[-113.25,41.77833333333333],[-113.06027777777777,41.82972222222222],[-112.87333333333332,41.88],[-112.68444444444445,41.93055555555555],[-112.49722222222222,41.98027777777778],[-112.30694444444444,42.030277777777776],[-112.11944444444444,42.07888888888889],[-111.93055555555556,42.12777777777778],[-111.74388888888889,42.17583333333333],[-111.55388888888889,42.22416666666667],[-111.36805555555554,42.27111111111111],[-111.17861111111111,42.31861111111112],[-110.99083333333333,42.365],[-110.81861111111111,42.408055555555556],[-110.62722222222222,42.45444444444445],[-110.4375,42.50055555555556],[-110.24472222222222,42.54694444444444],[-110.05444444444444,42.59055555555556],[-109.85972222222222,42.63],[-109.66861111111112,42.66861111111111],[-109.47277777777778,42.7075],[-109.28083333333333,42.745555555555555],[-109.08833333333332,42.783055555555556],[-108.89777777777779,42.82],[-108.70722222222223,42.85666666666667],[-108.51444444444445,42.893055555555556],[-108.40083333333334,42.91444444444444],[-108.32416666666666,42.92861111111111],[-108.20722222222223,42.95055555555556],[-108.11416666666666,42.967777777777776],[-107.9238888888889,43.00527777777778],[-107.78777777777778,43.03194444444444],[-107.73111111111112,43.043055555555554],[-107.59333333333333,43.06944444444445],[-107.53888888888889,43.07972222222222],[-107.42500000000001,43.10111111111111],[-107.34916666666666,43.11555555555556],[-107.23666666666666,43.13638888888889],[-107.15833333333335,43.151111111111106],[-107.00611111111111,43.17972222222222],[-106.96888888888888,43.186388888888885],[-106.85416666666666,43.20777777777778],[-106.80472222222222,43.21638888888889],[-106.6538888888889,43.24277777777778],[-106.61333333333333,43.249722222222225],[-106.46083333333334,43.27638888888889],[-106.42277777777778,43.282777777777774],[-106.27027777777778,43.30888888888889],[-106.23,43.31583333333333],[-106.0786111111111,43.34166666666667],[-106.03666666666666,43.348888888888894],[-105.88388888888889,43.37444444444444],[-105.84472222222222,43.38111111111111],[-105.6888888888889,43.40694444444444],[-105.49666666666667,43.43833333333333],[-105.3025,43.469722222222224],[-105.11,43.50083333333333],[-104.915,43.531666666666666],[-104.72361111111111,43.56194444444444],[-104.52972222222222,43.591944444444444],[-104.33611111111111,43.62166666666667],[-104.18472222222222,43.64472222222222],[-103.95277777777778,43.67944444444444],[-103.75972222222222,43.70805555555556],[-103.56638888888888,43.73638888888889],[-103.37416666666665,43.763888888888886],[-103.17916666666667,43.791666666666664],[-102.98444444444445,43.81888888888889],[-102.80305555555556,43.84388888888889],[-102.60805555555555,43.87083333333334],[-102.41111111111111,43.8975],[-102.22027777777778,43.922777777777775],[-102.0286111111111,43.948055555555555],[-101.65111111111112,43.996944444444445],[-101.45972222222223,44.020833333333336],[-101.30805555555555,44.038888888888884],[-101.07944444444443,44.061388888888885],[-100.88555555555556,44.07916666666667],[-100.69027777777778,44.096944444444446],[-100.45861111111111,44.117777777777775],[-100.26388888888889,44.13472222222222],[-100.07138888888889,44.151111111111106],[-99.87388888888889,44.1675],[-99.67888888888889,44.18333333333333],[-99.48444444444445,44.19888888888889],[-99.28972222222222,44.214444444444446],[-99.095,44.22916666666667],[-98.90111111111112,44.24388888888889],[-98.7075,44.25805555555556],[-98.51388888888889,44.27166666666667],[-98.31888888888888,44.28527777777778],[-98.1363888888889,44.297777777777775],[-97.94583333333334,44.31027777777778],[-97.75222222222222,44.32277777777778],[-97.55916666666667,44.335],[-97.36861111111111,44.346944444444446],[-97.13666666666667,44.36055555555556],[-96.94583333333334,44.37138888888889],[-96.75472222222223,44.38194444444444],[-96.56694444444445,44.39222222222222],[-96.37333333333332,44.40222222222222],[-96.18222222222222,44.41222222222222],[-95.99027777777778,44.421388888888885],[-95.80027777777778,44.430277777777775],[-95.61083333333333,44.43861111111111],[-95.42944444444444,44.44694444444444],[-95.25611111111111,44.45444444444445],[-95.09194444444444,44.47944444444445],[-94.93583333333333,44.515],[-94.78305555555555,44.55027777777777],[-94.7,44.56666666666667],[-94.63722222222223,44.58388888888889],[-94.58333333333333,44.6],[-94.47416666666666,44.62111111111111],[-94.4,44.63333333333333],[-94.33527777777778,44.652499999999996],[-94.3,44.666666666666664],[-94.20222222222222,44.68222222222222],[-94.15,44.7],[-94.07333333333332,44.71138888888889],[-94.03333333333333,44.71666666666667],[-93.94861111111112,44.739444444444445],[-93.9,44.75],[-93.85305555555556,44.78055555555555],[-93.83333333333333,44.8],[-93.76666666666667,44.85],[-93.705,44.885555555555555],[-93.68333333333334,44.9],[-93.61916666666666,44.92166666666667],[-93.58333333333333,44.93333333333333],[-93.55472222222222,44.94777777777777],[-93.5,44.95],[-93.44444444444444,44.94555555555555],[-93.36305555555555,44.94138888888889],[-93.35,44.93333333333333],[-93.30333333333333,44.9175],[-93.28333333333333,44.9],[-93.2525,44.89555555555555]]}
}
