{
  "id": 2048369683,
  "type": "Feature",
  "properties": {
    "geom:area": 0,
    "geom:bbox": "-122.357360,36.730210,-121.884690,37.611310",
    "geom:latitude": 37.218752425930546,
    "geom:longitude": -122.07070968894269,
    "src:alt_label": "swim-approach",
    "src:geom": "swim",
    "swim:elevations": [
      5576,
      5421,
      4970,
      4702,
      4602,
      4318,
      4146,
      3813,
      3687,
      3581,
      3566,
      3331,
      3133,
      2803,
      2681,
      2481,
      2363,
      2084,
      1975,
      1889,
      1851,
      1624,
      1531,
      1088,
      973,
      826,
      755,
      550,
      477,
      338,
      243,
      151,
      37
    ],
    "swim:geom": "approach",
    "swim:timestamps": [
      1789736521,
      1789736557,
      1789736600,
      1789736636,
      1789736649,
      1789736684,
      1789736708,
      1789736757,
      1789736779,
      1789736815,
      1789736825,
      1789736864,
      1789736889,
      1789736933,
      1789736953,
      1789736983,
      1789737008,
      1789737052,
      1789737073,
      1789737113,
      1789737128,
      1789737163,
      1789737183,
      1789737234,
      1789737248,
      1789737292,
      1789737310,
      1789737351,
      1789737368,
      1789737404,
      1789737433,
      1789737462,
      1789737500
    ],
    "wof:geomhash": "58baada65b2618ebccf76795f2e5b948",
    "wof:id": 2048369683,
    "wof:repo": "sfomuseum-data-flights-2026-09"
  },
  "bbox": [
    -122.35736,
    36.73021,
    -121.88469,
    37.61131
  ],
  "geometry": {"type":"LineString","coordinates":[[-121.88469,36.73021],[-121.90407,36.77769],[-121.92123,36.83841],[-121.93535,36.88829],[-121.94025,36.90575],[-121.95333,36.95262],[-121.96563,36.98416],[-121.98977,37.04606],[-121.99974,37.07166],[-122.01536,37.11194],[-122.01943,37.12209],[-122.03511,37.16176],[-122.04522,37.18792],[-122.06275,37.23296],[-122.07099,37.25364],[-122.08304,37.28413],[-122.09295,37.30949],[-122.10979,37.35241],[-122.1179,37.37292],[-122.13082,37.40945],[-122.13346,37.42302],[-122.13001,37.45252],[-122.12809,37.46951],[-122.14639,37.50836],[-122.15564,37.51814],[-122.19171,37.54218],[-122.20929,37.54895],[-122.249,37.56575],[-122.26455,37.57224],[-122.29354,37.58434],[-122.31362,37.59293],[-122.33289,37.60104],[-122.35736,37.61131]]}
}
