{
  "id": 2048413117,
  "type": "Feature",
  "properties": {
    "geom:area": 0,
    "geom:bbox": "-122.351750,37.492070,-121.266110,37.611170",
    "geom:latitude": 37.5457340009124,
    "geom:longitude": -121.81357955114638,
    "src:alt_label": "swim-approach",
    "src:geom": "swim",
    "swim:elevations": [
      4757,
      4656,
      4437,
      4218,
      4022,
      3733,
      3582,
      3470,
      3392,
      3092,
      2882,
      2675,
      2476,
      2242,
      2009,
      1892,
      1761,
      1661,
      1489,
      1308,
      1212,
      997,
      821,
      670,
      548,
      424,
      268,
      209,
      58
    ],
    "swim:geom": "approach",
    "swim:timestamps": [
      1790167972,
      1790167991,
      1790168017,
      1790168052,
      1790168084,
      1790168125,
      1790168146,
      1790168174,
      1790168193,
      1790168247,
      1790168268,
      1790168293,
      1790168318,
      1790168345,
      1790168388,
      1790168416,
      1790168451,
      1790168466,
      1790168516,
      1790168546,
      1790168560,
      1790168589,
      1790168623,
      1790168656,
      1790168681,
      1790168710,
      1790168744,
      1790168760,
      1790168796
    ],
    "wof:geomhash": "8da21863393770d501cb91690302b037",
    "wof:id": 2048413117,
    "wof:repo": "sfomuseum-data-flights-2026-09"
  },
  "bbox": [
    -122.35175,
    37.49207,
    -121.26611,
    37.61117
  ],
  "geometry": {"type":"LineString","coordinates":[[-121.26611,37.59231],[-121.30228,37.58803],[-121.35123,37.58274],[-121.41576,37.57523],[-121.47454,37.56839],[-121.5456,37.55995],[-121.58173,37.55582],[-121.62571,37.55027],[-121.65507,37.54349],[-121.73026,37.52564],[-121.75907,37.51873],[-121.7925,37.51065],[-121.8261,37.50261],[-121.86099,37.49425],[-121.91942,37.49207],[-121.95708,37.49308],[-122.0041,37.49982],[-122.02302,37.50598],[-122.08465,37.52605],[-122.11669,37.53643],[-122.13077,37.54108],[-122.16237,37.55122],[-122.19576,37.56195],[-122.22727,37.57212],[-122.25195,37.58025],[-122.27872,37.58824],[-122.30868,37.59703],[-122.32215,37.60114],[-122.35175,37.61117]]}
}
