{
  "id": 2048240677,
  "type": "Feature",
  "properties": {
    "geom:area": 0,
    "geom:bbox": "-122.357860,37.491470,-121.268460,37.614320",
    "geom:latitude": 37.54204013118989,
    "geom:longitude": -121.820246253103,
    "src:alt_label": "swim-approach",
    "src:geom": "swim",
    "swim:elevations": [
      4853,
      4803,
      4665,
      4395,
      4175,
      4010,
      3832,
      3684,
      3592,
      3413,
      3357,
      3187,
      2975,
      2843,
      2580,
      2392,
      2213,
      2123,
      2010,
      1803,
      1582,
      1440,
      1306,
      1160,
      1048,
      859,
      733,
      573,
      455,
      305,
      200,
      31,
      134
    ],
    "swim:geom": "approach",
    "swim:timestamps": [
      1788458966,
      1788458970,
      1788458990,
      1788459019,
      1788459057,
      1788459086,
      1788459114,
      1788459135,
      1788459147,
      1788459174,
      1788459188,
      1788459222,
      1788459261,
      1788459284,
      1788459327,
      1788459355,
      1788459385,
      1788459398,
      1788459420,
      1788459477,
      1788459506,
      1788459533,
      1788459557,
      1788459587,
      1788459619,
      1788459655,
      1788459677,
      1788459709,
      1788459730,
      1788459765,
      1788459793,
      1788459834,
      1788459842
    ],
    "wof:geomhash": "47b973f8b30a03bb81aa07f2009e07a7",
    "wof:id": 2048240677,
    "wof:repo": "sfomuseum-data-flights-2026-09"
  },
  "bbox": [
    -122.35786,
    37.49147,
    -121.26846,
    37.61432
  ],
  "geometry": {"type":"LineString","coordinates":[[-121.26846,37.59213],[-121.27581,37.5911],[-121.30847,37.58717],[-121.35632,37.58217],[-121.41752,37.57534],[-121.46017,37.57022],[-121.50097,37.56506],[-121.53146,37.56145],[-121.54906,37.55948],[-121.58837,37.55504],[-121.60739,37.55316],[-121.65234,37.54408],[-121.70246,37.53208],[-121.7329,37.5249],[-121.78908,37.51145],[-121.82644,37.50252],[-121.86476,37.49352],[-121.88162,37.49147],[-121.91138,37.49297],[-121.98664,37.49725],[-122.023,37.49902],[-122.05918,37.50146],[-122.09119,37.50374],[-122.12546,37.51571],[-122.15961,37.53049],[-122.19705,37.54619],[-122.2194,37.55567],[-122.252,37.56931],[-122.27138,37.57748],[-122.30051,37.58976],[-122.32171,37.59857],[-122.35269,37.61167],[-122.35786,37.61432]]}
}
