{
  "id": 2048224245,
  "type": "Feature",
  "properties": {
    "geom:area": 0,
    "geom:bbox": "-123.056220,37.341720,-122.077400,38.482180",
    "geom:latitude": 37.77735491639592,
    "geom:longitude": -122.5140476325854,
    "src:alt_label": "swim-approach",
    "src:geom": "swim",
    "swim:elevations": [
      8222,
      7913,
      7644,
      7225,
      6909,
      6530,
      6379,
      6016,
      5854,
      5434,
      5359,
      5026,
      4667,
      4481,
      4291,
      4260,
      3994,
      3916,
      3568,
      3353,
      3353,
      3353,
      3353,
      3353,
      3292,
      3114,
      3014,
      2892,
      2611,
      2575,
      2319,
      2047,
      1931,
      1850,
      1829,
      1829,
      1675,
      1597,
      1510,
      1219,
      1219,
      1219,
      1219,
      1219,
      1216,
      1197,
      924,
      765,
      694,
      498,
      428,
      291,
      201,
      151,
      26
    ],
    "swim:geom": "approach",
    "swim:timestamps": [
      1788274429,
      1788274453,
      1788274476,
      1788274517,
      1788274548,
      1788274586,
      1788274602,
      1788274638,
      1788274656,
      1788274699,
      1788274710,
      1788274742,
      1788274778,
      1788274806,
      1788274842,
      1788274846,
      1788274883,
      1788274893,
      1788274938,
      1788274977,
      1788274999,
      1788275035,
      1788275044,
      1788275090,
      1788275119,
      1788275155,
      1788275176,
      1788275199,
      1788275247,
      1788275253,
      1788275287,
      1788275330,
      1788275364,
      1788275398,
      1788275403,
      1788275438,
      1788275486,
      1788275502,
      1788275522,
      1788275572,
      1788275597,
      1788275630,
      1788275659,
      1788275672,
      1788275727,
      1788275731,
      1788275779,
      1788275811,
      1788275832,
      1788275877,
      1788275899,
      1788275936,
      1788275959,
      1788275970,
      1788276004
    ],
    "wof:geomhash": "6d419324dbfb54deecf3096bbb7349b2",
    "wof:id": 2048224245,
    "wof:repo": "sfomuseum-data-flights-2026-09"
  },
  "bbox": [
    -123.05622,
    37.34172,
    -122.0774,
    38.48218
  ],
  "geometry": {"type":"LineString","coordinates":[[-123.05622,38.48218],[-123.02931,38.44121],[-123.00488,38.40497],[-122.9618,38.34021],[-122.93005,38.29186],[-122.89197,38.23397],[-122.87625,38.21013],[-122.84063,38.15609],[-122.82367,38.13],[-122.78234,38.06679],[-122.7721,38.05082],[-122.74188,38.00426],[-122.70779,37.95258],[-122.68289,37.91451],[-122.64467,37.87245],[-122.63936,37.86747],[-122.59708,37.82767],[-122.58565,37.81682],[-122.53505,37.76909],[-122.49305,37.72903],[-122.47156,37.70887],[-122.43795,37.67803],[-122.42941,37.67001],[-122.38678,37.62944],[-122.36153,37.6034],[-122.34196,37.56658],[-122.33034,37.54595],[-122.31614,37.5228],[-122.31692,37.47332],[-122.31827,37.46784],[-122.32728,37.43248],[-122.33871,37.38751],[-122.34143,37.35547],[-122.30758,37.34172],[-122.30247,37.34259],[-122.26159,37.3526],[-122.20588,37.36603],[-122.18852,37.37058],[-122.16721,37.37655],[-122.11436,37.39229],[-122.09678,37.41047],[-122.0774,37.43645],[-122.08856,37.46081],[-122.09631,37.47048],[-122.12934,37.51109],[-122.13217,37.51353],[-122.17862,37.53607],[-122.20644,37.54787],[-122.2237,37.55505],[-122.2602,37.57048],[-122.27744,37.57775],[-122.3055,37.58967],[-122.32248,37.59663],[-122.33152,37.60035],[-122.35794,37.61157]]}
}
