{
  "id": 2048370301,
  "type": "Feature",
  "properties": {
    "geom:area": 0,
    "geom:bbox": "-122.577480,36.725990,-121.881070,37.611600",
    "geom:latitude": 37.22333970334914,
    "geom:longitude": -122.24577112134455,
    "src:alt_label": "swim-approach",
    "src:geom": "swim",
    "swim:elevations": [
      5508,
      5406,
      4949,
      4723,
      4662,
      4604,
      4544,
      4448,
      4275,
      4129,
      3917,
      3724,
      3640,
      3574,
      3355,
      3354,
      3327,
      3176,
      3039,
      2745,
      2743,
      2743,
      2680,
      2512,
      2438,
      2438,
      2438,
      2270,
      2255,
      2106,
      1960,
      1829,
      1829,
      1829,
      1829,
      1829,
      1708,
      1616,
      1525,
      1474,
      1365,
      1312,
      1137,
      1005,
      910,
      914,
      886,
      816,
      623,
      538,
      416,
      335,
      181,
      67,
      16
    ],
    "swim:geom": "approach",
    "swim:timestamps": [
      1789764986,
      1789765001,
      1789765045,
      1789765077,
      1789765097,
      1789765119,
      1789765146,
      1789765183,
      1789765218,
      1789765247,
      1789765281,
      1789765309,
      1789765321,
      1789765333,
      1789765370,
      1789765380,
      1789765432,
      1789765454,
      1789765477,
      1789765528,
      1789765547,
      1789765588,
      1789765602,
      1789765637,
      1789765667,
      1789765682,
      1789765712,
      1789765767,
      1789765772,
      1789765804,
      1789765833,
      1789765882,
      1789765916,
      1789765933,
      1789765966,
      1789765984,
      1789766036,
      1789766060,
      1789766095,
      1789766116,
      1789766154,
      1789766162,
      1789766198,
      1789766244,
      1789766267,
      1789766283,
      1789766300,
      1789766318,
      1789766363,
      1789766388,
      1789766416,
      1789766434,
      1789766479,
      1789766509,
      1789766522
    ],
    "wof:geomhash": "b890ad8b81495017d488aedd60e7c0d7",
    "wof:id": 2048370301,
    "wof:repo": "sfomuseum-data-flights-2026-09"
  },
  "bbox": [
    -122.57748,
    36.72599,
    -121.88107,
    37.6116
  ],
  "geometry": {"type":"LineString","coordinates":[[-121.88107,36.72599],[-121.89406,36.74931],[-121.91662,36.82237],[-121.93065,36.87317],[-121.93892,36.90272],[-121.94813,36.93481],[-121.96044,36.97028],[-121.99428,37.00681],[-122.04577,37.01584],[-122.08712,37.02242],[-122.13603,37.03015],[-122.17758,37.03626],[-122.19505,37.03884],[-122.21263,37.04138],[-122.26628,37.04903],[-122.28074,37.05086],[-122.34815,37.0743],[-122.37546,37.08656],[-122.39772,37.10437],[-122.44188,37.14765],[-122.45788,37.16377],[-122.4929,37.19904],[-122.50516,37.2115],[-122.5348,37.24162],[-122.55897,37.26819],[-122.56577,37.28346],[-122.57748,37.31447],[-122.54339,37.36393],[-122.53888,37.3676],[-122.50834,37.39162],[-122.47829,37.40625],[-122.41435,37.39256],[-122.37229,37.3807],[-122.35076,37.37462],[-122.30829,37.36774],[-122.28471,37.36829],[-122.22157,37.38076],[-122.19286,37.39007],[-122.15031,37.40447],[-122.13314,37.42062],[-122.1148,37.45065],[-122.111,37.45671],[-122.10612,37.48486],[-122.1339,37.51481],[-122.1524,37.52496],[-122.16547,37.53082],[-122.18041,37.537],[-122.19636,37.54369],[-122.23497,37.56014],[-122.25666,37.56919],[-122.27943,37.579],[-122.29278,37.58426],[-122.32704,37.59857],[-122.34951,37.60801],[-122.35822,37.6116]]}
}
