{
  "id": 2048292591,
  "type": "Feature",
  "properties": {
    "geom:area": 0,
    "geom:bbox": "-122.362430,36.722430,-121.878600,37.613380",
    "geom:latitude": 37.22441190011978,
    "geom:longitude": -122.06620896344992,
    "src:alt_label": "swim-approach",
    "src:geom": "swim",
    "swim:elevations": [
      5239,
      4942,
      4591,
      4395,
      4069,
      3797,
      3555,
      3222,
      3199,
      3077,
      2985,
      2914,
      2740,
      2471,
      2420,
      2292,
      1988,
      1813,
      1703,
      1426,
      1396,
      1174,
      1132,
      981,
      796,
      699,
      558,
      503,
      363,
      168,
      39,
      16
    ],
    "swim:geom": "approach",
    "swim:timestamps": [
      1788941599,
      1788941629,
      1788941665,
      1788941685,
      1788941720,
      1788941750,
      1788941779,
      1788941818,
      1788941821,
      1788941851,
      1788941890,
      1788941912,
      1788941940,
      1788941987,
      1788942007,
      1788942033,
      1788942083,
      1788942111,
      1788942135,
      1788942176,
      1788942184,
      1788942223,
      1788942245,
      1788942279,
      1788942319,
      1788942338,
      1788942375,
      1788942392,
      1788942425,
      1788942472,
      1788942505,
      1788942516
    ],
    "wof:geomhash": "a7bfd56a09c046f02e5d4da12b36bdd9",
    "wof:id": 2048292591,
    "wof:repo": "sfomuseum-data-flights-2026-09"
  },
  "bbox": [
    -122.36243,
    36.72243,
    -121.8786,
    37.61338
  ],
  "geometry": {"type":"LineString","coordinates":[[-121.8786,36.72243],[-121.90268,36.77147],[-121.91936,36.83138],[-121.92919,36.86494],[-121.94594,36.92391],[-121.96178,36.97085],[-121.97967,37.01637],[-122.00107,37.07515],[-122.0028,37.07978],[-122.01939,37.12357],[-122.0396,37.17467],[-122.05052,37.20162],[-122.06359,37.23384],[-122.08372,37.28632],[-122.09136,37.30621],[-122.10076,37.33056],[-122.09441,37.37843],[-122.08652,37.40453],[-122.08015,37.42659],[-122.08081,37.46366],[-122.08557,37.46932],[-122.11399,37.49827],[-122.12916,37.51197],[-122.15971,37.52853],[-122.19657,37.54369],[-122.2131,37.55044],[-122.24447,37.56379],[-122.25946,37.5701],[-122.28747,37.58191],[-122.3271,37.5987],[-122.35371,37.60977],[-122.36243,37.61338]]}
}
