{
  "id": 2048269749,
  "type": "Feature",
  "properties": {
    "date:inception_lower": "2026-09-06",
    "date:inception_upper": "2026-09-06",
    "edtf:cessation": "",
    "edtf:inception": "2026-09-06",
    "flysfo:actual_timestamp": -1,
    "flysfo:airline": "LH",
    "flysfo:base_airline": "",
    "flysfo:base_flight_number": "1066",
    "flysfo:date": "2026-09-06",
    "flysfo:estimated_timestamp": 1788736920,
    "flysfo:event": "D",
    "flysfo:flight_number": "LH7498",
    "flysfo:gate": "E11",
    "flysfo:journey": "SFO-LAX",
    "flysfo:scheduled_timestamp": 1788737100,
    "flysfo:timestamp": 1788737100,
    "geom:area": 0,
    "geom:bbox": "-122.370943,33.942593,-118.389510,37.617990",
    "geom:latitude": 35.780291500000004,
    "geom:longitude": -120.38022649999999,
    "iata:airline": "LH",
    "iata:base_airline": "",
    "icao:airline": "DLH",
    "icao:base_airline": "CMP",
    "lbl:latitude": 37.619367,
    "lbl:longitude": -122.38387,
    "sfomuseum:airline_id": 1159286015,
    "sfomuseum:arrival_id": 102533795,
    "sfomuseum:base_flight_id": "20260906-D-CMP-1066",
    "sfomuseum:departure_id": 102527513,
    "sfomuseum:flight_id": "20260906-D-DLH-7498",
    "sfomuseum:flight_number": [
      "DLH7498",
      "LH7498"
    ],
    "sfomuseum:placetype": "flight",
    "src:geom": "flysfo",
    "wof:belongsto": [
      1947304067,
      102527513,
      1947304511,
      102191575,
      85633793,
      102087579,
      85922583,
      554784711,
      85688637,
      1947304527,
      1947304447,
      102085387
    ],
    "wof:country": "US",
    "wof:created": 1788797560,
    "wof:geomhash": "602be2a828e3460cadf44be5b1c2e36b",
    "wof:hierarchy": [
      {
        "building_id": 1947304067,
        "campus_id": 102527513,
        "concourse_id": 1947304511,
        "continent_id": 102191575,
        "country_id": 85633793,
        "county_id": 102087579,
        "custom_id": 2048269749,
        "flight_id": 2048269749,
        "locality_id": 85922583,
        "postalcode_id": 554784711,
        "region_id": 85688637,
        "venue_id": 1947304527,
        "wing_id": 1947304447
      },
      {
        "building_id": 1947304067,
        "campus_id": 102527513,
        "concourse_id": 1947304511,
        "continent_id": 102191575,
        "country_id": 85633793,
        "county_id": 102085387,
        "custom_id": 2048269749,
        "flight_id": 2048269749,
        "region_id": 85688637,
        "venue_id": 1947304527,
        "wing_id": 1947304447
      }
    ],
    "wof:id": 2048269749,
    "wof:involves": [
      102533795,
      102527513,
      1159286015,
      1947304527,
      1159284211
    ],
    "wof:lastmodified": 1788797560,
    "wof:name": "LH7498 (SFO-LAX)",
    "wof:parent_id": 1947304527,
    "wof:placetype": "custom",
    "wof:placetype_alt": [
      "flight"
    ],
    "wof:repo": "sfomuseum-data-flights-2026-09",
    "wof:superseded_by": [],
    "wof:supersedes": []
  },
  "bbox": [
    -122.370943,
    33.942593,
    -118.38951,
    37.61799
  ],
  "geometry": {"type":"MultiPoint","coordinates":[[-122.370943,37.61799],[-118.38951,33.942593]]}
}
