{
  "id": 2048271055,
  "type": "Feature",
  "properties": {
    "geom:area": 0,
    "geom:bbox": "-122.546750,36.719420,-121.418170,37.668740",
    "geom:latitude": 37.225277215461475,
    "geom:longitude": -122.04522528578728,
    "src:alt_label": "swim-takeoff",
    "src:geom": "swim",
    "swim:elevations": [
      122,
      467,
      813,
      1122,
      1265,
      1417,
      1787,
      2237,
      2665,
      2976,
      3497,
      3603,
      4108,
      4361,
      4723,
      5443,
      5652,
      5927,
      6406,
      6615,
      6921,
      7153,
      7375,
      7622,
      7855,
      8135,
      8331,
      8499,
      8751,
      8939,
      8963
    ],
    "swim:geom": "takeoff",
    "swim:timestamps": [
      1788713865,
      1788713892,
      1788713918,
      1788713947,
      1788713967,
      1788713984,
      1788714009,
      1788714044,
      1788714072,
      1788714092,
      1788714144,
      1788714151,
      1788714197,
      1788714219,
      1788714248,
      1788714316,
      1788714336,
      1788714363,
      1788714415,
      1788714442,
      1788714476,
      1788714500,
      1788714526,
      1788714557,
      1788714587,
      1788714626,
      1788714651,
      1788714676,
      1788714719,
      1788714747,
      1788714753
    ],
    "wof:geomhash": "b85ed00ee291c2b7c06da24cb72880db",
    "wof:id": 2048271055,
    "wof:repo": "sfomuseum-data-flights-2026-09"
  },
  "bbox": [
    -122.54675,
    36.71942,
    -121.41817,
    37.66874
  ],
  "geometry": {"type":"LineString","coordinates":[[-122.38978,37.62494],[-122.41325,37.63448],[-122.436,37.64335],[-122.46352,37.65657],[-122.48542,37.66643],[-122.5089,37.66874],[-122.54006,37.65466],[-122.54675,37.61353],[-122.51923,37.58348],[-122.49484,37.56454],[-122.42791,37.51239],[-122.417,37.50396],[-122.35185,37.45368],[-122.31899,37.42841],[-122.27582,37.39495],[-122.17128,37.31344],[-122.13993,37.28889],[-122.09717,37.25543],[-122.01297,37.18953],[-121.96807,37.15418],[-121.91229,37.11028],[-121.87157,37.07822],[-121.82721,37.0432],[-121.77171,36.99937],[-121.719,36.95792],[-121.64961,36.90324],[-121.60332,36.86753],[-121.55885,36.83215],[-121.48221,36.77078],[-121.42939,36.7285],[-121.41817,36.71942]]}
}
