{
  "id": 2048463667,
  "type": "Feature",
  "properties": {
    "geom:area": 0,
    "geom:bbox": "-122.348800,37.491450,-121.244760,37.610060",
    "geom:latitude": 37.546400912453734,
    "geom:longitude": -121.80148927856608,
    "src:alt_label": "swim-approach",
    "src:geom": "swim",
    "swim:elevations": [
      4484,
      4174,
      3787,
      3691,
      3631,
      3411,
      3200,
      2986,
      2928,
      2648,
      2458,
      2438,
      2288,
      2093,
      1887,
      1829,
      1829,
      1829,
      1764,
      1588,
      1399,
      1346,
      1142,
      913,
      914,
      820,
      698,
      490,
      319,
      305,
      113,
      58
    ],
    "swim:geom": "approach",
    "swim:timestamps": [
      1790685344,
      1790685371,
      1790685414,
      1790685424,
      1790685433,
      1790685460,
      1790685487,
      1790685533,
      1790685552,
      1790685598,
      1790685627,
      1790685643,
      1790685669,
      1790685709,
      1790685740,
      1790685763,
      1790685778,
      1790685793,
      1790685822,
      1790685854,
      1790685882,
      1790685889,
      1790685913,
      1790685946,
      1790685970,
      1790685994,
      1790686021,
      1790686066,
      1790686103,
      1790686115,
      1790686161,
      1790686177
    ],
    "wof:geomhash": "2d4f8afc6473f17b9ef67b2bd026c439",
    "wof:id": 2048463667,
    "wof:repo": "sfomuseum-data-flights-2026-09"
  },
  "bbox": [
    -122.3488,
    37.49145,
    -121.24476,
    37.61006
  ],
  "geometry": {"type":"LineString","coordinates":[[-121.24476,37.5953],[-121.3025,37.5878],[-121.39139,37.5779],[-121.41104,37.57568],[-121.42919,37.57353],[-121.48237,37.56748],[-121.53726,37.56116],[-121.62007,37.55115],[-121.65054,37.54454],[-121.72442,37.52693],[-121.76888,37.51629],[-121.79353,37.51039],[-121.83181,37.50119],[-121.88878,37.49145],[-121.93065,37.49243],[-121.96245,37.49322],[-121.98234,37.49428],[-122.0002,37.49902],[-122.03492,37.50999],[-122.06967,37.52115],[-122.09681,37.52989],[-122.1032,37.53197],[-122.1248,37.53899],[-122.15314,37.5482],[-122.17429,37.55519],[-122.19691,37.56249],[-122.22187,37.57059],[-122.26151,37.58325],[-122.29152,37.59181],[-122.30156,37.59483],[-122.33659,37.60596],[-122.3488,37.61006]]}
}
