{
  "id": 2048387497,
  "type": "Feature",
  "properties": {
    "geom:area": 0,
    "geom:bbox": "-123.504920,37.259800,-122.162540,37.606810",
    "geom:latitude": 37.35242243439354,
    "geom:longitude": -122.73501650600065,
    "src:alt_label": "swim-approach",
    "src:geom": "swim",
    "swim:elevations": [
      5456,
      5201,
      4855,
      4620,
      4323,
      4276,
      4082,
      3776,
      3417,
      3345,
      3170,
      3078,
      2912,
      2659,
      2411,
      2321,
      2038,
      1998,
      1850,
      1829,
      1829,
      1829,
      1829,
      1829,
      1560,
      1433,
      1369,
      1279,
      1023,
      881,
      789,
      743,
      517,
      374,
      246,
      144,
      90
    ],
    "swim:geom": "approach",
    "swim:timestamps": [
      1789930213,
      1789930241,
      1789930279,
      1789930304,
      1789930343,
      1789930357,
      1789930380,
      1789930422,
      1789930467,
      1789930474,
      1789930513,
      1789930536,
      1789930567,
      1789930605,
      1789930648,
      1789930665,
      1789930708,
      1789930715,
      1789930741,
      1789930798,
      1789930811,
      1789930838,
      1789930888,
      1789930900,
      1789930941,
      1789930976,
      1789931007,
      1789931032,
      1789931065,
      1789931088,
      1789931116,
      1789931134,
      1789931185,
      1789931216,
      1789931248,
      1789931272,
      1789931290
    ],
    "wof:geomhash": "e94d448c4b987d2e8f00a7c4e4efce2e",
    "wof:id": 2048387497,
    "wof:repo": "sfomuseum-data-flights-2026-09"
  },
  "bbox": [
    -123.50492,
    37.2598,
    -122.16254,
    37.60681
  ],
  "geometry": {"type":"LineString","coordinates":[[-123.50492,37.30497],[-123.44552,37.30083],[-123.36663,37.29525],[-123.31316,37.29128],[-123.2312,37.28533],[-123.20463,37.28336],[-123.1586,37.27992],[-123.07471,37.27371],[-122.98849,37.26704],[-122.9754,37.26608],[-122.90262,37.26062],[-122.86348,37.2598],[-122.8106,37.26993],[-122.7486,37.28443],[-122.68012,37.30049],[-122.6531,37.30676],[-122.58601,37.3224],[-122.57491,37.32499],[-122.53444,37.33436],[-122.4491,37.35392],[-122.43208,37.35778],[-122.39458,37.36645],[-122.32797,37.38672],[-122.31185,37.39358],[-122.26032,37.41562],[-122.21644,37.43377],[-122.18663,37.45519],[-122.17483,37.4785],[-122.16254,37.50718],[-122.17243,37.52643],[-122.19626,37.54371],[-122.21343,37.55118],[-122.2593,37.57003],[-122.28563,37.58148],[-122.31193,37.59241],[-122.33224,37.60069],[-122.34653,37.60681]]}
}
