{
  "id": 2048292859,
  "type": "Feature",
  "properties": {
    "geom:area": 0,
    "geom:bbox": "-122.358390,36.733140,-121.887530,37.611710",
    "geom:latitude": 37.237236942064314,
    "geom:longitude": -122.06917583771992,
    "src:alt_label": "swim-approach",
    "src:geom": "swim",
    "swim:elevations": [
      4843,
      4598,
      4349,
      3960,
      3749,
      3682,
      3402,
      3064,
      2859,
      2798,
      2605,
      2438,
      2438,
      2438,
      2354,
      2139,
      1723,
      1600,
      1551,
      1458,
      1342,
      1166,
      1091,
      914,
      794,
      702,
      657,
      557,
      455,
      426,
      244,
      213,
      122,
      0
    ],
    "swim:geom": "approach",
    "swim:timestamps": [
      1788942582,
      1788942612,
      1788942636,
      1788942683,
      1788942713,
      1788942723,
      1788942763,
      1788942808,
      1788942836,
      1788942845,
      1788942872,
      1788942908,
      1788942933,
      1788942966,
      1788943005,
      1788943027,
      1788943073,
      1788943098,
      1788943123,
      1788943147,
      1788943179,
      1788943223,
      1788943247,
      1788943284,
      1788943312,
      1788943335,
      1788943348,
      1788943374,
      1788943403,
      1788943413,
      1788943467,
      1788943474,
      1788943500,
      1788943530
    ],
    "wof:geomhash": "c4d46cc11d9c6ec9132fe4db52766f34",
    "wof:id": 2048292859,
    "wof:repo": "sfomuseum-data-flights-2026-09"
  },
  "bbox": [
    -122.35839,
    36.73314,
    -121.88753,
    37.61171
  ],
  "geometry": {"type":"LineString","coordinates":[[-121.88753,36.73314],[-121.90406,36.77678],[-121.91419,36.81234],[-121.93379,36.88257],[-121.94563,36.92512],[-121.94965,36.93935],[-121.97036,36.9953],[-121.99414,37.05643],[-122.00859,37.09343],[-122.01337,37.10576],[-122.02684,37.14014],[-122.04504,37.18628],[-122.05743,37.21801],[-122.07427,37.26129],[-122.093,37.30893],[-122.10286,37.33437],[-122.12215,37.39032],[-122.10808,37.41877],[-122.08547,37.44036],[-122.06509,37.46041],[-122.07532,37.48843],[-122.11734,37.51016],[-122.1394,37.5195],[-122.17247,37.53349],[-122.19736,37.54389],[-122.21682,37.55223],[-122.22693,37.55639],[-122.24616,37.56456],[-122.26707,37.57347],[-122.27472,37.57666],[-122.31399,37.59318],[-122.31898,37.59522],[-122.33761,37.603],[-122.35839,37.61171]]}
}
