{
  "id": 2048444751,
  "type": "Feature",
  "properties": {
    "geom:area": 0,
    "geom:bbox": "-122.350770,37.492220,-121.253340,37.610900",
    "geom:latitude": 37.542104092921335,
    "geom:longitude": -121.80892009496223,
    "src:alt_label": "swim-approach",
    "src:geom": "swim",
    "swim:elevations": [
      4620,
      4581,
      4281,
      3983,
      3720,
      3450,
      3233,
      3171,
      3015,
      2978,
      2856,
      2502,
      2434,
      2223,
      2001,
      1857,
      1797,
      1678,
      1537,
      1302,
      1134,
      951,
      913,
      687,
      667,
      618,
      443,
      325,
      155,
      54
    ],
    "swim:geom": "approach",
    "swim:timestamps": [
      1790505703,
      1790505707,
      1790505740,
      1790505773,
      1790505801,
      1790505831,
      1790505856,
      1790505871,
      1790505929,
      1790505943,
      1790505964,
      1790506009,
      1790506031,
      1790506071,
      1790506099,
      1790506131,
      1790506167,
      1790506196,
      1790506215,
      1790506247,
      1790506281,
      1790506316,
      1790506320,
      1790506372,
      1790506376,
      1790506388,
      1790506424,
      1790506454,
      1790506495,
      1790506522
    ],
    "wof:geomhash": "816564132112d7dc849e245d60a2f509",
    "wof:id": 2048444751,
    "wof:repo": "sfomuseum-data-flights-2026-09"
  },
  "bbox": [
    -122.35077,
    37.49222,
    -121.25334,
    37.6109
  ],
  "geometry": {"type":"LineString","coordinates":[[-121.25334,37.59385],[-121.26065,37.59286],[-121.32264,37.58546],[-121.38323,37.57878],[-121.43444,37.57292],[-121.48854,37.56653],[-121.53387,37.5613],[-121.56006,37.55822],[-121.65412,37.54352],[-121.67732,37.53794],[-121.70826,37.53056],[-121.77408,37.51489],[-121.80512,37.50751],[-121.86414,37.49351],[-121.90587,37.49222],[-121.95256,37.4952],[-122.00626,37.49843],[-122.04545,37.50056],[-122.07073,37.50193],[-122.11112,37.50976],[-122.14857,37.52571],[-122.18288,37.54022],[-122.18654,37.54174],[-122.23269,37.56125],[-122.23578,37.56256],[-122.24627,37.56693],[-122.2767,37.5797],[-122.29955,37.58936],[-122.33066,37.6024],[-122.35077,37.6109]]}
}
