{
  "id": 2048465435,
  "type": "Feature",
  "properties": {
    "geom:area": 0,
    "geom:bbox": "-122.338333,37.494444,-73.855833,40.630278",
    "geom:latitude": 39.55140594583767,
    "geom:longitude": -98.07462401493392,
    "src:alt_label": "swim-path",
    "src:geom": "swim",
    "swim:altitudes": [
      "025",
      "037",
      "053",
      "080",
      "108",
      "123",
      "149",
      "173",
      "194",
      "216",
      "233",
      "252",
      "267",
      "285",
      "306",
      "324",
      "339C",
      "340C",
      "340C",
      "340C",
      "340C",
      "340C",
      "340C",
      "340C",
      "340C",
      "340C",
      "340C",
      "340C",
      "340C",
      "340C",
      "340C",
      "340C",
      "340C",
      "340C",
      "340C",
      "340C",
      "340C",
      "340C",
      "340C",
      "340C",
      "340C",
      "340C",
      "340C",
      "340C",
      "340C",
      "340C",
      "340C",
      "340C",
      "340C",
      "340C",
      "340C",
      "340C",
      "340C",
      "340C",
      "340C",
      "340C",
      "340C",
      "340C",
      "340C",
      "340C",
      "340C",
      "340C",
      "340C",
      "340C",
      "340C",
      "340C",
      "340C",
      "340C",
      "340C",
      "340C",
      "340C",
      "340C",
      "340C",
      "340C",
      "340C",
      "340C",
      "340C",
      "340C",
      "340C",
      "340C",
      "340C",
      "340C",
      "340C",
      "340C",
      "340C",
      "340C",
      "340C",
      "340C",
      "340C",
      "340C",
      "340C",
      "340C",
      "340C",
      "340C",
      "340C",
      "340C",
      "340C",
      "340C",
      "340C",
      "340C",
      "340C",
      "340C",
      "340C",
      "340C",
      "340C",
      "340C",
      "340C",
      "340C",
      "340C",
      "340C",
      "340C",
      "340C",
      "340C",
      "340C",
      "340C",
      "340C",
      "340C",
      "340C",
      "340C",
      "340C",
      "340C",
      "340C",
      "340C",
      "340C",
      "340C",
      "340C",
      "340C",
      "340C",
      "340C",
      "340C",
      "340C",
      "340C",
      "340C",
      "340C",
      "340C",
      "340C",
      "340C",
      "340C",
      "340C",
      "340C",
      "340C",
      "340C",
      "340",
      "340",
      "340",
      "340",
      "343",
      "349",
      "361",
      "365",
      "374",
      "378C",
      "380C",
      "380C",
      "380C",
      "380C",
      "380C",
      "380C",
      "380C",
      "380C",
      "380C",
      "380C",
      "380C",
      "380C",
      "380C",
      "380C",
      "380C",
      "380C",
      "380C",
      "380C",
      "380C",
      "380C",
      "380C",
      "380C",
      "380C",
      "380C",
      "380C",
      "380C",
      "380C",
      "380C",
      "380C",
      "380C",
      "380C",
      "380C",
      "380C",
      "380C",
      "380C",
      "380C",
      "380C",
      "380C",
      "380C",
      "380C",
      "380C",
      "380C",
      "380C",
      "380C",
      "380C",
      "380C",
      "380C",
      "380C",
      "380C",
      "380C",
      "380C",
      "380C",
      "380C",
      "380C",
      "380C",
      "380C",
      "380C",
      "380C",
      "380C",
      "380C",
      "380C",
      "380C",
      "380C",
      "380C",
      "380C",
      "380C",
      "380C",
      "380",
      "390C",
      "390C",
      "390C",
      "390C",
      "390C",
      "390C",
      "390C",
      "390C",
      "390C",
      "390C",
      "390C",
      "390C",
      "390C",
      "390C",
      "390C",
      "390C",
      "390C",
      "390C",
      "390C",
      "390C",
      "390C",
      "390C",
      "390C",
      "390C",
      "390C",
      "390C",
      "390C",
      "390C",
      "390C",
      "390C",
      "390C",
      "390C",
      "390C",
      "390C",
      "390C",
      "390C",
      "390C",
      "390C",
      "390C",
      "390C",
      "390C",
      "390C",
      "390C",
      "390C",
      "390C",
      "390C",
      "390C",
      "390C",
      "390C",
      "390C",
      "390C",
      "390C",
      "390C",
      "390C",
      "390C",
      "390C",
      "390C",
      "390C",
      "390C",
      "390C",
      "390C",
      "390C",
      "390C",
      "390C",
      "390C",
      "390C",
      "390C",
      "390C",
      "390C",
      "390C",
      "390C",
      "390C",
      "390C",
      "390C",
      "390C",
      "390C",
      "390C",
      "390C",
      "390C",
      "390",
      "388",
      "380C",
      "380C",
      "380C",
      "380C",
      "380C",
      "380C",
      "380C",
      "380C",
      "380C",
      "380C",
      "380C",
      "380C",
      "380C",
      "380C",
      "380C",
      "380C",
      "380C",
      "380C",
      "380C",
      "380C",
      "380C",
      "380C",
      "380C",
      "380C",
      "380C",
      "380C",
      "380C",
      "380C",
      "380C",
      "380C",
      "380C",
      "380C",
      "380C",
      "380C",
      "380C",
      "380C",
      "380C",
      "380C",
      "380C",
      "380C",
      "380C",
      "380",
      "380",
      "380",
      "380",
      "380",
      "380",
      "380",
      "380",
      "380",
      "380",
      "380",
      "380",
      "380",
      "380",
      "380",
      "380",
      "380",
      "380",
      "380C",
      "380C",
      "380C",
      "380C",
      "380C",
      "380C",
      "380C",
      "380C",
      "380C",
      "380C",
      "380C",
      "380C",
      "380C",
      "380C",
      "380C",
      "380C",
      "380C",
      "380C",
      "380C",
      "380C",
      "380C",
      "380C",
      "380C",
      "380C",
      "380C",
      "380C",
      "380C",
      "380C",
      "380C",
      "380C",
      "380C",
      "380C",
      "380C",
      "380C",
      "380C",
      "380C",
      "380C",
      "380C",
      "380C",
      "380C",
      "380C",
      "380C",
      "380C",
      "380C",
      "380C",
      "380C",
      "380C",
      "380C",
      "380C",
      "380",
      "375",
      "363",
      "352",
      "340C",
      "340C",
      "340C",
      "340C",
      "340C",
      "340C",
      "340C",
      "340C",
      "340C",
      "340C",
      "340C",
      "340C",
      "340C",
      "340C",
      "340C",
      "340C",
      "340C",
      "340C",
      "340C",
      "340C",
      "340C",
      "340C",
      "340C",
      "340C",
      "340C",
      "340C",
      "340",
      "340",
      "340",
      "340",
      "339",
      "317",
      "293",
      "270",
      "248",
      "228",
      "219",
      "209",
      "199",
      "189",
      "182",
      "170",
      "160",
      "151",
      "141",
      "131",
      "120",
      "110",
      "102",
      "101",
      "096",
      "091",
      "087",
      "081",
      "060",
      "057",
      "050",
      "042",
      "033",
      "027",
      "023",
      "019",
      "014",
      "010",
      "007",
      "004"
    ],
    "swim:geom": "path",
    "swim:speeds": [
      212,
      217,
      221,
      281,
      293,
      356,
      378,
      395,
      409,
      416,
      434,
      444,
      454,
      458,
      457,
      451,
      447,
      446,
      445,
      445,
      444,
      443,
      442,
      442,
      443,
      445,
      447,
      449,
      450,
      451,
      451,
      451,
      450,
      449,
      449,
      449,
      447,
      447,
      446,
      446,
      445,
      445,
      445,
      445,
      445,
      445,
      445,
      445,
      446,
      446,
      446,
      446,
      446,
      447,
      447,
      447,
      448,
      448,
      449,
      449,
      450,
      451,
      451,
      452,
      452,
      453,
      453,
      453,
      457,
      460,
      461,
      462,
      463,
      463,
      463,
      463,
      463,
      463,
      464,
      464,
      464,
      464,
      464,
      464,
      464,
      465,
      465,
      465,
      466,
      466,
      467,
      467,
      468,
      468,
      469,
      469,
      470,
      471,
      471,
      472,
      472,
      473,
      473,
      477,
      465,
      473,
      453,
      463,
      452,
      456,
      452,
      455,
      454,
      455,
      462,
      455,
      466,
      461,
      466,
      464,
      464,
      465,
      465,
      462,
      461,
      459,
      460,
      459,
      459,
      458,
      451,
      447,
      448,
      445,
      445,
      444,
      444,
      444,
      444,
      444,
      445,
      445,
      445,
      445,
      442,
      438,
      434,
      434,
      425,
      420,
      412,
      411,
      408,
      405,
      404,
      404,
      404,
      404,
      406,
      406,
      407,
      407,
      408,
      408,
      410,
      411,
      413,
      414,
      415,
      416,
      417,
      417,
      417,
      418,
      417,
      417,
      416,
      416,
      415,
      415,
      411,
      410,
      405,
      406,
      403,
      404,
      403,
      403,
      402,
      403,
      400,
      400,
      397,
      397,
      394,
      393,
      393,
      392,
      391,
      390,
      389,
      389,
      389,
      389,
      389,
      389,
      389,
      390,
      392,
      394,
      396,
      396,
      397,
      398,
      398,
      399,
      399,
      399,
      399,
      396,
      387,
      386,
      386,
      386,
      386,
      387,
      389,
      389,
      389,
      389,
      391,
      393,
      394,
      394,
      394,
      393,
      393,
      393,
      394,
      394,
      394,
      393,
      392,
      392,
      389,
      387,
      387,
      386,
      387,
      387,
      394,
      396,
      396,
      397,
      397,
      398,
      397,
      397,
      395,
      395,
      392,
      392,
      388,
      388,
      386,
      381,
      382,
      379,
      380,
      378,
      379,
      377,
      378,
      378,
      379,
      380,
      382,
      383,
      383,
      383,
      383,
      383,
      382,
      381,
      380,
      378,
      377,
      375,
      375,
      374,
      373,
      372,
      372,
      372,
      372,
      372,
      372,
      374,
      375,
      374,
      376,
      377,
      376,
      377,
      382,
      377,
      385,
      381,
      387,
      389,
      391,
      387,
      392,
      387,
      392,
      389,
      393,
      392,
      393,
      392,
      394,
      392,
      395,
      393,
      396,
      394,
      395,
      398,
      396,
      398,
      397,
      399,
      397,
      400,
      397,
      397,
      401,
      398,
      398,
      401,
      402,
      404,
      408,
      407,
      410,
      411,
      409,
      412,
      413,
      413,
      410,
      414,
      411,
      414,
      411,
      415,
      411,
      417,
      418,
      418,
      419,
      420,
      419,
      420,
      419,
      419,
      419,
      418,
      418,
      418,
      417,
      417,
      417,
      417,
      417,
      417,
      419,
      419,
      422,
      422,
      423,
      424,
      423,
      422,
      419,
      418,
      418,
      420,
      423,
      425,
      428,
      430,
      432,
      434,
      435,
      436,
      446,
      452,
      452,
      451,
      451,
      451,
      451,
      453,
      457,
      462,
      468,
      473,
      478,
      482,
      478,
      473,
      472,
      472,
      482,
      490,
      491,
      491,
      494,
      518,
      516,
      513,
      511,
      509,
      507,
      505,
      504,
      502,
      500,
      500,
      498,
      496,
      494,
      493,
      491,
      490,
      488,
      485,
      484,
      484,
      480,
      477,
      476,
      475,
      467,
      455,
      442,
      427,
      408,
      389,
      387,
      377,
      377,
      360,
      362,
      355,
      358,
      353,
      356,
      353,
      353,
      337,
      303,
      301,
      291,
      277,
      279,
      248,
      235,
      229,
      233,
      199,
      193,
      167,
      149,
      136,
      140,
      134,
      138
    ],
    "swim:timestamps": [
      1790709419,
      1790709435,
      1790709479,
      1790709539,
      1790709599,
      1790709659,
      1790709720,
      1790709780,
      1790709840,
      1790709900,
      1790709960,
      1790710020,
      1790710080,
      1790710140,
      1790710200,
      1790710260,
      1790710320,
      1790710381,
      1790710441,
      1790710501,
      1790710561,
      1790710621,
      1790710681,
      1790710741,
      1790710801,
      1790710861,
      1790710921,
      1790710981,
      1790711042,
      1790711102,
      1790711162,
      1790711222,
      1790711282,
      1790711311,
      1790711342,
      1790711371,
      1790711406,
      1790711431,
      1790711467,
      1790711491,
      1790711527,
      1790711551,
      1790711587,
      1790711611,
      1790711647,
      1790711672,
      1790711707,
      1790711732,
      1790711767,
      1790711792,
      1790711827,
      1790711852,
      1790711887,
      1790711912,
      1790711947,
      1790711972,
      1790712007,
      1790712032,
      1790712067,
      1790712092,
      1790712128,
      1790712152,
      1790712188,
      1790712212,
      1790712248,
      1790712272,
      1790712308,
      1790712332,
      1790712368,
      1790712393,
      1790712428,
      1790712453,
      1790712488,
      1790712513,
      1790712548,
      1790712573,
      1790712608,
      1790712633,
      1790712665,
      1790712693,
      1790712726,
      1790712753,
      1790712786,
      1790712813,
      1790712846,
      1790712873,
      1790712906,
      1790712933,
      1790712966,
      1790712993,
      1790713026,
      1790713054,
      1790713086,
      1790713114,
      1790713146,
      1790713174,
      1790713234,
      1790713266,
      1790713294,
      1790713327,
      1790713354,
      1790713387,
      1790713414,
      1790713434,
      1790713474,
      1790713494,
      1790713534,
      1790713554,
      1790713594,
      1790713614,
      1790713654,
      1790713675,
      1790713714,
      1790713735,
      1790713775,
      1790713795,
      1790713835,
      1790713855,
      1790713895,
      1790713915,
      1790713955,
      1790713975,
      1790714011,
      1790714061,
      1790714121,
      1790714131,
      1790714181,
      1790714191,
      1790714241,
      1790714251,
      1790714311,
      1790714372,
      1790714421,
      1790714492,
      1790714552,
      1790714612,
      1790714672,
      1790714732,
      1790714782,
      1790714804,
      1790714842,
      1790714864,
      1790714902,
      1790714924,
      1790714962,
      1790714984,
      1790715022,
      1790715044,
      1790715082,
      1790715105,
      1790715142,
      1790715165,
      1790715202,
      1790715225,
      1790715263,
      1790715285,
      1790715323,
      1790715345,
      1790715383,
      1790715405,
      1790715443,
      1790715465,
      1790715503,
      1790715525,
      1790715563,
      1790715585,
      1790715623,
      1790715645,
      1790715683,
      1790715705,
      1790715743,
      1790715766,
      1790715779,
      1790715826,
      1790715886,
      1790715900,
      1790715946,
      1790715960,
      1790716006,
      1790716020,
      1790716066,
      1790716080,
      1790716126,
      1790716150,
      1790716186,
      1790716211,
      1790716246,
      1790716260,
      1790716306,
      1790716331,
      1790716366,
      1790716380,
      1790716427,
      1790716440,
      1790716487,
      1790716501,
      1790716511,
      1790716547,
      1790716571,
      1790716607,
      1790716631,
      1790716667,
      1790716681,
      1790716691,
      1790716727,
      1790716751,
      1790716811,
      1790716861,
      1790716932,
      1790716992,
      1790717041,
      1790717052,
      1790717102,
      1790717112,
      1790717162,
      1790717232,
      1790717292,
      1790717339,
      1790717399,
      1790717472,
      1790717532,
      1790717592,
      1790717653,
      1790717713,
      1790717773,
      1790717833,
      1790717893,
      1790717953,
      1790718013,
      1790718073,
      1790718133,
      1790718193,
      1790718253,
      1790718313,
      1790718373,
      1790718434,
      1790718494,
      1790718554,
      1790718614,
      1790718674,
      1790718734,
      1790718794,
      1790718854,
      1790718914,
      1790718967,
      1790719027,
      1790719034,
      1790719094,
      1790719147,
      1790719155,
      1790719215,
      1790719267,
      1790719275,
      1790719327,
      1790719335,
      1790719395,
      1790719447,
      1790719455,
      1790719507,
      1790719515,
      1790719568,
      1790719575,
      1790719628,
      1790719635,
      1790719695,
      1790719748,
      1790719755,
      1790719808,
      1790719815,
      1790719868,
      1790719876,
      1790719928,
      1790719936,
      1790719988,
      1790719996,
      1790720048,
      1790720108,
      1790720168,
      1790720228,
      1790720289,
      1790720349,
      1790720409,
      1790720469,
      1790720529,
      1790720589,
      1790720649,
      1790720709,
      1790720769,
      1790720829,
      1790720889,
      1790720949,
      1790721010,
      1790721070,
      1790721130,
      1790721172,
      1790721190,
      1790721232,
      1790721250,
      1790721310,
      1790721353,
      1790721370,
      1790721413,
      1790721430,
      1790721473,
      1790721490,
      1790721533,
      1790721550,
      1790721593,
      1790721610,
      1790721670,
      1790721731,
      1790721773,
      1790721791,
      1790721833,
      1790721851,
      1790721893,
      1790721911,
      1790721953,
      1790721971,
      1790722014,
      1790722031,
      1790722074,
      1790722091,
      1790722134,
      1790722151,
      1790722194,
      1790722254,
      1790722271,
      1790722314,
      1790722331,
      1790722374,
      1790722391,
      1790722434,
      1790722452,
      1790722494,
      1790722554,
      1790722572,
      1790722614,
      1790722674,
      1790722734,
      1790722795,
      1790722855,
      1790722872,
      1790722915,
      1790722932,
      1790722992,
      1790723035,
      1790723052,
      1790723112,
      1790723173,
      1790723215,
      1790723233,
      1790723275,
      1790723293,
      1790723335,
      1790723353,
      1790723395,
      1790723413,
      1790723455,
      1790723473,
      1790723533,
      1790723576,
      1790723593,
      1790723636,
      1790723653,
      1790723696,
      1790723713,
      1790723756,
      1790723773,
      1790723816,
      1790723833,
      1790723876,
      1790723894,
      1790723936,
      1790723954,
      1790724014,
      1790724056,
      1790724074,
      1790724116,
      1790724134,
      1790724176,
      1790724194,
      1790724237,
      1790724254,
      1790724314,
      1790724357,
      1790724374,
      1790724417,
      1790724477,
      1790724537,
      1790724597,
      1790724657,
      1790724717,
      1790724777,
      1790724837,
      1790724897,
      1790724958,
      1790725018,
      1790725078,
      1790725138,
      1790725198,
      1790725258,
      1790725318,
      1790725378,
      1790725438,
      1790725498,
      1790725558,
      1790725618,
      1790725678,
      1790725739,
      1790725799,
      1790725859,
      1790725919,
      1790725975,
      1790726035,
      1790726095,
      1790726155,
      1790726215,
      1790726275,
      1790726336,
      1790726396,
      1790726456,
      1790726516,
      1790726576,
      1790726636,
      1790726696,
      1790726756,
      1790726816,
      1790726876,
      1790726936,
      1790726996,
      1790727057,
      1790727117,
      1790727177,
      1790727237,
      1790727297,
      1790727357,
      1790727417,
      1790727477,
      1790727537,
      1790727597,
      1790727657,
      1790727717,
      1790727778,
      1790727838,
      1790727898,
      1790727958,
      1790728018,
      1790728078,
      1790728099,
      1790728138,
      1790728159,
      1790728198,
      1790728219,
      1790728258,
      1790728280,
      1790728318,
      1790728339,
      1790728378,
      1790728399,
      1790728438,
      1790728459,
      1790728498,
      1790728519,
      1790728559,
      1790728579,
      1790728619,
      1790728739,
      1790728759,
      1790728799,
      1790728820,
      1790728880,
      1790728919,
      1790728940,
      1790728979,
      1790729005,
      1790729039,
      1790729065,
      1790729099
    ],
    "wof:geomhash": "651654aaa44949c4d81641791e9d09c6",
    "wof:id": 2048465435,
    "wof:repo": "sfomuseum-data-flights-2026-09"
  },
  "bbox": [
    -122.33833333333332,
    37.49444444444445,
    -73.85583333333332,
    40.63027777777778
  ],
  "geometry": {"type":"LineString","coordinates":[[-73.85583333333332,40.63027777777778],[-73.86666666666666,40.61666666666667],[-73.9063888888889,40.583333333333336],[-73.97166666666666,40.51861111111111],[-74.02583333333334,40.450833333333335],[-74.11333333333333,40.38305555555556],[-74.23083333333334,40.32777777777778],[-74.35249999999999,40.27055555555555],[-74.47611111111111,40.213055555555556],[-74.62388888888889,40.19138888888889],[-74.78166666666667,40.17972222222222],[-74.94194444444445,40.16722222222222],[-75.10249999999999,40.153888888888886],[-75.2675,40.14],[-75.43083333333334,40.126111111111115],[-75.59166666666667,40.11222222222222],[-75.74888888888889,40.098333333333336],[-75.91111111111111,40.08388888888889],[-76.06944444444444,40.08166666666667],[-76.23194444444445,40.0825],[-76.37583333333333,40.08111111111111],[-76.53472222222221,40.07944444444445],[-76.69472222222223,40.080555555555556],[-76.85416666666666,40.08083333333334],[-77.01416666666667,40.08083333333334],[-77.20944444444444,40.080555555555556],[-77.37194444444444,40.080000000000005],[-77.53361111111111,40.07944444444445],[-77.69694444444445,40.078611111111115],[-77.85916666666667,40.077222222222225],[-78.02388888888889,40.07611111111112],[-78.17555555555556,40.074444444444445],[-78.34138888888889,40.07277777777778],[-78.41805555555555,40.07138888888889],[-78.50416666666666,40.07055555555556],[-78.57944444444443,40.069722222222225],[-78.66638888888889,40.068333333333335],[-78.71777777777778,40.0675],[-78.8261111111111,40.066111111111105],[-78.8736111111111,40.06527777777777],[-78.98972222222223,40.06333333333333],[-79.04083333333332,40.06222222222222],[-79.14972222222222,40.06027777777778],[-79.20166666666667,40.059444444444445],[-79.31,40.05722222222222],[-79.36138888888888,40.05611111111111],[-79.47277777777778,40.053888888888885],[-79.52388888888889,40.05277777777778],[-79.63583333333334,40.05027777777777],[-79.68722222222223,40.04888888888889],[-79.79694444444445,40.046388888888885],[-79.84805555555555,40.04527777777778],[-79.96000000000001,40.04222222222222],[-80.0111111111111,40.04111111111111],[-80.12416666666665,40.03805555555555],[-80.1725,40.03666666666666],[-80.28805555555556,40.03333333333333],[-80.33583333333333,40.03194444444444],[-80.4525,40.02861111111111],[-80.52055555555556,40.02638888888889],[-80.61527777777778,40.02361111111111],[-80.6825,40.021388888888886],[-80.78138888888888,40.01833333333333],[-80.84861111111111,40.01611111111111],[-80.94416666666667,40.015],[-81.01055555555556,40.01444444444444],[-81.10888888888888,40.013333333333335],[-81.17694444444444,40.01222222222222],[-81.27638888888889,40.010555555555555],[-81.3425,40.00944444444445],[-81.42305555555556,40.00805555555556],[-81.51194444444444,40.006388888888885],[-81.59055555555555,40.005],[-81.6825,40.003055555555555],[-81.76027777777777,40.00138888888889],[-81.85249999999999,39.99944444444444],[-81.92666666666668,39.99805555555556],[-82.02083333333333,39.99583333333334],[-82.09333333333333,39.994166666666665],[-82.18833333333333,39.99194444444444],[-82.26027777777777,39.99],[-82.3561111111111,39.98777777777778],[-82.42972222222222,39.98583333333333],[-82.525,39.98305555555556],[-82.59666666666666,39.98111111111111],[-82.69166666666668,39.978611111111114],[-82.76583333333333,39.97638888888889],[-82.86333333333333,39.97361111111111],[-82.93444444444445,39.97138888888889],[-83.02055555555556,39.968611111111116],[-83.10111111111111,39.96611111111111],[-83.1913888888889,39.963055555555556],[-83.29916666666666,39.959722222222226],[-83.36,39.9575],[-83.46666666666667,39.953611111111115],[-83.5425,39.95111111111111],[-83.7125,39.94472222222222],[-83.795,39.94166666666666],[-83.87055555555555,39.93888888888888],[-83.97305555555556,39.93472222222222],[-84.04277777777777,39.93194444444444],[-84.14305555555556,39.92777777777778],[-84.21222222222222,39.925],[-84.26055555555556,39.92055555555555],[-84.38166666666666,39.921388888888885],[-84.42861111111111,39.91888888888889],[-84.54472222222222,39.9225],[-84.59416666666667,39.924166666666665],[-84.70805555555556,39.92361111111111],[-84.75555555555556,39.92361111111111],[-84.87138888888889,39.924166666666665],[-84.91888888888889,39.92361111111111],[-85.02638888888889,39.92444444444444],[-85.08361111111111,39.9225],[-85.19305555555556,39.92472222222222],[-85.25138888888888,39.92305555555555],[-85.37805555555555,39.92444444444444],[-85.42166666666667,39.9225],[-85.54555555555555,39.924166666666665],[-85.5925,39.92444444444444],[-85.71138888888889,39.92361111111111],[-85.76055555555556,39.92444444444444],[-85.86083333333333,39.92333333333333],[-85.99361111111111,39.92222222222222],[-86.15611111111112,39.92111111111111],[-86.19055555555556,39.92166666666667],[-86.31861111111111,39.91972222222222],[-86.35638888888889,39.91972222222222],[-86.48222222222222,39.918055555555554],[-86.52027777777778,39.91861111111111],[-86.68222222222222,39.933611111111105],[-86.85777777777777,39.95388888888889],[-86.95944444444444,39.96638888888889],[-87.15555555555557,39.99027777777778],[-87.31638888888888,40.00944444444445],[-87.47416666666666,40.02833333333333],[-87.63194444444444,40.04666666666667],[-87.79222222222222,40.065],[-87.94277777777778,40.08222222222223],[-88.00444444444445,40.08916666666667],[-88.10111111111111,40.1],[-88.16527777777779,40.10722222222223],[-88.26055555555556,40.117777777777775],[-88.32416666666666,40.124722222222225],[-88.41805555555555,40.135],[-88.4825,40.14194444444444],[-88.575,40.151944444444446],[-88.63666666666667,40.15861111111111],[-88.72777777777777,40.16833333333333],[-88.75722222222223,40.171388888888885],[-88.87472222222222,40.18388888888889],[-88.93444444444445,40.19],[-89.02055555555556,40.19888888888889],[-89.07833333333333,40.20472222222222],[-89.16472222222222,40.21361111111111],[-89.19527777777778,40.216944444444444],[-89.31027777777777,40.228611111111114],[-89.3411111111111,40.23166666666667],[-89.45805555555556,40.24333333333333],[-89.48972222222223,40.24666666666667],[-89.60638888888889,40.25805555555556],[-89.63694444444445,40.26111111111111],[-89.75555555555556,40.2725],[-89.78555555555555,40.275277777777774],[-89.87416666666665,40.28361111111111],[-89.93722222222223,40.28972222222222],[-90.02555555555556,40.297777777777775],[-90.0886111111111,40.303888888888885],[-90.17805555555556,40.31222222222222],[-90.24083333333333,40.31777777777778],[-90.33,40.325833333333335],[-90.39055555555557,40.331388888888895],[-90.42055555555557,40.33416666666667],[-90.54222222222222,40.345],[-90.69416666666667,40.358333333333334],[-90.72194444444445,40.36055555555556],[-90.84333333333333,40.37111111111111],[-90.8736111111111,40.37388888888889],[-90.99416666666667,40.384166666666665],[-91.02388888888889,40.38666666666666],[-91.14222222222223,40.396388888888886],[-91.17166666666667,40.39888888888889],[-91.28916666666666,40.40861111111111],[-91.36777777777777,40.41444444444444],[-91.4263888888889,40.41972222222222],[-91.51027777777777,40.43611111111111],[-91.59416666666667,40.45777777777778],[-91.62222222222222,40.46416666666667],[-91.73277777777778,40.49166666666667],[-91.7875,40.50555555555555],[-91.86944444444444,40.526944444444446],[-91.8963888888889,40.53388888888889],[-92.00722222222223,40.56222222222222],[-92.03222222222222,40.56805555555556],[-92.14583333333334,40.58027777777778],[-92.17194444444445,40.580555555555556],[-92.20222222222222,40.581388888888895],[-92.285,40.58361111111111],[-92.3436111111111,40.58444444444444],[-92.40916666666668,40.58527777777778],[-92.48361111111112,40.586111111111116],[-92.55027777777778,40.58694444444445],[-92.5925,40.587500000000006],[-92.62222222222222,40.58777777777778],[-92.70472222222223,40.58888888888889],[-92.76138888888889,40.589444444444446],[-92.90333333333334,40.59111111111111],[-93.01666666666667,40.592222222222226],[-93.18861111111111,40.593611111111116],[-93.3325,40.59444444444445],[-93.44777777777779,40.59527777777778],[-93.47694444444444,40.59527777777778],[-93.5925,40.59583333333334],[-93.62444444444444,40.596111111111114],[-93.74,40.59638888888889],[-93.91472222222222,40.59666666666667],[-94.05916666666667,40.595],[-94.17527777777778,40.59138888888889],[-94.31972222222223,40.587500000000006],[-94.49361111111111,40.58277777777778],[-94.63277777777778,40.57888888888889],[-94.77416666666666,40.574444444444445],[-94.91305555555556,40.57027777777778],[-95.05583333333333,40.565555555555555],[-95.19694444444445,40.56055555555555],[-95.33833333333332,40.55555555555555],[-95.48055555555555,40.55027777777777],[-95.6236111111111,40.544999999999995],[-95.76444444444445,40.53944444444444],[-95.9075,40.53361111111111],[-96.05222222222221,40.52777777777778],[-96.16694444444445,40.522777777777776],[-96.34055555555555,40.515277777777776],[-96.48333333333333,40.50888888888889],[-96.59666666666666,40.49194444444444],[-96.75027777777778,40.436388888888885],[-96.85138888888888,40.394444444444446],[-97.00333333333333,40.33111111111111],[-97.10333333333332,40.28944444444444],[-97.22888888888889,40.23722222222222],[-97.37138888888889,40.176944444444445],[-97.47,40.134166666666665],[-97.61972222222222,40.069722222222225],[-97.74416666666667,40.01611111111111],[-97.87305555555555,39.977222222222224],[-98.0111111111111,39.96944444444445],[-98.01333333333334,39.96944444444445],[-98.15166666666667,39.965],[-98.2911111111111,39.96027777777778],[-98.29333333333334,39.96027777777778],[-98.43777777777778,39.95527777777778],[-98.57888888888888,39.95],[-98.58138888888888,39.94972222222222],[-98.7238888888889,39.94444444444444],[-98.72638888888889,39.94416666666666],[-98.84166666666667,39.939722222222215],[-99.01194444444444,39.93277777777777],[-99.01166666666667,39.93277777777777],[-99.155,39.926944444444445],[-99.15583333333333,39.926944444444445],[-99.2936111111111,39.920833333333334],[-99.2936111111111,39.920833333333334],[-99.43444444444445,39.91444444444444],[-99.43361111111112,39.914722222222224],[-99.54388888888889,39.909444444444446],[-99.70944444444444,39.901944444444446],[-99.7075,39.901944444444446],[-99.84388888888888,39.89527777777778],[-99.84527777777777,39.89527777777778],[-99.98055555555555,39.88861111111111],[-99.97527777777778,39.888888888888886],[-100.11611111111111,39.88194444444444],[-100.11361111111111,39.88194444444444],[-100.25361111111111,39.874722222222225],[-100.25055555555555,39.875],[-100.39361111111111,39.8675],[-100.53333333333333,39.86],[-100.67083333333333,39.852222222222224],[-100.81055555555555,39.84444444444445],[-100.94777777777779,39.836666666666666],[-101.08666666666666,39.82833333333333],[-101.2238888888889,39.82027777777778],[-101.36277777777777,39.81166666666666],[-101.49666666666667,39.80333333333333],[-101.63527777777779,39.794444444444444],[-101.77027777777778,39.78583333333333],[-101.87722222222222,39.77861111111111],[-102.03805555555556,39.768055555555556],[-102.14694444444446,39.760555555555555],[-102.30638888888889,39.74944444444444],[-102.4413888888889,39.74],[-102.5736111111111,39.730555555555554],[-102.70833333333334,39.720555555555556],[-102.81416666666667,39.71277777777778],[-102.92166666666667,39.70444444444445],[-102.94972222222222,39.7025],[-103.05611111111111,39.693888888888885],[-103.08388888888888,39.692499999999995],[-103.21833333333333,39.68194444444444],[-103.32916666666667,39.6725],[-103.35416666666666,39.671388888888885],[-103.46444444444445,39.661944444444444],[-103.48861111111111,39.660555555555554],[-103.59583333333333,39.651111111111106],[-103.65194444444445,39.64722222222222],[-103.73472222222222,39.640277777777776],[-103.76305555555555,39.63805555555555],[-103.87638888888888,39.628055555555555],[-103.9325,39.62388888888889],[-104.07166666666666,39.61222222222222],[-104.21083333333334,39.60027777777778],[-104.29638888888888,39.591944444444444],[-104.35277777777777,39.58777777777778],[-104.43361111111112,39.57972222222222],[-104.4925,39.57527777777778],[-104.57666666666667,39.56666666666667],[-104.60583333333332,39.56527777777777],[-104.71777777777778,39.553888888888885],[-104.755,39.55166666666666],[-104.86222222222221,39.541666666666664],[-104.89750000000001,39.53861111111111],[-105.00333333333333,39.52777777777778],[-105.04027777777777,39.525277777777774],[-105.14472222222223,39.514722222222225],[-105.18194444444445,39.51166666666666],[-105.28611111111111,39.50111111111111],[-105.42833333333334,39.48777777777778],[-105.46583333333334,39.48444444444444],[-105.57111111111111,39.473888888888894],[-105.60777777777777,39.47027777777778],[-105.71333333333334,39.459722222222226],[-105.75055555555555,39.45611111111111],[-105.85583333333332,39.44472222222222],[-105.89333333333335,39.44166666666666],[-105.99833333333333,39.431666666666665],[-106.13972222222223,39.41611111111111],[-106.17666666666668,39.4125],[-106.28333333333333,39.401944444444446],[-106.42666666666668,39.38722222222222],[-106.57138888888889,39.37111111111111],[-106.71611111111112,39.35527777777778],[-106.86138888888888,39.339444444444446],[-106.88944444444445,39.33583333333333],[-107.00777777777778,39.32333333333334],[-107.0375,39.31944444444445],[-107.18194444444445,39.30305555555555],[-107.30083333333333,39.288888888888884],[-107.34055555555555,39.28527777777778],[-107.48611111111111,39.26833333333333],[-107.6325,39.25138888888889],[-107.74111111111111,39.23777777777778],[-107.78111111111112,39.23361111111111],[-107.8875,39.22],[-107.92805555555556,39.21611111111111],[-108.035,39.2025],[-108.07527777777777,39.198611111111106],[-108.18277777777779,39.18444444444444],[-108.22277777777778,39.18055555555555],[-108.33305555555555,39.16638888888889],[-108.36222222222221,39.163333333333334],[-108.51194444444444,39.14472222222222],[-108.63166666666666,39.129444444444445],[-108.6613888888889,39.12583333333333],[-108.77888888888889,39.11083333333333],[-108.8086111111111,39.10722222222223],[-108.92833333333334,39.09166666666667],[-108.95777777777778,39.088055555555556],[-109.07694444444444,39.072500000000005],[-109.10472222222222,39.06888888888889],[-109.22361111111111,39.05333333333333],[-109.25138888888888,39.04944444444444],[-109.36972222222222,39.03388888888889],[-109.39972222222222,39.03],[-109.51638888888888,39.01444444444444],[-109.54472222222222,39.010555555555555],[-109.69250000000001,38.99166666666667],[-109.81361111111111,38.9825],[-109.84194444444444,38.98083333333334],[-109.96361111111112,38.97416666666667],[-109.99388888888889,38.972500000000004],[-110.11416666666666,38.96527777777778],[-110.14555555555556,38.96333333333334],[-110.26555555555555,38.95583333333334],[-110.295,38.95388888888889],[-110.44250000000001,38.94416666666666],[-110.56166666666667,38.936388888888885],[-110.58972222222222,38.93444444444444],[-110.71083333333334,38.92638888888889],[-110.86361111111111,38.91583333333333],[-110.98722222222223,38.907222222222224],[-111.1463888888889,38.895833333333336],[-111.29888888888888,38.885],[-111.4525,38.873333333333335],[-111.6388888888889,38.859722222222224],[-111.79222222222222,38.84777777777778],[-111.94638888888889,38.83555555555556],[-112.10305555555556,38.823055555555555],[-112.26388888888889,38.81027777777778],[-112.42361111111111,38.79722222222222],[-112.58166666666666,38.78388888888889],[-112.7388888888889,38.77055555555555],[-112.9,38.75666666666667],[-113.05833333333334,38.739444444444445],[-113.21694444444445,38.71944444444445],[-113.37722222222222,38.69944444444444],[-113.53861111111111,38.67944444444444],[-113.70277777777778,38.65861111111111],[-113.86833333333333,38.63722222222222],[-114.03583333333333,38.61555555555556],[-114.20527777777778,38.593333333333334],[-114.37388888888889,38.571111111111115],[-114.53666666666666,38.549166666666665],[-114.70111111111112,38.526666666666664],[-114.86666666666666,38.50333333333333],[-115.03944444444444,38.48111111111111],[-115.2125,38.45777777777778],[-115.3825,38.43388888888889],[-115.5175,38.41305555555555],[-115.69361111111111,38.38861111111111],[-115.90944444444445,38.355000000000004],[-116.0886111111111,38.32833333333333],[-116.26472222222222,38.30166666666666],[-116.44333333333334,38.27472222222222],[-116.61833333333333,38.24777777777778],[-116.79416666666667,38.220555555555556],[-116.96666666666667,38.19361111111111],[-117.12805555555555,38.168055555555554],[-117.30333333333333,38.14],[-117.46972222222223,38.11333333333334],[-117.64,38.08555555555556],[-117.8125,38.05722222222222],[-117.98388888888888,38.02861111111111],[-118.15222222222222,38.00055555555556],[-118.32,37.971944444444446],[-118.49027777777778,37.94305555555555],[-118.6563888888889,37.91444444444444],[-118.82333333333332,37.88916666666667],[-118.99222222222222,37.86972222222222],[-119.15111111111112,37.85138888888889],[-119.31833333333333,37.831944444444446],[-119.48333333333333,37.8125],[-119.64861111111112,37.79277777777778],[-119.81277777777777,37.772777777777776],[-119.98,37.75222222222222],[-120.13944444444445,37.7325],[-120.29888888888888,37.712500000000006],[-120.45305555555557,37.69305555555555],[-120.60027777777778,37.67638888888889],[-120.74444444444444,37.659444444444446],[-120.81666666666666,37.65],[-120.87972222222221,37.643055555555556],[-120.95,37.63333333333333],[-121.00861111111111,37.62722222222222],[-121.06666666666666,37.61666666666667],[-121.13416666666667,37.609722222222224],[-121.2,37.6],[-121.25611111111111,37.593611111111116],[-121.31666666666666,37.583333333333336],[-121.37805555555555,37.57944444444445],[-121.43333333333334,37.56666666666667],[-121.50111111111111,37.565555555555555],[-121.55,37.56666666666667],[-121.6125,37.551944444444445],[-121.66666666666667,37.55],[-121.71111111111111,37.530277777777776],[-121.75,37.516666666666666],[-121.80472222222222,37.507777777777775],[-121.98333333333333,37.49444444444445],[-122.01666666666667,37.5],[-122.05888888888889,37.5175],[-122.1,37.53333333333333],[-122.16666666666667,37.55],[-122.19777777777779,37.5625],[-122.23333333333333,37.56666666666667],[-122.25,37.57944444444445],[-122.28333333333333,37.583333333333336],[-122.29888888888888,37.594166666666666],[-122.31666666666666,37.6],[-122.33833333333332,37.605555555555554]]}
}
