{
  "id": 2048270705,
  "type": "Feature",
  "properties": {
    "date:cessation_lower": "1970-01-01",
    "date:cessation_upper": "1970-01-01",
    "date:inception_lower": "2026-09-06",
    "date:inception_upper": "2026-09-06",
    "edtf:cessation": "1970-01-01T00:00:00Z",
    "edtf:inception": "2026-09-06T11:46:58-07:00",
    "flysfo:actual_timestamp": -1,
    "flysfo:airline": "WN",
    "flysfo:date": "2026-09-06",
    "flysfo:estimated_timestamp": 1788744720,
    "flysfo:event": "D",
    "flysfo:flight_number": "WN2255",
    "flysfo:gate": "D3",
    "flysfo:journey": "SFO-BUR",
    "flysfo:scheduled_timestamp": 1788743400,
    "flysfo:timestamp": 1788744720,
    "geom:area": 0,
    "geom:bbox": "-122.370943,34.196704,-118.353322,37.617990",
    "geom:latitude": 35.907347,
    "geom:longitude": -120.3621325,
    "iata:airline": "WN",
    "icao:aircraft": "B737",
    "icao:airline": "SWA",
    "lbl:latitude": 37.617092,
    "lbl:longitude": -122.381656,
    "sfomuseum:aircraft_id": 1159289869,
    "sfomuseum:airline_id": 1159285591,
    "sfomuseum:arrival_id": 1746879083,
    "sfomuseum:departure_id": 102527513,
    "sfomuseum:flight_id": "20260906-D-SWA-2255",
    "sfomuseum:flight_number": [
      "SWA2255",
      "WN2255"
    ],
    "sfomuseum:placetype": "flight",
    "src:geom": "flysfo",
    "src:geom_alt": [
      "swim-takeoff"
    ],
    "swim:tail_number": "N7715E",
    "wof:belongsto": [
      1947304067,
      102527513,
      1947304595,
      102191575,
      85633793,
      102087579,
      85922583,
      554784711,
      85688637,
      1947304597,
      1947304591,
      102085387
    ],
    "wof:country": "US",
    "wof:created": 1788797668,
    "wof:geomhash": "5b5841a3ebf3c57d9843115edfb8ee6b",
    "wof:hierarchy": [
      {
        "building_id": 1947304067,
        "campus_id": 102527513,
        "concourse_id": 1947304595,
        "continent_id": 102191575,
        "country_id": 85633793,
        "county_id": 102087579,
        "custom_id": 2048270705,
        "flight_id": 2048270705,
        "locality_id": 85922583,
        "postalcode_id": 554784711,
        "region_id": 85688637,
        "venue_id": 1947304597,
        "wing_id": 1947304591
      },
      {
        "building_id": 1947304067,
        "campus_id": 102527513,
        "concourse_id": 1947304595,
        "continent_id": 102191575,
        "country_id": 85633793,
        "county_id": 102085387,
        "custom_id": 2048270705,
        "flight_id": 2048270705,
        "region_id": 85688637,
        "venue_id": 1947304597,
        "wing_id": 1947304591
      }
    ],
    "wof:id": 2048270705,
    "wof:involves": [
      1159285591,
      1947304597,
      1159289869,
      1746879083,
      102527513
    ],
    "wof:lastmodified": 1788797887,
    "wof:name": "WN2255 (SFO-BUR)",
    "wof:parent_id": 1947304597,
    "wof:placetype": "custom",
    "wof:placetype_alt": [
      "flight"
    ],
    "wof:repo": "sfomuseum-data-flights-2026-09",
    "wof:superseded_by": [],
    "wof:supersedes": []
  },
  "bbox": [
    -122.370943,
    34.196704,
    -118.353322,
    37.61799
  ],
  "geometry": {"type":"MultiPoint","coordinates":[[-122.370943,37.61799],[-118.353322,34.196704]]}
}
