{
  "id": 2048370209,
  "type": "Feature",
  "properties": {
    "geom:area": 0,
    "geom:bbox": "-122.350000,37.403030,-121.246930,37.610530",
    "geom:latitude": 37.52981123227268,
    "geom:longitude": -121.80957632456351,
    "src:alt_label": "swim-approach",
    "src:geom": "swim",
    "swim:elevations": [
      4862,
      4649,
      4438,
      4195,
      3764,
      3625,
      3474,
      3265,
      3105,
      3048,
      3048,
      3048,
      2868,
      2813,
      2749,
      2628,
      2436,
      2438,
      2438,
      2246,
      2199,
      2134,
      1960,
      1830,
      1829,
      1607,
      1371,
      1252,
      1064,
      1015,
      795,
      673,
      494,
      337,
      303,
      153,
      59
    ],
    "swim:geom": "approach",
    "swim:timestamps": [
      1789721517,
      1789721537,
      1789721559,
      1789721582,
      1789721634,
      1789721657,
      1789721696,
      1789721727,
      1789721751,
      1789721777,
      1789721814,
      1789721822,
      1789721878,
      1789721885,
      1789721900,
      1789721917,
      1789721956,
      1789721989,
      1789722018,
      1789722053,
      1789722060,
      1789722083,
      1789722104,
      1789722139,
      1789722157,
      1789722193,
      1789722229,
      1789722261,
      1789722289,
      1789722300,
      1789722345,
      1789722370,
      1789722409,
      1789722443,
      1789722455,
      1789722489,
      1789722513
    ],
    "wof:geomhash": "87ffa906d1160dfa91ce89b519f02b90",
    "wof:id": 2048370209,
    "wof:repo": "sfomuseum-data-flights-2026-09"
  },
  "bbox": [
    -122.35,
    37.40303,
    -121.24693,
    37.61053
  ],
  "geometry": {"type":"LineString","coordinates":[[-121.24693,37.59494],[-121.28259,37.5902],[-121.32232,37.58587],[-121.36151,37.5816],[-121.45373,37.57069],[-121.49249,37.56615],[-121.55398,37.55919],[-121.5991,37.55367],[-121.6336,37.55001],[-121.66809,37.55766],[-121.71898,37.5717],[-121.72932,37.57458],[-121.80116,37.56083],[-121.80505,37.55285],[-121.81018,37.53602],[-121.81596,37.51555],[-121.82105,37.46813],[-121.82441,37.42828],[-121.84841,37.40303],[-121.89297,37.41065],[-121.89992,37.41575],[-121.92494,37.42989],[-121.94889,37.44172],[-121.99064,37.45874],[-122.01122,37.46731],[-122.05299,37.48518],[-122.09431,37.5027],[-122.12863,37.51724],[-122.1565,37.529],[-122.16713,37.53355],[-122.20902,37.55121],[-122.23254,37.56107],[-122.26671,37.57554],[-122.29465,37.58725],[-122.30419,37.59129],[-122.33138,37.60267],[-122.35,37.61053]]}
}
