{
  "id": 2048425769,
  "type": "Feature",
  "properties": {
    "geom:area": 0,
    "geom:bbox": "-122.541920,36.743370,-121.512200,37.668340",
    "geom:latitude": 37.22868328243233,
    "geom:longitude": -122.09670778459316,
    "src:alt_label": "swim-takeoff",
    "src:geom": "swim",
    "swim:elevations": [
      213,
      532,
      794,
      1089,
      1393,
      1891,
      2566,
      3109,
      3270,
      3681,
      4345,
      4473,
      4723,
      5934,
      6421,
      6833,
      7356,
      7686,
      7855,
      8321,
      8584,
      8881,
      9013,
      9205,
      9438,
      9650,
      9928,
      10070,
      10605,
      10641
    ],
    "swim:geom": "takeoff",
    "swim:timestamps": [
      1790248399,
      1790248430,
      1790248460,
      1790248478,
      1790248506,
      1790248550,
      1790248582,
      1790248613,
      1790248625,
      1790248655,
      1790248690,
      1790248698,
      1790248714,
      1790248790,
      1790248824,
      1790248851,
      1790248886,
      1790248911,
      1790248923,
      1790248966,
      1790248998,
      1790249027,
      1790249044,
      1790249063,
      1790249086,
      1790249111,
      1790249146,
      1790249161,
      1790249218,
      1790249230
    ],
    "wof:geomhash": "ee4a101f9d43866809aee4e16106a4b2",
    "wof:id": 2048425769,
    "wof:repo": "sfomuseum-data-flights-2026-09"
  },
  "bbox": [
    -122.54192,
    36.74337,
    -121.5122,
    37.66834
  ],
  "geometry": {"type":"LineString","coordinates":[[-122.38519,37.62536],[-122.41088,37.63647],[-122.44031,37.64825],[-122.46115,37.65639],[-122.49311,37.66834],[-122.54192,37.64338],[-122.5339,37.60632],[-122.51549,37.56945],[-122.50809,37.5551],[-122.48721,37.51427],[-122.44986,37.47162],[-122.43913,37.46375],[-122.4151,37.44605],[-122.29782,37.35994],[-122.24277,37.31939],[-122.19803,37.28634],[-122.14079,37.24392],[-122.09804,37.2121],[-122.07867,37.19696],[-122.00339,37.14122],[-121.94537,37.09849],[-121.89109,37.0563],[-121.86114,37.03116],[-121.82756,37.00331],[-121.78411,36.96929],[-121.7371,36.92994],[-121.67161,36.87578],[-121.6427,36.8521],[-121.5348,36.76262],[-121.5122,36.74337]]}
}
