{
  "id": 2048439847,
  "type": "Feature",
  "properties": {
    "geom:area": 0,
    "geom:bbox": "-122.333333,37.483333,-80.142778,40.594444",
    "geom:latitude": 39.31971778328822,
    "geom:longitude": -101.30866402801495,
    "src:alt_label": "swim-path",
    "src:geom": "swim",
    "swim:altitudes": [
      "028",
      "042",
      "058",
      "085",
      "110",
      "130",
      "140",
      "141",
      "156",
      "162",
      "180",
      "184",
      "201",
      "205",
      "222",
      "226",
      "241",
      "245",
      "261",
      "275",
      "278",
      "289",
      "308",
      "320",
      "325",
      "335",
      "353",
      "360C",
      "360C",
      "360C",
      "360C",
      "360C",
      "360C",
      "360C",
      "360C",
      "360C",
      "360C",
      "360C",
      "360C",
      "360C",
      "360C",
      "360C",
      "360C",
      "360C",
      "360C",
      "360C",
      "360C",
      "360C",
      "360C",
      "360C",
      "360C",
      "360C",
      "360C",
      "360C",
      "360C",
      "360C",
      "360C",
      "360C",
      "360C",
      "360C",
      "360C",
      "360C",
      "360C",
      "360C",
      "360C",
      "360C",
      "360C",
      "360C",
      "360C",
      "360C",
      "360C",
      "360C",
      "360C",
      "360C",
      "360C",
      "360C",
      "360C",
      "360C",
      "360C",
      "360C",
      "360C",
      "360C",
      "360C",
      "360C",
      "360C",
      "360C",
      "360C",
      "360C",
      "360C",
      "360C",
      "360C",
      "360C",
      "360C",
      "360C",
      "360C",
      "360C",
      "360C",
      "360C",
      "360C",
      "360C",
      "360C",
      "360C",
      "360C",
      "360C",
      "360C",
      "360C",
      "360C",
      "360C",
      "360C",
      "360C",
      "360C",
      "360C",
      "360C",
      "360C",
      "360C",
      "360C",
      "360C",
      "360C",
      "360C",
      "360C",
      "360C",
      "360C",
      "360C",
      "360C",
      "360C",
      "360C",
      "360C",
      "360C",
      "360C",
      "360C",
      "360C",
      "360C",
      "360C",
      "360C",
      "360C",
      "360C",
      "360C",
      "360C",
      "360C",
      "360C",
      "360",
      "360",
      "360",
      "360",
      "360",
      "360",
      "360",
      "360",
      "360",
      "360",
      "360",
      "360",
      "360",
      "360",
      "360",
      "360",
      "360",
      "360",
      "360",
      "360",
      "360",
      "360",
      "360",
      "360",
      "360",
      "360",
      "360",
      "360",
      "360",
      "360",
      "360",
      "360",
      "360",
      "360",
      "360",
      "360",
      "360",
      "360",
      "360",
      "360",
      "360",
      "360",
      "360",
      "360",
      "360",
      "360",
      "360",
      "360",
      "360",
      "360",
      "360",
      "360",
      "360",
      "360",
      "360",
      "360",
      "360",
      "369",
      "375",
      "380C",
      "380C",
      "380C",
      "380C",
      "380C",
      "380C",
      "380C",
      "380C",
      "380C",
      "380C",
      "380C",
      "380C",
      "380C",
      "380C",
      "380C",
      "380C",
      "380C",
      "380C",
      "380C",
      "380C",
      "380C",
      "380C",
      "380C",
      "380C",
      "380C",
      "380C",
      "380C",
      "380C",
      "380C",
      "380C",
      "380C",
      "380C",
      "380C",
      "380C",
      "380C",
      "380C",
      "380C",
      "380C",
      "380C",
      "380C",
      "380C",
      "380C",
      "380C",
      "380C",
      "380C",
      "380C",
      "380C",
      "380C",
      "380C",
      "380C",
      "380C",
      "380C",
      "380C",
      "380C",
      "380C",
      "380C",
      "380C",
      "380C",
      "380C",
      "380C",
      "380C",
      "380C",
      "380C",
      "380C",
      "380C",
      "380C",
      "380C",
      "380C",
      "380C",
      "380C",
      "380C",
      "380C",
      "380C",
      "380C",
      "380C",
      "380C",
      "380C",
      "380C",
      "380C",
      "380C",
      "380C",
      "380C",
      "380C",
      "380C",
      "380C",
      "380C",
      "380C",
      "380C",
      "380C",
      "380C",
      "380C",
      "380C",
      "380C",
      "380C",
      "380C",
      "380C",
      "380C",
      "380C",
      "380C",
      "380C",
      "380C",
      "380C",
      "380C",
      "380C",
      "380C",
      "380C",
      "380C",
      "380C",
      "380C",
      "380C",
      "380C",
      "380C",
      "380C",
      "380C",
      "380C",
      "380C",
      "380C",
      "380C",
      "380C",
      "380C",
      "380C",
      "380C",
      "380C",
      "380C",
      "380C",
      "380C",
      "380C",
      "380C",
      "380C",
      "380C",
      "380C",
      "380C",
      "380C",
      "380C",
      "380C",
      "380C",
      "380C",
      "380C",
      "380C",
      "380C",
      "380C",
      "380C",
      "380C",
      "380C",
      "380C",
      "380C",
      "380C",
      "380C",
      "380C",
      "380C",
      "380C",
      "380C",
      "380C",
      "380C",
      "380C",
      "380C",
      "380C",
      "380C",
      "380C",
      "380C",
      "380C",
      "380C",
      "380C",
      "380C",
      "380C",
      "380C",
      "380C",
      "380C",
      "380C",
      "380C",
      "380C",
      "380C",
      "380C",
      "380C",
      "380C",
      "380C",
      "380C",
      "380C",
      "380C",
      "380C",
      "380C",
      "380C",
      "380C",
      "380C",
      "380C",
      "380C",
      "380C",
      "380C",
      "380C",
      "380C",
      "380C",
      "380C",
      "380C",
      "380C",
      "380C",
      "380C",
      "380C",
      "380C",
      "380C",
      "380C",
      "380C",
      "380C",
      "380C",
      "380C",
      "380C",
      "380C",
      "380C",
      "380C",
      "380C",
      "380C",
      "380C",
      "380C",
      "380C",
      "380C",
      "380C",
      "380C",
      "380C",
      "380C",
      "380C",
      "380C",
      "380C",
      "380C",
      "380C",
      "380C",
      "380C",
      "380C",
      "380C",
      "380C",
      "380C",
      "380C",
      "380C",
      "380C",
      "380C",
      "380C",
      "380C",
      "380C",
      "380C",
      "380C",
      "380C",
      "380C",
      "380C",
      "380",
      "373",
      "364",
      "354",
      "338",
      "327",
      "308",
      "299",
      "282",
      "276",
      "258",
      "252",
      "240",
      "231",
      "217",
      "209",
      "195",
      "187",
      "173",
      "165",
      "151",
      "143",
      "133",
      "128",
      "121",
      "120",
      "108",
      "103",
      "094",
      "091",
      "083",
      "080",
      "072",
      "069",
      "064",
      "061",
      "056",
      "051",
      "043",
      "040",
      "033",
      "030",
      "023",
      "020",
      "014",
      "012",
      "007",
      "005"
    ],
    "swim:geom": "path",
    "swim:speeds": [
      157,
      209,
      256,
      290,
      319,
      350,
      369,
      370,
      373,
      373,
      374,
      374,
      382,
      384,
      392,
      394,
      401,
      401,
      403,
      410,
      412,
      418,
      424,
      425,
      434,
      439,
      437,
      434,
      432,
      432,
      431,
      431,
      430,
      429,
      428,
      428,
      427,
      427,
      426,
      426,
      416,
      413,
      412,
      412,
      411,
      411,
      411,
      411,
      411,
      410,
      398,
      396,
      395,
      394,
      394,
      398,
      401,
      403,
      404,
      405,
      406,
      408,
      409,
      406,
      410,
      411,
      414,
      411,
      412,
      413,
      412,
      412,
      410,
      411,
      410,
      410,
      409,
      408,
      410,
      408,
      408,
      409,
      407,
      407,
      409,
      408,
      408,
      409,
      409,
      409,
      413,
      410,
      412,
      412,
      414,
      415,
      415,
      417,
      417,
      417,
      419,
      419,
      420,
      421,
      421,
      422,
      422,
      422,
      422,
      422,
      423,
      423,
      423,
      423,
      423,
      423,
      423,
      423,
      422,
      422,
      422,
      422,
      423,
      423,
      424,
      424,
      426,
      426,
      428,
      428,
      430,
      430,
      431,
      432,
      432,
      432,
      433,
      432,
      433,
      432,
      432,
      432,
      431,
      431,
      429,
      428,
      428,
      428,
      428,
      428,
      429,
      429,
      430,
      430,
      432,
      432,
      431,
      434,
      434,
      431,
      435,
      436,
      433,
      436,
      436,
      439,
      437,
      437,
      438,
      437,
      437,
      438,
      438,
      438,
      439,
      440,
      441,
      441,
      441,
      442,
      443,
      442,
      441,
      439,
      439,
      437,
      437,
      436,
      436,
      436,
      436,
      435,
      435,
      435,
      435,
      434,
      434,
      430,
      424,
      416,
      415,
      414,
      414,
      413,
      412,
      412,
      411,
      411,
      411,
      410,
      409,
      409,
      408,
      407,
      407,
      405,
      403,
      401,
      400,
      397,
      396,
      395,
      395,
      394,
      393,
      393,
      392,
      392,
      393,
      393,
      394,
      394,
      395,
      395,
      396,
      397,
      397,
      398,
      398,
      400,
      398,
      399,
      397,
      398,
      397,
      397,
      397,
      397,
      397,
      398,
      398,
      399,
      400,
      402,
      402,
      404,
      405,
      406,
      407,
      408,
      408,
      410,
      409,
      411,
      410,
      411,
      410,
      411,
      410,
      410,
      410,
      412,
      412,
      413,
      413,
      415,
      416,
      417,
      419,
      421,
      423,
      424,
      425,
      425,
      425,
      424,
      423,
      423,
      423,
      423,
      422,
      422,
      423,
      424,
      426,
      427,
      427,
      426,
      425,
      425,
      425,
      426,
      426,
      427,
      427,
      427,
      425,
      426,
      425,
      421,
      423,
      420,
      419,
      422,
      419,
      422,
      420,
      421,
      421,
      421,
      422,
      421,
      421,
      422,
      421,
      422,
      420,
      419,
      420,
      419,
      413,
      416,
      413,
      409,
      412,
      408,
      409,
      409,
      409,
      407,
      408,
      409,
      409,
      409,
      409,
      409,
      409,
      409,
      410,
      410,
      411,
      411,
      412,
      412,
      414,
      415,
      416,
      416,
      416,
      416,
      416,
      415,
      415,
      415,
      415,
      414,
      413,
      413,
      412,
      412,
      411,
      411,
      411,
      411,
      411,
      411,
      412,
      414,
      417,
      419,
      420,
      419,
      419,
      419,
      418,
      418,
      420,
      422,
      422,
      414,
      412,
      411,
      410,
      408,
      408,
      410,
      427,
      428,
      429,
      430,
      441,
      438,
      409,
      409,
      408,
      406,
      406,
      406,
      404,
      404,
      405,
      406,
      407,
      408,
      408,
      408,
      407,
      407,
      406,
      406,
      405,
      405,
      406,
      406,
      408,
      407,
      408,
      409,
      409,
      409,
      409,
      409,
      409,
      408,
      407,
      407,
      406,
      404,
      404,
      405,
      406,
      407,
      408,
      410,
      411,
      415,
      411,
      417,
      414,
      411,
      404,
      395,
      381,
      373,
      372,
      364,
      364,
      357,
      358,
      351,
      352,
      345,
      340,
      315,
      295,
      271,
      243,
      237,
      232,
      224,
      226,
      224,
      226,
      229,
      227,
      231,
      227,
      226,
      218,
      206,
      205,
      199,
      190,
      176,
      158,
      151,
      151,
      148
    ],
    "swim:timestamps": [
      1790420905,
      1790420965,
      1790421025,
      1790421085,
      1790421163,
      1790421223,
      1790421266,
      1790421283,
      1790421326,
      1790421343,
      1790421386,
      1790421403,
      1790421446,
      1790421463,
      1790421506,
      1790421523,
      1790421566,
      1790421583,
      1790421626,
      1790421686,
      1790421700,
      1790421746,
      1790421821,
      1790421881,
      1790421926,
      1790421987,
      1790422061,
      1790422107,
      1790422164,
      1790422181,
      1790422224,
      1790422241,
      1790422284,
      1790422301,
      1790422344,
      1790422361,
      1790422404,
      1790422421,
      1790422464,
      1790422482,
      1790422524,
      1790422542,
      1790422584,
      1790422602,
      1790422644,
      1790422662,
      1790422722,
      1790422763,
      1790422782,
      1790422823,
      1790422842,
      1790422883,
      1790422902,
      1790422943,
      1790422962,
      1790423003,
      1790423022,
      1790423063,
      1790423082,
      1790423123,
      1790423142,
      1790423183,
      1790423202,
      1790423232,
      1790423243,
      1790423263,
      1790423292,
      1790423304,
      1790423323,
      1790423354,
      1790423364,
      1790423383,
      1790423415,
      1790423424,
      1790423443,
      1790423472,
      1790423484,
      1790423503,
      1790423532,
      1790423544,
      1790423563,
      1790423592,
      1790423604,
      1790423624,
      1790423652,
      1790423664,
      1790423684,
      1790423713,
      1790423724,
      1790423744,
      1790423774,
      1790423804,
      1790423835,
      1790423864,
      1790423895,
      1790423906,
      1790423924,
      1790423955,
      1790423966,
      1790423984,
      1790424026,
      1790424044,
      1790424073,
      1790424086,
      1790424104,
      1790424133,
      1790424146,
      1790424164,
      1790424195,
      1790424203,
      1790424253,
      1790424264,
      1790424313,
      1790424324,
      1790424373,
      1790424384,
      1790424433,
      1790424444,
      1790424494,
      1790424504,
      1790424554,
      1790424564,
      1790424615,
      1790424624,
      1790424675,
      1790424684,
      1790424735,
      1790424744,
      1790424795,
      1790424804,
      1790424855,
      1790424865,
      1790424915,
      1790424925,
      1790424976,
      1790424985,
      1790425036,
      1790425045,
      1790425096,
      1790425105,
      1790425156,
      1790425165,
      1790425216,
      1790425225,
      1790425285,
      1790425336,
      1790425345,
      1790425397,
      1790425405,
      1790425466,
      1790425514,
      1790425537,
      1790425574,
      1790425586,
      1790425634,
      1790425646,
      1790425657,
      1790425694,
      1790425706,
      1790425717,
      1790425754,
      1790425766,
      1790425777,
      1790425814,
      1790425826,
      1790425837,
      1790425874,
      1790425886,
      1790425897,
      1790425934,
      1790425946,
      1790425957,
      1790425994,
      1790426006,
      1790426055,
      1790426078,
      1790426115,
      1790426127,
      1790426138,
      1790426175,
      1790426198,
      1790426235,
      1790426258,
      1790426295,
      1790426318,
      1790426355,
      1790426378,
      1790426415,
      1790426438,
      1790426475,
      1790426498,
      1790426535,
      1790426558,
      1790426595,
      1790426618,
      1790426655,
      1790426678,
      1790426716,
      1790426738,
      1790426776,
      1790426798,
      1790426836,
      1790426858,
      1790426896,
      1790426919,
      1790426956,
      1790426979,
      1790427016,
      1790427039,
      1790427076,
      1790427099,
      1790427136,
      1790427159,
      1790427196,
      1790427219,
      1790427256,
      1790427279,
      1790427316,
      1790427339,
      1790427376,
      1790427399,
      1790427437,
      1790427459,
      1790427497,
      1790427519,
      1790427557,
      1790427579,
      1790427617,
      1790427639,
      1790427677,
      1790427699,
      1790427760,
      1790427798,
      1790427858,
      1790427880,
      1790427918,
      1790427940,
      1790427978,
      1790428000,
      1790428035,
      1790428060,
      1790428095,
      1790428120,
      1790428155,
      1790428180,
      1790428215,
      1790428240,
      1790428275,
      1790428300,
      1790428335,
      1790428360,
      1790428395,
      1790428420,
      1790428455,
      1790428480,
      1790428515,
      1790428541,
      1790428576,
      1790428601,
      1790428636,
      1790428661,
      1790428696,
      1790428721,
      1790428756,
      1790428781,
      1790428816,
      1790428841,
      1790428876,
      1790428901,
      1790428936,
      1790428961,
      1790428996,
      1790429021,
      1790429056,
      1790429081,
      1790429116,
      1790429176,
      1790429248,
      1790429308,
      1790429368,
      1790429429,
      1790429489,
      1790429549,
      1790429609,
      1790429669,
      1790429729,
      1790429789,
      1790429849,
      1790429909,
      1790429969,
      1790430029,
      1790430089,
      1790430149,
      1790430210,
      1790430270,
      1790430330,
      1790430390,
      1790430450,
      1790430510,
      1790430570,
      1790430630,
      1790430690,
      1790430750,
      1790430810,
      1790430870,
      1790430931,
      1790430991,
      1790431043,
      1790431103,
      1790431111,
      1790431163,
      1790431171,
      1790431231,
      1790431283,
      1790431291,
      1790431343,
      1790431351,
      1790431411,
      1790431463,
      1790431471,
      1790431523,
      1790431531,
      1790431591,
      1790431644,
      1790431652,
      1790431704,
      1790431712,
      1790431772,
      1790431824,
      1790431884,
      1790431892,
      1790431944,
      1790432004,
      1790432012,
      1790432064,
      1790432072,
      1790432124,
      1790432184,
      1790432244,
      1790432252,
      1790432312,
      1790432365,
      1790432425,
      1790432433,
      1790432493,
      1790432545,
      1790432553,
      1790432605,
      1790432613,
      1790432665,
      1790432673,
      1790432733,
      1790432785,
      1790432793,
      1790432853,
      1790432913,
      1790432965,
      1790432973,
      1790433025,
      1790433033,
      1790433085,
      1790433093,
      1790433146,
      1790433154,
      1790433206,
      1790433214,
      1790433266,
      1790433274,
      1790433326,
      1790433334,
      1790433386,
      1790433394,
      1790433446,
      1790433506,
      1790433566,
      1790433626,
      1790433686,
      1790433746,
      1790433806,
      1790433867,
      1790433927,
      1790433987,
      1790434047,
      1790434107,
      1790434167,
      1790434227,
      1790434287,
      1790434347,
      1790434407,
      1790434467,
      1790434527,
      1790434587,
      1790434648,
      1790434708,
      1790434768,
      1790434828,
      1790434888,
      1790434948,
      1790435008,
      1790435068,
      1790435123,
      1790435183,
      1790435243,
      1790435303,
      1790435369,
      1790435423,
      1790435429,
      1790435483,
      1790435543,
      1790435603,
      1790435609,
      1790435669,
      1790435724,
      1790435784,
      1790435844,
      1790435904,
      1790435964,
      1790436024,
      1790436084,
      1790436144,
      1790436150,
      1790436210,
      1790436270,
      1790436330,
      1790436384,
      1790436390,
      1790436444,
      1790436505,
      1790436565,
      1790436625,
      1790436685,
      1790436745,
      1790436805,
      1790436865,
      1790436925,
      1790436985,
      1790437045,
      1790437105,
      1790437165,
      1790437226,
      1790437286,
      1790437346,
      1790437406,
      1790437466,
      1790437526,
      1790437544,
      1790437586,
      1790437599,
      1790437646,
      1790437659,
      1790437706,
      1790437724,
      1790437766,
      1790437784,
      1790437826,
      1790437844,
      1790437886,
      1790437905,
      1790437946,
      1790437965,
      1790438007,
      1790438025,
      1790438067,
      1790438085,
      1790438127,
      1790438139,
      1790438187,
      1790438199,
      1790438247,
      1790438259,
      1790438307,
      1790438319,
      1790438367,
      1790438379,
      1790438427,
      1790438445,
      1790438487,
      1790438499,
      1790438547,
      1790438559,
      1790438607,
      1790438620,
      1790438667,
      1790438679,
      1790438728,
      1790438740,
      1790438788,
      1790438794
    ],
    "wof:geomhash": "21043f7008e062d2aa1c0b6e6f3eba33",
    "wof:id": 2048439847,
    "wof:repo": "sfomuseum-data-flights-2026-09"
  },
  "bbox": [
    -122.33333333333333,
    37.483333333333334,
    -80.14277777777778,
    40.59444444444445
  ],
  "geometry": {"type":"LineString","coordinates":[[-80.18916666666667,40.48722222222222],[-80.14277777777778,40.51138888888889],[-80.18944444444445,40.55722222222222],[-80.27277777777778,40.59444444444445],[-80.41111111111111,40.58638888888889],[-80.53666666666666,40.58027777777778],[-80.64833333333334,40.566111111111105],[-80.66666666666667,40.559444444444445],[-80.76555555555555,40.51638888888889],[-80.78583333333333,40.5075],[-80.88805555555557,40.47083333333334],[-80.91305555555556,40.468333333333334],[-81.02666666666667,40.4675],[-81.0525,40.467222222222226],[-81.17055555555557,40.46666666666667],[-81.19722222222222,40.46666666666667],[-81.31583333333333,40.465833333333336],[-81.345,40.46555555555556],[-81.46222222222222,40.465],[-81.61083333333333,40.46333333333334],[-81.64333333333335,40.463055555555556],[-81.76472222222222,40.46194444444445],[-81.97027777777778,40.459722222222226],[-82.125,40.456944444444446],[-82.23277777777778,40.44361111111111],[-82.39277777777778,40.42222222222222],[-82.59666666666666,40.39472222222222],[-82.70972222222223,40.379444444444445],[-82.86416666666666,40.35805555555556],[-82.9038888888889,40.3525],[-83.01694444444445,40.336666666666666],[-83.06638888888888,40.32972222222222],[-83.16833333333334,40.31527777777777],[-83.21861111111112,40.308055555555555],[-83.32055555555556,40.29388888888889],[-83.37166666666666,40.28638888888889],[-83.47111111111111,40.27222222222222],[-83.52166666666666,40.264722222222225],[-83.61972222222222,40.25055555555556],[-83.67222222222223,40.24277777777778],[-83.76916666666666,40.24027777777778],[-83.82333333333332,40.24333333333333],[-83.91694444444445,40.24777777777778],[-83.94861111111112,40.24944444444444],[-84.06416666666667,40.25472222222222],[-84.09388888888888,40.25611111111111],[-84.24416666666667,40.263333333333335],[-84.35111111111111,40.268055555555556],[-84.39083333333333,40.269999999999996],[-84.49972222222222,40.275],[-84.5375,40.280277777777776],[-84.63666666666667,40.30277777777778],[-84.67444444444445,40.31166666666666],[-84.77194444444444,40.33388888888889],[-84.80972222222222,40.342222222222226],[-84.91083333333334,40.35916666666667],[-84.97027777777778,40.361666666666665],[-85.05888888888889,40.36527777777778],[-85.11833333333333,40.3675],[-85.20583333333333,40.37111111111111],[-85.26472222222222,40.37305555555555],[-85.3561111111111,40.376111111111115],[-85.41611111111112,40.37777777777778],[-85.48083333333334,40.37888888888889],[-85.50611111111111,40.38027777777778],[-85.56361111111111,40.382222222222225],[-85.63527777777779,40.385555555555555],[-85.6538888888889,40.38472222222222],[-85.72027777777778,40.38666666666666],[-85.78444444444445,40.38861111111111],[-85.80527777777777,40.388888888888886],[-85.86805555555554,40.39055555555556],[-85.93333333333334,40.39222222222222],[-85.95083333333334,40.39277777777778],[-86.01444444444445,40.39416666666666],[-86.08138888888888,40.395833333333336],[-86.09861111111111,40.396388888888886],[-86.16305555555556,40.39805555555556],[-86.22972222222222,40.39944444444444],[-86.24583333333334,40.4],[-86.32166666666666,40.401666666666664],[-86.37805555555555,40.40361111111111],[-86.39416666666668,40.40333333333333],[-86.46833333333333,40.405],[-86.52583333333334,40.40694444444444],[-86.56972222222223,40.40694444444444],[-86.61861111111111,40.407777777777774],[-86.67444444444445,40.409444444444446],[-86.71888888888888,40.40972222222222],[-86.76694444444445,40.41083333333333],[-86.82638888888889,40.41166666666666],[-86.91722222222222,40.41361111111111],[-86.97527777777778,40.41416666666667],[-87.04333333333334,40.41555555555556],[-87.12638888888888,40.416666666666664],[-87.16916666666667,40.4175],[-87.20055555555555,40.41777777777777],[-87.28888888888889,40.41916666666666],[-87.32194444444444,40.41972222222222],[-87.35166666666666,40.419999999999995],[-87.47527777777778,40.42166666666667],[-87.51444444444445,40.42222222222222],[-87.59527777777777,40.42305555555555],[-87.60777777777777,40.42333333333333],[-87.66972222222223,40.42388888888889],[-87.74833333333333,40.42472222222222],[-87.76277777777777,40.425],[-87.82388888888889,40.425555555555555],[-87.90277777777779,40.42638888888889],[-87.91777777777779,40.42638888888889],[-88.05583333333333,40.427499999999995],[-88.07138888888889,40.42777777777778],[-88.20972222222223,40.42861111111111],[-88.22444444444444,40.42861111111111],[-88.365,40.42944444444444],[-88.38,40.42944444444444],[-88.52,40.43],[-88.54888888888888,40.43],[-88.67333333333333,40.43055555555555],[-88.70111111111112,40.43055555555555],[-88.8261111111111,40.43055555555555],[-88.85749999999999,40.43055555555555],[-88.97972222222222,40.43055555555555],[-89.01055555555556,40.43055555555555],[-89.13666666666667,40.43055555555555],[-89.16694444444445,40.43055555555555],[-89.29166666666667,40.43055555555555],[-89.32305555555556,40.430277777777775],[-89.45,40.42944444444444],[-89.48,40.42944444444444],[-89.60888888888888,40.42861111111111],[-89.64027777777778,40.42833333333333],[-89.76888888888888,40.427499999999995],[-89.79944444444445,40.42722222222222],[-89.92694444444444,40.42611111111111],[-89.9588888888889,40.42583333333333],[-90.08638888888889,40.42472222222222],[-90.11749999999999,40.42444444444444],[-90.2461111111111,40.42305555555555],[-90.2461111111111,40.42305555555555],[-90.4025,40.42111111111111],[-90.40222222222222,40.42111111111111],[-90.55888888888889,40.41916666666666],[-90.5586111111111,40.41888888888889],[-90.71277777777777,40.41111111111111],[-90.83805555555556,40.405],[-90.86777777777777,40.40361111111111],[-90.995,40.3975],[-91.02555555555556,40.39611111111111],[-91.18055555555556,40.388333333333335],[-91.33722222222222,40.38],[-91.39166666666668,40.37638888888889],[-91.49222222222222,40.37166666666667],[-91.51638888888888,40.370555555555555],[-91.65083333333334,40.36333333333334],[-91.67583333333334,40.36194444444445],[-91.70666666666666,40.35888888888889],[-91.80916666666667,40.35444444444445],[-91.83361111111111,40.35305555555556],[-91.865,40.35027777777778],[-91.96666666666667,40.34527777777778],[-91.99333333333334,40.343611111111116],[-92.02277777777778,40.341944444444444],[-92.12444444444444,40.33583333333333],[-92.14861111111112,40.33444444444444],[-92.18611111111112,40.33222222222223],[-92.28472222222221,40.32611111111112],[-92.30916666666667,40.32472222222223],[-92.34305555555555,40.32277777777778],[-92.42666666666668,40.3175],[-92.46638888888889,40.315],[-92.50138888888888,40.31305555555555],[-92.58361111111111,40.30777777777777],[-92.61361111111111,40.30583333333333],[-92.74194444444444,40.2975],[-92.80388888888889,40.29361111111111],[-92.90361111111112,40.286944444444444],[-92.93055555555556,40.28527777777778],[-92.96361111111112,40.283055555555556],[-93.06416666666667,40.27611111111111],[-93.12444444444444,40.27222222222222],[-93.22027777777778,40.26555555555556],[-93.28222222222222,40.26138888888889],[-93.375,40.25472222222222],[-93.43805555555556,40.250277777777775],[-93.53472222222221,40.24333333333333],[-93.5961111111111,40.23916666666667],[-93.69027777777778,40.23222222222223],[-93.75222222222222,40.2275],[-93.84916666666666,40.22027777777778],[-93.91166666666668,40.21555555555556],[-94.00416666666666,40.20861111111111],[-94.06805555555555,40.20388888888889],[-94.16444444444446,40.19638888888888],[-94.22500000000001,40.19166666666666],[-94.32,40.18416666666666],[-94.37916666666666,40.17972222222222],[-94.47527777777778,40.17194444444444],[-94.53277777777778,40.16722222222222],[-94.62305555555555,40.16],[-94.68194444444445,40.155],[-94.77305555555556,40.147777777777776],[-94.83055555555555,40.143055555555556],[-94.92,40.135555555555555],[-94.97833333333334,40.13055555555555],[-95.06805555555555,40.12277777777778],[-95.12694444444443,40.117777777777775],[-95.21444444444445,40.11027777777778],[-95.27555555555556,40.105000000000004],[-95.36138888888888,40.097500000000004],[-95.42083333333333,40.092222222222226],[-95.50638888888889,40.084722222222226],[-95.56777777777778,40.07916666666667],[-95.65,40.07166666666667],[-95.71388888888889,40.06583333333333],[-95.7961111111111,40.05833333333333],[-95.8586111111111,40.052499999999995],[-95.93694444444445,40.04527777777778],[-96.00194444444445,40.03944444444444],[-96.07888888888888,40.03194444444444],[-96.14277777777778,40.02583333333333],[-96.2325,40.0175],[-96.28472222222221,40.01222222222222],[-96.37166666666666,40.00416666666667],[-96.42472222222223,39.99888888888889],[-96.51194444444444,39.99055555555556],[-96.56472222222222,39.98527777777778],[-96.6538888888889,39.976111111111116],[-96.70666666666666,39.97083333333334],[-96.79638888888888,39.96194444444445],[-96.84833333333333,39.956944444444446],[-96.98972222222223,39.942499999999995],[-97.07972222222222,39.933055555555555],[-97.22111111111111,39.91861111111111],[-97.275,39.91277777777778],[-97.36388888888888,39.90333333333333],[-97.42416666666666,39.89694444444444],[-97.50722222222223,39.888333333333335],[-97.56833333333333,39.88166666666667],[-97.65305555555557,39.8725],[-97.71027777777778,39.86611111111111],[-97.79527777777777,39.856944444444444],[-97.85333333333332,39.85055555555556],[-97.93611111111112,39.84138888888889],[-97.99472222222222,39.835],[-98.08027777777778,39.82555555555556],[-98.13722222222223,39.81888888888889],[-98.22111111111111,39.809444444444445],[-98.27888888888889,39.80277777777778],[-98.365,39.793055555555554],[-98.4225,39.78638888888889],[-98.50805555555556,39.776666666666664],[-98.56583333333333,39.76972222222222],[-98.65305555555557,39.75972222222222],[-98.71166666666667,39.75277777777778],[-98.79722222222222,39.7425],[-98.85694444444444,39.73555555555556],[-98.94444444444444,39.725],[-99.0025,39.71805555555556],[-99.09194444444444,39.70722222222223],[-99.15138888888889,39.7],[-99.23694444444445,39.689722222222215],[-99.29722222222222,39.68222222222222],[-99.38388888888889,39.671388888888885],[-99.44305555555556,39.663888888888884],[-99.53027777777778,39.653055555555554],[-99.58999999999999,39.645833333333336],[-99.67611111111111,39.63472222222222],[-99.735,39.62722222222222],[-99.82249999999999,39.61611111111111],[-99.88194444444444,39.60861111111111],[-99.97055555555556,39.59722222222222],[-100.02944444444444,39.589444444444446],[-100.10583333333332,39.57972222222222],[-100.17333333333333,39.57055555555556],[-100.25194444444445,39.56027777777778],[-100.40111111111112,39.54055555555556],[-100.55027777777778,39.52055555555555],[-100.72972222222222,39.49638888888889],[-100.87722222222222,39.476111111111116],[-101.03027777777778,39.455000000000005],[-101.17944444444444,39.43444444444444],[-101.33027777777778,39.41277777777778],[-101.48027777777779,39.391666666666666],[-101.62972222222221,39.36972222222222],[-101.77805555555555,39.348333333333336],[-101.92888888888889,39.32638888888889],[-102.08083333333333,39.303888888888885],[-102.22722222222222,39.28194444444444],[-102.375,39.25972222222222],[-102.52305555555556,39.237500000000004],[-102.67194444444445,39.214444444444446],[-102.82722222222222,39.19027777777777],[-102.97666666666667,39.16694444444444],[-103.12694444444443,39.14333333333333],[-103.27777777777777,39.11944444444445],[-103.42805555555556,39.09527777777778],[-103.5775,39.071111111111115],[-103.72500000000001,39.04694444444444],[-103.87249999999999,39.022777777777776],[-104.02111111111111,38.99805555555556],[-104.17222222222223,38.973055555555554],[-104.32138888888889,38.94777777777777],[-104.46916666666667,38.92222222222222],[-104.61916666666666,38.89666666666667],[-104.76972222222223,38.87083333333334],[-104.91527777777779,38.845555555555556],[-105.02833333333334,38.82166666666667],[-105.17416666666666,38.79611111111111],[-105.20777777777778,38.79388888888889],[-105.31833333333333,38.769999999999996],[-105.35277777777777,38.7675],[-105.49888888888889,38.74138888888889],[-105.60916666666667,38.717777777777776],[-105.64472222222223,38.71527777777778],[-105.75361111111111,38.69333333333333],[-105.79055555555556,38.68861111111111],[-105.93583333333333,38.66166666666666],[-106.045,38.638888888888886],[-106.0825,38.63444444444444],[-106.1913888888889,38.611666666666665],[-106.22555555555556,38.60777777777778],[-106.3711111111111,38.580555555555556],[-106.48305555555555,38.55722222222222],[-106.51777777777778,38.55277777777778],[-106.62694444444443,38.52916666666667],[-106.63277777777778,38.530833333333334],[-106.77833333333334,38.50277777777778],[-106.91277777777778,38.474444444444444],[-107.05527777777777,38.44916666666666],[-107.06444444444445,38.45277777777778],[-107.19888888888889,38.45166666666667],[-107.34444444444443,38.45166666666667],[-107.36916666666666,38.453611111111115],[-107.48805555555556,38.4525],[-107.51444444444445,38.45388888888889],[-107.63138888888888,38.453611111111115],[-107.77583333333334,38.452222222222225],[-107.92055555555557,38.45305555555556],[-107.94583333333334,38.45388888888889],[-108.09055555555555,38.453611111111115],[-108.21083333333334,38.45166666666667],[-108.35555555555555,38.45111111111111],[-108.38194444444444,38.452222222222225],[-108.52666666666667,38.45138888888889],[-108.6463888888889,38.45055555555556],[-108.67277777777778,38.45055555555556],[-108.78944444444444,38.44944444444444],[-108.81805555555555,38.44916666666666],[-108.935,38.448055555555555],[-108.96305555555556,38.44777777777777],[-109.10944444444443,38.44611111111111],[-109.22916666666667,38.44472222222222],[-109.25694444444444,38.44416666666666],[-109.40305555555557,38.44222222222222],[-109.55055555555555,38.44],[-109.67083333333333,38.43833333333333],[-109.69916666666667,38.437777777777775],[-109.81833333333333,38.43555555555555],[-109.8475,38.43527777777778],[-109.96388888888889,38.433055555555555],[-109.99444444444444,38.4325],[-110.11138888888888,38.43],[-110.13972222222223,38.42972222222222],[-110.25833333333334,38.42861111111111],[-110.28583333333333,38.42833333333333],[-110.40472222222223,38.42666666666666],[-110.43361111111112,38.42611111111111],[-110.54972222222221,38.424166666666665],[-110.5775,38.42388888888889],[-110.69527777777778,38.42222222222222],[-110.72361111111111,38.42166666666667],[-110.84027777777777,38.419444444444444],[-110.99638888888889,38.416666666666664],[-111.14250000000001,38.41361111111111],[-111.2863888888889,38.410555555555554],[-111.43166666666667,38.4075],[-111.58,38.40361111111111],[-111.72805555555556,38.400277777777774],[-111.87666666666667,38.396388888888886],[-112.02527777777777,38.39222222222222],[-112.1725,38.38805555555555],[-112.31861111111111,38.38361111111111],[-112.46527777777779,38.37916666666667],[-112.61388888888888,38.37416666666667],[-112.76055555555556,38.369166666666665],[-112.90777777777778,38.36416666666667],[-113.05833333333334,38.36],[-113.20527777777778,38.35888888888889],[-113.34861111111111,38.35722222222223],[-113.49444444444444,38.355555555555554],[-113.63666666666667,38.35388888888889],[-113.78222222222222,38.35194444444445],[-113.9263888888889,38.349722222222226],[-114.06861111111111,38.347500000000004],[-114.21138888888889,38.35194444444445],[-114.32222222222222,38.430277777777775],[-114.42833333333334,38.5175],[-114.53388888888888,38.605000000000004],[-114.64,38.69138888888889],[-114.74694444444445,38.777499999999996],[-114.86611111111111,38.84638888888889],[-115.00527777777778,38.82166666666667],[-115.14444444444445,38.78972222222222],[-115.28222222222222,38.75888888888889],[-115.41638888888889,38.72777777777778],[-115.41416666666667,38.728611111111114],[-115.55444444444444,38.696666666666665],[-115.69111111111111,38.663888888888884],[-115.83,38.63138888888889],[-115.8286111111111,38.63138888888889],[-115.96583333333334,38.598888888888894],[-116.10694444444444,38.565555555555555],[-116.24444444444444,38.532777777777774],[-116.38416666666667,38.49916666666667],[-116.52083333333333,38.465833333333336],[-116.65777777777778,38.4325],[-116.79472222222222,38.399166666666666],[-116.93277777777779,38.36527777777778],[-117.06833333333333,38.331388888888895],[-117.06611111111111,38.331944444444446],[-117.22722222222222,38.29194444444444],[-117.36138888888888,38.25833333333333],[-117.4961111111111,38.224444444444444],[-117.60638888888889,38.19638888888888],[-117.63333333333334,38.18944444444444],[-117.74333333333334,38.16166666666666],[-117.88083333333333,38.126666666666665],[-118.01833333333333,38.09111111111111],[-118.15416666666667,38.05583333333333],[-118.29416666666667,38.02722222222222],[-118.43666666666667,38.006388888888885],[-118.5761111111111,37.98555555555556],[-118.71805555555555,37.964444444444446],[-118.85749999999999,37.94361111111111],[-118.99944444444445,37.92194444444444],[-119.13916666666667,37.900555555555556],[-119.28277777777778,37.87861111111111],[-119.4213888888889,37.856944444444444],[-119.56194444444444,37.835],[-119.7025,37.812777777777775],[-119.84277777777777,37.790277777777774],[-119.98416666666667,37.7675],[-120.12777777777777,37.74444444444445],[-120.26888888888888,37.72138888888889],[-120.31666666666666,37.71666666666667],[-120.41083333333334,37.69833333333333],[-120.45,37.7],[-120.55416666666666,37.681666666666665],[-120.58333333333333,37.68333333333333],[-120.69500000000001,37.665277777777774],[-120.75,37.666666666666664],[-120.8275,37.64944444444444],[-120.88333333333334,37.65],[-120.9563888888889,37.63388888888889],[-121,37.63333333333333],[-121.08305555555555,37.61694444444444],[-121.13333333333334,37.61666666666667],[-121.20472222222223,37.60055555555556],[-121.25,37.6],[-121.32555555555555,37.58555555555556],[-121.36666666666666,37.583333333333336],[-121.44388888888889,37.57194444444445],[-121.48333333333333,37.56666666666667],[-121.54916666666666,37.55972222222222],[-121.58333333333333,37.55],[-121.6375,37.547777777777775],[-121.66666666666667,37.55],[-121.71388888888889,37.529444444444444],[-121.73333333333333,37.516666666666666],[-121.78888888888889,37.51138888888889],[-121.81666666666666,37.5],[-121.86444444444444,37.49333333333333],[-121.88333333333334,37.483333333333334],[-121.94444444444444,37.49277777777778],[-121.98333333333333,37.5],[-122.02111111111111,37.50527777777778],[-122.05,37.516666666666666],[-122.09305555555555,37.52861111111111],[-122.11666666666666,37.53333333333333],[-122.15861111111111,37.55],[-122.18333333333334,37.55],[-122.22111111111111,37.57],[-122.23333333333333,37.583333333333336],[-122.27388888888889,37.586666666666666],[-122.28333333333333,37.583333333333336],[-122.32277777777777,37.60111111111111],[-122.33333333333333,37.6]]}
}
