{
  "id": 2048382541,
  "type": "Feature",
  "properties": {
    "geom:area": 0,
    "geom:bbox": "-122.409610,37.625580,-121.256510,38.418570",
    "geom:latitude": 38.0193955058781,
    "geom:longitude": -121.84692257597528,
    "src:alt_label": "swim-takeoff",
    "src:geom": "swim",
    "swim:elevations": [
      152,
      502,
      635,
      1136,
      1216,
      1447,
      1849,
      2050,
      2516,
      2963,
      3293,
      3445,
      3631,
      3858,
      4140,
      4411,
      4575,
      4881,
      4984,
      5446,
      5684,
      5797,
      5984,
      6220,
      6453,
      6624,
      6894,
      7087
    ],
    "swim:geom": "takeoff",
    "swim:timestamps": [
      1789827340,
      1789827378,
      1789827392,
      1789827441,
      1789827456,
      1789827489,
      1789827529,
      1789827546,
      1789827582,
      1789827622,
      1789827655,
      1789827684,
      1789827716,
      1789827739,
      1789827766,
      1789827804,
      1789827822,
      1789827859,
      1789827873,
      1789827928,
      1789827954,
      1789827973,
      1789828003,
      1789828033,
      1789828069,
      1789828091,
      1789828131,
      1789828160
    ],
    "wof:geomhash": "febd2966fae5799551c41b12019ebfb1",
    "wof:id": 2048382541,
    "wof:repo": "sfomuseum-data-flights-2026-09"
  },
  "bbox": [
    -122.40961,
    37.62558,
    -121.25651,
    38.41857
  ],
  "geometry": {"type":"LineString","coordinates":[[-122.39119,37.62558],[-122.40961,37.65113],[-122.39843,37.66111],[-122.34436,37.67481],[-122.32637,37.681],[-122.28309,37.6959],[-122.22362,37.7154],[-122.20374,37.72858],[-122.17025,37.76641],[-122.1315,37.80916],[-122.09773,37.84624],[-122.06668,37.8796],[-122.02124,37.91346],[-121.98604,37.93702],[-121.94264,37.96518],[-121.8825,38.00612],[-121.85421,38.0254],[-121.79201,38.06754],[-121.76973,38.08235],[-121.67609,38.14505],[-121.63048,38.17472],[-121.59918,38.19568],[-121.54676,38.23099],[-121.49281,38.26731],[-121.42772,38.31076],[-121.38771,38.33734],[-121.31207,38.3847],[-121.25651,38.41857]]}
}
