{
  "id": 2048333413,
  "type": "Feature",
  "properties": {
    "geom:area": 0,
    "geom:bbox": "-122.799550,37.535080,-122.078640,38.477470",
    "geom:latitude": 37.862348046686016,
    "geom:longitude": -122.48523238913357,
    "src:alt_label": "swim-approach",
    "src:geom": "swim",
    "swim:elevations": [
      7632,
      7343,
      7043,
      6828,
      6544,
      6321,
      6104,
      5858,
      5731,
      5313,
      5083,
      4851,
      4598,
      4161,
      4113,
      3886,
      3685,
      3583,
      3404,
      3352,
      3373,
      3240,
      3227,
      2914,
      2571,
      2507,
      2166,
      1923,
      1443,
      1347,
      1220,
      1189,
      1097,
      998,
      806,
      656,
      555,
      360,
      254,
      141,
      83
    ],
    "swim:geom": "approach",
    "swim:timestamps": [
      1789428507,
      1789428538,
      1789428568,
      1789428589,
      1789428617,
      1789428640,
      1789428663,
      1789428688,
      1789428703,
      1789428742,
      1789428769,
      1789428793,
      1789428817,
      1789428867,
      1789428873,
      1789428894,
      1789428918,
      1789428930,
      1789428980,
      1789429014,
      1789429044,
      1789429077,
      1789429080,
      1789429127,
      1789429162,
      1789429171,
      1789429209,
      1789429235,
      1789429286,
      1789429296,
      1789429339,
      1789429363,
      1789429403,
      1789429424,
      1789429459,
      1789429485,
      1789429505,
      1789429550,
      1789429574,
      1789429605,
      1789429620
    ],
    "wof:geomhash": "a92a876dbf6d6b7c95f30a88ef5802a5",
    "wof:id": 2048333413,
    "wof:repo": "sfomuseum-data-flights-2026-09"
  },
  "bbox": [
    -122.79955,
    37.53508,
    -122.07864,
    38.47747
  ],
  "geometry": {"type":"LineString","coordinates":[[-122.79955,38.47747],[-122.79259,38.4221],[-122.78593,38.36989],[-122.7813,38.33314],[-122.77483,38.283],[-122.76966,38.24376],[-122.76176,38.20479],[-122.74976,38.16383],[-122.74252,38.13886],[-122.7237,38.07434],[-122.71088,38.03017],[-122.6996,37.99075],[-122.68851,37.95233],[-122.65047,37.87793],[-122.64248,37.87054],[-122.61442,37.84452],[-122.58302,37.81415],[-122.56751,37.79984],[-122.50747,37.74356],[-122.4609,37.71782],[-122.41662,37.70747],[-122.36903,37.69709],[-122.36482,37.69618],[-122.3005,37.6818],[-122.25328,37.67073],[-122.24108,37.66715],[-122.1938,37.64402],[-122.16302,37.62801],[-122.10111,37.596],[-122.08922,37.58965],[-122.07864,37.55118],[-122.10306,37.53988],[-122.14959,37.53508],[-122.17226,37.53763],[-122.20761,37.55023],[-122.23345,37.56108],[-122.25234,37.56933],[-122.29293,37.58662],[-122.31224,37.59465],[-122.33649,37.60494],[-122.34825,37.60982]]}
}
