{
  "id": 2048457871,
  "type": "Feature",
  "properties": {
    "date:cessation_lower": "2026-09-28",
    "date:cessation_upper": "2026-09-28",
    "date:inception_lower": "2026-09-28",
    "date:inception_upper": "2026-09-28",
    "edtf:cessation": "2026-09-28T02:04:08-07:00",
    "edtf:inception": "2026-09-28T15:05:00Z",
    "flysfo:actual_timestamp": -1,
    "flysfo:airline": "UA",
    "flysfo:base_airline": "",
    "flysfo:base_flight_number": "7357",
    "flysfo:date": "2026-09-28",
    "flysfo:estimated_timestamp": 1790612340,
    "flysfo:event": "A",
    "flysfo:flight_number": "UA1372",
    "flysfo:gate": "E12",
    "flysfo:journey": "LAX-SFO",
    "flysfo:scheduled_timestamp": 1790611440,
    "flysfo:timestamp": 1790612340,
    "geom:area": 0,
    "geom:bbox": "-122.370943,33.942593,-118.389510,37.617990",
    "geom:latitude": 35.780291500000004,
    "geom:longitude": -120.38022649999999,
    "iata:airline": "UA",
    "iata:base_airline": "",
    "icao:aircraft": "B38M",
    "icao:airline": "UAL",
    "icao:base_airline": "ANA",
    "lbl:latitude": 37.619531,
    "lbl:longitude": -122.384262,
    "sfomuseum:aircraft_id": 1528104575,
    "sfomuseum:airline_id": 1159285413,
    "sfomuseum:arrival_id": 102527513,
    "sfomuseum:base_flight_id": "20260928-A-ANA-7357",
    "sfomuseum:departure_id": 102533795,
    "sfomuseum:flight_id": "20260928-A-UAL-1372",
    "sfomuseum:flight_number": [
      "UAL1372",
      "UA1372"
    ],
    "sfomuseum:placetype": "flight",
    "src:geom": "flysfo",
    "src:geom_alt": [
      "swim-path",
      "swim-approach"
    ],
    "swim:tail_number": "N17312",
    "wof:belongsto": [
      1947304067,
      102527513,
      1947304511,
      102191575,
      85633793,
      102087579,
      85922583,
      554784711,
      85688637,
      1947304531,
      1947304447,
      102085387
    ],
    "wof:concordances": {
      "swim:flight_ref": "158432556"
    },
    "wof:country": "US",
    "wof:created": 1790698118,
    "wof:geomhash": "f16008bc2ad68c6d1bc593247c6c74a9",
    "wof:hierarchy": [
      {
        "building_id": 1947304067,
        "campus_id": 102527513,
        "concourse_id": 1947304511,
        "continent_id": 102191575,
        "country_id": 85633793,
        "county_id": 102087579,
        "custom_id": 2048457871,
        "flight_id": 2048457871,
        "locality_id": 85922583,
        "postalcode_id": 554784711,
        "region_id": 85688637,
        "venue_id": 1947304531,
        "wing_id": 1947304447
      },
      {
        "building_id": 1947304067,
        "campus_id": 102527513,
        "concourse_id": 1947304511,
        "continent_id": 102191575,
        "country_id": 85633793,
        "county_id": 102085387,
        "custom_id": 2048457871,
        "flight_id": 2048457871,
        "region_id": 85688637,
        "venue_id": 1947304531,
        "wing_id": 1947304447
      }
    ],
    "wof:id": 2048457871,
    "wof:involves": [
      1528104575,
      102527513,
      102533795,
      1159285413,
      1947304531,
      1159283875
    ],
    "wof:lastmodified": 1790698836,
    "wof:name": "UA1372 (LAX-SFO)",
    "wof:parent_id": 1947304531,
    "wof:placetype": "custom",
    "wof:placetype_alt": [
      "flight"
    ],
    "wof:repo": "sfomuseum-data-flights-2026-09",
    "wof:superseded_by": [],
    "wof:supersedes": []
  },
  "bbox": [
    -122.370943,
    33.942593,
    -118.38951,
    37.61799
  ],
  "geometry": {"type":"MultiPoint","coordinates":[[-118.38951,33.942593],[-122.370943,37.61799]]}
}
