{
  "id": 2048383505,
  "type": "Feature",
  "properties": {
    "geom:area": 0,
    "geom:bbox": "-122.351430,37.491520,-121.245270,37.611110",
    "geom:latitude": 37.54654049453387,
    "geom:longitude": -121.80309514654871,
    "src:alt_label": "swim-approach",
    "src:geom": "swim",
    "swim:elevations": [
      4622,
      4343,
      4143,
      3933,
      3698,
      3412,
      3384,
      3331,
      3261,
      3105,
      2769,
      2622,
      2247,
      2179,
      2134,
      2093,
      1950,
      1829,
      1813,
      1613,
      1344,
      1040,
      941,
      887,
      789,
      614,
      492,
      454,
      244,
      197,
      157,
      60
    ],
    "swim:geom": "approach",
    "swim:timestamps": [
      1789940151,
      1789940182,
      1789940205,
      1789940230,
      1789940256,
      1789940303,
      1789940310,
      1789940343,
      1789940368,
      1789940387,
      1789940421,
      1789940436,
      1789940478,
      1789940488,
      1789940518,
      1789940541,
      1789940571,
      1789940607,
      1789940629,
      1789940653,
      1789940686,
      1789940721,
      1789940733,
      1789940748,
      1789940781,
      1789940806,
      1789940844,
      1789940851,
      1789940906,
      1789940915,
      1789940927,
      1789940954
    ],
    "wof:geomhash": "d784b2ec7dc064ea81b18e01fac00d96",
    "wof:id": 2048383505,
    "wof:repo": "sfomuseum-data-flights-2026-09"
  },
  "bbox": [
    -122.35143,
    37.49152,
    -121.24527,
    37.61111
  ],
  "geometry": {"type":"LineString","coordinates":[[-121.24527,37.59524],[-121.31198,37.58671],[-121.35975,37.58151],[-121.41114,37.57567],[-121.46183,37.56966],[-121.54899,37.55947],[-121.56059,37.5582],[-121.61538,37.55192],[-121.65287,37.54407],[-121.6785,37.53788],[-121.72734,37.52628],[-121.74744,37.52146],[-121.80779,37.50711],[-121.82126,37.50383],[-121.86224,37.49407],[-121.89405,37.49152],[-121.93669,37.49268],[-121.98622,37.49512],[-122.01549,37.50374],[-122.04579,37.51361],[-122.08636,37.5268],[-122.12989,37.54089],[-122.14441,37.54555],[-122.16285,37.55161],[-122.19924,37.56329],[-122.22574,37.57177],[-122.26383,37.58402],[-122.27027,37.58586],[-122.31522,37.59904],[-122.32244,37.60115],[-122.3317,37.60396],[-122.35143,37.61111]]}
}
