{
  "id": 2048277237,
  "type": "Feature",
  "properties": {
    "geom:area": 0,
    "geom:bbox": "-122.527110,37.628720,-121.243560,38.108900",
    "geom:latitude": 37.930291804267966,
    "geom:longitude": -121.98427770804015,
    "src:alt_label": "swim-takeoff",
    "src:geom": "swim",
    "swim:elevations": [
      183,
      392,
      497,
      835,
      1041,
      1228,
      1528,
      1780,
      2124,
      2553,
      2803,
      3012,
      3117,
      3289,
      3356,
      3493,
      3690,
      4161,
      4381,
      4597,
      4695,
      4878,
      5120,
      5273,
      5405,
      5625,
      5729,
      5946,
      6048,
      6252
    ],
    "swim:geom": "takeoff",
    "swim:timestamps": [
      1788770000,
      1788770019,
      1788770040,
      1788770092,
      1788770122,
      1788770144,
      1788770173,
      1788770194,
      1788770226,
      1788770265,
      1788770290,
      1788770312,
      1788770326,
      1788770357,
      1788770372,
      1788770405,
      1788770433,
      1788770488,
      1788770514,
      1788770545,
      1788770560,
      1788770593,
      1788770628,
      1788770653,
      1788770681,
      1788770721,
      1788770739,
      1788770777,
      1788770795,
      1788770834
    ],
    "wof:geomhash": "602c5dff579fa740dd2f8dca55a658cc",
    "wof:id": 2048277237,
    "wof:repo": "sfomuseum-data-flights-2026-09"
  },
  "bbox": [
    -122.52711,
    37.62872,
    -121.24356,
    38.1089
  ],
  "geometry": {"type":"LineString","coordinates":[[-122.39358,37.62872],[-122.40948,37.63533],[-122.42835,37.64322],[-122.48381,37.66627],[-122.51752,37.68543],[-122.52487,37.71139],[-122.52627,37.74674],[-122.52711,37.77398],[-122.50845,37.81163],[-122.45106,37.83643],[-122.41081,37.84716],[-122.37363,37.85715],[-122.35089,37.86325],[-122.2943,37.87845],[-122.26637,37.88591],[-122.20216,37.90301],[-122.14548,37.91807],[-122.03065,37.94849],[-121.97569,37.96296],[-121.90975,37.98034],[-121.87804,37.98867],[-121.80769,38.00696],[-121.7277,38.02172],[-121.67208,38.03174],[-121.6087,38.04341],[-121.51563,38.06035],[-121.47099,38.06841],[-121.38245,38.08426],[-121.33898,38.09203],[-121.24356,38.1089]]}
}
