{
  "id": 2048339969,
  "type": "Feature",
  "properties": {
    "geom:area": 0,
    "geom:bbox": "-122.528200,37.632980,-121.249710,38.149920",
    "geom:latitude": 37.93869568193861,
    "geom:longitude": -121.98055810522928,
    "src:alt_label": "swim-takeoff",
    "src:geom": "swim",
    "swim:elevations": [
      334,
      508,
      775,
      1178,
      1455,
      2087,
      2449,
      2910,
      3183,
      3517,
      3756,
      4056,
      4583,
      4821,
      5329,
      5415,
      5758,
      6241,
      6513,
      6917,
      7126,
      7412,
      7567,
      8077,
      8360
    ],
    "swim:geom": "takeoff",
    "swim:timestamps": [
      1789431714,
      1789431729,
      1789431750,
      1789431783,
      1789431822,
      1789431866,
      1789431888,
      1789431920,
      1789431939,
      1789431983,
      1789432013,
      1789432034,
      1789432076,
      1789432094,
      1789432134,
      1789432144,
      1789432171,
      1789432215,
      1789432240,
      1789432284,
      1789432308,
      1789432335,
      1789432350,
      1789432399,
      1789432429
    ],
    "wof:geomhash": "60f8f68eb41a6b6af9f44b4cf5a494ed",
    "wof:id": 2048339969,
    "wof:repo": "sfomuseum-data-flights-2026-09"
  },
  "bbox": [
    -122.5282,
    37.63298,
    -121.24971,
    38.14992
  ],
  "geometry": {"type":"LineString","coordinates":[[-122.40887,37.63298],[-122.42255,37.63892],[-122.44286,37.64781],[-122.4752,37.66157],[-122.52144,37.68637],[-122.5282,37.74135],[-122.52786,37.77106],[-122.50889,37.81035],[-122.47917,37.82439],[-122.39751,37.84648],[-122.33389,37.86321],[-122.28766,37.87557],[-122.19232,37.90139],[-122.15034,37.91272],[-122.05389,37.93869],[-122.03191,37.94459],[-121.96525,37.96242],[-121.85034,37.99308],[-121.78534,38.0103],[-121.66599,38.04169],[-121.59919,38.05931],[-121.52365,38.0793],[-121.48089,38.0906],[-121.3395,38.12672],[-121.24971,38.14992]]}
}
