{
  "id": 2048266137,
  "type": "Feature",
  "properties": {
    "date:inception_lower": "2026-09-06",
    "date:inception_upper": "2026-09-06",
    "edtf:cessation": "",
    "edtf:inception": "2026-09-06",
    "flysfo:actual_timestamp": -1,
    "flysfo:airline": "AZ",
    "flysfo:base_airline": "",
    "flysfo:base_flight_number": "3340",
    "flysfo:date": "2026-09-06",
    "flysfo:estimated_timestamp": 1788724860,
    "flysfo:event": "A",
    "flysfo:flight_number": "AZ4475",
    "flysfo:gate": "E4",
    "flysfo:journey": "PDX-SFO",
    "flysfo:scheduled_timestamp": 1788725460,
    "flysfo:timestamp": 1788725460,
    "geom:area": 0,
    "geom:bbox": "-122.597389,37.617990,-122.370943,45.586144",
    "geom:latitude": 41.602067,
    "geom:longitude": -122.484166,
    "iata:airline": "AZ",
    "iata:base_airline": "",
    "icao:airline": "ITY",
    "icao:base_airline": "ACA",
    "lbl:latitude": 37.618161,
    "lbl:longitude": -122.384735,
    "sfomuseum:airline_id": 1763699293,
    "sfomuseum:arrival_id": 102527513,
    "sfomuseum:base_flight_id": "20260906-A-ACA-3340",
    "sfomuseum:departure_id": 102532251,
    "sfomuseum:flight_id": "20260906-A-ITY-4475",
    "sfomuseum:flight_number": [
      "ITY4475",
      "AZ4475"
    ],
    "sfomuseum:placetype": "flight",
    "src:geom": "flysfo",
    "wof:belongsto": [
      1763588121,
      102527513,
      1763588335,
      102191575,
      85633793,
      102087579,
      85922583,
      554784711,
      85688637,
      1763588337,
      1763588269,
      102085387
    ],
    "wof:country": "US",
    "wof:created": 1788797154,
    "wof:geomhash": "3af422147b92e6fa9912d38a57ea404a",
    "wof:hierarchy": [
      {
        "building_id": 1763588121,
        "campus_id": 102527513,
        "concourse_id": 1763588335,
        "continent_id": 102191575,
        "country_id": 85633793,
        "county_id": 102087579,
        "custom_id": 2048266137,
        "flight_id": 2048266137,
        "locality_id": 85922583,
        "postalcode_id": 554784711,
        "region_id": 85688637,
        "venue_id": 1763588337,
        "wing_id": 1763588269
      },
      {
        "building_id": 1763588121,
        "campus_id": 102527513,
        "concourse_id": 1763588335,
        "continent_id": 102191575,
        "country_id": 85633793,
        "county_id": 102085387,
        "custom_id": 2048266137,
        "flight_id": 2048266137,
        "region_id": 85688637,
        "venue_id": 1763588337,
        "wing_id": 1763588269
      }
    ],
    "wof:id": 2048266137,
    "wof:involves": [
      102527513,
      102532251,
      1763699293,
      1763588337,
      1159283597
    ],
    "wof:lastmodified": 1788797154,
    "wof:name": "AZ4475 (PDX-SFO)",
    "wof:parent_id": 1763588337,
    "wof:placetype": "custom",
    "wof:placetype_alt": [
      "flight"
    ],
    "wof:repo": "sfomuseum-data-flights-2026-09",
    "wof:superseded_by": [],
    "wof:supersedes": []
  },
  "bbox": [
    -122.597389,
    37.61799,
    -122.370943,
    45.586144
  ],
  "geometry": {"type":"MultiPoint","coordinates":[[-122.597389,45.586144],[-122.370943,37.61799]]}
}
