{
  "id": 2048320133,
  "type": "Feature",
  "properties": {
    "geom:area": 0,
    "geom:bbox": "-122.402370,37.625000,-121.248100,38.516720",
    "geom:latitude": 38.08809823929483,
    "geom:longitude": -121.84795993568147,
    "src:alt_label": "swim-takeoff",
    "src:geom": "swim",
    "swim:elevations": [
      183,
      529,
      586,
      887,
      1318,
      1591,
      2194,
      2602,
      2954,
      3193,
      3471,
      3575,
      4067,
      4382,
      4578,
      4744,
      5049,
      5324,
      5451,
      5842,
      6140,
      6259,
      6561,
      6641,
      7019,
      7064,
      7437
    ],
    "swim:geom": "takeoff",
    "swim:timestamps": [
      1789207438,
      1789207465,
      1789207478,
      1789207517,
      1789207549,
      1789207569,
      1789207612,
      1789207644,
      1789207671,
      1789207704,
      1789207736,
      1789207745,
      1789207791,
      1789207827,
      1789207854,
      1789207872,
      1789207907,
      1789207941,
      1789207955,
      1789207998,
      1789208035,
      1789208052,
      1789208092,
      1789208103,
      1789208152,
      1789208163,
      1789208216
    ],
    "wof:geomhash": "f41195d3a1003ee0883605cd4e948a94",
    "wof:id": 2048320133,
    "wof:repo": "sfomuseum-data-flights-2026-09"
  },
  "bbox": [
    -122.40237,
    37.625,
    -121.2481,
    38.51672
  ],
  "geometry": {"type":"LineString","coordinates":[[-122.38961,37.625],[-122.40237,37.64259],[-122.39565,37.6531],[-122.34625,37.67252],[-122.29784,37.68892],[-122.26757,37.69942],[-122.20624,37.72821],[-122.17224,37.76389],[-122.14446,37.79485],[-122.10835,37.83516],[-122.06957,37.87733],[-122.05816,37.88971],[-122.00091,37.95319],[-121.95436,38.00447],[-121.91913,38.0431],[-121.89427,38.07034],[-121.84613,38.12309],[-121.7988,38.17477],[-121.77864,38.19682],[-121.7161,38.26442],[-121.64706,38.31295],[-121.61233,38.33073],[-121.52424,38.37594],[-121.50032,38.3881],[-121.39246,38.44325],[-121.36889,38.45524],[-121.2481,38.51672]]}
}
