{
  "id": 2048335925,
  "type": "Feature",
  "properties": {
    "geom:area": 0,
    "geom:bbox": "-122.354160,37.491460,-121.292350,37.612240",
    "geom:latitude": 37.54473820146528,
    "geom:longitude": -121.8278816359021,
    "src:alt_label": "swim-approach",
    "src:geom": "swim",
    "swim:elevations": [
      4270,
      3985,
      3646,
      3490,
      3171,
      3101,
      3048,
      2867,
      2617,
      2564,
      2437,
      2272,
      2103,
      1916,
      1894,
      1776,
      1609,
      1517,
      1292,
      1250,
      987,
      913,
      820,
      635,
      597,
      450,
      310,
      285,
      95,
      30
    ],
    "swim:geom": "approach",
    "swim:timestamps": [
      1789391227,
      1789391255,
      1789391295,
      1789391312,
      1789391358,
      1789391392,
      1789391410,
      1789391444,
      1789391487,
      1789391496,
      1789391526,
      1789391551,
      1789391585,
      1789391633,
      1789391643,
      1789391690,
      1789391718,
      1789391745,
      1789391787,
      1789391794,
      1789391841,
      1789391857,
      1789391902,
      1789391935,
      1789391945,
      1789391994,
      1789392023,
      1789392031,
      1789392072,
      1789392091
    ],
    "wof:geomhash": "4988dcd64484dc2f4e1c05691a591fd0",
    "wof:id": 2048335925,
    "wof:repo": "sfomuseum-data-flights-2026-09"
  },
  "bbox": [
    -122.35416,
    37.49146,
    -121.29235,
    37.61224
  ],
  "geometry": {"type":"LineString","coordinates":[[-121.29235,37.58923],[-121.3444,37.58325],[-121.41485,37.57531],[-121.44571,37.57164],[-121.52925,37.56196],[-121.58825,37.55511],[-121.62008,37.5512],[-121.67683,37.53837],[-121.74536,37.52191],[-121.75821,37.51887],[-121.80136,37.50864],[-121.83546,37.50058],[-121.88117,37.49146],[-121.9489,37.4928],[-121.96179,37.49314],[-122.01181,37.50239],[-122.03868,37.51106],[-122.06391,37.51934],[-122.10072,37.53133],[-122.10686,37.53331],[-122.14759,37.54644],[-122.16139,37.55099],[-122.19906,37.56309],[-122.22634,37.57197],[-122.23487,37.57472],[-122.27757,37.5873],[-122.3014,37.59453],[-122.30762,37.59639],[-122.34003,37.60624],[-122.35416,37.61224]]}
}
