{
  "id": 2048452953,
  "type": "Feature",
  "properties": {
    "geom:area": 0,
    "geom:bbox": "-122.540760,37.305280,-121.248080,37.667060",
    "geom:latitude": 37.42872077038911,
    "geom:longitude": -121.98968288703132,
    "src:alt_label": "swim-takeoff",
    "src:geom": "swim",
    "swim:elevations": [
      401,
      788,
      1094,
      1180,
      1347,
      2016,
      2428,
      2641,
      3157,
      3506,
      3701,
      3991,
      4261,
      4625,
      5123,
      5441,
      5797,
      6086,
      6358,
      6493,
      6745,
      6977,
      7211,
      7442,
      7720,
      7953,
      8072,
      8232
    ],
    "swim:geom": "takeoff",
    "swim:timestamps": [
      1790572105,
      1790572135,
      1790572165,
      1790572181,
      1790572205,
      1790572257,
      1790572286,
      1790572301,
      1790572340,
      1790572373,
      1790572406,
      1790572424,
      1790572445,
      1790572480,
      1790572528,
      1790572558,
      1790572588,
      1790572618,
      1790572648,
      1790572663,
      1790572694,
      1790572726,
      1790572756,
      1790572786,
      1790572822,
      1790572858,
      1790572876,
      1790572894
    ],
    "wof:geomhash": "b0d7a1e5e9c1670e954aff854f5fb170",
    "wof:id": 2048452953,
    "wof:repo": "sfomuseum-data-flights-2026-09"
  },
  "bbox": [
    -122.54076,
    37.30528,
    -121.24808,
    37.66706
  ],
  "geometry": {"type":"LineString","coordinates":[[-122.41125,37.63452],[-122.43857,37.64608],[-122.46715,37.65839],[-122.48395,37.66554],[-122.51564,37.66706],[-122.54076,37.61109],[-122.52128,37.5746],[-122.51028,37.55564],[-122.48202,37.5058],[-122.4408,37.47187],[-122.37856,37.4572],[-122.34294,37.44968],[-122.30158,37.44109],[-122.23197,37.42723],[-122.12877,37.41562],[-122.06261,37.40778],[-121.99567,37.39951],[-121.92805,37.39072],[-121.85925,37.38211],[-121.82427,37.37771],[-121.75038,37.36865],[-121.67191,37.35893],[-121.59787,37.34967],[-121.52295,37.34023],[-121.43373,37.32888],[-121.34157,37.31711],[-121.29495,37.31117],[-121.24808,37.30528]]}
}
