{
  "id": 2048283757,
  "type": "Feature",
  "properties": {
    "geom:area": 0,
    "geom:bbox": "-123.491310,36.995470,-122.089250,37.604040",
    "geom:latitude": 37.29773184068293,
    "geom:longitude": -122.69299164010366,
    "src:alt_label": "swim-approach",
    "src:geom": "swim",
    "swim:elevations": [
      5304,
      5182,
      4907,
      4665,
      4450,
      4149,
      3929,
      3893,
      3422,
      3221,
      3174,
      3109,
      3044,
      3048,
      3048,
      3048,
      3048,
      3048,
      3016,
      2903,
      2691,
      2608,
      2458,
      2438,
      2195,
      2110,
      1876,
      1829,
      1742,
      1631,
      1581,
      1491,
      1333,
      1218,
      1180,
      1134,
      1027,
      781,
      580,
      378,
      306,
      204,
      113
    ],
    "swim:geom": "approach",
    "swim:timestamps": [
      1788888775,
      1788888787,
      1788888833,
      1788888864,
      1788888891,
      1788888927,
      1788888956,
      1788888960,
      1788889018,
      1788889047,
      1788889062,
      1788889093,
      1788889117,
      1788889145,
      1788889188,
      1788889203,
      1788889219,
      1788889247,
      1788889282,
      1788889308,
      1788889347,
      1788889368,
      1788889393,
      1788889411,
      1788889463,
      1788889479,
      1788889523,
      1788889551,
      1788889583,
      1788889618,
      1788889644,
      1788889668,
      1788889706,
      1788889738,
      1788889767,
      1788889779,
      1788889806,
      1788889855,
      1788889896,
      1788889947,
      1788889967,
      1788889991,
      1788890017
    ],
    "wof:geomhash": "fce8d79474147e10ba8dd8aec2649a76",
    "wof:id": 2048283757,
    "wof:repo": "sfomuseum-data-flights-2026-09"
  },
  "bbox": [
    -123.49131,
    36.99547,
    -122.08925,
    37.60404
  ],
  "geometry": {"type":"LineString","coordinates":[[-123.49131,36.99547],[-123.46756,37.00511],[-123.37667,37.04319],[-123.31599,37.06858],[-123.26381,37.09066],[-123.19416,37.11989],[-123.14051,37.14212],[-123.13302,37.14521],[-123.02683,37.18967],[-122.97544,37.21118],[-122.95013,37.22165],[-122.8995,37.24259],[-122.86257,37.2569],[-122.81705,37.26837],[-122.75363,37.28327],[-122.73358,37.28797],[-122.71025,37.29341],[-122.67108,37.30248],[-122.62129,37.31411],[-122.58448,37.32263],[-122.53064,37.33511],[-122.5019,37.34176],[-122.46635,37.34997],[-122.44295,37.35533],[-122.37236,37.37165],[-122.35104,37.37651],[-122.29086,37.39025],[-122.2533,37.39884],[-122.21361,37.40797],[-122.16979,37.41799],[-122.14117,37.4248],[-122.11521,37.43122],[-122.08925,37.45889],[-122.08992,37.4881],[-122.11218,37.50764],[-122.12422,37.51311],[-122.15281,37.52518],[-122.20355,37.54657],[-122.24261,37.56303],[-122.28527,37.58102],[-122.30147,37.5878],[-122.31993,37.59558],[-122.34009,37.60404]]}
}
