{
  "id": 2048274669,
  "type": "Feature",
  "properties": {
    "geom:area": 0,
    "geom:bbox": "-122.361530,37.491860,-121.278200,37.612930",
    "geom:latitude": 37.54198451368001,
    "geom:longitude": -121.82643828993507,
    "src:alt_label": "swim-approach",
    "src:geom": "swim",
    "swim:elevations": [
      4617,
      4424,
      4187,
      3992,
      3944,
      3647,
      3420,
      3249,
      3032,
      2784,
      2695,
      2571,
      2549,
      2291,
      2205,
      2042,
      1981,
      1648,
      1485,
      1165,
      1013,
      898,
      758,
      535,
      410,
      275,
      145,
      67,
      2
    ],
    "swim:geom": "approach",
    "swim:timestamps": [
      1788775016,
      1788775039,
      1788775068,
      1788775098,
      1788775111,
      1788775162,
      1788775197,
      1788775221,
      1788775249,
      1788775278,
      1788775290,
      1788775312,
      1788775324,
      1788775372,
      1788775388,
      1788775415,
      1788775428,
      1788775520,
      1788775540,
      1788775587,
      1788775609,
      1788775633,
      1788775658,
      1788775700,
      1788775731,
      1788775764,
      1788775797,
      1788775821,
      1788775834
    ],
    "wof:geomhash": "39f1c298d8b865f77671d85a0b8a8e08",
    "wof:id": 2048274669,
    "wof:repo": "sfomuseum-data-flights-2026-09"
  },
  "bbox": [
    -122.36153,
    37.49186,
    -121.2782,
    37.61293
  ],
  "geometry": {"type":"LineString","coordinates":[[-121.2782,37.59069],[-121.31881,37.58626],[-121.3704,37.58036],[-121.42259,37.57432],[-121.44507,37.57173],[-121.52377,37.56259],[-121.57752,37.55627],[-121.61291,37.55224],[-121.65475,37.54341],[-121.69756,37.5334],[-121.71395,37.52943],[-121.74669,37.52161],[-121.76272,37.51779],[-121.83201,37.50115],[-121.85504,37.49564],[-121.89369,37.49186],[-121.91411,37.49425],[-122.04188,37.50454],[-122.06802,37.50661],[-122.12974,37.51515],[-122.15497,37.52609],[-122.18269,37.53787],[-122.21007,37.54939],[-122.25278,37.56738],[-122.28135,37.57938],[-122.30776,37.59051],[-122.33333,37.60123],[-122.351,37.60865],[-122.36153,37.61293]]}
}
