{
  "id": 2048458507,
  "type": "Feature",
  "properties": {
    "geom:area": 0,
    "geom:bbox": "-122.368056,37.516667,-122.091111,37.655278",
    "geom:latitude": 37.585579051113044,
    "geom:longitude": -122.19795484946128,
    "src:alt_label": "swim-path",
    "src:geom": "swim",
    "swim:altitudes": [
      "059",
      "055",
      "054",
      "049",
      "050",
      "047",
      "046",
      "037",
      "030",
      "028",
      "021",
      "013",
      "012",
      "006",
      "004",
      "110"
    ],
    "swim:geom": "path",
    "swim:speeds": [
      199,
      199,
      199,
      201,
      205,
      211,
      213,
      183,
      165,
      159,
      162,
      146,
      141,
      144,
      141,
      141
    ],
    "swim:timestamps": [
      1790648957,
      1790649017,
      1790649029,
      1790649077,
      1790649084,
      1790649137,
      1790649144,
      1790649204,
      1790649257,
      1790649270,
      1790649317,
      1790649377,
      1790649390,
      1790649437,
      1790649450,
      1790649497
    ],
    "wof:geomhash": "35ab0eab156dbb07672814c475cc9aa0",
    "wof:id": 2048458507,
    "wof:repo": "sfomuseum-data-flights-2026-09"
  },
  "bbox": [
    -122.36805555555554,
    37.516666666666666,
    -122.0911111111111,
    37.655277777777776
  ],
  "geometry": {"type":"LineString","coordinates":[[-122.24111111111111,37.655277777777776],[-122.17416666666666,37.63944444444444],[-122.15,37.63333333333333],[-122.1125,37.61277777777778],[-122.1,37.6],[-122.0911111111111,37.56305555555555],[-122.1,37.55],[-122.15,37.516666666666666],[-122.18527777777778,37.54111111111111],[-122.2,37.55],[-122.23388888888888,37.56166666666666],[-122.28055555555555,37.581388888888895],[-122.3,37.583333333333336],[-122.32472222222222,37.6],[-122.33333333333333,37.6],[-122.36805555555554,37.61805555555556]]}
}
