{
  "id": 2048426725,
  "type": "Feature",
  "properties": {
    "geom:area": 0,
    "geom:bbox": "-123.397770,37.444220,-122.397970,37.672210",
    "geom:latitude": 37.56954875357821,
    "geom:longitude": -122.89565664424114,
    "src:alt_label": "swim-takeoff",
    "src:geom": "swim",
    "swim:elevations": [
      244,
      604,
      647,
      1025,
      1092,
      1183,
      1308,
      1478,
      1829,
      2153,
      2502,
      2865,
      2927,
      3192,
      3259,
      3456,
      3652,
      3749,
      3943,
      4071,
      4522,
      4699,
      5039,
      5259
    ],
    "swim:geom": "takeoff",
    "swim:timestamps": [
      1790263883,
      1790263917,
      1790263920,
      1790263967,
      1790263983,
      1790264004,
      1790264023,
      1790264051,
      1790264087,
      1790264114,
      1790264149,
      1790264182,
      1790264188,
      1790264218,
      1790264228,
      1790264274,
      1790264299,
      1790264314,
      1790264335,
      1790264348,
      1790264394,
      1790264414,
      1790264450,
      1790264473
    ],
    "wof:geomhash": "6c4f1aea01f283db83e475647c07c920",
    "wof:id": 2048426725,
    "wof:repo": "sfomuseum-data-flights-2026-09"
  },
  "bbox": [
    -123.39777,
    37.44422,
    -122.39797,
    37.67221
  ],
  "geometry": {"type":"LineString","coordinates":[[-122.39797,37.62833],[-122.43231,37.64339],[-122.43545,37.64473],[-122.48542,37.66671],[-122.50439,37.67221],[-122.53245,37.66873],[-122.55778,37.66176],[-122.59917,37.65032],[-122.6553,37.63559],[-122.69911,37.62434],[-122.756,37.60935],[-122.81049,37.59532],[-122.82071,37.59273],[-122.87093,37.57937],[-122.88843,37.57509],[-122.97402,37.55322],[-123.02519,37.54036],[-123.05692,37.53211],[-123.10009,37.52098],[-123.12635,37.51423],[-123.22588,37.48894],[-123.26911,37.47762],[-123.34793,37.45708],[-123.39777,37.44422]]}
}
