{
  "id": 2048433949,
  "type": "Feature",
  "properties": {
    "geom:area": 0,
    "geom:bbox": "-122.528400,37.627110,-121.448470,38.506490",
    "geom:latitude": 38.07404051861922,
    "geom:longitude": -122.06633945636166,
    "src:alt_label": "swim-takeoff",
    "src:geom": "swim",
    "swim:elevations": [
      91,
      419,
      484,
      762,
      968,
      1156,
      1246,
      1551,
      1828,
      2100,
      2398,
      2627,
      2714,
      3059,
      3260,
      3376,
      3412,
      3617,
      3915,
      4170,
      4311,
      4645,
      4816,
      5213,
      5627,
      6082,
      6180
    ],
    "swim:geom": "takeoff",
    "swim:timestamps": [
      1790375597,
      1790375638,
      1790375647,
      1790375696,
      1790375727,
      1790375786,
      1790375813,
      1790375848,
      1790375875,
      1790375899,
      1790375929,
      1790375959,
      1790375975,
      1790376010,
      1790376049,
      1790376082,
      1790376097,
      1790376136,
      1790376175,
      1790376203,
      1790376224,
      1790376263,
      1790376294,
      1790376341,
      1790376398,
      1790376469,
      1790376488
    ],
    "wof:geomhash": "5b995c789b06342d032401be84420237",
    "wof:id": 2048433949,
    "wof:repo": "sfomuseum-data-flights-2026-09"
  },
  "bbox": [
    -122.5284,
    37.62711,
    -121.44847,
    38.50649
  ],
  "geometry": {"type":"LineString","coordinates":[[-122.38942,37.62711],[-122.42096,37.64055],[-122.42808,37.64324],[-122.46692,37.65888],[-122.49174,37.66938],[-122.52648,37.70894],[-122.52818,37.7395],[-122.5284,37.78215],[-122.50714,37.8122],[-122.47125,37.82638],[-122.42588,37.8437],[-122.387,37.87098],[-122.36585,37.88563],[-122.31801,37.91873],[-122.26434,37.95587],[-122.21373,37.99078],[-122.18936,38.00766],[-122.12132,38.05469],[-122.0522,38.10215],[-122.00248,38.13628],[-121.96392,38.16283],[-121.89163,38.21235],[-121.83426,38.25147],[-121.74472,38.31258],[-121.63241,38.38887],[-121.4878,38.48227],[-121.44847,38.50649]]}
}
