{
  "id": 2048369701,
  "type": "Feature",
  "properties": {
    "geom:area": 0,
    "geom:bbox": "-122.350380,36.746950,-121.893210,37.608350",
    "geom:latitude": 37.21383464926059,
    "geom:longitude": -122.08709404465279,
    "src:alt_label": "swim-approach",
    "src:geom": "swim",
    "swim:elevations": [
      5702,
      5599,
      5276,
      5196,
      5110,
      5029,
      4875,
      4789,
      4609,
      4350,
      3916,
      3633,
      3295,
      3090,
      2425,
      2037,
      1879,
      1829,
      1824,
      1554,
      1495,
      1343,
      1267,
      995,
      881,
      700,
      604,
      454,
      335,
      255,
      126,
      48
    ],
    "swim:geom": "approach",
    "swim:timestamps": [
      1789744315,
      1789744323,
      1789744365,
      1789744400,
      1789744430,
      1789744443,
      1789744488,
      1789744506,
      1789744537,
      1789744565,
      1789744602,
      1789744634,
      1789744670,
      1789744688,
      1789744759,
      1789744813,
      1789744838,
      1789744877,
      1789744905,
      1789744948,
      1789744970,
      1789745000,
      1789745011,
      1789745054,
      1789745071,
      1789745118,
      1789745137,
      1789745173,
      1789745209,
      1789745233,
      1789745278,
      1789745297
    ],
    "wof:geomhash": "87de29029d23d77be5b2d374313efe82",
    "wof:id": 2048369701,
    "wof:repo": "sfomuseum-data-flights-2026-09"
  },
  "bbox": [
    -122.35038,
    36.74695,
    -121.89321,
    37.60835
  ],
  "geometry": {"type":"LineString","coordinates":[[-121.89321,36.74695],[-121.89856,36.75889],[-121.91741,36.82515],[-121.93176,36.87662],[-121.943,36.91703],[-121.94762,36.93387],[-121.96722,36.98812],[-121.97524,37.00882],[-121.98846,37.04285],[-122.00027,37.07316],[-122.03041,37.10704],[-122.06369,37.13163],[-122.10078,37.15828],[-122.1143,37.17491],[-122.15423,37.24284],[-122.12661,37.29405],[-122.11397,37.3167],[-122.11886,37.3556],[-122.12916,37.38173],[-122.14519,37.42308],[-122.15318,37.44317],[-122.16292,37.46736],[-122.16641,37.4762],[-122.17962,37.51025],[-122.18485,37.52431],[-122.21768,37.55293],[-122.23606,37.56029],[-122.26699,37.57336],[-122.29305,37.58418],[-122.30916,37.59107],[-122.33828,37.60333],[-122.35038,37.60835]]}
}
