{
  "id": 2048457021,
  "type": "Feature",
  "properties": {
    "geom:area": 0,
    "geom:bbox": "-122.360180,37.492060,-121.261040,37.614870",
    "geom:latitude": 37.546422281885725,
    "geom:longitude": -121.81554169597233,
    "src:alt_label": "swim-approach",
    "src:geom": "swim",
    "swim:elevations": [
      4581,
      4296,
      4058,
      3545,
      3384,
      3314,
      3153,
      3130,
      2810,
      2665,
      2438,
      2432,
      2416,
      2260,
      2017,
      1952,
      1830,
      1829,
      1671,
      1639,
      1453,
      1236,
      946,
      925,
      789,
      674,
      649,
      519,
      388,
      307,
      196,
      63,
      0
    ],
    "swim:geom": "approach",
    "swim:timestamps": [
      1790620181,
      1790620216,
      1790620245,
      1790620308,
      1790620332,
      1790620341,
      1790620364,
      1790620376,
      1790620421,
      1790620441,
      1790620486,
      1790620498,
      1790620501,
      1790620532,
      1790620582,
      1790620595,
      1790620638,
      1790620652,
      1790620684,
      1790620687,
      1790620711,
      1790620740,
      1790620797,
      1790620821,
      1790620852,
      1790620879,
      1790620882,
      1790620915,
      1790620945,
      1790620965,
      1790620997,
      1790621033,
      1790621047
    ],
    "wof:geomhash": "e8aa88d3cf61ed66632cf3a4b0c8b511",
    "wof:id": 2048457021,
    "wof:repo": "sfomuseum-data-flights-2026-09"
  },
  "bbox": [
    -122.36018,
    37.49206,
    -121.26104,
    37.61487
  ],
  "geometry": {"type":"LineString","coordinates":[[-121.26104,37.59281],[-121.32969,37.5844],[-121.38539,37.57818],[-121.50244,37.56495],[-121.54306,37.56026],[-121.55922,37.55842],[-121.59635,37.55403],[-121.6164,37.55166],[-121.68658,37.53579],[-121.71572,37.52894],[-121.77931,37.51372],[-121.79641,37.50969],[-121.80066,37.50865],[-121.84407,37.4982],[-121.91387,37.49206],[-121.93203,37.49243],[-121.98703,37.49481],[-122.00316,37.49976],[-122.03632,37.51054],[-122.03947,37.51156],[-122.06536,37.51992],[-122.095,37.5296],[-122.15074,37.54756],[-122.17402,37.55515],[-122.20447,37.56497],[-122.23034,37.57326],[-122.23318,37.5742],[-122.26333,37.58385],[-122.28592,37.59043],[-122.30055,37.5947],[-122.32539,37.60201],[-122.35073,37.61089],[-122.36018,37.61487]]}
}
