{
  "id": 2048425771,
  "type": "Feature",
  "properties": {
    "geom:area": 0,
    "geom:bbox": "-122.545556,35.761944,-115.158889,37.668333",
    "geom:latitude": 36.94158545367321,
    "geom:longitude": -118.73683698808405,
    "src:alt_label": "swim-path",
    "src:geom": "swim",
    "swim:altitudes": [
      "013",
      "025",
      "036",
      "048",
      "060",
      "072",
      "087",
      "104",
      "110",
      "119",
      "132",
      "161",
      "185",
      "207",
      "230",
      "246",
      "282",
      "301",
      "310C",
      "310C",
      "310C",
      "310C",
      "310C",
      "310C",
      "310C",
      "310C",
      "310C",
      "310C",
      "310C",
      "310C",
      "310C",
      "310C",
      "310C",
      "310C",
      "310C",
      "310C",
      "310C",
      "310C",
      "310C",
      "310C",
      "310C",
      "310C",
      "310C",
      "310C",
      "310C",
      "310C",
      "310C",
      "310C",
      "310C",
      "310",
      "286",
      "274",
      "254",
      "230",
      "211",
      "202",
      "196",
      "192",
      "187",
      "185",
      "172",
      "170",
      "157",
      "155",
      "140",
      "125",
      "117",
      "115",
      "103",
      "101",
      "096",
      "096",
      "086",
      "085",
      "076",
      "075",
      "066",
      "065",
      "062",
      "050",
      "049",
      "038",
      "037",
      "028",
      "027",
      "021"
    ],
    "swim:geom": "path",
    "swim:speeds": [
      159,
      214,
      218,
      228,
      231,
      271,
      270,
      287,
      313,
      356,
      361,
      372,
      391,
      397,
      425,
      442,
      466,
      465,
      465,
      466,
      466,
      465,
      465,
      464,
      462,
      465,
      460,
      459,
      458,
      458,
      459,
      461,
      462,
      462,
      462,
      461,
      460,
      459,
      458,
      457,
      456,
      455,
      454,
      455,
      459,
      459,
      458,
      457,
      455,
      454,
      457,
      446,
      429,
      409,
      396,
      386,
      382,
      385,
      345,
      342,
      329,
      332,
      318,
      323,
      318,
      307,
      298,
      300,
      295,
      298,
      272,
      272,
      257,
      260,
      255,
      258,
      240,
      242,
      206,
      214,
      211,
      195,
      195,
      172,
      174,
      135
    ],
    "swim:timestamps": [
      1790292521,
      1790292581,
      1790292618,
      1790292641,
      1790292678,
      1790292701,
      1790292738,
      1790292762,
      1790292798,
      1790292822,
      1790292858,
      1790292918,
      1790292978,
      1790293035,
      1790293099,
      1790293155,
      1790293279,
      1790293335,
      1790293395,
      1790293459,
      1790293519,
      1790293579,
      1790293639,
      1790293700,
      1790293760,
      1790293816,
      1790293880,
      1790293940,
      1790294000,
      1790294060,
      1790294120,
      1790294177,
      1790294240,
      1790294301,
      1790294357,
      1790294417,
      1790294481,
      1790294541,
      1790294601,
      1790294657,
      1790294718,
      1790294781,
      1790294838,
      1790294898,
      1790294962,
      1790295018,
      1790295078,
      1790295138,
      1790295202,
      1790295258,
      1790295318,
      1790295379,
      1790295439,
      1790295499,
      1790295559,
      1790295586,
      1790295604,
      1790295619,
      1790295664,
      1790295679,
      1790295724,
      1790295739,
      1790295784,
      1790295796,
      1790295856,
      1790295910,
      1790295965,
      1790295977,
      1790296025,
      1790296037,
      1790296085,
      1790296097,
      1790296145,
      1790296157,
      1790296205,
      1790296217,
      1790296265,
      1790296277,
      1790296337,
      1790296385,
      1790296397,
      1790296445,
      1790296457,
      1790296505,
      1790296517,
      1790296578
    ],
    "wof:geomhash": "eef831a1af5d76de7338b6eaa6644a1d",
    "wof:id": 2048425771,
    "wof:repo": "sfomuseum-data-flights-2026-09"
  },
  "bbox": [
    -122.54555555555555,
    35.761944444444445,
    -115.1588888888889,
    37.66833333333333
  ],
  "geometry": {"type":"LineString","coordinates":[[-122.4,37.63333333333333],[-122.46666666666667,37.65],[-122.49111111111111,37.66833333333333],[-122.53333333333333,37.666666666666664],[-122.54555555555555,37.63388888888889],[-122.53333333333333,37.6],[-122.51305555555555,37.564166666666665],[-122.48333333333333,37.53333333333333],[-122.44416666666667,37.505833333333335],[-122.4,37.46666666666667],[-122.35111111111111,37.440555555555555],[-122.25222222222222,37.371944444444445],[-122.15083333333334,37.301111111111105],[-122.05277777777778,37.228611111111114],[-121.93083333333334,37.153888888888886],[-121.78944444444444,37.132222222222225],[-121.46166666666667,37.095],[-121.31027777777777,37.07638888888889],[-121.14944444444446,37.05694444444444],[-120.98166666666667,37.03805555555555],[-120.82388888888889,37.01861111111111],[-120.66444444444446,36.99861111111111],[-120.50555555555556,36.97888888888889],[-120.34638888888888,36.95861111111111],[-120.1875,36.93833333333333],[-120.04138888888889,36.91972222222222],[-119.86833333333333,36.91],[-119.72194444444445,36.95472222222222],[-119.57527777777777,37.0025],[-119.42555555555556,37.051111111111105],[-119.2786111111111,37.098333333333336],[-119.13916666666667,37.143055555555556],[-118.98027777777779,37.19416666666666],[-118.82972222222222,37.24194444444444],[-118.6888888888889,37.278055555555554],[-118.52916666666667,37.29138888888889],[-118.33666666666666,37.30611111111111],[-118.17750000000001,37.31777777777778],[-118.02,37.32916666666667],[-117.89305555555556,37.33833333333334],[-117.73722222222223,37.34916666666667],[-117.54805555555555,37.362500000000004],[-117.4238888888889,37.37083333333334],[-117.26638888888888,37.37],[-117.11749999999999,37.275],[-117.02111111111111,37.20611111111111],[-116.90472222222223,37.121944444444445],[-116.80694444444444,37.020833333333336],[-116.70027777777779,36.89694444444444],[-116.6286111111111,36.812777777777775],[-116.53944444444444,36.70805555555556],[-116.43944444444445,36.61472222222223],[-116.32694444444444,36.53444444444444],[-116.20333333333333,36.447222222222216],[-116.1036111111111,36.37638888888889],[-116.05694444444444,36.341944444444444],[-116.02527777777777,36.32027777777778],[-116.005,36.30583333333333],[-115.93305555555555,36.25333333333333],[-115.91361111111112,36.24166666666667],[-115.84194444444444,36.19499999999999],[-115.82444444444444,36.18527777777778],[-115.75833333333334,36.13777777777778],[-115.74555555555555,36.12416666666667],[-115.71083333333334,36.04083333333333],[-115.68277777777779,35.966944444444444],[-115.6525,35.894444444444446],[-115.64583333333334,35.88],[-115.61,35.82],[-115.59583333333333,35.81055555555555],[-115.53555555555555,35.77027777777778],[-115.52194444444444,35.76222222222222],[-115.45416666666667,35.761944444444445],[-115.4413888888889,35.769999999999996],[-115.39027777777778,35.811388888888885],[-115.37888888888888,35.81916666666667],[-115.3275,35.85666666666667],[-115.31694444444445,35.86527777777778],[-115.26611111111112,35.907777777777774],[-115.24222222222222,35.95166666666667],[-115.23555555555555,35.961111111111116],[-115.21138888888889,36.004444444444445],[-115.2063888888889,36.0125],[-115.185,36.049166666666665],[-115.18111111111112,36.05638888888888],[-115.1588888888889,36.09305555555556]]}
}
