{
  "id": 2048360905,
  "type": "Feature",
  "properties": {
    "geom:area": 0,
    "geom:bbox": "-122.360150,37.491440,-121.250620,37.615400",
    "geom:latitude": 37.54685068427965,
    "geom:longitude": -121.81047481647381,
    "src:alt_label": "swim-approach",
    "src:geom": "swim",
    "swim:elevations": [
      4777,
      4660,
      4169,
      4086,
      3587,
      3538,
      3207,
      3106,
      2945,
      2786,
      2600,
      2474,
      2219,
      2104,
      1978,
      1915,
      1764,
      1557,
      1348,
      1229,
      1163,
      913,
      912,
      738,
      482,
      385,
      272,
      131,
      9
    ],
    "swim:geom": "approach",
    "swim:timestamps": [
      1789668357,
      1789668368,
      1789668417,
      1789668426,
      1789668478,
      1789668482,
      1789668516,
      1789668549,
      1789668591,
      1789668615,
      1789668643,
      1789668674,
      1789668718,
      1789668739,
      1789668767,
      1789668786,
      1789668821,
      1789668860,
      1789668897,
      1789668924,
      1789668940,
      1789668985,
      1789669014,
      1789669032,
      1789669073,
      1789669100,
      1789669122,
      1789669160,
      1789669189
    ],
    "wof:geomhash": "04449bda89565387baedfbfd527196dc",
    "wof:id": 2048360905,
    "wof:repo": "sfomuseum-data-flights-2026-09"
  },
  "bbox": [
    -122.36015,
    37.49144,
    -121.25062,
    37.6154
  ],
  "geometry": {"type":"LineString","coordinates":[[-121.25062,37.59443],[-121.26963,37.59184],[-121.36058,37.58167],[-121.37503,37.57998],[-121.47015,37.56893],[-121.47736,37.56807],[-121.54065,37.56061],[-121.5992,37.55384],[-121.66749,37.54064],[-121.70473,37.53165],[-121.74639,37.52173],[-121.79358,37.51052],[-121.85677,37.49538],[-121.88697,37.49144],[-121.9265,37.4922],[-121.95345,37.49298],[-121.99885,37.49808],[-122.04313,37.51258],[-122.08484,37.526],[-122.11476,37.53572],[-122.13234,37.54144],[-122.1822,37.55772],[-122.2116,37.56708],[-122.2277,37.57237],[-122.26598,37.58449],[-122.28869,37.59112],[-122.30704,37.59655],[-122.33749,37.60544],[-122.36015,37.6154]]}
}
