{
  "id": 2048404591,
  "type": "Feature",
  "properties": {
    "geom:area": 0,
    "geom:bbox": "-122.356230,37.472250,-121.259060,37.616330",
    "geom:latitude": 37.55159155081328,
    "geom:longitude": -121.80938936578589,
    "src:alt_label": "swim-approach",
    "src:geom": "swim",
    "swim:elevations": [
      5242,
      5228,
      4925,
      4775,
      4573,
      4377,
      4098,
      3959,
      3760,
      3657,
      3539,
      3300,
      3062,
      2922,
      2844,
      2743,
      2597,
      2461,
      2437,
      2211,
      2133,
      2094,
      1891,
      1830,
      1723,
      1653,
      1332,
      1158,
      1025,
      871,
      747,
      554,
      439,
      317,
      212,
      101,
      83
    ],
    "swim:geom": "approach",
    "swim:timestamps": [
      1790088267,
      1790088272,
      1790088328,
      1790088349,
      1790088379,
      1790088405,
      1790088448,
      1790088473,
      1790088504,
      1790088525,
      1790088549,
      1790088590,
      1790088624,
      1790088656,
      1790088671,
      1790088710,
      1790088741,
      1790088770,
      1790088780,
      1790088838,
      1790088868,
      1790088879,
      1790088921,
      1790088942,
      1790088988,
      1790088998,
      1790089044,
      1790089068,
      1790089095,
      1790089126,
      1790089147,
      1790089195,
      1790089212,
      1790089244,
      1790089279,
      1790089315,
      1790089333
    ],
    "wof:geomhash": "825e9af0a0c9ae1b7c535a01278a5abd",
    "wof:id": 2048404591,
    "wof:repo": "sfomuseum-data-flights-2026-09"
  },
  "bbox": [
    -122.35623,
    37.47225,
    -121.25906,
    37.61633
  ],
  "geometry": {"type":"LineString","coordinates":[[-121.25906,37.5932],[-121.26692,37.59214],[-121.35222,37.58256],[-121.38528,37.5788],[-121.43056,37.57369],[-121.46909,37.5693],[-121.53217,37.56166],[-121.56908,37.55729],[-121.61504,37.55287],[-121.64328,37.56053],[-121.67343,37.57577],[-121.7239,37.60202],[-121.76961,37.61633],[-121.80502,37.59592],[-121.80746,37.57865],[-121.79086,37.53724],[-121.7778,37.50639],[-121.786,37.47862],[-121.79584,37.47225],[-121.86758,37.47555],[-121.90525,37.48169],[-121.91857,37.48375],[-121.96956,37.49157],[-121.99428,37.49697],[-122.04562,37.51342],[-122.05732,37.51726],[-122.10749,37.53345],[-122.13211,37.54151],[-122.16036,37.55077],[-122.19226,37.56103],[-122.21336,37.5678],[-122.25796,37.58198],[-122.27282,37.58645],[-122.29695,37.5936],[-122.32109,37.60042],[-122.34496,37.60831],[-122.35623,37.61309]]}
}
