{
  "id": 2048359511,
  "type": "Feature",
  "properties": {
    "geom:area": 0,
    "geom:bbox": "-122.361490,37.491890,-121.245720,37.615300",
    "geom:latitude": 37.54332421726712,
    "geom:longitude": -121.81073869838328,
    "src:alt_label": "swim-approach",
    "src:geom": "swim",
    "swim:elevations": [
      4879,
      4791,
      4502,
      4371,
      4123,
      3885,
      3506,
      3413,
      3137,
      3077,
      2887,
      2558,
      2129,
      2072,
      1804,
      1758,
      1466,
      1335,
      1215,
      1061,
      990,
      836,
      754,
      504,
      387,
      336,
      246,
      123,
      260
    ],
    "swim:geom": "approach",
    "swim:timestamps": [
      1789689984,
      1789689993,
      1789690020,
      1789690038,
      1789690074,
      1789690099,
      1789690138,
      1789690147,
      1789690190,
      1789690218,
      1789690274,
      1789690343,
      1789690428,
      1789690443,
      1789690496,
      1789690502,
      1789690552,
      1789690570,
      1789690594,
      1789690646,
      1789690670,
      1789690697,
      1789690712,
      1789690765,
      1789690798,
      1789690813,
      1789690842,
      1789690878,
      1789690908
    ],
    "wof:geomhash": "9ffeb037267185d9fc77d9022c514dd1",
    "wof:id": 2048359511,
    "wof:repo": "sfomuseum-data-flights-2026-09"
  },
  "bbox": [
    -122.36149,
    37.49189,
    -121.24572,
    37.6153
  ],
  "geometry": {"type":"LineString","coordinates":[[-121.24572,37.59504],[-121.26139,37.59288],[-121.30751,37.58724],[-121.33863,37.58396],[-121.39389,37.57774],[-121.4287,37.57372],[-121.48502,37.56717],[-121.49784,37.56565],[-121.5592,37.55844],[-121.5972,37.55395],[-121.67448,37.53904],[-121.76567,37.51701],[-121.87544,37.4921],[-121.89576,37.49189],[-121.96681,37.49606],[-121.97501,37.49659],[-122.04273,37.50061],[-122.06818,37.50204],[-122.09856,37.50552],[-122.15225,37.52724],[-122.17567,37.5372],[-122.2023,37.54839],[-122.21734,37.55479],[-122.26681,37.57564],[-122.2905,37.58553],[-122.30003,37.58951],[-122.31811,37.59703],[-122.34202,37.60718],[-122.36149,37.6153]]}
}
