{
  "id": 2048370049,
  "type": "Feature",
  "properties": {
    "geom:area": 0,
    "geom:bbox": "-123.468820,36.940570,-122.086350,37.612890",
    "geom:latitude": 37.29051937905107,
    "geom:longitude": -122.6857788951919,
    "src:alt_label": "swim-approach",
    "src:geom": "swim",
    "swim:elevations": [
      6554,
      6348,
      5990,
      5611,
      5315,
      5064,
      4797,
      4634,
      4148,
      3826,
      3544,
      3097,
      3048,
      3048,
      3048,
      3048,
      3037,
      2819,
      2577,
      2436,
      2438,
      2438,
      2438,
      2438,
      2433,
      2297,
      2136,
      1797,
      1648,
      1449,
      1349,
      1219,
      1056,
      979,
      803,
      726,
      534,
      429,
      312,
      138,
      0
    ],
    "swim:geom": "approach",
    "swim:timestamps": [
      1789798588,
      1789798607,
      1789798640,
      1789798677,
      1789798707,
      1789798731,
      1789798756,
      1789798771,
      1789798818,
      1789798849,
      1789798876,
      1789798915,
      1789798940,
      1789798964,
      1789799001,
      1789799014,
      1789799055,
      1789799090,
      1789799117,
      1789799139,
      1789799183,
      1789799216,
      1789799244,
      1789799276,
      1789799287,
      1789799325,
      1789799350,
      1789799396,
      1789799416,
      1789799443,
      1789799463,
      1789799511,
      1789799545,
      1789799559,
      1789799598,
      1789799613,
      1789799654,
      1789799679,
      1789799707,
      1789799752,
      1789799779
    ],
    "wof:geomhash": "9a7c7739795b78b69a0c0ddf9234f9b6",
    "wof:id": 2048370049,
    "wof:repo": "sfomuseum-data-flights-2026-09"
  },
  "bbox": [
    -123.46882,
    36.94057,
    -122.08635,
    37.61289
  ],
  "geometry": {"type":"LineString","coordinates":[[-123.46882,36.94057],[-123.4316,36.96057],[-123.36786,36.99418],[-123.29762,37.03119],[-123.24179,37.06037],[-123.19786,37.08355],[-123.15263,37.10729],[-123.12572,37.12123],[-123.04416,37.16363],[-122.98942,37.19205],[-122.94345,37.21593],[-122.87891,37.24925],[-122.83416,37.26427],[-122.7886,37.27512],[-122.72028,37.29107],[-122.69507,37.29697],[-122.62199,37.3138],[-122.56604,37.32682],[-122.52466,37.33661],[-122.48968,37.34464],[-122.41971,37.36069],[-122.3683,37.37248],[-122.32645,37.38204],[-122.27933,37.39293],[-122.2636,37.39655],[-122.21279,37.40811],[-122.18102,37.41531],[-122.12281,37.42865],[-122.10095,37.43906],[-122.08635,37.46359],[-122.08902,37.48283],[-122.12538,37.51499],[-122.1578,37.52972],[-122.1716,37.53545],[-122.20943,37.55141],[-122.22443,37.55766],[-122.26157,37.57341],[-122.28168,37.58176],[-122.30258,37.59057],[-122.33638,37.60472],[-122.35569,37.61289]]}
}
