{
  "id": 2048416151,
  "type": "Feature",
  "properties": {
    "geom:area": 0,
    "geom:bbox": "-122.408500,37.626500,-121.433630,38.515940",
    "geom:latitude": 38.11989341271615,
    "geom:longitude": -122.01926557472986,
    "src:alt_label": "swim-takeoff",
    "src:geom": "swim",
    "swim:elevations": [
      183,
      468,
      582,
      618,
      857,
      1333,
      1811,
      1997,
      2191,
      2557,
      3005,
      3222,
      3415,
      3552,
      3627,
      4861,
      5016,
      5534,
      5692,
      6022,
      6242,
      6461,
      6606,
      6786
    ],
    "swim:geom": "takeoff",
    "swim:timestamps": [
      1790209040,
      1790209064,
      1790209097,
      1790209110,
      1790209141,
      1790209184,
      1790209229,
      1790209245,
      1790209262,
      1790209295,
      1790209341,
      1790209364,
      1790209397,
      1790209428,
      1790209443,
      1790209587,
      1790209605,
      1790209668,
      1790209689,
      1790209736,
      1790209766,
      1790209796,
      1790209816,
      1790209845
    ],
    "wof:geomhash": "085b5ad145ed0bfd72d2aa20d44cead9",
    "wof:id": 2048416151,
    "wof:repo": "sfomuseum-data-flights-2026-09"
  },
  "bbox": [
    -122.4085,
    37.6265,
    -121.43363,
    38.51594
  ],
  "geometry": {"type":"LineString","coordinates":[[-122.39342,37.6265],[-122.4085,37.64076],[-122.39423,37.66817],[-122.38323,37.67884],[-122.35295,37.70797],[-122.34095,37.75737],[-122.36977,37.81029],[-122.38033,37.8306],[-122.38779,37.85223],[-122.38458,37.89669],[-122.35988,37.95618],[-122.32788,37.97494],[-122.27844,38.00454],[-122.2282,38.03532],[-122.20283,38.05082],[-121.94652,38.20711],[-121.91135,38.22832],[-121.79156,38.30031],[-121.75049,38.32481],[-121.65738,38.38063],[-121.59649,38.417],[-121.53417,38.45435],[-121.49388,38.47886],[-121.43363,38.51594]]}
}
