{
  "id": 2048352405,
  "type": "Feature",
  "properties": {
    "geom:area": 0,
    "geom:bbox": "-122.359260,37.441910,-121.253130,37.614090",
    "geom:latitude": 37.53571073112228,
    "geom:longitude": -121.80866102542035,
    "src:alt_label": "swim-approach",
    "src:geom": "swim",
    "swim:elevations": [
      5292,
      4991,
      4894,
      4751,
      4570,
      4336,
      4012,
      3864,
      3585,
      3436,
      3274,
      3029,
      2927,
      2770,
      2498,
      2423,
      2258,
      2145,
      2134,
      2106,
      2037,
      2000,
      1786,
      1727,
      1548,
      1406,
      1200,
      1053,
      942,
      829,
      755,
      578,
      498,
      353,
      246,
      121,
      0
    ],
    "swim:geom": "approach",
    "swim:timestamps": [
      1789593867,
      1789593896,
      1789593908,
      1789593936,
      1789593967,
      1789593995,
      1789594046,
      1789594067,
      1789594106,
      1789594127,
      1789594154,
      1789594197,
      1789594214,
      1789594241,
      1789594274,
      1789594284,
      1789594316,
      1789594338,
      1789594377,
      1789594395,
      1789594433,
      1789594443,
      1789594478,
      1789594493,
      1789594524,
      1789594548,
      1789594585,
      1789594616,
      1789594637,
      1789594664,
      1789594682,
      1789594727,
      1789594756,
      1789594793,
      1789594824,
      1789594859,
      1789594881
    ],
    "wof:geomhash": "be47124d36f44ee8fe1eec0a8283f547",
    "wof:id": 2048352405,
    "wof:repo": "sfomuseum-data-flights-2026-09"
  },
  "bbox": [
    -122.35926,
    37.44191,
    -121.25313,
    37.61409
  ],
  "geometry": {"type":"LineString","coordinates":[[-121.25313,37.59412],[-121.30483,37.58779],[-121.32552,37.58561],[-121.37005,37.58051],[-121.41584,37.57503],[-121.45499,37.57075],[-121.52724,37.56217],[-121.55659,37.55882],[-121.60966,37.5525],[-121.63976,37.5471],[-121.67465,37.53882],[-121.7177,37.51108],[-121.72696,37.4938],[-121.73992,37.46873],[-121.76704,37.44359],[-121.78024,37.44191],[-121.82097,37.45093],[-121.84945,37.45833],[-121.89819,37.47106],[-121.92077,37.47701],[-121.96479,37.48843],[-121.97508,37.49109],[-122.01137,37.50221],[-122.02698,37.50726],[-122.05788,37.51728],[-122.08314,37.52553],[-122.12198,37.53814],[-122.15353,37.54846],[-122.1742,37.55502],[-122.19766,37.5626],[-122.21293,37.5677],[-122.24529,37.57802],[-122.26583,37.5844],[-122.29323,37.59238],[-122.31613,37.5992],[-122.34204,37.60739],[-122.35926,37.61409]]}
}
