{
  "id": 2048443727,
  "type": "Feature",
  "properties": {
    "geom:area": 0,
    "geom:bbox": "-122.395640,37.626280,-121.283750,37.958510",
    "geom:latitude": 37.828660549571886,
    "geom:longitude": -121.85912625760953,
    "src:alt_label": "swim-takeoff",
    "src:geom": "swim",
    "swim:elevations": [
      305,
      331,
      630,
      747,
      1311,
      1772,
      2233,
      3180,
      3522,
      3909,
      4842,
      5023,
      5259,
      5637,
      5748,
      6240,
      6542,
      6801,
      7160
    ],
    "swim:geom": "takeoff",
    "swim:timestamps": [
      1790453128,
      1790453130,
      1790453156,
      1790453162,
      1790453211,
      1790453246,
      1790453270,
      1790453320,
      1790453351,
      1790453403,
      1790453477,
      1790453493,
      1790453515,
      1790453548,
      1790453558,
      1790453605,
      1790453636,
      1790453662,
      1790453702
    ],
    "wof:geomhash": "713a820289f13fb334e29fc67cc8fc78",
    "wof:id": 2048443727,
    "wof:repo": "sfomuseum-data-flights-2026-09"
  },
  "bbox": [
    -122.39564,
    37.62628,
    -121.28375,
    37.95851
  ],
  "geometry": {"type":"LineString","coordinates":[[-122.38736,37.62628],[-122.38878,37.62709],[-122.39564,37.64503],[-122.39269,37.64943],[-122.34125,37.6672],[-122.29229,37.68624],[-122.25621,37.70101],[-122.18046,37.73531],[-122.13386,37.75936],[-122.03797,37.80874],[-121.86986,37.85115],[-121.8318,37.85825],[-121.77728,37.86844],[-121.69368,37.88378],[-121.66876,37.88836],[-121.54646,37.9108],[-121.46611,37.92542],[-121.39385,37.93861],[-121.28375,37.95851]]}
}
