{
  "id": 2048279819,
  "type": "Feature",
  "properties": {
    "date:inception_lower": "2026-09-07",
    "date:inception_upper": "2026-09-07",
    "edtf:cessation": "",
    "edtf:inception": "2026-09-07",
    "flysfo:actual_timestamp": -1,
    "flysfo:airline": "EK",
    "flysfo:base_airline": "",
    "flysfo:base_flight_number": "9406",
    "flysfo:date": "2026-09-07",
    "flysfo:estimated_timestamp": 1788822360,
    "flysfo:event": "D",
    "flysfo:flight_number": "EK6385",
    "flysfo:gate": "D5",
    "flysfo:journey": "SFO-SEA",
    "flysfo:scheduled_timestamp": 1788822600,
    "flysfo:timestamp": 1788822600,
    "geom:area": 0,
    "geom:bbox": "-122.370943,37.617990,-122.304268,47.441823",
    "geom:latitude": 42.529906499999996,
    "geom:longitude": -122.3376055,
    "iata:airline": "EK",
    "iata:base_airline": "",
    "icao:airline": "UAE",
    "icao:base_airline": "ANZ",
    "lbl:latitude": 37.616825,
    "lbl:longitude": -122.381021,
    "sfomuseum:airline_id": 1159284333,
    "sfomuseum:arrival_id": 102533269,
    "sfomuseum:base_flight_id": "20260907-D-ANZ-9406",
    "sfomuseum:departure_id": 102527513,
    "sfomuseum:flight_id": "20260907-D-UAE-6385",
    "sfomuseum:flight_number": [
      "UAE6385",
      "EK6385"
    ],
    "sfomuseum:placetype": "flight",
    "src:geom": "flysfo",
    "wof:belongsto": [
      1947304067,
      102527513,
      1947304595,
      102191575,
      85633793,
      102087579,
      85922583,
      554784711,
      85688637,
      1947304607,
      1947304591,
      102085387
    ],
    "wof:country": "US",
    "wof:created": 1788884175,
    "wof:geomhash": "4036ee3c983703867dbe0486453848b1",
    "wof:hierarchy": [
      {
        "building_id": 1947304067,
        "campus_id": 102527513,
        "concourse_id": 1947304595,
        "continent_id": 102191575,
        "country_id": 85633793,
        "county_id": 102087579,
        "custom_id": 2048279819,
        "flight_id": 2048279819,
        "locality_id": 85922583,
        "postalcode_id": 554784711,
        "region_id": 85688637,
        "venue_id": 1947304607,
        "wing_id": 1947304591
      },
      {
        "building_id": 1947304067,
        "campus_id": 102527513,
        "concourse_id": 1947304595,
        "continent_id": 102191575,
        "country_id": 85633793,
        "county_id": 102085387,
        "custom_id": 2048279819,
        "flight_id": 2048279819,
        "region_id": 85688637,
        "venue_id": 1947304607,
        "wing_id": 1947304591
      }
    ],
    "wof:id": 2048279819,
    "wof:involves": [
      102533269,
      102527513,
      1159284333,
      1947304607,
      1159283697
    ],
    "wof:lastmodified": 1788884175,
    "wof:name": "EK6385 (SFO-SEA)",
    "wof:parent_id": 1947304607,
    "wof:placetype": "custom",
    "wof:placetype_alt": [
      "flight"
    ],
    "wof:repo": "sfomuseum-data-flights-2026-09",
    "wof:superseded_by": [],
    "wof:supersedes": []
  },
  "bbox": [
    -122.370943,
    37.61799,
    -122.304268,
    47.441823
  ],
  "geometry": {"type":"MultiPoint","coordinates":[[-122.370943,37.61799],[-122.304268,47.441823]]}
}
