{
  "id": 2048435515,
  "type": "Feature",
  "properties": {
    "geom:area": 0,
    "geom:bbox": "-122.654900,37.236600,-121.281590,37.677460",
    "geom:latitude": 37.442874774943476,
    "geom:longitude": -122.07858428126028,
    "src:alt_label": "swim-takeoff",
    "src:geom": "swim",
    "swim:elevations": [
      183,
      713,
      1064,
      1138,
      1161,
      1495,
      1939,
      2364,
      2458,
      3001,
      3256,
      3450,
      3824,
      4248,
      4426,
      4817,
      5172,
      5478,
      6058,
      6353,
      6587,
      6957,
      7226,
      7388,
      7671,
      7743,
      7899,
      7966,
      8158,
      8226,
      8310,
      8416
    ],
    "swim:geom": "takeoff",
    "swim:timestamps": [
      1790373866,
      1790373895,
      1790373928,
      1790373942,
      1790373946,
      1790373985,
      1790374018,
      1790374047,
      1790374055,
      1790374094,
      1790374126,
      1790374154,
      1790374184,
      1790374224,
      1790374241,
      1790374283,
      1790374318,
      1790374348,
      1790374407,
      1790374438,
      1790374467,
      1790374516,
      1790374553,
      1790374575,
      1790374617,
      1790374632,
      1790374659,
      1790374669,
      1790374704,
      1790374712,
      1790374732,
      1790374751
    ],
    "wof:geomhash": "e6321d0c17d6873cc8df52196d10619d",
    "wof:id": 2048435515,
    "wof:repo": "sfomuseum-data-flights-2026-09"
  },
  "bbox": [
    -122.6549,
    37.2366,
    -121.28159,
    37.67746
  ],
  "geometry": {"type":"LineString","coordinates":[[-122.39119,37.62558],[-122.41795,37.6371],[-122.45011,37.65016],[-122.46454,37.65598],[-122.46912,37.65785],[-122.51965,37.67746],[-122.56623,37.66842],[-122.6038,37.64656],[-122.61408,37.64046],[-122.6549,37.60462],[-122.64755,37.56176],[-122.60442,37.53852],[-122.54599,37.52569],[-122.46644,37.50876],[-122.43181,37.50113],[-122.3482,37.48166],[-122.27379,37.46502],[-122.21003,37.45113],[-122.08473,37.42246],[-122.01794,37.40732],[-121.95424,37.3927],[-121.84543,37.36781],[-121.76119,37.3484],[-121.70986,37.33654],[-121.61123,37.3137],[-121.57531,37.30537],[-121.5089,37.28971],[-121.48523,37.284],[-121.39903,37.26416],[-121.37886,37.25946],[-121.32933,37.24807],[-121.28159,37.2366]]}
}
