{
  "id": 2048321791,
  "type": "Feature",
  "properties": {
    "geom:area": 0,
    "geom:bbox": "-122.395160,37.621440,-121.261930,38.354890",
    "geom:latitude": 38.00740152245183,
    "geom:longitude": -121.85108043384453,
    "src:alt_label": "swim-takeoff",
    "src:geom": "swim",
    "swim:elevations": [
      152,
      577,
      1244,
      1395,
      1777,
      2564,
      3194,
      3439,
      3996,
      4447,
      4679,
      4886,
      5154,
      5395,
      5661,
      6016,
      6240,
      6753,
      7026,
      7144,
      7737,
      7950,
      8299,
      8517,
      8644,
      8976
    ],
    "swim:geom": "takeoff",
    "swim:timestamps": [
      1789235306,
      1789235323,
      1789235364,
      1789235376,
      1789235402,
      1789235450,
      1789235487,
      1789235501,
      1789235536,
      1789235567,
      1789235581,
      1789235596,
      1789235625,
      1789235648,
      1789235668,
      1789235695,
      1789235716,
      1789235758,
      1789235782,
      1789235792,
      1789235845,
      1789235868,
      1789235907,
      1789235933,
      1789235947,
      1789235978
    ],
    "wof:geomhash": "a2897c535f8ef5217b30665911da6825",
    "wof:id": 2048321791,
    "wof:repo": "sfomuseum-data-flights-2026-09"
  },
  "bbox": [
    -122.39516,
    37.62144,
    -121.26193,
    38.35489
  ],
  "geometry": {"type":"LineString","coordinates":[[-122.38125,37.62144],[-122.39516,37.6297],[-122.38224,37.66197],[-122.36537,37.66645],[-122.3312,37.68083],[-122.27088,37.72435],[-122.21892,37.76111],[-122.19903,37.77516],[-122.14828,37.81098],[-122.10267,37.84292],[-122.08067,37.85831],[-122.05837,37.87404],[-122.01074,37.90751],[-121.97169,37.93461],[-121.93525,37.95953],[-121.88502,37.99428],[-121.84551,38.02179],[-121.76414,38.07829],[-121.71726,38.11067],[-121.69838,38.12373],[-121.58833,38.19667],[-121.53372,38.22331],[-121.43907,38.26896],[-121.37582,38.30026],[-121.3415,38.31645],[-121.26193,38.35489]]}
}
