{
  "id": 2048418259,
  "type": "Feature",
  "properties": {
    "geom:area": 0,
    "geom:bbox": "-123.135530,37.459160,-122.165280,38.516690",
    "geom:latitude": 37.89535631172734,
    "geom:longitude": -122.61384690053497,
    "src:alt_label": "swim-approach",
    "src:geom": "swim",
    "swim:elevations": [
      7590,
      7285,
      7071,
      7014,
      6979,
      6947,
      6776,
      6384,
      6345,
      6094,
      6069,
      5892,
      5756,
      5557,
      5352,
      5258,
      4898,
      4621,
      4450,
      4327,
      4013,
      3774,
      3748,
      3661,
      3535,
      3354,
      3353,
      3353,
      3353,
      2343,
      1801,
      1040,
      842,
      681,
      518,
      488,
      329,
      179,
      167,
      0
    ],
    "swim:geom": "approach",
    "swim:timestamps": [
      1790260271,
      1790260307,
      1790260344,
      1790260356,
      1790260363,
      1790260371,
      1790260391,
      1790260435,
      1790260440,
      1790260468,
      1790260471,
      1790260493,
      1790260508,
      1790260530,
      1790260554,
      1790260571,
      1790260611,
      1790260647,
      1790260666,
      1790260684,
      1790260727,
      1790260764,
      1790260768,
      1790260781,
      1790260813,
      1790260851,
      1790260866,
      1790260906,
      1790260922,
      1790261077,
      1790261132,
      1790261213,
      1790261242,
      1790261271,
      1790261302,
      1790261314,
      1790261356,
      1790261394,
      1790261400,
      1790261446
    ],
    "wof:geomhash": "3db5a1525e0d6744003f197e3b26fa4b",
    "wof:id": 2048418259,
    "wof:repo": "sfomuseum-data-flights-2026-09"
  },
  "bbox": [
    -123.13553,
    37.45916,
    -122.16528,
    38.51669
  ],
  "geometry": {"type":"LineString","coordinates":[[-123.13553,38.51669],[-123.07575,38.46831],[-123.03494,38.40856],[-123.02127,38.38946],[-123.01259,38.37746],[-123.00415,38.36587],[-122.98173,38.33484],[-122.9329,38.26645],[-122.9275,38.25889],[-122.89694,38.21582],[-122.89372,38.21128],[-122.87041,38.17854],[-122.8553,38.15717],[-122.83214,38.12451],[-122.80733,38.08943],[-122.78938,38.06407],[-122.74903,38.00692],[-122.71357,37.95658],[-122.69448,37.92959],[-122.67682,37.90471],[-122.6234,37.8528],[-122.57744,37.80903],[-122.57239,37.80428],[-122.55655,37.78919],[-122.517,37.75192],[-122.47496,37.71236],[-122.45826,37.69666],[-122.41471,37.65558],[-122.39682,37.6388],[-122.28812,37.48298],[-122.21326,37.45916],[-122.16528,37.51677],[-122.18977,37.53906],[-122.22049,37.55348],[-122.25026,37.56633],[-122.26162,37.57105],[-122.29556,37.58535],[-122.32426,37.59732],[-122.32886,37.59922],[-122.36091,37.61298]]}
}
