{
  "id": 2048446073,
  "type": "Feature",
  "properties": {
    "geom:area": 0,
    "geom:bbox": "-122.359780,37.441490,-121.245080,37.615260",
    "geom:latitude": 37.54226358901428,
    "geom:longitude": -121.8069012101174,
    "src:alt_label": "swim-approach",
    "src:geom": "swim",
    "swim:elevations": [
      4851,
      4559,
      4434,
      4072,
      3932,
      3648,
      3486,
      3353,
      3302,
      3353,
      3353,
      2975,
      2870,
      2562,
      2311,
      2265,
      2133,
      2134,
      2090,
      1944,
      1743,
      1705,
      1643,
      1407,
      1272,
      1194,
      973,
      914,
      838,
      619,
      457,
      396,
      218,
      145,
      221
    ],
    "swim:geom": "approach",
    "swim:timestamps": [
      1790513055,
      1790513091,
      1790513109,
      1790513155,
      1790513171,
      1790513210,
      1790513230,
      1790513275,
      1790513287,
      1790513313,
      1790513347,
      1790513394,
      1790513409,
      1790513452,
      1790513485,
      1790513492,
      1790513512,
      1790513533,
      1790513572,
      1790513600,
      1790513638,
      1790513650,
      1790513674,
      1790513719,
      1790513745,
      1790513762,
      1790513807,
      1790513818,
      1790513829,
      1790513874,
      1790513906,
      1790513919,
      1790513963,
      1790513979,
      1790514016
    ],
    "wof:geomhash": "b1bc8808dc74da9e775809ce89665a84",
    "wof:id": 2048446073,
    "wof:repo": "sfomuseum-data-flights-2026-09"
  },
  "bbox": [
    -122.35978,
    37.44149,
    -121.24508,
    37.61526
  ],
  "geometry": {"type":"LineString","coordinates":[[-121.24508,37.59517],[-121.30643,37.58769],[-121.33633,37.5844],[-121.41333,37.57545],[-121.43918,37.5724],[-121.50486,37.56481],[-121.53729,37.56104],[-121.61069,37.55296],[-121.63115,37.55515],[-121.66797,37.56442],[-121.71523,37.57546],[-121.76817,37.55383],[-121.77452,37.53835],[-121.78719,37.49337],[-121.79782,37.45973],[-121.80202,37.45342],[-121.82458,37.44149],[-121.85221,37.4432],[-121.89964,37.46102],[-121.93451,37.47447],[-121.98087,37.49207],[-121.99535,37.49715],[-122.02267,37.50584],[-122.07719,37.52357],[-122.10882,37.5339],[-122.12757,37.53987],[-122.17485,37.55509],[-122.1857,37.55861],[-122.19696,37.56222],[-122.24099,37.57672],[-122.27192,37.58614],[-122.28397,37.58978],[-122.32018,37.60066],[-122.33356,37.60464],[-122.35978,37.61526]]}
}
