{
  "id": 2048403323,
  "type": "Feature",
  "properties": {
    "geom:area": 0,
    "geom:bbox": "-122.756580,37.438480,-122.105540,38.476890",
    "geom:latitude": 37.845164189619325,
    "geom:longitude": -122.47547673791316,
    "src:alt_label": "swim-approach",
    "src:geom": "swim",
    "swim:elevations": [
      7620,
      7432,
      7140,
      6745,
      6476,
      6381,
      5973,
      5776,
      5635,
      5194,
      5019,
      4756,
      4519,
      4379,
      3843,
      3771,
      3618,
      3354,
      3352,
      3353,
      3353,
      3353,
      3294,
      3026,
      2950,
      2714,
      2529,
      2237,
      2157,
      1948,
      1710,
      1523,
      1438,
      1319,
      1186,
      1117,
      886,
      739,
      609,
      548,
      488,
      386,
      275,
      232,
      42,
      63
    ],
    "swim:geom": "approach",
    "swim:timestamps": [
      1790104041,
      1790104067,
      1790104092,
      1790104138,
      1790104164,
      1790104174,
      1790104222,
      1790104249,
      1790104267,
      1790104314,
      1790104339,
      1790104368,
      1790104397,
      1790104412,
      1790104456,
      1790104464,
      1790104485,
      1790104525,
      1790104543,
      1790104561,
      1790104599,
      1790104633,
      1790104656,
      1790104708,
      1790104718,
      1790104747,
      1790104771,
      1790104808,
      1790104831,
      1790104863,
      1790104906,
      1790104943,
      1790104958,
      1790104983,
      1790105007,
      1790105019,
      1790105066,
      1790105095,
      1790105123,
      1790105138,
      1790105150,
      1790105176,
      1790105210,
      1790105224,
      1790105277,
      1790105283
    ],
    "wof:geomhash": "bafb626377e21abd9ca402acfa6416f9",
    "wof:id": 2048403323,
    "wof:repo": "sfomuseum-data-flights-2026-09"
  },
  "bbox": [
    -122.75658,
    37.43848,
    -122.10554,
    38.47689
  ],
  "geometry": {"type":"LineString","coordinates":[[-122.50858,38.47689],[-122.5494,38.43627],[-122.58767,38.3993],[-122.6574,38.33147],[-122.69527,38.29466],[-122.70983,38.28051],[-122.75658,38.19939],[-122.74561,38.15157],[-122.73518,38.11826],[-122.71204,38.03525],[-122.6996,37.99138],[-122.68564,37.94287],[-122.66678,37.89352],[-122.64735,37.87366],[-122.58625,37.81809],[-122.57581,37.80804],[-122.54691,37.78042],[-122.49815,37.73419],[-122.47753,37.71463],[-122.45766,37.69602],[-122.41426,37.6553],[-122.37918,37.62229],[-122.35885,37.60154],[-122.32949,37.54649],[-122.3237,37.5359],[-122.30578,37.50536],[-122.29065,37.48151],[-122.24753,37.45963],[-122.21942,37.45041],[-122.18386,37.43848],[-122.13568,37.44608],[-122.10554,37.46861],[-122.10715,37.48192],[-122.11602,37.50172],[-122.13485,37.51685],[-122.14608,37.52221],[-122.19091,37.54126],[-122.21802,37.55269],[-122.24266,37.56309],[-122.25529,37.56843],[-122.26455,37.5723],[-122.28356,37.5803],[-122.30698,37.59021],[-122.31661,37.5942],[-122.35343,37.60971],[-122.35747,37.61139]]}
}
