{
  "id": 2048385773,
  "type": "Feature",
  "properties": {
    "geom:area": 0,
    "geom:bbox": "-122.359290,37.491960,-121.273710,37.614590",
    "geom:latitude": 37.54207515371409,
    "geom:longitude": -121.82347643089109,
    "src:alt_label": "swim-approach",
    "src:geom": "swim",
    "swim:elevations": [
      4459,
      4414,
      4244,
      4183,
      4077,
      3895,
      3693,
      3534,
      3441,
      3266,
      3077,
      2822,
      2785,
      2629,
      2449,
      2438,
      2290,
      2203,
      2017,
      1829,
      1829,
      1829,
      1522,
      1293,
      1171,
      973,
      803,
      734,
      505,
      414,
      312,
      257,
      132,
      60
    ],
    "swim:geom": "approach",
    "swim:timestamps": [
      1789948137,
      1789948143,
      1789948158,
      1789948167,
      1789948176,
      1789948197,
      1789948221,
      1789948250,
      1789948277,
      1789948301,
      1789948334,
      1789948376,
      1789948382,
      1789948403,
      1789948432,
      1789948467,
      1789948494,
      1789948506,
      1789948549,
      1789948588,
      1789948607,
      1789948629,
      1789948666,
      1789948692,
      1789948726,
      1789948766,
      1789948797,
      1789948812,
      1789948857,
      1789948881,
      1789948905,
      1789948921,
      1789948957,
      1789948990
    ],
    "wof:geomhash": "36ad33e93d5ab687e50168b74039a096",
    "wof:id": 2048385773,
    "wof:repo": "sfomuseum-data-flights-2026-09"
  },
  "bbox": [
    -122.35929,
    37.49196,
    -121.27371,
    37.61459
  ],
  "geometry": {"type":"LineString","coordinates":[[-121.27371,37.59142],[-121.286,37.58978],[-121.31615,37.58616],[-121.33384,37.58422],[-121.35121,37.5823],[-121.39125,37.57802],[-121.43515,37.57314],[-121.4845,37.56742],[-121.52672,37.56249],[-121.56186,37.55836],[-121.60972,37.55256],[-121.66899,37.54061],[-121.67729,37.53855],[-121.70618,37.53143],[-121.74564,37.52183],[-121.79328,37.5106],[-121.82954,37.5019],[-121.84539,37.49808],[-121.90363,37.49196],[-121.95716,37.49572],[-121.98215,37.49723],[-122.01172,37.49893],[-122.06104,37.50169],[-122.09488,37.50516],[-122.1357,37.52033],[-122.17944,37.53875],[-122.21172,37.55241],[-122.22645,37.55859],[-122.26775,37.57599],[-122.28573,37.58352],[-122.30217,37.59042],[-122.31351,37.5952],[-122.3382,37.60562],[-122.35929,37.61459]]}
}
