{
  "id": 2048417157,
  "type": "Feature",
  "properties": {
    "geom:area": 0,
    "geom:bbox": "-122.405040,37.626810,-121.245480,38.124870",
    "geom:latitude": 37.88528015277936,
    "geom:longitude": -121.84109348449861,
    "src:alt_label": "swim-takeoff",
    "src:geom": "swim",
    "swim:elevations": [
      152,
      640,
      723,
      1033,
      1123,
      1277,
      1374,
      1691,
      2037,
      2470,
      2760,
      2893,
      3295,
      3396,
      3567,
      3617,
      3845,
      3899,
      3969,
      4461,
      4687,
      4715,
      4899,
      5309,
      5493,
      5541,
      5852,
      6081
    ],
    "swim:geom": "takeoff",
    "swim:timestamps": [
      1790157425,
      1790157472,
      1790157481,
      1790157516,
      1790157537,
      1790157564,
      1790157593,
      1790157621,
      1790157649,
      1790157688,
      1790157714,
      1790157729,
      1790157769,
      1790157797,
      1790157833,
      1790157838,
      1790157860,
      1790157867,
      1790157877,
      1790157924,
      1790157956,
      1790157960,
      1790157994,
      1790158045,
      1790158076,
      1790158084,
      1790158122,
      1790158155
    ],
    "wof:geomhash": "072352179f8e7ce5ac313b643aa26635",
    "wof:id": 2048417157,
    "wof:repo": "sfomuseum-data-flights-2026-09"
  },
  "bbox": [
    -122.40504,
    37.62681,
    -121.24548,
    38.12487
  ],
  "geometry": {"type":"LineString","coordinates":[[-122.39467,37.62681],[-122.40504,37.65904],[-122.39749,37.66429],[-122.36171,37.67391],[-122.33857,37.68077],[-122.30582,37.69075],[-122.26569,37.7028],[-122.22357,37.71505],[-122.18252,37.73314],[-122.12858,37.76232],[-122.0917,37.78141],[-122.07096,37.79202],[-122.00997,37.82227],[-121.96394,37.84251],[-121.89947,37.86836],[-121.89004,37.87199],[-121.84681,37.88842],[-121.83328,37.8935],[-121.81484,37.90081],[-121.72312,37.93754],[-121.66124,37.96336],[-121.65389,37.96647],[-121.58571,37.99275],[-121.47961,38.03361],[-121.41326,38.05945],[-121.39759,38.06571],[-121.31543,38.09783],[-121.24548,38.12487]]}
}
