{
  "id": 2048267161,
  "type": "Feature",
  "properties": {
    "geom:area": 0,
    "geom:bbox": "-122.361120,37.492160,-121.263170,37.615110",
    "geom:latitude": 37.54635209841622,
    "geom:longitude": -121.81707354474645,
    "src:alt_label": "swim-approach",
    "src:geom": "swim",
    "swim:elevations": [
      4754,
      4581,
      4163,
      3930,
      3595,
      3440,
      3369,
      3080,
      3046,
      2895,
      2768,
      2698,
      2497,
      2263,
      2168,
      1990,
      1889,
      1789,
      1669,
      1408,
      1372,
      1129,
      944,
      803,
      692,
      572,
      465,
      372,
      279,
      138,
      59,
      0
    ],
    "swim:geom": "approach",
    "swim:timestamps": [
      1788731578,
      1788731593,
      1788731636,
      1788731660,
      1788731693,
      1788731710,
      1788731716,
      1788731755,
      1788731771,
      1788731809,
      1788731848,
      1788731857,
      1788731890,
      1788731935,
      1788731950,
      1788731995,
      1788732026,
      1788732049,
      1788732070,
      1788732118,
      1788732127,
      1788732175,
      1788732208,
      1788732233,
      1788732257,
      1788732280,
      1788732301,
      1788732325,
      1788732350,
      1788732387,
      1788732409,
      1788732423
    ],
    "wof:geomhash": "267111070e4edf184fd2c4dcee5dd8f8",
    "wof:id": 2048267161,
    "wof:repo": "sfomuseum-data-flights-2026-09"
  },
  "bbox": [
    -122.36112,
    37.49216,
    -121.26317,
    37.61511
  ],
  "geometry": {"type":"LineString","coordinates":[[-121.26317,37.59274],[-121.29301,37.58892],[-121.3749,37.57995],[-121.42029,37.57468],[-121.48203,37.56743],[-121.51445,37.56363],[-121.52568,37.56239],[-121.5972,37.554],[-121.62331,37.55068],[-121.68106,37.53735],[-121.73572,37.52431],[-121.74782,37.5214],[-121.79216,37.51068],[-121.8519,37.4964],[-121.87134,37.4925],[-121.93017,37.49216],[-121.96857,37.49339],[-121.99648,37.49742],[-122.02094,37.50528],[-122.07524,37.52301],[-122.08541,37.52627],[-122.13909,37.54369],[-122.17427,37.55505],[-122.20061,37.56358],[-122.22485,37.57143],[-122.24769,37.57889],[-122.26722,37.58484],[-122.28736,37.59075],[-122.30674,37.59644],[-122.33469,37.60487],[-122.35105,37.61097],[-122.36112,37.61511]]}
}
