{
  "id": 2048444759,
  "type": "Feature",
  "properties": {
    "geom:area": 0,
    "geom:bbox": "-122.334722,32.695278,-97.050000,37.700000",
    "geom:latitude": 35.18652874040886,
    "geom:longitude": -109.70693642054347,
    "src:alt_label": "swim-path",
    "src:geom": "swim",
    "swim:altitudes": [
      "011",
      "025",
      "046",
      "058",
      "078",
      "099",
      "107",
      "115",
      "130",
      "149",
      "160",
      "171",
      "183",
      "194",
      "202",
      "212",
      "222",
      "230",
      "238",
      "246",
      "253",
      "260",
      "268",
      "280",
      "288",
      "300C",
      "300C",
      "300C",
      "300C",
      "300C",
      "300C",
      "300C",
      "300C",
      "300C",
      "300C",
      "300C",
      "300C",
      "300C",
      "300C",
      "300C",
      "300C",
      "300C",
      "300C",
      "300C",
      "300C",
      "300C",
      "300C",
      "300C",
      "300C",
      "300C",
      "300C",
      "300C",
      "300C",
      "300C",
      "300C",
      "300C",
      "300C",
      "300C",
      "300C",
      "300C",
      "300C",
      "300C",
      "300C",
      "300C",
      "300C",
      "300C",
      "300C",
      "300C",
      "300C",
      "300C",
      "300C",
      "301C",
      "300C",
      "300C",
      "300C",
      "300C",
      "300C",
      "300C",
      "300C",
      "300C",
      "300C",
      "300C",
      "300C",
      "300C",
      "300C",
      "300C",
      "300C",
      "300C",
      "297",
      "287",
      "280C",
      "280C",
      "280C",
      "280C",
      "280C",
      "280C",
      "280C",
      "280C",
      "280C",
      "280C",
      "280C",
      "280C",
      "280C",
      "280C",
      "280C",
      "280C",
      "280C",
      "280C",
      "280C",
      "280C",
      "280C",
      "280C",
      "280C",
      "280C",
      "280C",
      "280C",
      "280C",
      "280C",
      "280C",
      "280C",
      "280C",
      "280C",
      "280C",
      "280",
      "280",
      "280",
      "280",
      "281",
      "281",
      "283",
      "285",
      "290",
      "291",
      "300",
      "302",
      "310",
      "312",
      "320C",
      "320C",
      "320C",
      "320C",
      "320C",
      "320C",
      "320C",
      "320",
      "321",
      "322",
      "327",
      "335",
      "340C",
      "340C",
      "340C",
      "340C",
      "340C",
      "340C",
      "340C",
      "340C",
      "340C",
      "340C",
      "340C",
      "340C",
      "341C",
      "340C",
      "340C",
      "340C",
      "340C",
      "340C",
      "340C",
      "340C",
      "340C",
      "340C",
      "340C",
      "340C",
      "340C",
      "340C",
      "341C",
      "340C",
      "340C",
      "340C",
      "340C",
      "340C",
      "340C",
      "340C",
      "340C",
      "340C",
      "340C",
      "340C",
      "340C",
      "340C",
      "341C",
      "341C",
      "341C",
      "340C",
      "340C",
      "340C",
      "340C",
      "340C",
      "340C",
      "340C",
      "340C",
      "340C",
      "340C",
      "340C",
      "340C",
      "340C",
      "340C",
      "340C",
      "340C",
      "340C",
      "340C",
      "340C",
      "340C",
      "340",
      "340",
      "337",
      "327",
      "304",
      "299",
      "289",
      "286",
      "266",
      "265",
      "246",
      "244",
      "229",
      "227",
      "209",
      "209",
      "193",
      "192",
      "175",
      "174",
      "158",
      "142",
      "129",
      "117",
      "104",
      "103",
      "098",
      "083",
      "080C",
      "063",
      "060",
      "060",
      "046",
      "041",
      "029",
      "030",
      "030",
      "030",
      "022",
      "019",
      "012",
      "006",
      "005"
    ],
    "swim:geom": "path",
    "swim:speeds": [
      176,
      222,
      256,
      268,
      279,
      279,
      304,
      347,
      366,
      366,
      375,
      386,
      393,
      396,
      407,
      410,
      416,
      420,
      426,
      431,
      435,
      442,
      445,
      444,
      443,
      435,
      433,
      431,
      431,
      430,
      430,
      430,
      428,
      428,
      427,
      425,
      423,
      422,
      421,
      420,
      421,
      421,
      421,
      422,
      422,
      421,
      420,
      419,
      418,
      420,
      420,
      421,
      420,
      420,
      419,
      419,
      419,
      418,
      417,
      417,
      418,
      420,
      421,
      422,
      421,
      420,
      420,
      420,
      419,
      419,
      421,
      423,
      424,
      425,
      426,
      426,
      427,
      426,
      425,
      424,
      424,
      424,
      423,
      425,
      427,
      429,
      430,
      429,
      428,
      427,
      424,
      424,
      425,
      426,
      426,
      425,
      423,
      423,
      421,
      420,
      419,
      419,
      418,
      418,
      419,
      418,
      419,
      418,
      419,
      419,
      418,
      418,
      417,
      416,
      416,
      415,
      415,
      414,
      414,
      414,
      414,
      414,
      417,
      418,
      419,
      422,
      422,
      425,
      426,
      427,
      427,
      426,
      426,
      426,
      425,
      424,
      423,
      416,
      413,
      409,
      410,
      410,
      410,
      410,
      410,
      411,
      414,
      418,
      419,
      412,
      413,
      416,
      418,
      418,
      416,
      414,
      413,
      413,
      413,
      414,
      425,
      427,
      426,
      425,
      427,
      427,
      427,
      425,
      412,
      419,
      413,
      417,
      418,
      419,
      424,
      428,
      434,
      438,
      441,
      441,
      438,
      436,
      436,
      439,
      439,
      442,
      442,
      426,
      426,
      404,
      403,
      403,
      399,
      397,
      397,
      399,
      399,
      398,
      398,
      398,
      398,
      399,
      398,
      400,
      400,
      400,
      400,
      393,
      389,
      390,
      392,
      395,
      399,
      400,
      399,
      398,
      404,
      408,
      404,
      403,
      382,
      384,
      370,
      373,
      348,
      352,
      341,
      344,
      323,
      327,
      314,
      318,
      313,
      306,
      289,
      284,
      267,
      267,
      228,
      226,
      227,
      226,
      220,
      222,
      206,
      210,
      205,
      209,
      197,
      194,
      184,
      187,
      149,
      141,
      145
    ],
    "swim:timestamps": [
      1790535343,
      1790535424,
      1790535494,
      1790535544,
      1790535605,
      1790535668,
      1790535725,
      1790535785,
      1790535845,
      1790535905,
      1790535965,
      1790536025,
      1790536085,
      1790536145,
      1790536205,
      1790536265,
      1790536326,
      1790536386,
      1790536446,
      1790536506,
      1790536566,
      1790536626,
      1790536686,
      1790536746,
      1790536806,
      1790536866,
      1790536926,
      1790536987,
      1790537047,
      1790537107,
      1790537167,
      1790537227,
      1790537277,
      1790537347,
      1790537397,
      1790537467,
      1790537527,
      1790537587,
      1790537647,
      1790537707,
      1790537758,
      1790537768,
      1790537828,
      1790537878,
      1790537888,
      1790537948,
      1790537998,
      1790538068,
      1790538128,
      1790538248,
      1790538308,
      1790538368,
      1790538428,
      1790538476,
      1790538549,
      1790538609,
      1790538656,
      1790538729,
      1790538789,
      1790538849,
      1790538909,
      1790538969,
      1790539029,
      1790539089,
      1790539137,
      1790539257,
      1790539317,
      1790539377,
      1790539437,
      1790539558,
      1790539618,
      1790539678,
      1790539738,
      1790539798,
      1790539858,
      1790539918,
      1790539978,
      1790540038,
      1790540098,
      1790540158,
      1790540219,
      1790540279,
      1790540339,
      1790540399,
      1790540459,
      1790540519,
      1790540579,
      1790540639,
      1790540699,
      1790540759,
      1790540820,
      1790540880,
      1790540940,
      1790541000,
      1790541060,
      1790541120,
      1790541180,
      1790541220,
      1790541240,
      1790541280,
      1790541300,
      1790541340,
      1790541360,
      1790541400,
      1790541420,
      1790541461,
      1790541481,
      1790541521,
      1790541541,
      1790541601,
      1790541641,
      1790541661,
      1790541701,
      1790541721,
      1790541761,
      1790541781,
      1790541821,
      1790541841,
      1790541881,
      1790541901,
      1790541941,
      1790541961,
      1790542001,
      1790542022,
      1790542062,
      1790542122,
      1790542142,
      1790542182,
      1790542202,
      1790542242,
      1790542262,
      1790542302,
      1790542322,
      1790542362,
      1790542382,
      1790542422,
      1790542442,
      1790542482,
      1790542502,
      1790542542,
      1790542562,
      1790542602,
      1790542622,
      1790542663,
      1790542683,
      1790542723,
      1790542743,
      1790542783,
      1790542843,
      1790542903,
      1790542963,
      1790543023,
      1790543083,
      1790543143,
      1790543204,
      1790543264,
      1790543324,
      1790543384,
      1790543444,
      1790543504,
      1790543564,
      1790543624,
      1790543684,
      1790543745,
      1790543805,
      1790543865,
      1790543925,
      1790543985,
      1790544036,
      1790544045,
      1790544097,
      1790544105,
      1790544157,
      1790544165,
      1790544217,
      1790544225,
      1790544277,
      1790544286,
      1790544337,
      1790544346,
      1790544406,
      1790544457,
      1790544466,
      1790544517,
      1790544526,
      1790544577,
      1790544585,
      1790544637,
      1790544645,
      1790544705,
      1790544758,
      1790544765,
      1790544825,
      1790544878,
      1790544885,
      1790544938,
      1790544946,
      1790544998,
      1790545006,
      1790545058,
      1790545066,
      1790545118,
      1790545126,
      1790545238,
      1790545246,
      1790545298,
      1790545306,
      1790545358,
      1790545418,
      1790545479,
      1790545539,
      1790545599,
      1790545659,
      1790545719,
      1790545779,
      1790545839,
      1790545899,
      1790545920,
      1790545945,
      1790545959,
      1790546005,
      1790546019,
      1790546065,
      1790546079,
      1790546125,
      1790546139,
      1790546186,
      1790546200,
      1790546246,
      1790546260,
      1790546305,
      1790546320,
      1790546380,
      1790546440,
      1790546500,
      1790546546,
      1790546605,
      1790546620,
      1790546680,
      1790546725,
      1790546740,
      1790546800,
      1790546845,
      1790546861,
      1790546905,
      1790546921,
      1790546965,
      1790546981,
      1790547026,
      1790547041,
      1790547086,
      1790547101,
      1790547161,
      1790547206,
      1790547221
    ],
    "wof:geomhash": "d97af7f09bcd70e4ed6f429b7598a182",
    "wof:id": 2048444759,
    "wof:repo": "sfomuseum-data-flights-2026-09"
  },
  "bbox": [
    -122.33472222222221,
    32.695277777777775,
    -97.05,
    37.7
  ],
  "geometry": {"type":"LineString","coordinates":[[-97.05,32.88333333333333],[-97.05416666666666,32.81333333333333],[-97.05,32.733333333333334],[-97.10833333333333,32.696666666666665],[-97.20027777777779,32.695277777777775],[-97.3,32.7],[-97.385,32.72027777777778],[-97.49472222222222,32.73861111111111],[-97.61416666666666,32.75861111111111],[-97.73361111111112,32.77861111111111],[-97.85305555555556,32.806666666666665],[-97.9775,32.83555555555556],[-98.10277777777777,32.86472222222223],[-98.23111111111112,32.89416666666666],[-98.36083333333333,32.924166666666665],[-98.49388888888889,32.95472222222222],[-98.62916666666666,32.98555555555556],[-98.76277777777777,33.01583333333333],[-98.90083333333334,33.04722222222222],[-99.03916666666666,33.07805555555556],[-99.17888888888889,33.10944444444445],[-99.32166666666666,33.14111111111111],[-99.46527777777779,33.172777777777775],[-99.60722222222222,33.203611111111115],[-99.74888888888889,33.236111111111114],[-99.88694444444445,33.26722222222222],[-100.01916666666666,33.29666666666667],[-100.1563888888889,33.3275],[-100.29305555555555,33.35777777777778],[-100.43055555555556,33.388333333333335],[-100.56777777777778,33.41833333333333],[-100.70555555555556,33.448611111111106],[-100.81,33.471111111111114],[-100.98083333333334,33.50805555555556],[-101.08472222222221,33.530277777777776],[-101.25416666666666,33.564166666666665],[-101.38138888888888,33.58972222222222],[-101.51888888888888,33.61694444444444],[-101.65333333333334,33.64361111111111],[-101.78861111111111,33.67027777777778],[-101.9038888888889,33.69277777777778],[-101.92666666666668,33.6975],[-102.06277777777777,33.723888888888894],[-102.1763888888889,33.74583333333334],[-102.19916666666667,33.750277777777775],[-102.33694444444444,33.776666666666664],[-102.44277777777778,33.79694444444444],[-102.60472222222222,33.82777777777778],[-102.74027777777778,33.85333333333333],[-103.04027777777777,33.909166666666664],[-103.17666666666668,33.93444444444444],[-103.31527777777778,33.96],[-103.44944444444445,33.98444444444444],[-103.55888888888889,34.00416666666667],[-103.72500000000001,34.034166666666664],[-103.86083333333333,34.05833333333333],[-103.9713888888889,34.07805555555556],[-104.13444444444445,34.106944444444444],[-104.27055555555556,34.13055555555555],[-104.40611111111112,34.15416666666667],[-104.54333333333334,34.17777777777778],[-104.68277777777779,34.20166666666667],[-104.82138888888889,34.22527777777778],[-104.95944444444444,34.24861111111111],[-105.04861111111111,34.26361111111111],[-105.32333333333332,34.30916666666666],[-105.46277777777777,34.33222222222223],[-105.60027777777778,34.35472222222222],[-105.73916666666666,34.37694444444445],[-106.01638888888888,34.419999999999995],[-106.15527777777778,34.44166666666666],[-106.30027777777778,34.46361111111111],[-106.44027777777778,34.485],[-106.59722222222221,34.50861111111111],[-106.73944444444444,34.52972222222222],[-106.88055555555555,34.55083333333333],[-107.0213888888889,34.57138888888889],[-107.16388888888889,34.592222222222226],[-107.30583333333333,34.612500000000004],[-107.44611111111111,34.632777777777775],[-107.57472222222222,34.65083333333333],[-107.71638888888889,34.670833333333334],[-107.85833333333333,34.690555555555555],[-107.99916666666667,34.71027777777778],[-108.1413888888889,34.72972222222222],[-108.30027777777778,34.75138888888889],[-108.44333333333334,34.77055555555555],[-108.58749999999999,34.78944444444444],[-108.72888888888889,34.80833333333333],[-108.86999999999999,34.82666666666667],[-109.01277777777777,34.845],[-109.15555555555557,34.86361111111111],[-109.29722222222222,34.88166666666667],[-109.43944444444445,34.89944444444444],[-109.58388888888888,34.9175],[-109.72583333333334,34.934999999999995],[-109.86638888888888,34.952222222222225],[-109.95166666666667,34.96416666666667],[-110.00638888888889,34.969166666666666],[-110.09138888888889,34.98166666666667],[-110.14666666666668,34.986111111111114],[-110.22944444444444,34.996944444444445],[-110.28527777777778,35.0025],[-110.36916666666666,35.01222222222222],[-110.42750000000001,35.01916666666666],[-110.50916666666667,35.02916666666667],[-110.56694444444445,35.035555555555554],[-110.64972222222222,35.04555555555555],[-110.70666666666666,35.05138888888889],[-110.84861111111111,35.06722222222223],[-110.93,35.07527777777778],[-110.9875,35.08083333333334],[-111.06944444444444,35.08888888888889],[-111.12444444444444,35.09444444444445],[-111.20583333333333,35.1025],[-111.26222222222222,35.10805555555556],[-111.3461111111111,35.11611111111111],[-111.40055555555556,35.12138888888889],[-111.48416666666667,35.129444444444445],[-111.53972222222222,35.13444444444444],[-111.62305555555555,35.1425],[-111.67888888888889,35.14944444444444],[-111.77666666666667,35.16972222222222],[-111.80277777777778,35.17527777777777],[-111.91527777777779,35.19944444444444],[-112.05527777777777,35.22972222222222],[-112.08083333333333,35.235],[-112.19416666666667,35.25944444444445],[-112.2213888888889,35.265277777777776],[-112.335,35.28944444444444],[-112.36333333333333,35.29527777777778],[-112.47500000000001,35.31888888888889],[-112.5,35.32416666666667],[-112.61361111111111,35.34805555555556],[-112.6413888888889,35.35388888888889],[-112.75333333333333,35.37722222222222],[-112.78916666666666,35.38444444444444],[-112.88944444444445,35.405277777777776],[-112.92750000000001,35.41305555555555],[-113.01916666666666,35.431666666666665],[-113.05944444444444,35.44],[-113.1538888888889,35.459722222222226],[-113.19777777777779,35.469722222222224],[-113.28583333333333,35.4975],[-113.32805555555555,35.51111111111111],[-113.41083333333334,35.5375],[-113.46055555555556,35.55333333333333],[-113.54305555555555,35.57972222222222],[-113.67750000000001,35.62222222222222],[-113.80749999999999,35.66305555555555],[-113.93861111111111,35.70444444444445],[-114.07833333333333,35.748333333333335],[-114.21361111111112,35.79055555555556],[-114.3461111111111,35.831388888888895],[-114.47777777777777,35.871944444444445],[-114.61138888888888,35.91305555555555],[-114.74194444444444,35.95305555555556],[-114.8736111111111,35.99305555555556],[-115.00861111111111,36.034166666666664],[-115.1413888888889,36.07472222222223],[-115.27083333333333,36.13111111111111],[-115.39805555555556,36.19],[-115.52472222222222,36.248333333333335],[-115.66166666666668,36.31111111111111],[-115.79166666666667,36.370555555555555],[-115.91888888888889,36.42861111111111],[-116.04638888888888,36.48638888888889],[-116.17416666666666,36.54416666666666],[-116.27444444444444,36.589444444444446],[-116.29944444444445,36.60055555555556],[-116.40111111111112,36.64611111111111],[-116.42583333333334,36.657222222222224],[-116.52722222222222,36.70277777777778],[-116.5525,36.71388888888889],[-116.65777777777778,36.76111111111111],[-116.68333333333334,36.77361111111111],[-116.77805555555555,36.83305555555556],[-116.80027777777778,36.85],[-116.88333333333334,36.92444444444444],[-116.88333333333334,36.92444444444444],[-116.98361111111112,37.014722222222225],[-117.08361111111111,37.105000000000004],[-117.08361111111111,37.105000000000004],[-117.18583333333333,37.196666666666665],[-117.18583333333333,37.196666666666665],[-117.28999999999999,37.28972222222222],[-117.28999999999999,37.28972222222222],[-117.40083333333334,37.373333333333335],[-117.40083333333334,37.373333333333335],[-117.53666666666666,37.39944444444444],[-117.67583333333334,37.41583333333333],[-117.67583333333334,37.41583333333333],[-117.81527777777778,37.43194444444444],[-117.95333333333333,37.4475],[-117.95111111111112,37.4475],[-118.09083333333332,37.463055555555556],[-118.09083333333332,37.463055555555556],[-118.22944444444444,37.478611111111114],[-118.22944444444444,37.478611111111114],[-118.36694444444444,37.493611111111115],[-118.36694444444444,37.493611111111115],[-118.50611111111111,37.50888888888889],[-118.50611111111111,37.50888888888889],[-118.78472222222221,37.538888888888884],[-118.78472222222221,37.53861111111111],[-118.90194444444445,37.551111111111105],[-118.9225,37.55333333333333],[-119.03722222222223,37.56527777777777],[-119.17027777777778,37.57888888888889],[-119.30472222222222,37.5925],[-119.44333333333334,37.60666666666667],[-119.58305555555555,37.620555555555555],[-119.72416666666666,37.63472222222222],[-119.86222222222221,37.64805555555556],[-120.00166666666667,37.66166666666666],[-120.13916666666667,37.67444444444444],[-120.28111111111112,37.687777777777775],[-120.35,37.7],[-120.4,37.7],[-120.42222222222223,37.69499999999999],[-120.55,37.68333333333333],[-120.55722222222222,37.68138888888889],[-120.68333333333334,37.666666666666664],[-120.68694444444445,37.66638888888889],[-120.8,37.65],[-120.80916666666667,37.651666666666664],[-120.91666666666667,37.63333333333333],[-120.92805555555556,37.63722222222222],[-121.03333333333333,37.61666666666667],[-121.04222222222222,37.6225],[-121.13333333333334,37.61666666666667],[-121.15166666666667,37.60777777777778],[-121.26388888888889,37.5925],[-121.36944444444444,37.580555555555556],[-121.47111111111111,37.56861111111112],[-121.55,37.56666666666667],[-121.65,37.55],[-121.6613888888889,37.541666666666664],[-121.74083333333333,37.522777777777776],[-121.8,37.5],[-121.81583333333333,37.505],[-121.89250000000001,37.49611111111111],[-121.95,37.516666666666666],[-121.96638888888889,37.511944444444445],[-122.03333333333333,37.516666666666666],[-122.03861111111111,37.526944444444446],[-122.1,37.53333333333333],[-122.10805555555555,37.541666666666664],[-122.16666666666667,37.55],[-122.17722222222223,37.55611111111111],[-122.23333333333333,37.56666666666667],[-122.24,37.57638888888889],[-122.29166666666667,37.59166666666667],[-122.33333333333333,37.6],[-122.33472222222221,37.60472222222222]]}
}
