{
  "id": 2048250247,
  "type": "Feature",
  "properties": {
    "geom:area": 0,
    "geom:bbox": "-122.358910,37.466090,-121.249270,37.627540",
    "geom:latitude": 37.560879925056796,
    "geom:longitude": -121.82219632492125,
    "src:alt_label": "swim-approach",
    "src:geom": "swim",
    "swim:elevations": [
      4947,
      4822,
      4549,
      4492,
      4207,
      3988,
      3726,
      3704,
      3579,
      3357,
      3353,
      3353,
      3353,
      3240,
      2985,
      2899,
      2743,
      2743,
      2704,
      2491,
      2436,
      2438,
      2334,
      1978,
      1895,
      1687,
      1675,
      1387,
      1284,
      1234,
      1022,
      947,
      885,
      729,
      639,
      455,
      396,
      252,
      127,
      39,
      0
    ],
    "swim:geom": "approach",
    "swim:timestamps": [
      1788511719,
      1788511731,
      1788511766,
      1788511773,
      1788511821,
      1788511851,
      1788511888,
      1788511891,
      1788511911,
      1788511944,
      1788511968,
      1788511997,
      1788512023,
      1788512049,
      1788512095,
      1788512104,
      1788512157,
      1788512168,
      1788512202,
      1788512248,
      1788512267,
      1788512306,
      1788512321,
      1788512361,
      1788512385,
      1788512426,
      1788512431,
      1788512488,
      1788512511,
      1788512523,
      1788512572,
      1788512589,
      1788512601,
      1788512633,
      1788512657,
      1788512692,
      1788512704,
      1788512741,
      1788512771,
      1788512793,
      1788512799
    ],
    "wof:geomhash": "c45d7f614fb5220b538940a67326cf13",
    "wof:id": 2048250247,
    "wof:repo": "sfomuseum-data-flights-2026-09"
  },
  "bbox": [
    -122.35891,
    37.46609,
    -121.24927,
    37.62754
  ],
  "geometry": {"type":"LineString","coordinates":[[-121.24927,37.59457],[-121.27124,37.59167],[-121.33631,37.5846],[-121.34904,37.58311],[-121.42712,37.57379],[-121.47368,37.56831],[-121.52813,37.56221],[-121.5325,37.56177],[-121.56253,37.55805],[-121.61182,37.5523],[-121.64718,37.54945],[-121.68622,37.56673],[-121.72043,37.58693],[-121.75301,37.60583],[-121.81857,37.62754],[-121.83142,37.62684],[-121.90833,37.61731],[-121.92028,37.60847],[-121.92457,37.57042],[-121.87282,37.5304],[-121.8549,37.51228],[-121.87011,37.4724],[-121.88892,37.46609],[-121.94313,37.47898],[-121.97109,37.48868],[-122.01565,37.50364],[-122.02015,37.50508],[-122.07885,37.52417],[-122.10068,37.53116],[-122.11131,37.53477],[-122.15727,37.54955],[-122.17326,37.55474],[-122.18479,37.55852],[-122.21606,37.56863],[-122.23946,37.57609],[-122.27173,37.58619],[-122.28221,37.58916],[-122.31319,37.59821],[-122.33778,37.60557],[-122.3542,37.61232],[-122.35891,37.61443]]}
}
