{
  "id": 2048430975,
  "type": "Feature",
  "properties": {
    "geom:area": 0,
    "geom:bbox": "-122.748120,37.348560,-122.106190,38.403470",
    "geom:latitude": 37.74615078309439,
    "geom:longitude": -122.45109111802847,
    "src:alt_label": "swim-approach",
    "src:geom": "swim",
    "swim:elevations": [
      7590,
      7432,
      6894,
      6756,
      6534,
      5929,
      5860,
      5396,
      5280,
      4870,
      4573,
      4164,
      3859,
      3545,
      3388,
      3350,
      3352,
      3353,
      3353,
      3353,
      3353,
      3353,
      3353,
      3042,
      2868,
      2731,
      2438,
      2438,
      2338,
      2094,
      1964,
      1828,
      1712,
      1372,
      1309,
      1237,
      1154,
      1049,
      1010,
      914,
      815,
      730,
      592,
      426,
      326,
      242,
      69,
      170
    ],
    "swim:geom": "approach",
    "swim:timestamps": [
      1790331742,
      1790331756,
      1790331806,
      1790331820,
      1790331840,
      1790331897,
      1790331906,
      1790331951,
      1790331962,
      1790332003,
      1790332030,
      1790332070,
      1790332103,
      1790332134,
      1790332165,
      1790332177,
      1790332180,
      1790332200,
      1790332243,
      1790332267,
      1790332295,
      1790332303,
      1790332324,
      1790332374,
      1790332403,
      1790332428,
      1790332495,
      1790332500,
      1790332554,
      1790332580,
      1790332600,
      1790332627,
      1790332672,
      1790332764,
      1790332792,
      1790332817,
      1790332835,
      1790332856,
      1790332866,
      1790332908,
      1790332937,
      1790332960,
      1790332994,
      1790333033,
      1790333059,
      1790333084,
      1790333128,
      1790333147
    ],
    "wof:geomhash": "a519bfa50a35fca62a9265118fc0abd8",
    "wof:id": 2048430975,
    "wof:repo": "sfomuseum-data-flights-2026-09"
  },
  "bbox": [
    -122.74812,
    37.34856,
    -122.10619,
    38.40347
  ],
  "geometry": {"type":"LineString","coordinates":[[-122.63211,38.40347],[-122.64869,38.38155],[-122.70572,38.30623],[-122.72066,38.28638],[-122.7436,38.25616],[-122.74812,38.15859],[-122.74385,38.14351],[-122.72186,38.0668],[-122.71593,38.04652],[-122.69578,37.97779],[-122.6828,37.93298],[-122.6447,37.87268],[-122.60098,37.83132],[-122.56035,37.79274],[-122.52192,37.75669],[-122.50648,37.74215],[-122.50295,37.73881],[-122.48103,37.71808],[-122.43593,37.67583],[-122.41371,37.65471],[-122.38684,37.62919],[-122.37874,37.62157],[-122.36038,37.60262],[-122.33167,37.54962],[-122.31431,37.51949],[-122.30165,37.49376],[-122.32983,37.42677],[-122.33211,37.42182],[-122.34719,37.36802],[-122.32017,37.34856],[-122.29094,37.34889],[-122.25355,37.35723],[-122.19701,37.37596],[-122.12058,37.44303],[-122.10639,37.46488],[-122.10619,37.48625],[-122.1168,37.49881],[-122.13027,37.51349],[-122.13791,37.51831],[-122.17351,37.534],[-122.19705,37.54389],[-122.21512,37.55158],[-122.24258,37.56313],[-122.27489,37.57655],[-122.29521,37.58525],[-122.31465,37.59339],[-122.34722,37.60703],[-122.36151,37.6127]]}
}
