{
  "id": 2048467801,
  "type": "Feature",
  "properties": {
    "geom:area": 0,
    "geom:bbox": "-122.365000,37.630060,-121.439990,38.512010",
    "geom:latitude": 38.06685006249335,
    "geom:longitude": -121.8996151191441,
    "src:alt_label": "swim-takeoff",
    "src:geom": "swim",
    "swim:elevations": [
      152,
      488,
      761,
      1180,
      1366,
      1713,
      2343,
      2666,
      2832,
      3225,
      3401,
      3479,
      3784,
      4016,
      4189,
      4510,
      4843,
      5002,
      5332,
      5601,
      5759,
      5933,
      6355,
      6475,
      6737
    ],
    "swim:geom": "takeoff",
    "swim:timestamps": [
      1790688770,
      1790688797,
      1790688829,
      1790688890,
      1790688906,
      1790688930,
      1790688981,
      1790689009,
      1790689021,
      1790689063,
      1790689101,
      1790689117,
      1790689157,
      1790689182,
      1790689202,
      1790689235,
      1790689278,
      1790689297,
      1790689346,
      1790689373,
      1790689390,
      1790689410,
      1790689468,
      1790689485,
      1790689526
    ],
    "wof:geomhash": "cadcec37697c7297c06dfd8eb7b4d90c",
    "wof:id": 2048467801,
    "wof:repo": "sfomuseum-data-flights-2026-09"
  },
  "bbox": [
    -122.365,
    37.63006,
    -121.43999,
    38.51201
  ],
  "geometry": {"type":"LineString","coordinates":[[-122.365,37.63006],[-122.34587,37.64513],[-122.31653,37.66187],[-122.24754,37.70096],[-122.2278,37.71105],[-122.20209,37.73197],[-122.15481,37.78414],[-122.12934,37.81249],[-122.11782,37.82528],[-122.07809,37.86925],[-122.03763,37.91387],[-122.01886,37.93447],[-121.97086,37.9873],[-121.9409,38.02021],[-121.91521,38.04827],[-121.87331,38.09415],[-121.81831,38.1542],[-121.79302,38.18184],[-121.72766,38.25305],[-121.69006,38.2939],[-121.66494,38.32103],[-121.63685,38.35151],[-121.55256,38.44018],[-121.52145,38.46195],[-121.43999,38.51201]]}
}
