{
  "id": 2048254305,
  "type": "Feature",
  "properties": {
    "geom:area": 0,
    "geom:bbox": "-122.543290,36.738030,-121.578840,37.668290",
    "geom:latitude": 37.22886194734923,
    "geom:longitude": -122.13175628819256,
    "src:alt_label": "swim-takeoff",
    "src:geom": "swim",
    "swim:elevations": [
      122,
      605,
      707,
      1204,
      1561,
      2288,
      3173,
      3339,
      3842,
      4510,
      5067,
      5909,
      6129,
      6562,
      7065,
      7542,
      7831,
      8114,
      8351,
      8774,
      9094,
      9449,
      9449,
      9449,
      9449,
      9449
    ],
    "swim:geom": "takeoff",
    "swim:timestamps": [
      1788519759,
      1788519803,
      1788519811,
      1788519845,
      1788519871,
      1788519911,
      1788519952,
      1788519971,
      1788520006,
      1788520043,
      1788520076,
      1788520134,
      1788520148,
      1788520180,
      1788520214,
      1788520254,
      1788520278,
      1788520303,
      1788520325,
      1788520366,
      1788520393,
      1788520438,
      1788520454,
      1788520490,
      1788520514,
      1788520533
    ],
    "wof:geomhash": "d83384cea7026498677f3269a1e8c204",
    "wof:id": 2048254305,
    "wof:repo": "sfomuseum-data-flights-2026-09"
  },
  "bbox": [
    -122.54329,
    36.73803,
    -121.57884,
    37.66829
  ],
  "geometry": {"type":"LineString","coordinates":[[-122.38064,37.62342],[-122.41818,37.63896],[-122.42625,37.64229],[-122.46147,37.65688],[-122.49398,37.66829],[-122.54329,37.64863],[-122.53411,37.59722],[-122.52053,37.57216],[-122.49128,37.5192],[-122.44689,37.46687],[-122.39447,37.42333],[-122.30097,37.34573],[-122.27687,37.32573],[-122.22384,37.28176],[-122.16384,37.23191],[-122.09391,37.17361],[-122.05029,37.1365],[-122.00499,37.09864],[-121.96521,37.06516],[-121.88787,37.00088],[-121.83727,36.9594],[-121.75187,36.88783],[-121.72331,36.86204],[-121.65749,36.80531],[-121.6141,36.7679],[-121.57884,36.73803]]}
}
