{
  "id": 2048310491,
  "type": "Feature",
  "properties": {
    "date:inception_lower": "2026-09-11",
    "date:inception_upper": "2026-09-11",
    "edtf:cessation": "",
    "edtf:inception": "2026-09-11",
    "flysfo:actual_timestamp": -1,
    "flysfo:airline": "VA",
    "flysfo:base_airline": "",
    "flysfo:base_flight_number": "9182",
    "flysfo:date": "2026-09-11",
    "flysfo:estimated_timestamp": 1789186140,
    "flysfo:event": "A",
    "flysfo:flight_number": "VA8387",
    "flysfo:gate": "D16",
    "flysfo:journey": "IAD-SFO",
    "flysfo:scheduled_timestamp": 1789187280,
    "flysfo:timestamp": 1789187280,
    "geom:area": 0,
    "geom:bbox": "-122.370943,37.617990,-77.453702,38.949246",
    "geom:latitude": 38.283618000000004,
    "geom:longitude": -99.9123225,
    "iata:airline": "VA",
    "iata:base_airline": "",
    "icao:airline": "VOZ",
    "icao:base_airline": "ANZ",
    "lbl:latitude": 37.617532,
    "lbl:longitude": -122.382384,
    "sfomuseum:airline_id": 1159285485,
    "sfomuseum:arrival_id": 102527513,
    "sfomuseum:base_flight_id": "20260911-A-ANZ-9182",
    "sfomuseum:departure_id": 102528817,
    "sfomuseum:flight_id": "20260911-A-VOZ-8387",
    "sfomuseum:flight_number": [
      "VOZ8387",
      "VA8387"
    ],
    "sfomuseum:placetype": "flight",
    "src:geom": "flysfo",
    "wof:belongsto": [
      1947304067,
      102527513,
      1947304595,
      102191575,
      85633793,
      102087579,
      85922583,
      554784711,
      85688637,
      1947304619,
      1947304591,
      102085387
    ],
    "wof:country": "US",
    "wof:created": 1789229355,
    "wof:geomhash": "376248592ab7850cfb9a479529cc5caf",
    "wof:hierarchy": [
      {
        "building_id": 1947304067,
        "campus_id": 102527513,
        "concourse_id": 1947304595,
        "continent_id": 102191575,
        "country_id": 85633793,
        "county_id": 102087579,
        "custom_id": 2048310491,
        "flight_id": 2048310491,
        "locality_id": 85922583,
        "postalcode_id": 554784711,
        "region_id": 85688637,
        "venue_id": 1947304619,
        "wing_id": 1947304591
      },
      {
        "building_id": 1947304067,
        "campus_id": 102527513,
        "concourse_id": 1947304595,
        "continent_id": 102191575,
        "country_id": 85633793,
        "county_id": 102085387,
        "custom_id": 2048310491,
        "flight_id": 2048310491,
        "region_id": 85688637,
        "venue_id": 1947304619,
        "wing_id": 1947304591
      }
    ],
    "wof:id": 2048310491,
    "wof:involves": [
      102527513,
      102528817,
      1159285485,
      1947304619,
      1159283697
    ],
    "wof:lastmodified": 1789229355,
    "wof:name": "VA8387 (IAD-SFO)",
    "wof:parent_id": 1947304619,
    "wof:placetype": "custom",
    "wof:placetype_alt": [
      "flight"
    ],
    "wof:repo": "sfomuseum-data-flights-2026-09",
    "wof:superseded_by": [],
    "wof:supersedes": []
  },
  "bbox": [
    -122.370943,
    37.61799,
    -77.453702,
    38.949246
  ],
  "geometry": {"type":"MultiPoint","coordinates":[[-77.453702,38.949246],[-122.370943,37.61799]]}
}
