{
  "id": 2048232857,
  "type": "Feature",
  "properties": {
    "geom:area": 0,
    "geom:bbox": "-122.690710,37.444980,-122.157670,37.958810",
    "geom:latitude": 37.64223301388201,
    "geom:longitude": -122.38880460007756,
    "src:alt_label": "swim-approach",
    "src:geom": "swim",
    "swim:elevations": [
      4676,
      4532,
      4282,
      3754,
      3504,
      3442,
      3383,
      3353,
      3353,
      3293,
      3053,
      2898,
      2340,
      1958,
      1926,
      1456,
      1298,
      993,
      964,
      789,
      615,
      519,
      530,
      357,
      279,
      182,
      42,
      180
    ],
    "swim:geom": "approach",
    "swim:timestamps": [
      1788370916,
      1788370928,
      1788370950,
      1788370995,
      1788371027,
      1788371047,
      1788371070,
      1788371107,
      1788371140,
      1788371180,
      1788371216,
      1788371229,
      1788371270,
      1788371308,
      1788371311,
      1788371366,
      1788371395,
      1788371426,
      1788371430,
      1788371463,
      1788371516,
      1788371548,
      1788371551,
      1788371599,
      1788371615,
      1788371647,
      1788371696,
      1788371702
    ],
    "wof:geomhash": "d59af99778bb7f0d40c5bc6ed9c4d94f",
    "wof:id": 2048232857,
    "wof:repo": "sfomuseum-data-flights-2026-09"
  },
  "bbox": [
    -122.69071,
    37.44498,
    -122.15767,
    37.95881
  ],
  "geometry": {"type":"LineString","coordinates":[[-122.69071,37.95881],[-122.68434,37.93789],[-122.66869,37.90289],[-122.61249,37.84237],[-122.56896,37.80109],[-122.54401,37.77768],[-122.51585,37.75111],[-122.47296,37.71043],[-122.43379,37.67358],[-122.38772,37.63031],[-122.35081,37.58855],[-122.34087,37.57142],[-122.31112,37.52017],[-122.28285,37.47582],[-122.2795,37.47297],[-122.2007,37.44498],[-122.16295,37.45604],[-122.15767,37.4868],[-122.15959,37.4907],[-122.17645,37.51936],[-122.21311,37.55133],[-122.24202,37.56264],[-122.2448,37.56382],[-122.28825,37.58229],[-122.30114,37.5877],[-122.32415,37.59742],[-122.35708,37.61118],[-122.3624,37.6133]]}
}
