{
  "id": 2048395891,
  "type": "Feature",
  "properties": {
    "geom:area": 0,
    "geom:bbox": "-122.360470,37.491410,-121.252820,37.614570",
    "geom:latitude": 37.54675022660701,
    "geom:longitude": -121.81152767501099,
    "src:alt_label": "swim-approach",
    "src:geom": "swim",
    "swim:elevations": [
      4576,
      4527,
      4109,
      3746,
      3529,
      3446,
      3138,
      3108,
      2996,
      2923,
      2614,
      2553,
      2468,
      2216,
      2136,
      2134,
      2007,
      1828,
      1746,
      1622,
      1484,
      1277,
      1111,
      862,
      765,
      598,
      395,
      263,
      206,
      171,
      125
    ],
    "swim:geom": "approach",
    "swim:timestamps": [
      1790016175,
      1790016181,
      1790016225,
      1790016268,
      1790016290,
      1790016303,
      1790016349,
      1790016369,
      1790016412,
      1790016422,
      1790016476,
      1790016489,
      1790016513,
      1790016563,
      1790016588,
      1790016600,
      1790016652,
      1790016684,
      1790016712,
      1790016732,
      1790016755,
      1790016788,
      1790016818,
      1790016857,
      1790016876,
      1790016910,
      1790016949,
      1790016985,
      1790016997,
      1790017007,
      1790017043
    ],
    "wof:geomhash": "39e6af9104d31c8b6689a66cc06da27a",
    "wof:id": 2048395891,
    "wof:repo": "sfomuseum-data-flights-2026-09"
  },
  "bbox": [
    -122.36047,
    37.49141,
    -121.25282,
    37.61457
  ],
  "geometry": {"type":"LineString","coordinates":[[-121.25282,37.59452],[-121.264,37.59305],[-121.34487,37.58321],[-121.42148,37.57422],[-121.46126,37.56972],[-121.48412,37.56723],[-121.55927,37.55882],[-121.58909,37.55526],[-121.64957,37.54485],[-121.66417,37.54136],[-121.73904,37.52353],[-121.75625,37.51939],[-121.78836,37.51174],[-121.85492,37.49581],[-121.88913,37.49141],[-121.90647,37.49187],[-121.96925,37.49326],[-122.00596,37.50036],[-122.03723,37.51046],[-122.05915,37.51767],[-122.08423,37.52585],[-122.1195,37.53751],[-122.15053,37.54738],[-122.19004,37.56028],[-122.20962,37.56654],[-122.24483,37.57781],[-122.28356,37.5893],[-122.31402,37.59846],[-122.3242,37.60147],[-122.33225,37.6041],[-122.36047,37.61457]]}
}
