{
  "id": 2048420459,
  "type": "Feature",
  "properties": {
    "geom:area": 0,
    "geom:bbox": "-122.363611,37.490833,-104.816667,39.858333",
    "geom:latitude": 38.75359785628423,
    "geom:longitude": -113.60991671931863,
    "src:alt_label": "swim-path",
    "src:geom": "swim",
    "swim:altitudes": [
      "082",
      "105",
      "109",
      "136",
      "141",
      "164",
      "190",
      "211",
      "227",
      "246",
      "262",
      "284",
      "298",
      "314",
      "332",
      "346",
      "362",
      "372",
      "380C",
      "380C",
      "380C",
      "380C",
      "380C",
      "380C",
      "380C",
      "380C",
      "380C",
      "380C",
      "380C",
      "380C",
      "380C",
      "380C",
      "381C",
      "380C",
      "380C",
      "380C",
      "380C",
      "380C",
      "380C",
      "380C",
      "380C",
      "380C",
      "380C",
      "380C",
      "380C",
      "380C",
      "380C",
      "380C",
      "380C",
      "380C",
      "380C",
      "380C",
      "380C",
      "380C",
      "380C",
      "380C",
      "380C",
      "380C",
      "380C",
      "380C",
      "380C",
      "380C",
      "380C",
      "380C",
      "380C",
      "380C",
      "380C",
      "380C",
      "380C",
      "380C",
      "380C",
      "380C",
      "380C",
      "380C",
      "380C",
      "380C",
      "380C",
      "380C",
      "380C",
      "380C",
      "380C",
      "380C",
      "379C",
      "380C",
      "380C",
      "380C",
      "380C",
      "380C",
      "380C",
      "380C",
      "380C",
      "380C",
      "380C",
      "380C",
      "380C",
      "380C",
      "380C",
      "380C",
      "380C",
      "380C",
      "380C",
      "380C",
      "380C",
      "380C",
      "380C",
      "380C",
      "380C",
      "380C",
      "380C",
      "380C",
      "380C",
      "380C",
      "380C",
      "380C",
      "380C",
      "380C",
      "380C",
      "381C",
      "380C",
      "380C",
      "380C",
      "380C",
      "380C",
      "380C",
      "380C",
      "380C",
      "380C",
      "380C",
      "380C",
      "380C",
      "380",
      "380",
      "367",
      "345",
      "326",
      "307",
      "304",
      "285",
      "268",
      "248",
      "220",
      "207",
      "201",
      "182",
      "152",
      "133",
      "118",
      "107",
      "100",
      "090",
      "081",
      "067",
      "060",
      "052",
      "044",
      "033",
      "030",
      "021",
      "007",
      "001"
    ],
    "swim:geom": "path",
    "swim:speeds": [
      255,
      290,
      297,
      307,
      312,
      322,
      326,
      337,
      356,
      365,
      377,
      378,
      382,
      385,
      394,
      394,
      395,
      394,
      392,
      393,
      393,
      393,
      393,
      392,
      390,
      390,
      388,
      386,
      386,
      384,
      384,
      385,
      387,
      389,
      389,
      389,
      390,
      391,
      393,
      395,
      397,
      399,
      401,
      402,
      403,
      404,
      405,
      406,
      407,
      408,
      410,
      412,
      415,
      418,
      419,
      419,
      419,
      420,
      420,
      420,
      421,
      422,
      424,
      425,
      425,
      425,
      425,
      424,
      424,
      423,
      423,
      424,
      425,
      427,
      428,
      430,
      434,
      430,
      434,
      430,
      433,
      429,
      430,
      429,
      430,
      428,
      429,
      427,
      428,
      426,
      426,
      425,
      426,
      425,
      426,
      425,
      425,
      424,
      424,
      422,
      422,
      420,
      420,
      420,
      425,
      427,
      427,
      427,
      427,
      428,
      428,
      429,
      429,
      430,
      431,
      431,
      432,
      432,
      433,
      432,
      432,
      431,
      431,
      429,
      428,
      428,
      428,
      428,
      428,
      427,
      426,
      425,
      425,
      427,
      415,
      397,
      392,
      379,
      374,
      360,
      349,
      342,
      334,
      333,
      354,
      338,
      281,
      274,
      269,
      266,
      255,
      254,
      253,
      245,
      207,
      201,
      198,
      192,
      153,
      126
    ],
    "swim:timestamps": [
      1790255600,
      1790255649,
      1790255661,
      1790255709,
      1790255721,
      1790255769,
      1790255829,
      1790255890,
      1790255950,
      1790256010,
      1790256070,
      1790256130,
      1790256190,
      1790256249,
      1790256309,
      1790256369,
      1790256429,
      1790256489,
      1790256550,
      1790256609,
      1790256669,
      1790256729,
      1790256789,
      1790256850,
      1790256910,
      1790256970,
      1790257030,
      1790257091,
      1790257150,
      1790257211,
      1790257270,
      1790257330,
      1790257392,
      1790257452,
      1790257510,
      1790257572,
      1790257631,
      1790257692,
      1790257752,
      1790257811,
      1790257871,
      1790257931,
      1790257991,
      1790258051,
      1790258111,
      1790258171,
      1790258231,
      1790258291,
      1790258352,
      1790258412,
      1790258472,
      1790258532,
      1790258592,
      1790258652,
      1790258712,
      1790258772,
      1790258832,
      1790258892,
      1790258952,
      1790259012,
      1790259073,
      1790259133,
      1790259193,
      1790259253,
      1790259313,
      1790259373,
      1790259433,
      1790259493,
      1790259553,
      1790259613,
      1790259673,
      1790259733,
      1790259794,
      1790259854,
      1790259914,
      1790259974,
      1790259989,
      1790260034,
      1790260049,
      1790260094,
      1790260109,
      1790260154,
      1790260169,
      1790260214,
      1790260229,
      1790260274,
      1790260289,
      1790260334,
      1790260349,
      1790260394,
      1790260409,
      1790260454,
      1790260470,
      1790260515,
      1790260530,
      1790260575,
      1790260590,
      1790260635,
      1790260650,
      1790260695,
      1790260710,
      1790260755,
      1790260770,
      1790260815,
      1790260830,
      1790260875,
      1790260890,
      1790260935,
      1790260950,
      1790260995,
      1790261010,
      1790261055,
      1790261070,
      1790261115,
      1790261130,
      1790261175,
      1790261191,
      1790261235,
      1790261251,
      1790261296,
      1790261311,
      1790261356,
      1790261371,
      1790261431,
      1790261491,
      1790261551,
      1790261611,
      1790261671,
      1790261731,
      1790261791,
      1790261851,
      1790261912,
      1790261972,
      1790262032,
      1790262092,
      1790262152,
      1790262162,
      1790262222,
      1790262272,
      1790262332,
      1790262396,
      1790262452,
      1790262462,
      1790262512,
      1790262572,
      1790262633,
      1790262693,
      1790262753,
      1790262813,
      1790262873,
      1790262933,
      1790262993,
      1790263053,
      1790263116,
      1790263176,
      1790263233,
      1790263242,
      1790263294,
      1790263354,
      1790263414
    ],
    "wof:geomhash": "057d4da01fabccd3a105633b8349fe6e",
    "wof:id": 2048420459,
    "wof:repo": "sfomuseum-data-flights-2026-09"
  },
  "bbox": [
    -122.36361111111111,
    37.490833333333335,
    -104.81666666666666,
    39.858333333333334
  ],
  "geometry": {"type":"LineString","coordinates":[[-104.81666666666666,39.85],[-104.90361111111112,39.84277777777778],[-104.91666666666667,39.85],[-105.01444444444445,39.84527777777778],[-105.03333333333333,39.85],[-105.13,39.848333333333336],[-105.24777777777778,39.850833333333334],[-105.36749999999999,39.85333333333333],[-105.4786111111111,39.85583333333334],[-105.61055555555555,39.85805555555556],[-105.74555555555555,39.858333333333334],[-105.88222222222221,39.84638888888889],[-106.01916666666666,39.83444444444444],[-106.1675,39.82],[-106.30972222222222,39.8075],[-106.45194444444445,39.79472222222222],[-106.5925,39.782777777777774],[-106.73194444444445,39.76638888888889],[-106.85888888888888,39.75277777777778],[-107.01027777777777,39.73555555555556],[-107.15,39.72],[-107.28972222222222,39.70416666666667],[-107.42944444444444,39.687777777777775],[-107.5675,39.67194444444444],[-107.70472222222223,39.655],[-107.8425,39.63861111111111],[-107.98138888888889,39.623333333333335],[-108.11972222222222,39.60638888888889],[-108.25444444444445,39.58972222222222],[-108.3938888888889,39.572500000000005],[-108.52722222222222,39.55611111111111],[-108.6675,39.538333333333334],[-108.80749999999999,39.52055555555555],[-108.94888888888889,39.50222222222222],[-109.08805555555556,39.48416666666667],[-109.22527777777778,39.46611111111111],[-109.36416666666666,39.44777777777777],[-109.50305555555556,39.42916666666667],[-109.64333333333335,39.41027777777778],[-109.78444444444445,39.39083333333333],[-109.9263888888889,39.37138888888889],[-110.06805555555555,39.352222222222224],[-110.21111111111111,39.333333333333336],[-110.35249999999999,39.31388888888888],[-110.495,39.294444444444444],[-110.63666666666667,39.27472222222222],[-110.78166666666667,39.254444444444445],[-110.92361111111111,39.23444444444444],[-111.0675,39.21388888888889],[-111.21027777777778,39.19333333333333],[-111.33472222222221,39.175555555555555],[-111.47916666666667,39.15472222222222],[-111.62638888888888,39.132777777777775],[-111.77388888888889,39.11083333333333],[-111.92027777777778,39.08916666666667],[-112.06722222222221,39.06666666666667],[-112.24388888888889,39.03972222222222],[-112.39083333333333,39.01722222222222],[-112.53583333333333,38.99444444444445],[-112.68333333333334,38.971111111111114],[-112.82972222222222,38.948055555555555],[-112.9775,38.92444444444444],[-113.125,38.90083333333333],[-113.27277777777778,38.876666666666665],[-113.42194444444445,38.8525],[-113.57,38.82805555555556],[-113.71472222222222,38.80361111111111],[-113.86305555555555,38.77861111111111],[-114.00972222222222,38.75388888888889],[-114.1563888888889,38.728611111111114],[-114.30194444444444,38.703611111111115],[-114.45,38.67833333333333],[-114.59722222222221,38.652499999999996],[-114.74388888888889,38.62638888888889],[-114.89166666666668,38.60027777777778],[-115.04277777777777,38.57333333333334],[-115.0736111111111,38.56805555555556],[-115.19055555555556,38.546388888888885],[-115.21027777777778,38.54277777777778],[-115.3386111111111,38.51972222222222],[-115.35944444444443,38.51555555555556],[-115.47666666666667,38.49444444444445],[-115.50694444444444,38.489444444444445],[-115.62277777777777,38.467222222222226],[-115.65527777777778,38.461666666666666],[-115.76972222222223,38.44],[-115.80166666666666,38.434999999999995],[-115.91611111111112,38.4125],[-115.94777777777779,38.406388888888884],[-116.06305555555555,38.38472222222222],[-116.09277777777777,38.37916666666667],[-116.20805555555556,38.35722222222223],[-116.23916666666666,38.35111111111111],[-116.35527777777777,38.32888888888889],[-116.38555555555556,38.32277777777778],[-116.50027777777778,38.29611111111111],[-116.53111111111112,38.288888888888884],[-116.64305555555556,38.263333333333335],[-116.67277777777778,38.25666666666667],[-116.78527777777778,38.23111111111111],[-116.7875,38.230555555555554],[-116.92722222222223,38.198611111111106],[-116.95833333333334,38.19166666666666],[-117.07027777777778,38.16583333333333],[-117.10027777777778,38.15888888888889],[-117.22027777777778,38.13111111111111],[-117.24722222222222,38.124722222222225],[-117.37222222222222,38.09583333333334],[-117.40472222222223,38.08833333333334],[-117.51805555555555,38.06222222222222],[-117.55027777777778,38.05472222222222],[-117.66444444444446,38.02777777777778],[-117.69500000000001,38.020833333333336],[-117.81083333333333,37.998333333333335],[-117.84527777777777,37.995],[-117.96527777777779,37.98277777777778],[-117.99694444444445,37.97944444444445],[-118.11583333333333,37.96666666666667],[-118.14777777777779,37.96333333333334],[-118.2675,37.95027777777778],[-118.29833333333333,37.94694444444444],[-118.41444444444446,37.93472222222222],[-118.44638888888889,37.93111111111111],[-118.59638888888888,37.91444444444444],[-118.74555555555555,37.897777777777776],[-118.8938888888889,37.880833333333335],[-119.05027777777778,37.863055555555555],[-119.19916666666667,37.84583333333334],[-119.34777777777778,37.82833333333333],[-119.49416666666667,37.81111111111111],[-119.64305555555556,37.79333333333333],[-119.78888888888889,37.775555555555556],[-119.93777777777778,37.7575],[-120.08694444444444,37.73888888888889],[-120.23138888888889,37.72083333333334],[-120.37083333333332,37.70333333333333],[-120.38333333333334,37.7],[-120.51666666666667,37.68333333333333],[-120.63361111111112,37.67222222222222],[-120.75944444444444,37.657222222222224],[-120.88333333333334,37.65],[-120.97583333333334,37.63111111111111],[-121.01666666666667,37.63333333333333],[-121.09027777777777,37.615833333333335],[-121.23138888888889,37.59638888888889],[-121.35194444444444,37.581944444444446],[-121.45111111111112,37.57083333333334],[-121.5461111111111,37.55972222222222],[-121.63805555555557,37.547777777777775],[-121.72611111111111,37.52611111111111],[-121.81138888888889,37.505833333333335],[-121.89777777777779,37.490833333333335],[-121.985,37.49388888888889],[-122.08333333333333,37.516666666666666],[-122.15,37.55],[-122.20611111111111,37.565],[-122.21666666666667,37.56666666666667],[-122.27027777777778,37.586111111111116],[-122.3236111111111,37.600833333333334],[-122.36361111111111,37.61611111111111]]}
}
