{
  "id": 2048440027,
  "type": "Feature",
  "properties": {
    "geom:area": 0,
    "geom:bbox": "-126.205556,34.836111,-122.116667,37.606667",
    "geom:latitude": 36.38153121087632,
    "geom:longitude": -124.14230403676865,
    "src:alt_label": "swim-path",
    "src:geom": "swim",
    "swim:altitudes": [
      "390C",
      "390C",
      "390C",
      "390C",
      "390C",
      "390C",
      "389C",
      "390C",
      "390",
      "378",
      "368",
      "353",
      "339",
      "314",
      "286",
      "267",
      "248",
      "230",
      "216C",
      "195C",
      "177",
      "159",
      "142",
      "126",
      "118",
      "111",
      "108",
      "106",
      "103",
      "101C",
      "100",
      "100C",
      "096",
      "093",
      "086",
      "080",
      "080",
      "080",
      "080",
      "080",
      "078",
      "071",
      "067",
      "057",
      "054",
      "046",
      "038",
      "033",
      "023",
      "021",
      "013",
      "004",
      "004"
    ],
    "swim:geom": "path",
    "swim:speeds": [
      542,
      541,
      541,
      543,
      544,
      546,
      548,
      550,
      552,
      551,
      550,
      549,
      554,
      555,
      557,
      545,
      533,
      513,
      490,
      470,
      445,
      436,
      419,
      402,
      389,
      379,
      354,
      356,
      359,
      357,
      334,
      334,
      299,
      302,
      297,
      288,
      292,
      290,
      291,
      269,
      272,
      263,
      263,
      248,
      250,
      232,
      206,
      189,
      180,
      180,
      157,
      145,
      149
    ],
    "swim:timestamps": [
      1790519102,
      1790519162,
      1790519222,
      1790519282,
      1790519342,
      1790519402,
      1790519462,
      1790519522,
      1790519582,
      1790519642,
      1790519702,
      1790519762,
      1790519822,
      1790519882,
      1790519942,
      1790520002,
      1790520062,
      1790520123,
      1790520186,
      1790520246,
      1790520303,
      1790520363,
      1790520423,
      1790520483,
      1790520509,
      1790520543,
      1790520581,
      1790520603,
      1790520641,
      1790520663,
      1790520707,
      1790520723,
      1790520767,
      1790520783,
      1790520815,
      1790520887,
      1790520903,
      1790520941,
      1790520963,
      1790521001,
      1790521023,
      1790521061,
      1790521084,
      1790521127,
      1790521144,
      1790521187,
      1790521236,
      1790521264,
      1790521308,
      1790521324,
      1790521367,
      1790521433,
      1790521444
    ],
    "wof:geomhash": "83819fdfe5804b76c1035b2132f5c00f",
    "wof:id": 2048440027,
    "wof:repo": "sfomuseum-data-flights-2026-09"
  },
  "bbox": [
    -126.20555555555556,
    34.836111111111116,
    -122.11666666666666,
    37.60666666666667
  ],
  "geometry": {"type":"LineString","coordinates":[[-126.20555555555556,34.836111111111116],[-126.10277777777777,34.93388888888889],[-125.98388888888888,35.04666666666667],[-125.8625,35.16111111111111],[-125.74027777777778,35.27611111111111],[-125.61888888888888,35.38972222222222],[-125.49555555555555,35.50472222222222],[-125.37194444444444,35.61972222222222],[-125.24527777777777,35.73583333333333],[-125.07444444444444,35.85666666666667],[-124.92777777777778,35.9525],[-124.78333333333333,36.04722222222222],[-124.63305555555554,36.14416666666666],[-124.48361111111112,36.24055555555556],[-124.33444444444444,36.336111111111116],[-124.185,36.43111111111111],[-124.04138888888889,36.5225],[-123.90222222222222,36.61083333333333],[-123.76666666666667,36.68333333333333],[-123.63333333333334,36.766666666666666],[-123.52194444444444,36.85],[-123.40305555555557,36.92444444444444],[-123.28916666666666,36.995],[-123.17861111111111,37.06361111111111],[-123.13333333333334,37.1],[-123.07166666666666,37.129444444444445],[-123,37.166666666666664],[-122.97500000000001,37.189166666666665],[-122.91666666666667,37.233333333333334],[-122.875,37.25],[-122.78333333333333,37.266666666666666],[-122.76361111111112,37.280833333333334],[-122.68333333333334,37.3],[-122.66250000000001,37.30472222222222],[-122.6,37.31666666666667],[-122.48333333333333,37.35],[-122.4675,37.349722222222226],[-122.4,37.36666666666667],[-122.36972222222222,37.37222222222222],[-122.3,37.38333333333333],[-122.27916666666667,37.393055555555556],[-122.21666666666667,37.4],[-122.19,37.413333333333334],[-122.13333333333334,37.45],[-122.12583333333333,37.455555555555556],[-122.11666666666666,37.5],[-122.16666666666667,37.53333333333333],[-122.18861111111111,37.5425],[-122.23333333333333,37.56666666666667],[-122.24472222222222,37.566111111111105],[-122.28333333333333,37.583333333333336],[-122.33333333333333,37.6],[-122.34083333333332,37.60666666666667]]}
}
