{
  "id": 2048450743,
  "type": "Feature",
  "properties": {
    "geom:area": 0,
    "geom:bbox": "-122.539444,33.950000,-118.216667,37.667778",
    "geom:latitude": 35.74201307920599,
    "geom:longitude": -120.36062660218458,
    "src:alt_label": "swim-path",
    "src:geom": "swim",
    "swim:altitudes": [
      "007",
      "016",
      "028",
      "044",
      "054",
      "072",
      "084",
      "104",
      "113",
      "124",
      "132",
      "146",
      "169",
      "194",
      "217",
      "233",
      "251",
      "267",
      "281",
      "296",
      "313",
      "324",
      "330C",
      "330C",
      "330C",
      "330C",
      "330C",
      "330C",
      "330C",
      "330C",
      "330C",
      "330C",
      "330",
      "330",
      "330",
      "330",
      "330",
      "330",
      "316",
      "300",
      "279",
      "253",
      "238",
      "215",
      "198",
      "180",
      "174",
      "161",
      "156",
      "143",
      "138",
      "128",
      "127",
      "120",
      "115",
      "106",
      "101",
      "095",
      "090",
      "080",
      "076",
      "074",
      "065",
      "052",
      "039",
      "035",
      "028",
      "025",
      "018",
      "015",
      "009",
      "006",
      "001"
    ],
    "swim:geom": "path",
    "swim:speeds": [
      176,
      184,
      234,
      237,
      263,
      279,
      291,
      288,
      308,
      329,
      356,
      356,
      378,
      385,
      391,
      400,
      423,
      430,
      437,
      443,
      443,
      443,
      445,
      453,
      451,
      454,
      453,
      451,
      450,
      448,
      438,
      428,
      427,
      426,
      427,
      426,
      428,
      431,
      432,
      430,
      421,
      411,
      400,
      389,
      380,
      371,
      363,
      360,
      352,
      351,
      344,
      338,
      319,
      308,
      301,
      301,
      294,
      288,
      292,
      280,
      267,
      254,
      252,
      239,
      226,
      208,
      210,
      203,
      195,
      178,
      162,
      156,
      157
    ],
    "swim:timestamps": [
      1790530277,
      1790530313,
      1790530338,
      1790530373,
      1790530393,
      1790530433,
      1790530453,
      1790530493,
      1790530512,
      1790530553,
      1790530573,
      1790530611,
      1790530673,
      1790530731,
      1790530791,
      1790530851,
      1790530913,
      1790530971,
      1790531034,
      1790531094,
      1790531154,
      1790531212,
      1790531274,
      1790531332,
      1790531394,
      1790531452,
      1790531512,
      1790531573,
      1790531633,
      1790531693,
      1790531755,
      1790531813,
      1790531873,
      1790531933,
      1790531993,
      1790532055,
      1790532114,
      1790532174,
      1790532235,
      1790532291,
      1790532351,
      1790532416,
      1790532471,
      1790532536,
      1790532591,
      1790532651,
      1790532662,
      1790532712,
      1790532722,
      1790532772,
      1790532783,
      1790532832,
      1790532843,
      1790532892,
      1790532903,
      1790532952,
      1790532963,
      1790533012,
      1790533024,
      1790533083,
      1790533132,
      1790533143,
      1790533192,
      1790533252,
      1790533313,
      1790533324,
      1790533373,
      1790533384,
      1790533433,
      1790533444,
      1790533493,
      1790533509,
      1790533553
    ],
    "wof:geomhash": "74ea5b82baf57e1d6c7653e1d69795da",
    "wof:id": 2048450743,
    "wof:repo": "sfomuseum-data-flights-2026-09"
  },
  "bbox": [
    -122.53944444444444,
    33.95,
    -118.21666666666667,
    37.66777777777777
  ],
  "geometry": {"type":"LineString","coordinates":[[-122.4,37.63333333333333],[-122.42083333333333,37.6375],[-122.46666666666667,37.65],[-122.49805555555555,37.66777777777777],[-122.53333333333333,37.666666666666664],[-122.53944444444444,37.61527777777778],[-122.51666666666667,37.583333333333336],[-122.50055555555555,37.54111111111111],[-122.48333333333333,37.516666666666666],[-122.44416666666667,37.468333333333334],[-122.4,37.43333333333333],[-122.35972222222222,37.400555555555556],[-122.25666666666666,37.33027777777778],[-122.16472222222222,37.25472222222222],[-122.06222222222222,37.18111111111111],[-121.95916666666668,37.103611111111114],[-121.84444444444443,37.02361111111111],[-121.73972222222223,36.94194444444444],[-121.62388888888889,36.858333333333334],[-121.51083333333334,36.7725],[-121.39777777777779,36.68694444444444],[-121.29472222222222,36.60444444444445],[-121.17555555555556,36.51833333333333],[-121.06555555555555,36.43388888888889],[-120.94416666666667,36.348888888888894],[-120.82833333333333,36.26888888888889],[-120.71138888888889,36.18694444444444],[-120.59333333333333,36.10388888888889],[-120.4775,36.0225],[-120.36194444444443,35.940555555555555],[-120.25,35.85194444444445],[-120.17361111111111,35.75361111111111],[-120.09722222222221,35.651944444444446],[-120.03555555555555,35.57027777777778],[-119.95833333333334,35.4675],[-119.86416666666666,35.341944444444444],[-119.80222222222221,35.265277777777776],[-119.71277777777777,35.169444444444444],[-119.60333333333332,35.051944444444445],[-119.53472222222221,34.97833333333333],[-119.44944444444445,34.885555555555555],[-119.34555555555555,34.76888888888889],[-119.28583333333333,34.70111111111111],[-119.19361111111111,34.595],[-119.12944444444443,34.521388888888886],[-119.05722222222222,34.44],[-119.03333333333333,34.416666666666664],[-118.98611111111111,34.3575],[-118.96666666666667,34.333333333333336],[-118.91666666666667,34.28055555555555],[-118.9,34.25],[-118.84694444444445,34.20444444444445],[-118.83333333333333,34.18333333333333],[-118.78222222222222,34.13861111111111],[-118.76666666666667,34.11666666666667],[-118.71555555555555,34.077222222222225],[-118.7,34.05],[-118.64083333333333,34.027499999999996],[-118.61666666666666,34.016666666666666],[-118.51666666666667,34.016666666666666],[-118.45416666666667,34.01138888888889],[-118.43333333333334,34.016666666666666],[-118.37083333333332,34.025],[-118.29166666666667,34.03388888888889],[-118.2213888888889,34.02111111111111],[-118.21666666666667,34],[-118.23833333333333,33.970555555555556],[-118.25,33.96666666666667],[-118.30416666666666,33.96194444444445],[-118.31666666666666,33.96666666666667],[-118.3586111111111,33.95638888888889],[-118.38333333333334,33.95],[-118.41000000000001,33.95111111111111]]}
}
