{
  "id": 2048332055,
  "type": "Feature",
  "properties": {
    "geom:area": 0,
    "geom:bbox": "-122.357220,37.491300,-121.270980,37.613670",
    "geom:latitude": 37.54568407214938,
    "geom:longitude": -121.81892729858652,
    "src:alt_label": "swim-approach",
    "src:geom": "swim",
    "swim:elevations": [
      4808,
      4567,
      4422,
      4341,
      3841,
      3599,
      3402,
      3265,
      3123,
      2928,
      2620,
      2453,
      2350,
      2147,
      2041,
      1920,
      1813,
      1690,
      1196,
      1152,
      952,
      914,
      754,
      572,
      510,
      452,
      284,
      214,
      26
    ],
    "swim:geom": "approach",
    "swim:timestamps": [
      1789383238,
      1789383266,
      1789383292,
      1789383300,
      1789383347,
      1789383375,
      1789383406,
      1789383436,
      1789383464,
      1789383490,
      1789383523,
      1789383564,
      1789383578,
      1789383619,
      1789383637,
      1789383680,
      1789383712,
      1789383740,
      1789383803,
      1789383814,
      1789383861,
      1789383891,
      1789383920,
      1789383951,
      1789383979,
      1789383995,
      1789384036,
      1789384057,
      1789384105
    ],
    "wof:geomhash": "17cdb56fd8a5290c96371c9118c25833",
    "wof:id": 2048332055,
    "wof:repo": "sfomuseum-data-flights-2026-09"
  },
  "bbox": [
    -122.35722,
    37.4913,
    -121.27098,
    37.61367
  ],
  "geometry": {"type":"LineString","coordinates":[[-121.27098,37.59165],[-121.32848,37.5848],[-121.37741,37.57935],[-121.39127,37.57771],[-121.47731,37.56777],[-121.5268,37.56207],[-121.58146,37.55557],[-121.62938,37.54936],[-121.67168,37.53911],[-121.70887,37.53045],[-121.75513,37.51951],[-121.81057,37.50626],[-121.82994,37.50159],[-121.88333,37.4913],[-121.90509,37.49178],[-121.9547,37.49302],[-121.99322,37.49655],[-122.02281,37.50602],[-122.08614,37.52649],[-122.09734,37.53008],[-122.14306,37.54486],[-122.17315,37.55457],[-122.2029,37.5644],[-122.23304,37.57397],[-122.2594,37.58243],[-122.27423,37.58679],[-122.30598,37.59597],[-122.32217,37.60089],[-122.35722,37.61367]]}
}
