{
  "id": 2048443629,
  "type": "Feature",
  "properties": {
    "geom:area": 0,
    "geom:bbox": "-122.394700,37.624470,-121.267420,38.412250",
    "geom:latitude": 38.019477879083915,
    "geom:longitude": -121.84517742726291,
    "src:alt_label": "swim-takeoff",
    "src:geom": "swim",
    "swim:elevations": [
      152,
      338,
      693,
      1009,
      1057,
      1212,
      1248,
      1806,
      2241,
      2551,
      2941,
      3045,
      3266,
      3506,
      3651,
      4529,
      4675,
      4814,
      4894,
      5345,
      5577,
      5819,
      5952,
      6155,
      6510,
      6637,
      6859,
      6993
    ],
    "swim:geom": "takeoff",
    "swim:timestamps": [
      1790411967,
      1790411982,
      1790412014,
      1790412049,
      1790412057,
      1790412087,
      1790412092,
      1790412146,
      1790412176,
      1790412201,
      1790412233,
      1790412243,
      1790412274,
      1790412316,
      1790412338,
      1790412415,
      1790412430,
      1790412445,
      1790412455,
      1790412506,
      1790412530,
      1790412560,
      1790412578,
      1790412604,
      1790412655,
      1790412673,
      1790412705,
      1790412729
    ],
    "wof:geomhash": "a791ff98d2f5f1077f4acfddbff37c64",
    "wof:id": 2048443629,
    "wof:repo": "sfomuseum-data-flights-2026-09"
  },
  "bbox": [
    -122.3947,
    37.62447,
    -121.26742,
    38.41225
  ],
  "geometry": {"type":"LineString","coordinates":[[-122.38328,37.62447],[-122.3947,37.63055],[-122.39037,37.65255],[-122.35913,37.6638],[-122.35022,37.66675],[-122.31542,37.67904],[-122.30939,37.6813],[-122.23275,37.71074],[-122.19728,37.73817],[-122.17252,37.76656],[-122.13889,37.80191],[-122.12829,37.81347],[-122.09439,37.84991],[-122.03697,37.90089],[-121.9999,37.92618],[-121.86731,38.01636],[-121.84077,38.03391],[-121.814,38.05204],[-121.79731,38.0633],[-121.70449,38.12611],[-121.6611,38.15499],[-121.60457,38.19279],[-121.57047,38.21562],[-121.51932,38.2498],[-121.41964,38.31633],[-121.3836,38.34034],[-121.31772,38.38142],[-121.26742,38.41225]]}
}
