{
  "id": 2048360617,
  "type": "Feature",
  "properties": {
    "geom:area": 0,
    "geom:bbox": "-122.361380,36.722950,-121.879060,37.614120",
    "geom:latitude": 37.21299002000485,
    "geom:longitude": -122.07093023091453,
    "src:alt_label": "swim-approach",
    "src:geom": "swim",
    "swim:elevations": [
      5757,
      5379,
      5007,
      4843,
      4552,
      4225,
      3997,
      3781,
      3506,
      3269,
      3092,
      3046,
      2981,
      2803,
      2649,
      2402,
      2269,
      1985,
      1906,
      1552,
      1465,
      1253,
      1059,
      865,
      740,
      626,
      522,
      424,
      296,
      196,
      93,
      123
    ],
    "swim:geom": "approach",
    "swim:timestamps": [
      1789680553,
      1789680597,
      1789680626,
      1789680641,
      1789680669,
      1789680701,
      1789680722,
      1789680743,
      1789680770,
      1789680794,
      1789680837,
      1789680855,
      1789680884,
      1789680909,
      1789680932,
      1789680977,
      1789680997,
      1789681041,
      1789681050,
      1789681103,
      1789681119,
      1789681157,
      1789681192,
      1789681228,
      1789681249,
      1789681279,
      1789681303,
      1789681332,
      1789681373,
      1789681400,
      1789681430,
      1789681462
    ],
    "wof:geomhash": "848712fc4bf37c4e9a0c4ceb0b843afe",
    "wof:id": 2048360617,
    "wof:repo": "sfomuseum-data-flights-2026-09"
  },
  "bbox": [
    -122.36138,
    36.72295,
    -121.87906,
    37.61412
  ],
  "geometry": {"type":"LineString","coordinates":[[-121.87906,36.72295],[-121.90815,36.7922],[-121.92186,36.84031],[-121.92859,36.86421],[-121.94067,36.9076],[-121.95529,36.95813],[-121.96741,36.98915],[-121.9792,37.01973],[-121.9945,37.05847],[-122.00765,37.092],[-122.03019,37.14928],[-122.03858,37.17037],[-122.05073,37.2027],[-122.06164,37.22969],[-122.07155,37.25474],[-122.09006,37.30188],[-122.09824,37.32183],[-122.11448,37.36454],[-122.1176,37.37319],[-122.13571,37.42559],[-122.14155,37.4418],[-122.15482,37.48012],[-122.16623,37.51354],[-122.18908,37.54107],[-122.2105,37.54962],[-122.23746,37.56085],[-122.25628,37.5688],[-122.27672,37.57741],[-122.30299,37.58847],[-122.32094,37.59584],[-122.34067,37.6043],[-122.36138,37.61412]]}
}
