{
  "id": 2048322353,
  "type": "Feature",
  "properties": {
    "geom:area": 0,
    "geom:bbox": "-123.468550,37.633100,-122.407780,37.730380",
    "geom:latitude": 37.69826138296282,
    "geom:longitude": -122.93448814750664,
    "src:alt_label": "swim-takeoff",
    "src:geom": "swim",
    "swim:elevations": [
      402,
      643,
      760,
      857,
      1024,
      1368,
      1582,
      1961,
      2484,
      2583,
      3137,
      3288,
      3358,
      3645,
      4000,
      4239,
      4437,
      4698,
      5105,
      5362,
      5514,
      5844
    ],
    "swim:geom": "takeoff",
    "swim:timestamps": [
      1789223758,
      1789223782,
      1789223807,
      1789223820,
      1789223844,
      1789223874,
      1789223890,
      1789223921,
      1789223964,
      1789223976,
      1789224018,
      1789224047,
      1789224063,
      1789224108,
      1789224148,
      1789224170,
      1789224189,
      1789224213,
      1789224261,
      1789224291,
      1789224309,
      1789224348
    ],
    "wof:geomhash": "f4f53ee1cbb525fbf97d218f785769d8",
    "wof:id": 2048322353,
    "wof:repo": "sfomuseum-data-flights-2026-09"
  },
  "bbox": [
    -123.46855,
    37.6331,
    -122.40778,
    37.73038
  ],
  "geometry": {"type":"LineString","coordinates":[[-122.40778,37.6331],[-122.42925,37.6424],[-122.45552,37.65363],[-122.47053,37.66023],[-122.50193,37.67293],[-122.5463,37.67773],[-122.571,37.6791],[-122.62027,37.68195],[-122.68954,37.68611],[-122.70971,37.68724],[-122.77928,37.69096],[-122.82943,37.69414],[-122.85743,37.69608],[-122.94661,37.70104],[-123.02881,37.7057],[-123.07641,37.70852],[-123.11653,37.71091],[-123.16837,37.71363],[-123.27296,37.7196],[-123.33958,37.72333],[-123.37988,37.72563],[-123.46855,37.73038]]}
}
