{
  "id": 2048382985,
  "type": "Feature",
  "properties": {
    "geom:area": 0,
    "geom:bbox": "-123.470090,37.629950,-122.401880,37.730930",
    "geom:latitude": 37.698096330750275,
    "geom:longitude": -122.93194668566846,
    "src:alt_label": "swim-takeoff",
    "src:geom": "swim",
    "swim:elevations": [
      236,
      626,
      791,
      1041,
      1096,
      1414,
      1599,
      1700,
      2228,
      2711,
      2909,
      3210,
      3447,
      3494,
      3668,
      3798,
      4210,
      4613,
      4821,
      4989,
      5287
    ],
    "swim:geom": "takeoff",
    "swim:timestamps": [
      1789861917,
      1789861944,
      1789861970,
      1789861994,
      1789862015,
      1789862068,
      1789862089,
      1789862100,
      1789862148,
      1789862184,
      1789862205,
      1789862237,
      1789862277,
      1789862292,
      1789862328,
      1789862344,
      1789862390,
      1789862425,
      1789862456,
      1789862474,
      1789862497
    ],
    "wof:geomhash": "dc148c556fefb749a46201c5feec2ae1",
    "wof:id": 2048382985,
    "wof:repo": "sfomuseum-data-flights-2026-09"
  },
  "bbox": [
    -123.47009,
    37.62995,
    -122.40188,
    37.73093
  ],
  "geometry": {"type":"LineString","coordinates":[[-122.40188,37.62995],[-122.42853,37.64153],[-122.45457,37.6529],[-122.47942,37.66408],[-122.50317,37.67367],[-122.58059,37.67908],[-122.61483,37.68153],[-122.63316,37.68278],[-122.71789,37.68781],[-122.78197,37.69169],[-122.81933,37.69395],[-122.8782,37.69739],[-122.95683,37.70195],[-122.98794,37.70378],[-123.06789,37.70837],[-123.10217,37.71037],[-123.21054,37.71658],[-123.29478,37.72133],[-123.36872,37.72529],[-123.41323,37.72768],[-123.47009,37.73093]]}
}
