{
  "id": 2048341055,
  "type": "Feature",
  "properties": {
    "geom:area": 0,
    "geom:bbox": "-122.642500,37.527020,-122.083200,38.495520",
    "geom:latitude": 37.8966048258386,
    "geom:longitude": -122.35976422651721,
    "src:alt_label": "swim-approach",
    "src:geom": "swim",
    "swim:elevations": [
      8126,
      7994,
      7907,
      7748,
      7552,
      7229,
      7018,
      6533,
      6301,
      6099,
      5959,
      5829,
      5380,
      5335,
      4820,
      4588,
      4226,
      3947,
      3808,
      3479,
      3353,
      3353,
      3353,
      3353,
      3189,
      2995,
      2749,
      2571,
      2377,
      2187,
      2148,
      1911,
      1673,
      1576,
      1318,
      1218,
      1219,
      1219,
      1078,
      738,
      664,
      552,
      427,
      288,
      160,
      0
    ],
    "swim:geom": "approach",
    "swim:timestamps": [
      1789508543,
      1789508573,
      1789508591,
      1789508624,
      1789508664,
      1789508696,
      1789508715,
      1789508758,
      1789508786,
      1789508815,
      1789508827,
      1789508837,
      1789508878,
      1789508881,
      1789508930,
      1789508951,
      1789508998,
      1789509028,
      1789509043,
      1789509086,
      1789509110,
      1789509144,
      1789509178,
      1789509201,
      1789509235,
      1789509267,
      1789509298,
      1789509326,
      1789509356,
      1789509386,
      1789509392,
      1789509426,
      1789509466,
      1789509484,
      1789509529,
      1789509563,
      1789509582,
      1789509612,
      1789509636,
      1789509685,
      1789509701,
      1789509725,
      1789509757,
      1789509793,
      1789509826,
      1789509862
    ],
    "wof:geomhash": "52dcdd6dc8238ba0dadf6a1f33394980",
    "wof:id": 2048341055,
    "wof:repo": "sfomuseum-data-flights-2026-09"
  },
  "bbox": [
    -122.6425,
    37.52702,
    -122.0832,
    38.49552
  ],
  "geometry": {"type":"LineString","coordinates":[[-122.15127,38.49552],[-122.19032,38.45204],[-122.21385,38.42579],[-122.25709,38.37662],[-122.30911,38.31693],[-122.3489,38.27152],[-122.37236,38.24475],[-122.42482,38.18453],[-122.45793,38.1461],[-122.48992,38.10898],[-122.50309,38.0939],[-122.51495,38.08081],[-122.55976,38.03066],[-122.56357,38.02622],[-122.6144,37.96736],[-122.63658,37.94162],[-122.6425,37.87518],[-122.61037,37.83987],[-122.59282,37.82307],[-122.54132,37.77438],[-122.5134,37.7483],[-122.47726,37.71493],[-122.44436,37.688],[-122.41518,37.6815],[-122.37184,37.67538],[-122.33028,37.6698],[-122.28963,37.66424],[-122.25391,37.65725],[-122.21575,37.64972],[-122.1781,37.64218],[-122.17067,37.64074],[-122.12927,37.63271],[-122.0912,37.61251],[-122.08672,37.5946],[-122.0832,37.553],[-122.10225,37.52702],[-122.12109,37.52738],[-122.14529,37.54499],[-122.16731,37.55339],[-122.21773,37.56921],[-122.23261,37.57397],[-122.253,37.58037],[-122.27883,37.58777],[-122.30626,37.59635],[-122.33132,37.60371],[-122.35857,37.61407]]}
}
