{
  "id": 2048462395,
  "type": "Feature",
  "properties": {
    "geom:area": 0,
    "geom:bbox": "-121.825000,29.992222,-95.357500,38.518889",
    "geom:latitude": 35.937452654556154,
    "geom:longitude": -107.88993473206564,
    "src:alt_label": "swim-path",
    "src:geom": "swim",
    "swim:altitudes": [
      "165",
      "188",
      "205",
      "240",
      "256",
      "270",
      "282",
      "295",
      "308",
      "314",
      "315",
      "320",
      "322",
      "329",
      "331",
      "335",
      "336",
      "343",
      "346",
      "350C",
      "350C",
      "350C",
      "350C",
      "350C",
      "350C",
      "350C",
      "350C",
      "350C",
      "350C",
      "350C",
      "350C",
      "350C",
      "350C",
      "350C",
      "350C",
      "350C",
      "350C",
      "350C",
      "350C",
      "350C",
      "350C",
      "350C",
      "350C",
      "350C",
      "350C",
      "350C",
      "350C",
      "350C",
      "350C",
      "350C",
      "350C",
      "350C",
      "350C",
      "350C",
      "350C",
      "350C",
      "350C",
      "350C",
      "350C",
      "350C",
      "350C",
      "350C",
      "350C",
      "350C",
      "350C",
      "350C",
      "350C",
      "350C",
      "350C",
      "350C",
      "350C",
      "350C",
      "350C",
      "350C",
      "350C",
      "350C",
      "350C",
      "350C",
      "350C",
      "350C",
      "350C",
      "350C",
      "350C",
      "350C",
      "351C",
      "350C",
      "350C",
      "350C",
      "350C",
      "350C",
      "350C",
      "350C",
      "350C",
      "350C",
      "350C",
      "350C",
      "350C",
      "350",
      "350",
      "355",
      "361",
      "362",
      "363",
      "359",
      "354",
      "350C",
      "350C",
      "350C",
      "350C",
      "350C",
      "350C",
      "350C",
      "350C",
      "350C",
      "350C",
      "350C",
      "350C",
      "350C",
      "350C",
      "350C",
      "350C",
      "350C",
      "350C",
      "350C",
      "350C",
      "350C",
      "350C",
      "350C",
      "350C",
      "350C",
      "350C",
      "350C",
      "350C",
      "350C",
      "350C",
      "350C",
      "350C",
      "350C",
      "350C",
      "350C",
      "350C",
      "350C",
      "350C",
      "350C",
      "350C",
      "350C",
      "350C",
      "350C",
      "350C",
      "350C",
      "350C",
      "350",
      "350",
      "350",
      "350",
      "350",
      "350",
      "352",
      "355",
      "359",
      "359",
      "360",
      "363",
      "365",
      "367",
      "368C",
      "370C",
      "370C",
      "370C",
      "370C",
      "370C",
      "370C",
      "370C",
      "370C",
      "370C",
      "370C",
      "370C",
      "370C",
      "370C",
      "370C",
      "370C",
      "370C",
      "370C",
      "370C",
      "370C",
      "370C",
      "370C",
      "370C",
      "370C",
      "370C",
      "370C",
      "370C",
      "370C",
      "370C",
      "370C",
      "370C",
      "370C",
      "370C",
      "370C",
      "370C",
      "370C",
      "370C",
      "370C",
      "370C",
      "370C",
      "370C",
      "370C",
      "370C",
      "370C",
      "370C",
      "370C",
      "370C",
      "370C",
      "370C",
      "370C",
      "370C",
      "370C",
      "370C",
      "370C",
      "370C",
      "370C",
      "370C",
      "370C",
      "370C",
      "370C",
      "370C",
      "370C",
      "370C",
      "370C",
      "370C",
      "370C",
      "370",
      "370",
      "359",
      "349",
      "334",
      "327",
      "319",
      "314",
      "302",
      "294",
      "281",
      "272",
      "259",
      "251",
      "238",
      "230",
      "218",
      "210",
      "203",
      "197",
      "189",
      "180",
      "178",
      "170",
      "162",
      "159",
      "152",
      "146",
      "143",
      "139",
      "125",
      "120",
      "113",
      "104",
      "103",
      "101",
      "096",
      "093",
      "089C",
      "081",
      "080",
      "077",
      "068",
      "067",
      "061",
      "058",
      "051",
      "050",
      "050",
      "050",
      "050",
      "050",
      "042",
      "038",
      "031",
      "031",
      "030",
      "027",
      "021",
      "013",
      "010",
      "002"
    ],
    "swim:geom": "path",
    "swim:speeds": [
      344,
      350,
      367,
      386,
      387,
      390,
      398,
      400,
      401,
      400,
      404,
      409,
      416,
      421,
      421,
      422,
      429,
      433,
      434,
      434,
      432,
      431,
      432,
      432,
      433,
      434,
      436,
      440,
      443,
      446,
      445,
      451,
      456,
      459,
      461,
      465,
      462,
      464,
      463,
      464,
      464,
      465,
      464,
      465,
      464,
      464,
      464,
      465,
      465,
      467,
      467,
      468,
      468,
      469,
      470,
      470,
      472,
      472,
      473,
      472,
      472,
      472,
      471,
      472,
      472,
      472,
      473,
      474,
      475,
      475,
      475,
      479,
      482,
      484,
      479,
      478,
      478,
      479,
      481,
      482,
      483,
      485,
      484,
      486,
      485,
      486,
      485,
      485,
      485,
      485,
      485,
      486,
      487,
      488,
      489,
      490,
      492,
      492,
      493,
      493,
      484,
      484,
      488,
      491,
      488,
      487,
      488,
      488,
      489,
      490,
      490,
      491,
      491,
      491,
      491,
      491,
      490,
      490,
      490,
      490,
      490,
      489,
      488,
      487,
      486,
      486,
      485,
      486,
      486,
      486,
      485,
      484,
      484,
      484,
      482,
      482,
      480,
      480,
      477,
      475,
      473,
      473,
      471,
      471,
      469,
      468,
      467,
      467,
      467,
      467,
      467,
      468,
      468,
      468,
      468,
      469,
      469,
      473,
      475,
      477,
      484,
      490,
      491,
      495,
      500,
      503,
      508,
      509,
      509,
      509,
      508,
      509,
      510,
      509,
      508,
      507,
      506,
      505,
      506,
      508,
      509,
      512,
      515,
      518,
      521,
      522,
      522,
      522,
      521,
      521,
      521,
      521,
      522,
      523,
      524,
      525,
      527,
      528,
      528,
      529,
      528,
      526,
      525,
      523,
      522,
      522,
      520,
      518,
      517,
      517,
      518,
      518,
      519,
      520,
      521,
      522,
      531,
      523,
      525,
      524,
      525,
      525,
      526,
      526,
      524,
      527,
      525,
      527,
      526,
      527,
      527,
      528,
      528,
      529,
      528,
      528,
      528,
      504,
      491,
      473,
      464,
      453,
      450,
      442,
      439,
      430,
      424,
      416,
      411,
      403,
      403,
      401,
      392,
      392,
      387,
      378,
      380,
      372,
      356,
      357,
      352,
      341,
      346,
      345,
      336,
      336,
      319,
      298,
      302,
      300,
      291,
      293,
      287,
      276,
      278,
      271,
      269,
      261,
      265,
      257,
      260,
      242,
      228,
      220,
      221,
      216,
      218,
      186,
      182,
      172,
      151,
      155,
      153
    ],
    "swim:timestamps": [
      1790644187,
      1790644247,
      1790644307,
      1790644427,
      1790644487,
      1790644547,
      1790644607,
      1790644668,
      1790644728,
      1790644776,
      1790644788,
      1790644836,
      1790644848,
      1790644896,
      1790644908,
      1790644956,
      1790644968,
      1790645016,
      1790645028,
      1790645076,
      1790645088,
      1790645136,
      1790645148,
      1790645196,
      1790645208,
      1790645256,
      1790645268,
      1790645316,
      1790645328,
      1790645376,
      1790645388,
      1790645437,
      1790645448,
      1790645497,
      1790645509,
      1790645557,
      1790645569,
      1790645617,
      1790645629,
      1790645677,
      1790645689,
      1790645737,
      1790645749,
      1790645797,
      1790645809,
      1790645857,
      1790645869,
      1790645917,
      1790645929,
      1790645977,
      1790645989,
      1790646037,
      1790646049,
      1790646109,
      1790646157,
      1790646169,
      1790646218,
      1790646229,
      1790646278,
      1790646289,
      1790646338,
      1790646350,
      1790646410,
      1790646458,
      1790646518,
      1790646578,
      1790646638,
      1790646698,
      1790646758,
      1790646818,
      1790646878,
      1790646939,
      1790646999,
      1790647059,
      1790647119,
      1790647179,
      1790647239,
      1790647299,
      1790647359,
      1790647419,
      1790647479,
      1790647539,
      1790647578,
      1790647599,
      1790647638,
      1790647660,
      1790647698,
      1790647720,
      1790647758,
      1790647780,
      1790647818,
      1790647840,
      1790647878,
      1790647900,
      1790647938,
      1790647960,
      1790647998,
      1790648020,
      1790648058,
      1790648080,
      1790648118,
      1790648140,
      1790648178,
      1790648200,
      1790648238,
      1790648260,
      1790648299,
      1790648320,
      1790648359,
      1790648381,
      1790648419,
      1790648441,
      1790648479,
      1790648501,
      1790648539,
      1790648561,
      1790648599,
      1790648621,
      1790648659,
      1790648681,
      1790648719,
      1790648741,
      1790648779,
      1790648801,
      1790648839,
      1790648899,
      1790648959,
      1790649020,
      1790649080,
      1790649140,
      1790649200,
      1790649228,
      1790649260,
      1790649288,
      1790649320,
      1790649348,
      1790649380,
      1790649408,
      1790649440,
      1790649468,
      1790649500,
      1790649528,
      1790649560,
      1790649588,
      1790649620,
      1790649648,
      1790649680,
      1790649708,
      1790649741,
      1790649768,
      1790649801,
      1790649829,
      1790649861,
      1790649889,
      1790649921,
      1790649949,
      1790649981,
      1790650009,
      1790650041,
      1790650069,
      1790650101,
      1790650129,
      1790650161,
      1790650189,
      1790650221,
      1790650249,
      1790650309,
      1790650369,
      1790650429,
      1790650490,
      1790650550,
      1790650610,
      1790650670,
      1790650730,
      1790650790,
      1790650850,
      1790650910,
      1790650970,
      1790651030,
      1790651090,
      1790651151,
      1790651212,
      1790651272,
      1790651332,
      1790651512,
      1790651573,
      1790651633,
      1790651693,
      1790651753,
      1790651813,
      1790651873,
      1790651933,
      1790651993,
      1790652053,
      1790652113,
      1790652173,
      1790652233,
      1790652293,
      1790652354,
      1790652414,
      1790652474,
      1790652534,
      1790652594,
      1790652654,
      1790652714,
      1790652774,
      1790652834,
      1790652894,
      1790652954,
      1790653014,
      1790653074,
      1790653134,
      1790653195,
      1790653255,
      1790653275,
      1790653315,
      1790653335,
      1790653375,
      1790653395,
      1790653435,
      1790653455,
      1790653495,
      1790653515,
      1790653555,
      1790653575,
      1790653615,
      1790653635,
      1790653675,
      1790653695,
      1790653735,
      1790653756,
      1790653795,
      1790653816,
      1790653855,
      1790653876,
      1790653915,
      1790653936,
      1790653975,
      1790653996,
      1790654035,
      1790654056,
      1790654095,
      1790654117,
      1790654156,
      1790654177,
      1790654216,
      1790654237,
      1790654276,
      1790654297,
      1790654315,
      1790654336,
      1790654357,
      1790654381,
      1790654396,
      1790654417,
      1790654441,
      1790654456,
      1790654477,
      1790654498,
      1790654516,
      1790654538,
      1790654559,
      1790654576,
      1790654598,
      1790654619,
      1790654636,
      1790654658,
      1790654679,
      1790654696,
      1790654718,
      1790654739,
      1790654756,
      1790654778,
      1790654811,
      1790654838,
      1790654876,
      1790654898,
      1790654925,
      1790654958,
      1790654985,
      1790655018,
      1790655045,
      1790655078,
      1790655105,
      1790655136,
      1790655166,
      1790655196,
      1790655226,
      1790655256,
      1790655287,
      1790655347,
      1790655377,
      1790655437
    ],
    "wof:geomhash": "73cba8a7e58f7eb74bfbb97027458da7",
    "wof:id": 2048462395,
    "wof:repo": "sfomuseum-data-flights-2026-09"
  },
  "bbox": [
    -121.825,
    29.992222222222225,
    -95.35749999999999,
    38.51888888888889
  ],
  "geometry": {"type":"LineString","coordinates":[[-121.825,37.859722222222224],[-121.7038888888889,37.88194444444444],[-121.565,37.9075],[-121.30111111111111,37.955555555555556],[-121.16916666666667,37.97916666666667],[-121.03527777777778,38.00194444444445],[-120.89861111111112,38.022777777777776],[-120.75972222222222,38.04416666666666],[-120.62194444444444,38.065],[-120.51027777777777,38.081944444444446],[-120.48222222222222,38.08638888888889],[-120.36722222222221,38.10166666666667],[-120.33722222222222,38.10805555555556],[-120.22027777777778,38.124722222222225],[-120.1913888888889,38.12972222222222],[-120.07277777777777,38.14527777777778],[-120.04416666666667,38.15138888888889],[-119.92222222222223,38.16833333333333],[-119.89250000000001,38.17305555555555],[-119.77194444444444,38.1875],[-119.74361111111111,38.19416666666666],[-119.62444444444444,38.21055555555556],[-119.59416666666667,38.215833333333336],[-119.47361111111111,38.23222222222223],[-119.44166666666668,38.23777777777778],[-119.32222222222222,38.25361111111111],[-119.2925,38.25888888888889],[-119.16805555555555,38.275277777777774],[-119.13833333333334,38.280277777777776],[-119.01277777777777,38.29722222222222],[-118.98277777777778,38.30166666666666],[-118.85583333333332,38.31805555555556],[-118.82472222222222,38.323055555555555],[-118.69527777777778,38.33972222222222],[-118.66361111111112,38.344722222222224],[-118.53583333333333,38.361666666666665],[-118.50111111111111,38.36638888888889],[-118.37388888888889,38.38305555555556],[-118.34027777777777,38.3875],[-118.21694444444445,38.40361111111111],[-118.18055555555556,38.40833333333333],[-118.05444444444444,38.42472222222222],[-118.01972222222223,38.42916666666667],[-117.89027777777778,38.445277777777775],[-117.85694444444444,38.44944444444444],[-117.72611111111111,38.46611111111111],[-117.69444444444444,38.47],[-117.56194444444444,38.486666666666665],[-117.52916666666667,38.490833333333335],[-117.39694444444446,38.50694444444444],[-117.36277777777777,38.51111111111111],[-117.23111111111112,38.51888888888889],[-117.19583333333334,38.51777777777777],[-117.02666666666667,38.51277777777778],[-116.89166666666668,38.50888888888889],[-116.85722222222222,38.507777777777775],[-116.72333333333333,38.50277777777778],[-116.68944444444445,38.50138888888889],[-116.55694444444444,38.496944444444445],[-116.52,38.495555555555555],[-116.38861111111112,38.49166666666667],[-116.35277777777777,38.49027777777778],[-116.18583333333333,38.48444444444444],[-116.05388888888889,38.47944444444445],[-115.88527777777779,38.47277777777778],[-115.71972222222223,38.46555555555556],[-115.55027777777778,38.45861111111111],[-115.38138888888888,38.45138888888889],[-115.22611111111111,38.44444444444444],[-115.05722222222222,38.436388888888885],[-114.89111111111112,38.42833333333333],[-114.71888888888888,38.419999999999995],[-114.55,38.41138888888889],[-114.37583333333333,38.40222222222222],[-114.2125,38.37138888888889],[-114.04972222222221,38.333333333333336],[-113.88861111111112,38.29527777777778],[-113.72694444444444,38.25666666666667],[-113.56305555555555,38.217222222222226],[-113.39916666666667,38.17777777777778],[-113.23694444444445,38.13805555555555],[-113.07166666666666,38.09777777777778],[-112.97611111111111,38.07416666666667],[-112.9063888888889,38.05694444444444],[-112.80638888888889,38.03194444444444],[-112.74194444444444,38.01611111111111],[-112.64444444444445,37.99138888888889],[-112.57888888888888,37.975],[-112.48138888888889,37.95055555555556],[-112.41361111111112,37.93333333333333],[-112.31666666666666,37.90888888888889],[-112.25055555555555,37.89222222222222],[-112.15083333333334,37.86694444444444],[-112.085,37.85],[-111.9875,37.82527777777778],[-111.92083333333333,37.81027777777778],[-111.82027777777778,37.7875],[-111.75194444444445,37.77194444444444],[-111.65305555555557,37.74916666666667],[-111.58611111111111,37.73388888888889],[-111.48777777777778,37.71138888888889],[-111.42166666666667,37.69583333333333],[-111.32249999999999,37.672777777777775],[-111.25638888888889,37.6575],[-111.15972222222223,37.635],[-111.09305555555555,37.619166666666665],[-110.99583333333334,37.59638888888889],[-110.92861111111111,37.580555555555556],[-110.83138888888888,37.55777777777777],[-110.76416666666667,37.541666666666664],[-110.66583333333334,37.51833333333333],[-110.59944444444444,37.5025],[-110.5025,37.47916666666667],[-110.43555555555555,37.463055555555556],[-110.33277777777778,37.43805555555555],[-110.27222222222223,37.42361111111111],[-110.16888888888889,37.39861111111111],[-110.10888888888888,37.38388888888889],[-110.00555555555556,37.358333333333334],[-109.94416666666667,37.343333333333334],[-109.8425,37.318333333333335],[-109.78305555555555,37.30361111111111],[-109.68027777777779,37.278055555555554],[-109.6211111111111,37.263333333333335],[-109.51833333333333,37.237500000000004],[-109.35888888888888,37.1975],[-109.19638888888889,37.156388888888884],[-109.03527777777778,37.11555555555556],[-108.87277777777777,37.07416666666667],[-108.71194444444444,37.032777777777774],[-108.55222222222221,36.99111111111111],[-108.49166666666667,36.97527777777778],[-108.39222222222223,36.94916666666666],[-108.32805555555555,36.9325],[-108.23388888888888,36.907777777777774],[-108.16944444444445,36.89083333333333],[-108.07583333333334,36.86611111111111],[-108.01138888888889,36.84916666666667],[-107.9175,36.82416666666667],[-107.85694444444444,36.80777777777777],[-107.76333333333334,36.7825],[-107.70138888888889,36.76583333333333],[-107.61083333333333,36.74166666666667],[-107.54916666666666,36.725],[-107.45694444444445,36.7],[-107.39500000000001,36.683055555555555],[-107.30361111111111,36.65833333333333],[-107.24444444444444,36.64194444444444],[-107.15305555555557,36.61694444444444],[-107.09138888888889,36.60027777777778],[-106.99888888888889,36.57472222222223],[-106.9388888888889,36.558055555555555],[-106.84583333333333,36.532222222222224],[-106.78472222222221,36.515277777777776],[-106.69222222222223,36.489444444444445],[-106.63166666666666,36.47277777777778],[-106.53888888888889,36.446666666666665],[-106.46611111111112,36.42611111111111],[-106.38027777777778,36.401944444444446],[-106.30638888888889,36.38111111111111],[-106.2213888888889,36.35666666666667],[-106.14555555555556,36.3325],[-106.06138888888889,36.299166666666665],[-106.00277777777778,36.27611111111111],[-105.91527777777779,36.24166666666667],[-105.84333333333333,36.213055555555556],[-105.68305555555555,36.15],[-105.53416666666666,36.090833333333336],[-105.36833333333333,36.02444444444444],[-105.21055555555556,35.96138888888889],[-105.05555555555556,35.89861111111111],[-104.89805555555556,35.834722222222226],[-104.74111111111111,35.77111111111111],[-104.58638888888889,35.7075],[-104.43305555555555,35.64472222222222],[-104.27777777777777,35.58027777777778],[-104.15277777777779,35.52861111111111],[-103.99805555555555,35.464444444444446],[-103.8411111111111,35.39861111111111],[-103.685,35.33305555555556],[-103.53194444444445,35.26833333333333],[-103.36944444444444,35.19916666666666],[-103.21277777777777,35.1325],[-103.05638888888889,35.06527777777777],[-102.58999999999999,34.86361111111111],[-102.43527777777778,34.79611111111111],[-102.28,34.72805555555556],[-102.09583333333333,34.64694444444444],[-101.94388888888889,34.57972222222222],[-101.79027777777777,34.51138888888889],[-101.6363888888889,34.442499999999995],[-101.4825,34.37361111111111],[-101.32972222222222,34.30472222222222],[-101.17500000000001,34.234722222222224],[-101.02083333333333,34.16444444444444],[-100.86722222222221,34.094166666666666],[-100.70777777777778,34.02111111111111],[-100.55111111111111,33.94916666666666],[-100.39777777777779,33.878055555555555],[-100.24194444444444,33.80555555555555],[-100.08777777777777,33.73361111111111],[-99.96694444444445,33.676944444444445],[-99.81305555555555,33.60472222222222],[-99.66277777777778,33.53333333333333],[-99.51,33.461111111111116],[-99.3586111111111,33.388888888888886],[-99.20833333333334,33.316944444444445],[-99.06,33.245555555555555],[-98.90972222222223,33.17305555555555],[-98.76194444444444,33.10138888888889],[-98.6111111111111,33.02777777777778],[-98.46305555555556,32.95527777777778],[-98.32027777777778,32.885555555555555],[-98.14416666666668,32.79861111111111],[-98.10527777777777,32.77916666666667],[-97.9975,32.722500000000004],[-97.95666666666666,32.698611111111106],[-97.87027777777777,32.625],[-97.83416666666666,32.59666666666667],[-97.7461111111111,32.525555555555556],[-97.7075,32.49583333333334],[-97.6211111111111,32.42472222222222],[-97.58083333333333,32.39527777777778],[-97.49638888888889,32.323888888888895],[-97.45972222222223,32.29416666666666],[-97.37444444444444,32.223333333333336],[-97.34083333333332,32.189166666666665],[-97.26444444444445,32.11083333333333],[-97.22944444444444,32.075],[-97.15361111111112,31.997222222222224],[-97.11916666666666,31.961944444444445],[-97.05111111111111,31.891666666666666],[-97.00833333333334,31.8475],[-96.94222222222223,31.779166666666665],[-96.89777777777779,31.733611111111113],[-96.8325,31.665277777777778],[-96.78777777777778,31.61916666666667],[-96.7238888888889,31.552777777777777],[-96.68472222222222,31.511944444444445],[-96.62472222222222,31.45],[-96.58833333333332,31.411666666666665],[-96.53083333333333,31.351666666666667],[-96.49527777777777,31.31416666666667],[-96.43972222222223,31.25611111111111],[-96.4038888888889,31.218888888888888],[-96.35138888888888,31.16361111111111],[-96.31638888888888,31.12666666666667],[-96.26583333333333,31.073055555555555],[-96.23333333333333,31.039166666666667],[-96.20694444444445,31.011388888888888],[-96.18611111111112,30.982777777777777],[-96.16166666666668,30.94472222222222],[-96.1363888888889,30.904722222222222],[-96.12444444444444,30.886944444444445],[-96.10083333333333,30.85027777777778],[-96.07638888888889,30.81138888888889],[-96.065,30.794444444444448],[-96.04194444444444,30.75861111111111],[-96.02083333333333,30.724999999999998],[-96.00805555555556,30.70583333333333],[-95.99555555555555,30.68611111111111],[-95.9675,30.63861111111111],[-95.95472222222223,30.622777777777777],[-95.9388888888889,30.597777777777775],[-95.91416666666667,30.55638888888889],[-95.90277777777779,30.541111111111114],[-95.88722222222223,30.516944444444444],[-95.87222222222222,30.479166666666664],[-95.86805555555554,30.461666666666666],[-95.86555555555555,30.43722222222222],[-95.86222222222221,30.39638888888889],[-95.85888888888888,30.380277777777778],[-95.85638888888889,30.357222222222223],[-95.85138888888888,30.303055555555556],[-95.84805555555555,30.28222222222222],[-95.83166666666666,30.231666666666666],[-95.82055555555556,30.212777777777777],[-95.79638888888888,30.1725],[-95.78027777777778,30.148611111111112],[-95.75555555555556,30.108055555555556],[-95.74083333333333,30.085555555555555],[-95.71916666666667,30.048055555555557],[-95.70194444444445,30.026944444444442],[-95.66333333333334,30.011666666666667],[-95.63833333333334,30.0025],[-95.59777777777778,29.993055555555557],[-95.57027777777778,29.99277777777778],[-95.53277777777778,29.99361111111111],[-95.50972222222222,29.993055555555557],[-95.47500000000001,29.9925],[-95.42444444444445,29.992222222222225],[-95.40611111111112,29.993333333333336],[-95.35749999999999,29.993333333333336]]}
}
