{
  "id": 2048404291,
  "type": "Feature",
  "properties": {
    "geom:area": 0,
    "geom:bbox": "-122.362240,36.725330,-121.880860,37.612710",
    "geom:latitude": 37.2301771298973,
    "geom:longitude": -122.08509063333875,
    "src:alt_label": "swim-approach",
    "src:geom": "swim",
    "swim:elevations": [
      5932,
      5566,
      5502,
      5193,
      5113,
      4891,
      4654,
      4349,
      4029,
      3723,
      3489,
      3106,
      2945,
      2736,
      2529,
      2436,
      2438,
      2281,
      2182,
      1950,
      1888,
      1786,
      1738,
      1499,
      1374,
      1305,
      1025,
      944,
      804,
      771,
      635,
      514,
      404,
      317,
      212,
      153,
      95,
      30
    ],
    "swim:geom": "approach",
    "swim:timestamps": [
      1790102960,
      1790102994,
      1790103000,
      1790103027,
      1790103035,
      1790103055,
      1790103075,
      1790103103,
      1790103131,
      1790103159,
      1790103181,
      1790103231,
      1790103262,
      1790103296,
      1790103328,
      1790103351,
      1790103382,
      1790103415,
      1790103434,
      1790103476,
      1790103489,
      1790103538,
      1790103544,
      1790103592,
      1790103627,
      1790103642,
      1790103685,
      1790103712,
      1790103742,
      1790103747,
      1790103777,
      1790103803,
      1790103833,
      1790103859,
      1790103890,
      1790103905,
      1790103920,
      1790103952
    ],
    "wof:geomhash": "19773f3648c1185f3d5283696ac0e8c7",
    "wof:id": 2048404291,
    "wof:repo": "sfomuseum-data-flights-2026-09"
  },
  "bbox": [
    -122.36224,
    36.72533,
    -121.88086,
    37.61271
  ],
  "geometry": {"type":"LineString","coordinates":[[-121.88086,36.72533],[-121.90404,36.77744],[-121.90663,36.78687],[-121.91858,36.82885],[-121.92195,36.84069],[-121.93041,36.87126],[-121.93944,36.90332],[-121.95131,36.94601],[-121.96713,36.98812],[-121.98315,37.02927],[-121.99535,37.06059],[-122.02393,37.13359],[-122.04023,37.17502],[-122.0569,37.21757],[-122.07181,37.2558],[-122.08431,37.28062],[-122.12315,37.29448],[-122.16635,37.30339],[-122.19057,37.30843],[-122.20777,37.34594],[-122.19502,37.35532],[-122.14183,37.38718],[-122.13717,37.39372],[-122.11681,37.44218],[-122.11591,37.47588],[-122.12511,37.48733],[-122.1522,37.51706],[-122.17171,37.53279],[-122.19995,37.5452],[-122.20476,37.54723],[-122.23309,37.55905],[-122.25658,37.56893],[-122.27977,37.57873],[-122.29802,37.58636],[-122.31911,37.59528],[-122.32972,37.59973],[-122.34003,37.604],[-122.36224,37.61271]]}
}
