{
  "id": 2048284333,
  "type": "Feature",
  "properties": {
    "geom:area": 0,
    "geom:bbox": "-123.186390,37.541790,-122.105260,38.408140",
    "geom:latitude": 37.88196999216536,
    "geom:longitude": -122.59788931922976,
    "src:alt_label": "swim-approach",
    "src:geom": "swim",
    "swim:elevations": [
      7620,
      7164,
      7052,
      6353,
      6072,
      5794,
      5662,
      5352,
      5081,
      4600,
      4498,
      4359,
      4114,
      3864,
      3715,
      3495,
      3379,
      3353,
      3353,
      3251,
      2898,
      2805,
      2348,
      2190,
      1712,
      1524,
      1435,
      1290,
      1061,
      857,
      786,
      657,
      462,
      242,
      222,
      61
    ],
    "swim:geom": "approach",
    "swim:timestamps": [
      1788932877,
      1788932906,
      1788932912,
      1788932967,
      1788932997,
      1788933025,
      1788933039,
      1788933071,
      1788933101,
      1788933148,
      1788933158,
      1788933186,
      1788933237,
      1788933266,
      1788933281,
      1788933308,
      1788933351,
      1788933383,
      1788933401,
      1788933431,
      1788933472,
      1788933481,
      1788933528,
      1788933550,
      1788933595,
      1788933620,
      1788933653,
      1788933683,
      1788933718,
      1788933748,
      1788933764,
      1788933783,
      1788933811,
      1788933865,
      1788933871,
      1788933914
    ],
    "wof:geomhash": "f482739093d740dfdf0a98bd54d64639",
    "wof:id": 2048284333,
    "wof:repo": "sfomuseum-data-flights-2026-09"
  },
  "bbox": [
    -123.18639,
    37.54179,
    -122.10526,
    38.40814
  ],
  "geometry": {"type":"LineString","coordinates":[[-123.18639,38.40814],[-123.13777,38.36002],[-123.12773,38.35014],[-123.03884,38.26253],[-122.99282,38.21724],[-122.95142,38.17608],[-122.92977,38.1546],[-122.88323,38.10846],[-122.8395,38.06497],[-122.77177,37.99776],[-122.7581,37.98412],[-122.71879,37.94489],[-122.65304,37.87958],[-122.61595,37.84536],[-122.59618,37.82718],[-122.56125,37.79411],[-122.50835,37.74398],[-122.46898,37.7125],[-122.43978,37.704],[-122.39006,37.69306],[-122.32411,37.67786],[-122.30954,37.67455],[-122.23695,37.65721],[-122.20498,37.64949],[-122.14516,37.62685],[-122.11901,37.60905],[-122.10526,37.57671],[-122.12156,37.55028],[-122.16356,37.54179],[-122.20063,37.54845],[-122.21709,37.55488],[-122.23701,37.5632],[-122.26529,37.57513],[-122.31156,37.59443],[-122.31658,37.59655],[-122.35182,37.61128]]}
}
