{
  "id": 2048466885,
  "type": "Feature",
  "properties": {
    "geom:area": 0,
    "geom:bbox": "-122.316667,37.446944,-74.183333,41.353611",
    "geom:latitude": 40.08312645274814,
    "geom:longitude": -98.36332284339423,
    "src:alt_label": "swim-path",
    "src:geom": "swim",
    "swim:altitudes": [
      "005",
      "017",
      "042",
      "082",
      "109",
      "124",
      "139",
      "158",
      "184",
      "212",
      "236",
      "257",
      "278",
      "296",
      "322",
      "342",
      "357",
      "360C",
      "360C",
      "360C",
      "360C",
      "360C",
      "360C",
      "360C",
      "360C",
      "360C",
      "360C",
      "360C",
      "360C",
      "360C",
      "360C",
      "360C",
      "360C",
      "360C",
      "360C",
      "360C",
      "360C",
      "360C",
      "360C",
      "360C",
      "360C",
      "360C",
      "360C",
      "360C",
      "360C",
      "360C",
      "360C",
      "360C",
      "360C",
      "360C",
      "360C",
      "360C",
      "360C",
      "360C",
      "360C",
      "360C",
      "360C",
      "360C",
      "360C",
      "360C",
      "360C",
      "360C",
      "360C",
      "360C",
      "360C",
      "360C",
      "360C",
      "360C",
      "360C",
      "360C",
      "360C",
      "360C",
      "360C",
      "360C",
      "360C",
      "360C",
      "360C",
      "360C",
      "360C",
      "360C",
      "360C",
      "360C",
      "360C",
      "360C",
      "360C",
      "360C",
      "360C",
      "360C",
      "360C",
      "360C",
      "360C",
      "360C",
      "360C",
      "360C",
      "360C",
      "360C",
      "360C",
      "360C",
      "360C",
      "360C",
      "360C",
      "360C",
      "360C",
      "360C",
      "360C",
      "360C",
      "360C",
      "360C",
      "360C",
      "360C",
      "360C",
      "360C",
      "360C",
      "360C",
      "360C",
      "360C",
      "360C",
      "360C",
      "360C",
      "360C",
      "360C",
      "360C",
      "360C",
      "360C",
      "360C",
      "360C",
      "360C",
      "360C",
      "360C",
      "360C",
      "360C",
      "360C",
      "360C",
      "360C",
      "360C",
      "360C",
      "360C",
      "360C",
      "360C",
      "360C",
      "360C",
      "360C",
      "360C",
      "360C",
      "360C",
      "360C",
      "360C",
      "360C",
      "360C",
      "360C",
      "360C",
      "360C",
      "360C",
      "360C",
      "360C",
      "360C",
      "360C",
      "360C",
      "360C",
      "360C",
      "360C",
      "360C",
      "360C",
      "360C",
      "360C",
      "360C",
      "360C",
      "360C",
      "360C",
      "360C",
      "360C",
      "360C",
      "360C",
      "360C",
      "360C",
      "360C",
      "360C",
      "360C",
      "360C",
      "360C",
      "360C",
      "360C",
      "360C",
      "360C",
      "360C",
      "360C",
      "360C",
      "360C",
      "360C",
      "360C",
      "360C",
      "360C",
      "360C",
      "360C",
      "360C",
      "360C",
      "360C",
      "360C",
      "360C",
      "360C",
      "360C",
      "360C",
      "360C",
      "360C",
      "360C",
      "360C",
      "360C",
      "360C",
      "360C",
      "360C",
      "360C",
      "360C",
      "360C",
      "360C",
      "360C",
      "360C",
      "360C",
      "360C",
      "360C",
      "360C",
      "360C",
      "360C",
      "360C",
      "360C",
      "360C",
      "360C",
      "360C",
      "360C",
      "360C",
      "360C",
      "360C",
      "360C",
      "360C",
      "360C",
      "360C",
      "360C",
      "362",
      "370C",
      "370C",
      "370C",
      "370C",
      "370C",
      "370C",
      "370C",
      "370C",
      "370C",
      "370C",
      "370C",
      "370C",
      "370C",
      "370C",
      "370C",
      "370C",
      "370C",
      "370C",
      "370C",
      "370C",
      "370C",
      "370C",
      "370C",
      "370C",
      "370C",
      "370C",
      "370C",
      "370C",
      "370",
      "371",
      "376",
      "380C",
      "380C",
      "380C",
      "380C",
      "380C",
      "380C",
      "380C",
      "380C",
      "380C",
      "380C",
      "380C",
      "380C",
      "380C",
      "380C",
      "380C",
      "380C",
      "380C",
      "380C",
      "380C",
      "380C",
      "380C",
      "380C",
      "380C",
      "380C",
      "380C",
      "380C",
      "380C",
      "380C",
      "380C",
      "380C",
      "380C",
      "380C",
      "380C",
      "380C",
      "380C",
      "380C",
      "380C",
      "380C",
      "380C",
      "380C",
      "380C",
      "380C",
      "380C",
      "380C",
      "380C",
      "380C",
      "380C",
      "380C",
      "380C",
      "380C",
      "380C",
      "380C",
      "380C",
      "380C",
      "380C",
      "380C",
      "380C",
      "380C",
      "380C",
      "380C",
      "380C",
      "380C",
      "380C",
      "380C",
      "380C",
      "380C",
      "380C",
      "380C",
      "380C",
      "380C",
      "380C",
      "380C",
      "380C",
      "380C",
      "380C",
      "380C",
      "380C",
      "380C",
      "380C",
      "380C",
      "380C",
      "380C",
      "380C",
      "380C",
      "380C",
      "380C",
      "380C",
      "380C",
      "380C",
      "380C",
      "380C",
      "380C",
      "380C",
      "380C",
      "380C",
      "380C",
      "380C",
      "380C",
      "380C",
      "380C",
      "380C",
      "380C",
      "380C",
      "380C",
      "380C",
      "380C",
      "380C",
      "380C",
      "380C",
      "380C",
      "380C",
      "380C",
      "380C",
      "380C",
      "380C",
      "380C",
      "380C",
      "380C",
      "380C",
      "380C",
      "380C",
      "380C",
      "380C",
      "380C",
      "380C",
      "380C",
      "380C",
      "380C",
      "380C",
      "380C",
      "380C",
      "380C",
      "380C",
      "380C",
      "380C",
      "380C",
      "380C",
      "380C",
      "380C",
      "380C",
      "380C",
      "380C",
      "380C",
      "380C",
      "380C",
      "380C",
      "380C",
      "380C",
      "380C",
      "380C",
      "380C",
      "380C",
      "380C",
      "380C",
      "380C",
      "380C",
      "380C",
      "380C",
      "380C",
      "380",
      "380",
      "363",
      "360C",
      "360C",
      "360C",
      "360C",
      "360C",
      "360C",
      "360C",
      "360C",
      "360C",
      "360C",
      "360C",
      "360C",
      "358",
      "347",
      "335",
      "322",
      "316",
      "303",
      "300C",
      "300",
      "290",
      "280C",
      "280",
      "280",
      "278",
      "265",
      "258",
      "236",
      "215",
      "194",
      "173",
      "167",
      "151",
      "133",
      "116",
      "102",
      "097",
      "090",
      "078",
      "070",
      "062",
      "058",
      "048",
      "037",
      "035",
      "024",
      "015",
      "007"
    ],
    "swim:geom": "path",
    "swim:speeds": [
      172,
      190,
      256,
      258,
      300,
      358,
      381,
      392,
      408,
      427,
      438,
      453,
      464,
      477,
      479,
      470,
      468,
      462,
      461,
      460,
      460,
      460,
      461,
      462,
      462,
      462,
      462,
      462,
      462,
      462,
      463,
      462,
      462,
      462,
      463,
      463,
      463,
      464,
      464,
      466,
      468,
      468,
      468,
      467,
      467,
      468,
      469,
      470,
      472,
      473,
      474,
      473,
      472,
      471,
      471,
      472,
      471,
      472,
      473,
      476,
      474,
      476,
      474,
      475,
      472,
      472,
      471,
      470,
      471,
      471,
      473,
      475,
      478,
      478,
      480,
      480,
      480,
      479,
      479,
      479,
      479,
      476,
      479,
      478,
      479,
      478,
      478,
      480,
      479,
      480,
      479,
      479,
      479,
      480,
      479,
      480,
      478,
      479,
      469,
      474,
      465,
      463,
      461,
      460,
      458,
      456,
      457,
      456,
      457,
      456,
      457,
      459,
      457,
      459,
      458,
      458,
      457,
      457,
      456,
      456,
      456,
      456,
      455,
      456,
      455,
      456,
      455,
      455,
      455,
      455,
      455,
      454,
      454,
      454,
      454,
      454,
      453,
      453,
      453,
      453,
      453,
      452,
      452,
      452,
      452,
      452,
      452,
      452,
      452,
      448,
      450,
      447,
      446,
      446,
      445,
      444,
      445,
      443,
      443,
      444,
      443,
      443,
      444,
      442,
      442,
      444,
      441,
      441,
      444,
      440,
      440,
      442,
      440,
      440,
      441,
      440,
      440,
      441,
      440,
      441,
      441,
      441,
      441,
      441,
      441,
      441,
      441,
      441,
      440,
      437,
      435,
      430,
      429,
      426,
      426,
      424,
      423,
      422,
      422,
      420,
      420,
      420,
      419,
      419,
      419,
      418,
      418,
      417,
      417,
      416,
      416,
      416,
      416,
      417,
      417,
      417,
      417,
      418,
      418,
      419,
      419,
      419,
      419,
      418,
      416,
      416,
      417,
      418,
      418,
      420,
      420,
      423,
      426,
      430,
      426,
      422,
      421,
      415,
      410,
      409,
      409,
      408,
      409,
      410,
      411,
      412,
      412,
      415,
      416,
      416,
      417,
      418,
      433,
      421,
      422,
      421,
      421,
      421,
      422,
      423,
      420,
      425,
      422,
      425,
      422,
      424,
      422,
      423,
      422,
      417,
      422,
      416,
      421,
      416,
      421,
      418,
      420,
      420,
      420,
      422,
      420,
      422,
      420,
      422,
      421,
      422,
      420,
      423,
      420,
      421,
      421,
      419,
      421,
      418,
      421,
      416,
      421,
      416,
      421,
      416,
      417,
      416,
      416,
      416,
      416,
      416,
      416,
      417,
      417,
      419,
      421,
      421,
      421,
      421,
      421,
      422,
      421,
      422,
      421,
      423,
      421,
      425,
      421,
      426,
      422,
      428,
      427,
      430,
      429,
      431,
      431,
      432,
      432,
      432,
      432,
      432,
      432,
      433,
      432,
      434,
      432,
      436,
      439,
      437,
      437,
      436,
      434,
      435,
      433,
      435,
      437,
      436,
      437,
      437,
      438,
      439,
      440,
      440,
      442,
      443,
      444,
      445,
      446,
      447,
      447,
      448,
      449,
      451,
      452,
      454,
      454,
      456,
      457,
      459,
      459,
      460,
      460,
      461,
      461,
      462,
      463,
      464,
      465,
      464,
      463,
      464,
      465,
      466,
      468,
      470,
      471,
      472,
      473,
      474,
      475,
      476,
      477,
      477,
      478,
      477,
      474,
      473,
      473,
      474,
      464,
      472,
      466,
      467,
      467,
      466,
      466,
      464,
      465,
      465,
      465,
      467,
      466,
      468,
      468,
      469,
      468,
      469,
      470,
      470,
      471,
      473,
      473,
      479,
      479,
      488,
      507,
      506,
      506,
      504,
      504,
      494,
      489,
      489,
      489,
      489,
      489,
      489,
      491,
      512,
      528,
      529,
      500,
      453,
      429,
      440,
      445,
      432,
      425,
      425,
      424,
      425,
      426,
      427,
      421,
      390,
      389,
      382,
      379,
      364,
      352,
      338,
      309,
      274,
      265,
      231,
      206,
      205,
      191,
      189,
      185,
      192,
      189,
      148
    ],
    "swim:timestamps": [
      1790682078,
      1790682108,
      1790682174,
      1790682234,
      1790682294,
      1790682355,
      1790682415,
      1790682475,
      1790682535,
      1790682595,
      1790682655,
      1790682715,
      1790682775,
      1790682835,
      1790682895,
      1790682956,
      1790683016,
      1790683076,
      1790683136,
      1790683251,
      1790683311,
      1790683371,
      1790683431,
      1790683496,
      1790683552,
      1790683612,
      1790683672,
      1790683732,
      1790683792,
      1790683852,
      1790683912,
      1790683972,
      1790684032,
      1790684092,
      1790684152,
      1790684213,
      1790684273,
      1790684333,
      1790684393,
      1790684513,
      1790684573,
      1790684633,
      1790684693,
      1790684753,
      1790684813,
      1790684874,
      1790684994,
      1790685054,
      1790685114,
      1790685174,
      1790685234,
      1790685294,
      1790685354,
      1790685414,
      1790685475,
      1790685498,
      1790685535,
      1790685558,
      1790685595,
      1790685630,
      1790685655,
      1790685690,
      1790685715,
      1790685750,
      1790685775,
      1790685810,
      1790685871,
      1790685895,
      1790685931,
      1790685952,
      1790685991,
      1790686015,
      1790686048,
      1790686072,
      1790686108,
      1790686136,
      1790686168,
      1790686193,
      1790686228,
      1790686253,
      1790686288,
      1790686304,
      1790686313,
      1790686348,
      1790686364,
      1790686373,
      1790686408,
      1790686424,
      1790686469,
      1790686484,
      1790686529,
      1790686553,
      1790686589,
      1790686604,
      1790686649,
      1790686664,
      1790686709,
      1790686724,
      1790686769,
      1790686784,
      1790686829,
      1790686856,
      1790686889,
      1790686916,
      1790686949,
      1790686976,
      1790687009,
      1790687036,
      1790687069,
      1790687096,
      1790687130,
      1790687157,
      1790687190,
      1790687217,
      1790687250,
      1790687277,
      1790687310,
      1790687337,
      1790687370,
      1790687397,
      1790687430,
      1790687457,
      1790687490,
      1790687517,
      1790687550,
      1790687577,
      1790687610,
      1790687637,
      1790687670,
      1790687697,
      1790687731,
      1790687757,
      1790687791,
      1790687818,
      1790687851,
      1790687878,
      1790687911,
      1790687938,
      1790687971,
      1790688031,
      1790688058,
      1790688091,
      1790688118,
      1790688151,
      1790688178,
      1790688211,
      1790688238,
      1790688272,
      1790688298,
      1790688332,
      1790688345,
      1790688358,
      1790688392,
      1790688405,
      1790688418,
      1790688452,
      1790688465,
      1790688479,
      1790688512,
      1790688525,
      1790688539,
      1790688572,
      1790688585,
      1790688599,
      1790688632,
      1790688645,
      1790688659,
      1790688692,
      1790688705,
      1790688719,
      1790688752,
      1790688765,
      1790688779,
      1790688812,
      1790688826,
      1790688839,
      1790688873,
      1790688886,
      1790688899,
      1790688933,
      1790688946,
      1790688959,
      1790688993,
      1790689006,
      1790689019,
      1790689066,
      1790689079,
      1790689126,
      1790689149,
      1790689186,
      1790689209,
      1790689246,
      1790689260,
      1790689306,
      1790689320,
      1790689366,
      1790689380,
      1790689426,
      1790689440,
      1790689486,
      1790689500,
      1790689546,
      1790689560,
      1790689607,
      1790689620,
      1790689667,
      1790689680,
      1790689727,
      1790689740,
      1790689787,
      1790689800,
      1790689847,
      1790689861,
      1790689907,
      1790689921,
      1790689967,
      1790689981,
      1790690027,
      1790690041,
      1790690087,
      1790690101,
      1790690147,
      1790690161,
      1790690207,
      1790690267,
      1790690328,
      1790690388,
      1790690448,
      1790690508,
      1790690568,
      1790690628,
      1790690688,
      1790690748,
      1790690808,
      1790690868,
      1790690928,
      1790690993,
      1790691048,
      1790691109,
      1790691169,
      1790691229,
      1790691289,
      1790691349,
      1790691409,
      1790691469,
      1790691529,
      1790691589,
      1790691653,
      1790691714,
      1790691769,
      1790691830,
      1790691890,
      1790691950,
      1790692014,
      1790692074,
      1790692134,
      1790692194,
      1790692254,
      1790692314,
      1790692374,
      1790692406,
      1790692435,
      1790692466,
      1790692495,
      1790692526,
      1790692555,
      1790692586,
      1790692615,
      1790692646,
      1790692675,
      1790692706,
      1790692735,
      1790692766,
      1790692795,
      1790692826,
      1790692855,
      1790692887,
      1790692915,
      1790692947,
      1790692975,
      1790693007,
      1790693035,
      1790693067,
      1790693095,
      1790693127,
      1790693156,
      1790693187,
      1790693216,
      1790693247,
      1790693276,
      1790693307,
      1790693336,
      1790693367,
      1790693396,
      1790693427,
      1790693456,
      1790693487,
      1790693516,
      1790693547,
      1790693576,
      1790693607,
      1790693636,
      1790693668,
      1790693696,
      1790693728,
      1790693756,
      1790693788,
      1790693816,
      1790693848,
      1790693876,
      1790693908,
      1790693937,
      1790693968,
      1790693997,
      1790694028,
      1790694057,
      1790694088,
      1790694117,
      1790694148,
      1790694177,
      1790694208,
      1790694237,
      1790694268,
      1790694297,
      1790694328,
      1790694357,
      1790694389,
      1790694417,
      1790694449,
      1790694477,
      1790694509,
      1790694537,
      1790694569,
      1790694597,
      1790694629,
      1790694658,
      1790694689,
      1790694718,
      1790694749,
      1790694778,
      1790694809,
      1790694838,
      1790694869,
      1790694898,
      1790694929,
      1790694958,
      1790694989,
      1790695018,
      1790695049,
      1790695078,
      1790695109,
      1790695138,
      1790695170,
      1790695198,
      1790695230,
      1790695258,
      1790695290,
      1790695318,
      1790695350,
      1790695379,
      1790695410,
      1790695439,
      1790695470,
      1790695499,
      1790695530,
      1790695559,
      1790695590,
      1790695619,
      1790695650,
      1790695679,
      1790695710,
      1790695739,
      1790695770,
      1790695799,
      1790695830,
      1790695859,
      1790695891,
      1790695919,
      1790695951,
      1790695979,
      1790696011,
      1790696071,
      1790696131,
      1790696191,
      1790696251,
      1790696311,
      1790696371,
      1790696431,
      1790696491,
      1790696551,
      1790696612,
      1790696684,
      1790696744,
      1790696804,
      1790696864,
      1790696924,
      1790696984,
      1790697044,
      1790697104,
      1790697164,
      1790697224,
      1790697284,
      1790697345,
      1790697405,
      1790697459,
      1790697465,
      1790697519,
      1790697525,
      1790697585,
      1790697639,
      1790697645,
      1790697705,
      1790697759,
      1790697765,
      1790697825,
      1790697879,
      1790697885,
      1790697939,
      1790697945,
      1790697999,
      1790698005,
      1790698066,
      1790698119,
      1790698126,
      1790698186,
      1790698240,
      1790698246,
      1790698300,
      1790698306,
      1790698366,
      1790698426,
      1790698480,
      1790698486,
      1790698540,
      1790698546,
      1790698606,
      1790698660,
      1790698666,
      1790698720,
      1790698726,
      1790698786,
      1790698840,
      1790698901,
      1790698961,
      1790699021,
      1790699081,
      1790699141,
      1790699201,
      1790699261,
      1790699321,
      1790699381,
      1790699441,
      1790699501,
      1790699562,
      1790699622,
      1790699655,
      1790699682,
      1790699742,
      1790699802,
      1790699862,
      1790699922,
      1790699931,
      1790699982,
      1790700042,
      1790700102,
      1790700160,
      1790700222,
      1790700283,
      1790700343,
      1790700403,
      1790700472,
      1790700523,
      1790700583,
      1790700643,
      1790700651,
      1790700707,
      1790700763,
      1790700821
    ],
    "wof:geomhash": "c960c67b01d09f3696c8512195ba4a5d",
    "wof:id": 2048466885,
    "wof:repo": "sfomuseum-data-flights-2026-09"
  },
  "bbox": [
    -122.31666666666666,
    37.44694444444444,
    -74.18333333333334,
    41.353611111111114
  ],
  "geometry": {"type":"LineString","coordinates":[[-74.18333333333334,40.666666666666664],[-74.2,40.65],[-74.2625,40.624722222222225],[-74.34305555555555,40.660555555555554],[-74.41666666666667,40.71666666666667],[-74.52222222222223,40.76722222222222],[-74.63027777777778,40.82888888888889],[-74.75527777777778,40.8825],[-74.9038888888889,40.89611111111111],[-75.06527777777778,40.91166666666666],[-75.21000000000001,40.9125],[-75.36833333333333,40.87583333333333],[-75.5325,40.836666666666666],[-75.70027777777779,40.79694444444444],[-75.86694444444444,40.75694444444444],[-76.03194444444445,40.717222222222226],[-76.19388888888889,40.67833333333333],[-76.36305555555555,40.68472222222222],[-76.52194444444444,40.70861111111111],[-76.83555555555554,40.754444444444445],[-77,40.77833333333333],[-77.16666666666667,40.801944444444445],[-77.33277777777778,40.82555555555556],[-77.53,40.85305555555556],[-77.66638888888889,40.871944444444445],[-77.83388888888888,40.89472222222222],[-77.99972222222222,40.91722222222222],[-78.16611111111112,40.937777777777775],[-78.33638888888889,40.95861111111111],[-78.50444444444445,40.97888888888889],[-78.67333333333333,40.99916666666667],[-78.84055555555555,41.01888888888889],[-79.0075,41.038333333333334],[-79.17416666666666,41.0575],[-79.34388888888888,41.07666666666667],[-79.51083333333334,41.09527777777778],[-79.67694444444444,41.11361111111111],[-79.86027777777777,41.13361111111111],[-80.01472222222222,41.15],[-80.37027777777777,41.1875],[-80.5411111111111,41.205000000000005],[-80.71305555555556,41.22222222222222],[-80.88305555555554,41.23916666666667],[-81.05166666666666,41.255833333333335],[-81.22472222222223,41.2725],[-81.39583333333334,41.28861111111111],[-81.71777777777778,41.318333333333335],[-81.89,41.33388888888889],[-82.06138888888889,41.34916666666667],[-82.24138888888889,41.353611111111114],[-82.41666666666667,41.343333333333334],[-82.59055555555555,41.33277777777778],[-82.76194444444444,41.32222222222222],[-82.93583333333333,41.311388888888885],[-83.10833333333333,41.30027777777777],[-83.19222222222223,41.29472222222222],[-83.27972222222222,41.28916666666667],[-83.3736111111111,41.2825],[-83.455,41.27722222222222],[-83.54222222222222,41.27111111111111],[-83.63194444444444,41.265],[-83.74944444444445,41.25666666666667],[-83.80611111111111,41.25277777777778],[-83.92416666666666,41.244166666666665],[-83.99083333333333,41.239444444444445],[-84.09388888888888,41.231944444444444],[-84.26611111111112,41.21944444444445],[-84.33666666666666,41.21666666666667],[-84.44333333333334,41.213055555555556],[-84.51027777777777,41.21027777777778],[-84.61722222222221,41.205555555555556],[-84.68694444444445,41.202222222222225],[-84.79555555555555,41.19694444444444],[-84.86527777777778,41.19361111111111],[-84.97222222222223,41.18805555555555],[-85.04388888888889,41.18472222222222],[-85.15083333333334,41.17944444444444],[-85.22055555555556,41.17583333333333],[-85.32805555555555,41.17027777777778],[-85.3963888888889,41.166666666666664],[-85.50472222222223,41.16083333333333],[-85.53138888888888,41.1575],[-85.57305555555556,41.157222222222224],[-85.68222222222222,41.15138888888889],[-85.71305555555556,41.14944444444444],[-85.74888888888889,41.1475],[-85.85833333333333,41.14138888888889],[-85.88944444444445,41.13972222222222],[-86.00083333333333,41.13333333333333],[-86.03722222222223,41.13055555555555],[-86.17694444444444,41.12305555555555],[-86.27777777777777,41.11694444444444],[-86.35249999999999,41.112500000000004],[-86.38861111111112,41.109722222222224],[-86.52888888888889,41.10166666666667],[-86.56416666666667,41.100833333333334],[-86.70305555555557,41.09055555555556],[-86.73805555555556,41.08888888888889],[-86.8863888888889,41.078611111111115],[-86.90916666666668,41.077222222222225],[-87.05749999999999,41.06722222222223],[-87.11138888888888,41.06361111111111],[-87.22444444444444,41.05583333333333],[-87.27777777777777,41.05277777777778],[-87.39222222222223,41.04416666666666],[-87.44500000000001,41.04083333333333],[-87.55916666666667,41.0325],[-87.61055555555555,41.02916666666667],[-87.72694444444444,41.02027777777778],[-87.77833333333334,41.01638888888889],[-87.89444444444445,41.00805555555556],[-87.98,41.00111111111111],[-88.06416666666667,40.99],[-88.1463888888889,40.97694444444445],[-88.22916666666667,40.96388888888889],[-88.31,40.950833333333335],[-88.39527777777778,40.93722222222222],[-88.47194444444445,40.925],[-88.55833333333334,40.91111111111111],[-88.63666666666667,40.89833333333333],[-88.68972222222223,40.88944444444444],[-88.79944444444445,40.87166666666667],[-88.88777777777779,40.856944444444444],[-88.96194444444444,40.844722222222224],[-89.05972222222222,40.82833333333333],[-89.12416666666665,40.81777777777778],[-89.2213888888889,40.80138888888889],[-89.28555555555555,40.79055555555556],[-89.38277777777778,40.77388888888889],[-89.44944444444445,40.76277777777778],[-89.5436111111111,40.74638888888889],[-89.60972222222222,40.73527777777778],[-89.6975,40.72],[-89.7713888888889,40.70722222222223],[-89.85916666666667,40.69194444444444],[-89.91666666666667,40.68194444444444],[-90.01861111111111,40.663888888888884],[-90.07111111111111,40.65472222222222],[-90.18138888888889,40.63527777777778],[-90.33388888888888,40.60805555555556],[-90.39833333333334,40.59638888888889],[-90.49416666666667,40.57916666666667],[-90.56055555555555,40.56722222222223],[-90.6563888888889,40.54972222222222],[-90.72,40.53805555555555],[-90.81666666666666,40.52055555555555],[-90.87944444444443,40.50888888888889],[-90.97583333333334,40.49111111111111],[-91.04083333333332,40.48444444444444],[-91.1375,40.48444444444444],[-91.16305555555556,40.483333333333334],[-91.20333333333333,40.48555555555556],[-91.29833333333333,40.487500000000004],[-91.32333333333332,40.487500000000004],[-91.35777777777777,40.48833333333334],[-91.45305555555557,40.49],[-91.48361111111112,40.48972222222222],[-91.51694444444445,40.490833333333335],[-91.61222222222221,40.49194444444444],[-91.64472222222223,40.49138888888889],[-91.67805555555556,40.49277777777778],[-91.77333333333333,40.494166666666665],[-91.80472222222222,40.494166666666665],[-91.83972222222222,40.495],[-91.93472222222222,40.49583333333334],[-91.965,40.49638888888889],[-91.99805555555555,40.49666666666667],[-92.09277777777777,40.4975],[-92.1575,40.498333333333335],[-92.19,40.49861111111111],[-92.28444444444445,40.49916666666667],[-92.31916666666666,40.49944444444444],[-92.34777777777778,40.499722222222225],[-92.44222222222223,40.500277777777775],[-92.4775,40.50055555555556],[-92.48805555555556,40.50083333333333],[-92.60083333333333,40.50138888888889],[-92.6325,40.50138888888889],[-92.64888888888889,40.501666666666665],[-92.75916666666667,40.50194444444445],[-92.79166666666667,40.50222222222222],[-92.82333333333332,40.50222222222222],[-92.91916666666667,40.5025],[-92.95083333333334,40.5025],[-92.98444444444445,40.5025],[-93.10972222222222,40.50277777777778],[-93.14250000000001,40.50277777777778],[-93.26972222222223,40.50277777777778],[-93.33305555555555,40.50277777777778],[-93.42722222222223,40.5025],[-93.49027777777778,40.50222222222222],[-93.58472222222221,40.50222222222222],[-93.61527777777778,40.50194444444445],[-93.73694444444445,40.50138888888889],[-93.76861111111111,40.50138888888889],[-93.89055555555557,40.50055555555556],[-93.92111111111112,40.50055555555556],[-94.04527777777777,40.501666666666665],[-94.07527777777777,40.50277777777778],[-94.19722222222222,40.50694444444444],[-94.22722222222222,40.50805555555556],[-94.3475,40.51222222222222],[-94.3786111111111,40.51305555555555],[-94.50083333333333,40.51722222222222],[-94.53222222222222,40.518055555555556],[-94.65222222222222,40.52194444444444],[-94.68277777777779,40.522777777777776],[-94.80333333333333,40.52638888888889],[-94.8325,40.52722222222222],[-94.95416666666667,40.530833333333334],[-94.98444444444445,40.531666666666666],[-95.10527777777777,40.535],[-95.13611111111112,40.53583333333333],[-95.25888888888889,40.53916666666667],[-95.28861111111111,40.53972222222222],[-95.41250000000001,40.54277777777778],[-95.44027777777778,40.54361111111111],[-95.56416666666667,40.546388888888885],[-95.59027777777777,40.54694444444444],[-95.71861111111112,40.55],[-95.74333333333334,40.550555555555555],[-95.87222222222222,40.55305555555555],[-95.89583333333334,40.55361111111111],[-96.02222222222223,40.55611111111111],[-96.17527777777778,40.55888888888889],[-96.32666666666667,40.561388888888885],[-96.48138888888889,40.56388888888888],[-96.63361111111112,40.566111111111105],[-96.78777777777778,40.56805555555556],[-96.93944444444445,40.569722222222225],[-97.0936111111111,40.57138888888889],[-97.24916666666667,40.57277777777778],[-97.41333333333334,40.57416666666667],[-97.57083333333333,40.575],[-97.72805555555556,40.575833333333335],[-97.88027777777778,40.57638888888889],[-98.03333333333333,40.573055555555555],[-98.18611111111112,40.566944444444445],[-98.33333333333333,40.56055555555555],[-98.48333333333333,40.55416666666667],[-98.63277777777778,40.5475],[-98.7825,40.54083333333333],[-98.93222222222222,40.53777777777778],[-99.08138888888888,40.54527777777778],[-99.20416666666667,40.552499999999995],[-99.3536111111111,40.56111111111111],[-99.50555555555556,40.56944444444445],[-99.6863888888889,40.580000000000005],[-99.84083333333332,40.590833333333336],[-99.96583333333334,40.599722222222226],[-100.11916666666666,40.598333333333336],[-100.26638888888888,40.586111111111116],[-100.42416666666666,40.57333333333334],[-100.5886111111111,40.55722222222222],[-100.74361111111111,40.543055555555554],[-100.89666666666668,40.52861111111111],[-101.04916666666666,40.513888888888886],[-101.20361111111112,40.49916666666667],[-101.3561111111111,40.48416666666667],[-101.50888888888889,40.469166666666666],[-101.59888888888888,40.46027777777778],[-101.66555555555556,40.45305555555556],[-101.75305555555556,40.44416666666666],[-101.81833333333333,40.4375],[-101.90555555555557,40.428888888888885],[-101.9725,40.42166666666667],[-102.05805555555555,40.41277777777778],[-102.12277777777777,40.405833333333334],[-102.21222222222222,40.394999999999996],[-102.27472222222222,40.38972222222222],[-102.36166666666666,40.37916666666667],[-102.42277777777778,40.37388888888889],[-102.51,40.36416666666667],[-102.57333333333332,40.3575],[-102.66027777777778,40.34666666666667],[-102.73027777777779,40.34],[-102.81083333333333,40.330555555555556],[-102.88194444444444,40.323055555555555],[-102.96277777777777,40.31333333333333],[-103.03444444444445,40.30583333333333],[-103.11416666666666,40.296388888888885],[-103.18527777777778,40.28861111111111],[-103.26611111111112,40.28],[-103.335,40.27111111111111],[-103.41611111111112,40.261944444444445],[-103.48777777777778,40.25333333333333],[-103.56722222222221,40.24333333333333],[-103.63944444444445,40.23527777777778],[-103.71805555555555,40.22527777777778],[-103.78944444444444,40.2175],[-103.87138888888889,40.20666666666667],[-103.9375,40.19944444444444],[-104.02361111111111,40.18805555555555],[-104.08722222222222,40.18111111111111],[-104.1725,40.16972222222222],[-104.23388888888888,40.16277777777778],[-104.32111111111111,40.15083333333333],[-104.38222222222221,40.14472222222222],[-104.4713888888889,40.13472222222222],[-104.52972222222222,40.13166666666667],[-104.61944444444444,40.1225],[-104.68027777777779,40.119166666666665],[-104.77083333333333,40.11083333333333],[-104.82666666666667,40.10666666666667],[-104.91972222222223,40.09777777777778],[-104.97555555555556,40.09388888888889],[-105.07333333333332,40.08444444444444],[-105.12638888888888,40.080555555555556],[-105.22472222222223,40.07138888888889],[-105.2775,40.06722222222223],[-105.37638888888888,40.05777777777777],[-105.4575,40.05083333333333],[-105.52916666666667,40.04277777777778],[-105.60944444444443,40.03666666666666],[-105.67972222222222,40.02833333333333],[-105.75972222222222,40.022777777777776],[-105.83083333333333,40.013333333333335],[-105.91222222222223,40.00833333333333],[-105.98305555555555,39.998333333333335],[-106.06305555555555,40.0025],[-106.13527777777779,39.99722222222222],[-106.21972222222223,40.00944444444445],[-106.29055555555556,40.00611111111111],[-106.37222222222222,40.01555555555556],[-106.44444444444444,40.015],[-106.52805555555555,40.02166666666667],[-106.60111111111111,40.02194444444444],[-106.67611111111111,40.027499999999996],[-106.75777777777778,40.02833333333333],[-106.83138888888888,40.033055555555556],[-106.88361111111112,40.032777777777774],[-106.98111111111112,40.038333333333334],[-107.07138888888889,40.03972222222222],[-107.14861111111112,40.04416666666666],[-107.2275,40.045833333333334],[-107.31055555555555,40.04944444444444],[-107.38361111111112,40.05027777777777],[-107.44027777777778,40.05333333333333],[-107.54027777777777,40.05555555555555],[-107.6036111111111,40.05833333333333],[-107.69805555555556,40.06083333333333],[-107.7775,40.06333333333333],[-107.85972222222222,40.065555555555555],[-107.92194444444445,40.065],[-108.01416666666667,40.05444444444444],[-108.07666666666667,40.04527777777778],[-108.16805555555555,40.031666666666666],[-108.22944444444444,40.02305555555555],[-108.32138888888889,40.00944444444445],[-108.38972222222223,39.99888888888889],[-108.47666666666667,39.986111111111114],[-108.53944444444444,39.976111111111116],[-108.63055555555555,39.96222222222222],[-108.72277777777778,39.94833333333333],[-108.78527777777778,39.93861111111111],[-108.87833333333333,39.92444444444444],[-108.94,39.914722222222224],[-109.03333333333333,39.900277777777774],[-109.09472222222222,39.89055555555556],[-109.18916666666667,39.87583333333333],[-109.25333333333333,39.865833333333335],[-109.345,39.85111111111111],[-109.41000000000001,39.840833333333336],[-109.50361111111111,39.825833333333335],[-109.56666666666666,39.81583333333333],[-109.6613888888889,39.800555555555555],[-109.72694444444444,39.79],[-109.82222222222222,39.774166666666666],[-109.88583333333334,39.763888888888886],[-109.98222222222222,39.74805555555556],[-110.04638888888888,39.737500000000004],[-110.14361111111111,39.72138888888889],[-110.2088888888889,39.71055555555556],[-110.30472222222222,39.69444444444444],[-110.36999999999999,39.68333333333333],[-110.46777777777778,39.66694444444444],[-110.5325,39.65611111111111],[-110.6286111111111,39.63972222222222],[-110.69666666666667,39.628055555555555],[-110.79277777777777,39.61138888888889],[-110.8913888888889,39.59444444444445],[-111.05388888888889,39.566111111111105],[-111.21833333333333,39.53722222222222],[-111.36972222222222,39.510555555555555],[-111.53138888888888,39.48166666666667],[-111.69611111111111,39.45194444444445],[-111.85749999999999,39.4225],[-112.02222222222223,39.39222222222222],[-112.18555555555555,39.36222222222222],[-112.34944444444444,39.33166666666667],[-112.51611111111112,39.30027777777777],[-112.67666666666668,39.263888888888886],[-112.87472222222222,39.218611111111116],[-113.03666666666666,39.181666666666665],[-113.20111111111112,39.14388888888889],[-113.36472222222221,39.10611111111111],[-113.52722222222222,39.068333333333335],[-113.69027777777778,39.03],[-113.85527777777777,38.990833333333335],[-114.01555555555555,38.95277777777778],[-114.17722222222223,38.913888888888884],[-114.33833333333332,38.875],[-114.50027777777778,38.83555555555556],[-114.66277777777778,38.79555555555555],[-114.78972222222222,38.76416666666667],[-114.82111111111111,38.75666666666667],[-114.94888888888889,38.724444444444444],[-114.97777777777777,38.717777777777776],[-115.13722222222223,38.67805555555555],[-115.26388888888889,38.64555555555555],[-115.29277777777777,38.63861111111111],[-115.45583333333333,38.597500000000004],[-115.58277777777778,38.56527777777777],[-115.61361111111111,38.55722222222222],[-115.73861111111111,38.525277777777774],[-115.89722222222223,38.48444444444444],[-115.92944444444444,38.476111111111116],[-116.05833333333334,38.44277777777778],[-116.08722222222222,38.43527777777778],[-116.215,38.401666666666664],[-116.2125,38.402499999999996],[-116.40138888888889,38.3525],[-116.5286111111111,38.31916666666667],[-116.5286111111111,38.31916666666667],[-116.6888888888889,38.27638888888889],[-116.84694444444445,38.23416666666667],[-116.84694444444445,38.23416666666667],[-117.00833333333334,38.19083333333333],[-117.00833333333334,38.19083333333333],[-117.17083333333333,38.14666666666667],[-117.35722222222222,38.09777777777778],[-117.49333333333334,38.06777777777778],[-117.52666666666667,38.06027777777778],[-117.66361111111112,38.028888888888886],[-117.69527777777778,38.021388888888886],[-117.86388888888888,37.99388888888889],[-118.00444444444445,37.97888888888889],[-118.03583333333333,37.97555555555556],[-118.17527777777778,37.96083333333333],[-118.20694444444445,37.95722222222223],[-118.3761111111111,37.93888888888888],[-118.51583333333333,37.92333333333333],[-118.6875,37.904444444444444],[-118.8536111111111,37.86],[-118.96888888888888,37.750277777777775],[-119.06166666666667,37.62166666666667],[-119.17,37.50666666666667],[-119.32166666666666,37.468333333333334],[-119.46805555555555,37.49444444444445],[-119.61305555555555,37.526944444444446],[-119.76555555555555,37.56055555555555],[-119.9113888888889,37.5925],[-120.05361111111111,37.623333333333335],[-120.19777777777779,37.65472222222222],[-120.34027777777777,37.68527777777778],[-120.43333333333334,37.7],[-120.48694444444445,37.689722222222215],[-120.6375,37.67194444444444],[-120.78194444444445,37.65472222222222],[-120.91805555555555,37.638333333333335],[-121.05361111111111,37.62111111111111],[-121.1,37.61666666666667],[-121.19527777777778,37.60166666666667],[-121.32027777777778,37.58555555555556],[-121.44055555555556,37.572500000000005],[-121.56666666666666,37.55],[-121.66916666666667,37.54],[-121.76416666666667,37.5175],[-121.82722222222222,37.47],[-121.89972222222222,37.44694444444444],[-121.96666666666667,37.483333333333334],[-122.02472222222222,37.50694444444444],[-122.08583333333333,37.52638888888889],[-122.14722222222223,37.54555555555555],[-122.16666666666667,37.55],[-122.21666666666667,37.56666666666667],[-122.26916666666666,37.58527777777778],[-122.31666666666666,37.6]]}
}
