{
  "id": 2048469703,
  "type": "Feature",
  "properties": {
    "geom:area": 0,
    "geom:bbox": "-122.496150,37.200950,-121.287820,37.733150",
    "geom:latitude": 37.41190670980489,
    "geom:longitude": -122.01547491938189,
    "src:alt_label": "swim-takeoff",
    "src:geom": "swim",
    "swim:elevations": [
      219,
      638,
      779,
      976,
      1734,
      1946,
      2504,
      2656,
      3239,
      3945,
      4597,
      5268,
      5713,
      5793,
      5820,
      5899,
      6022,
      6481,
      6570,
      7183,
      7358,
      7682,
      7910,
      8042,
      8230,
      8230
    ],
    "swim:geom": "takeoff",
    "swim:timestamps": [
      1790688134,
      1790688175,
      1790688189,
      1790688216,
      1790688267,
      1790688282,
      1790688319,
      1790688332,
      1790688387,
      1790688448,
      1790688498,
      1790688560,
      1790688595,
      1790688616,
      1790688648,
      1790688655,
      1790688665,
      1790688716,
      1790688728,
      1790688777,
      1790688796,
      1790688835,
      1790688861,
      1790688878,
      1790688930,
      1790688965
    ],
    "wof:geomhash": "a46113958222850a887809ce5ba27652",
    "wof:id": 2048469703,
    "wof:repo": "sfomuseum-data-flights-2026-09"
  },
  "bbox": [
    -122.49615,
    37.20095,
    -121.28782,
    37.73315
  ],
  "geometry": {"type":"LineString","coordinates":[[-122.36752,37.63054],[-122.36241,37.65878],[-122.36182,37.67037],[-122.36106,37.69743],[-122.41455,37.73315],[-122.43738,37.72818],[-122.48213,37.69301],[-122.49615,37.67967],[-122.49003,37.60287],[-122.41589,37.52017],[-122.34148,37.45939],[-122.23194,37.39303],[-122.15483,37.37811],[-122.10898,37.36905],[-122.03811,37.35485],[-122.02171,37.35156],[-121.99948,37.34707],[-121.88357,37.32353],[-121.8553,37.31778],[-121.74088,37.29434],[-121.69648,37.28529],[-121.60466,37.26651],[-121.54356,37.25389],[-121.50257,37.24552],[-121.37531,37.219],[-121.28782,37.20095]]}
}
