{
  "id": 2048346697,
  "type": "Feature",
  "properties": {
    "geom:area": 0,
    "geom:bbox": "-122.400840,37.629510,-121.256580,38.417790",
    "geom:latitude": 38.01351769870499,
    "geom:longitude": -121.82831562619182,
    "src:alt_label": "swim-takeoff",
    "src:geom": "swim",
    "swim:elevations": [
      293,
      444,
      815,
      1172,
      1378,
      1489,
      1742,
      2011,
      2608,
      3063,
      3317,
      3625,
      3846,
      4300,
      4421,
      4773,
      4909,
      5231,
      5654,
      5763,
      6400,
      6740,
      7145,
      7251,
      7793,
      7956
    ],
    "swim:geom": "takeoff",
    "swim:timestamps": [
      1789466665,
      1789466680,
      1789466713,
      1789466751,
      1789466786,
      1789466797,
      1789466818,
      1789466833,
      1789466874,
      1789466897,
      1789466931,
      1789466966,
      1789466981,
      1789467014,
      1789467041,
      1789467087,
      1789467101,
      1789467131,
      1789467174,
      1789467184,
      1789467254,
      1789467295,
      1789467326,
      1789467334,
      1789467378,
      1789467400
    ],
    "wof:geomhash": "3adf6f33a9963047934bedc2fa7cec94",
    "wof:id": 2048346697,
    "wof:repo": "sfomuseum-data-flights-2026-09"
  },
  "bbox": [
    -122.40084,
    37.62951,
    -121.25658,
    38.41779
  ],
  "geometry": {"type":"LineString","coordinates":[[-122.39394,37.62951],[-122.40084,37.63839],[-122.38308,37.65716],[-122.34795,37.66894],[-122.3076,37.6838],[-122.29237,37.68957],[-122.26182,37.70079],[-122.23986,37.70903],[-122.18577,37.74021],[-122.15547,37.76293],[-122.11211,37.79627],[-122.05997,37.83541],[-122.0375,37.85229],[-121.98764,37.89096],[-121.94431,37.92364],[-121.86552,37.98262],[-121.8389,38.00229],[-121.78524,38.04206],[-121.70601,38.10107],[-121.68637,38.11574],[-121.55126,38.2163],[-121.47145,38.27558],[-121.41014,38.32094],[-121.3931,38.33317],[-121.30283,38.38961],[-121.25658,38.41779]]}
}
