{
  "id": 2048450757,
  "type": "Feature",
  "properties": {
    "geom:area": 0,
    "geom:bbox": "-122.525920,37.692710,-122.241590,38.502430",
    "geom:latitude": 38.08157271948886,
    "geom:longitude": -122.35712726696411,
    "src:alt_label": "swim-takeoff",
    "src:geom": "swim",
    "swim:elevations": [
      1483,
      1852,
      2071,
      2684,
      3069,
      3378,
      4137,
      4286,
      4695,
      5146,
      5432,
      5812,
      6608,
      6862
    ],
    "swim:geom": "takeoff",
    "swim:timestamps": [
      1790511656,
      1790511680,
      1790511694,
      1790511736,
      1790511794,
      1790511837,
      1790511897,
      1790511912,
      1790511953,
      1790511999,
      1790512030,
      1790512070,
      1790512158,
      1790512188
    ],
    "wof:geomhash": "fafa9e9281c4c4cc55a2e0b63ac2c836",
    "wof:id": 2048450757,
    "wof:repo": "sfomuseum-data-flights-2026-09"
  },
  "bbox": [
    -122.52592,
    37.69271,
    -122.24159,
    38.50243
  ],
  "geometry": {"type":"LineString","coordinates":[[-122.52181,37.69271],[-122.52559,37.72256],[-122.52592,37.73986],[-122.52094,37.79377],[-122.44242,37.84115],[-122.41079,37.89722],[-122.37623,37.98905],[-122.36675,38.0123],[-122.34059,38.07695],[-122.30991,38.15427],[-122.28879,38.20759],[-122.26048,38.27934],[-122.24159,38.44503],[-122.24745,38.50243]]}
}
