{
  "id": 2048258575,
  "type": "Feature",
  "properties": {
    "geom:area": 0,
    "geom:bbox": "-122.361090,36.724520,-121.879780,37.613950",
    "geom:latitude": 37.21843319854108,
    "geom:longitude": -122.07143014290139,
    "src:alt_label": "swim-approach",
    "src:geom": "swim",
    "swim:elevations": [
      5647,
      5251,
      4873,
      4789,
      4341,
      4116,
      3570,
      3443,
      3106,
      3046,
      2698,
      2610,
      2328,
      2194,
      2040,
      1942,
      1727,
      1555,
      1463,
      1156,
      942,
      791,
      722,
      608,
      472,
      341,
      245,
      123,
      68,
      255
    ],
    "swim:geom": "approach",
    "swim:timestamps": [
      1788628870,
      1788628909,
      1788628942,
      1788628950,
      1788628991,
      1788629013,
      1788629065,
      1788629076,
      1788629118,
      1788629142,
      1788629186,
      1788629199,
      1788629243,
      1788629258,
      1788629289,
      1788629318,
      1788629362,
      1788629386,
      1788629403,
      1788629446,
      1788629487,
      1788629514,
      1788629532,
      1788629554,
      1788629588,
      1788629626,
      1788629661,
      1788629694,
      1788629710,
      1788629732
    ],
    "wof:geomhash": "3db1a88e316a2be2fda61556bdcbd710",
    "wof:id": 2048258575,
    "wof:repo": "sfomuseum-data-flights-2026-09"
  },
  "bbox": [
    -122.36109,
    36.72452,
    -121.87978,
    37.61395
  ],
  "geometry": {"type":"LineString","coordinates":[[-121.87978,36.72452],[-121.90676,36.7872],[-121.92256,36.84298],[-121.92633,36.85632],[-121.9452,36.9239],[-121.95583,36.95941],[-121.98719,37.03944],[-121.99361,37.05599],[-122.01795,37.11843],[-122.03149,37.15359],[-122.05629,37.21556],[-122.06298,37.2324],[-122.08643,37.29288],[-122.09403,37.31177],[-122.11005,37.35344],[-122.12351,37.38891],[-122.1404,37.43775],[-122.14858,37.46175],[-122.15372,37.47737],[-122.16607,37.51585],[-122.17938,37.55128],[-122.20328,37.56435],[-122.22029,37.57008],[-122.24038,37.57659],[-122.26826,37.58488],[-122.29497,37.59275],[-122.31691,37.59943],[-122.33836,37.60605],[-122.34817,37.60979],[-122.36109,37.61395]]}
}
