{
  "id": 2048300873,
  "type": "Feature",
  "properties": {
    "geom:area": 0,
    "geom:bbox": "-122.360860,37.493210,-121.962830,37.614220",
    "geom:latitude": 37.55121387088819,
    "geom:longitude": -122.16240768585286,
    "src:alt_label": "swim-approach",
    "src:geom": "swim",
    "swim:elevations": [
      1892,
      1741,
      1618,
      1392,
      1281,
      1110,
      999,
      903,
      676,
      637,
      426,
      273,
      241,
      39,
      0
    ],
    "swim:geom": "approach",
    "swim:timestamps": [
      1789059467,
      1789059500,
      1789059525,
      1789059559,
      1789059581,
      1789059626,
      1789059645,
      1789059666,
      1789059710,
      1789059720,
      1789059769,
      1789059804,
      1789059816,
      1789059866,
      1789059876
    ],
    "wof:geomhash": "adc129f07e6d3d54507e10341594c1c3",
    "wof:id": 2048300873,
    "wof:repo": "sfomuseum-data-flights-2026-09"
  },
  "bbox": [
    -122.36086,
    37.49321,
    -121.96283,
    37.61422
  ],
  "geometry": {"type":"LineString","coordinates":[[-121.96283,37.49321],[-122.00529,37.49985],[-122.03559,37.51006],[-122.07589,37.52315],[-122.09968,37.53088],[-122.14451,37.54549],[-122.16375,37.55168],[-122.18452,37.55837],[-122.22443,37.57144],[-122.23338,37.57432],[-122.27801,37.58782],[-122.30441,37.59587],[-122.31344,37.59856],[-122.35338,37.61193],[-122.36086,37.61422]]}
}
