{
  "id": 2048245725,
  "type": "Feature",
  "properties": {
    "geom:area": 0,
    "geom:bbox": "-122.406000,37.628110,-122.190210,37.745700",
    "geom:latitude": 37.68874792427295,
    "geom:longitude": -122.3089575697373,
    "src:alt_label": "swim-takeoff",
    "src:geom": "swim",
    "swim:elevations": [
      152,
      377,
      798,
      1081,
      1270,
      1848,
      2236,
      2710
    ],
    "swim:geom": "takeoff",
    "swim:timestamps": [
      1788449966,
      1788449984,
      1788450021,
      1788450043,
      1788450065,
      1788450117,
      1788450142,
      1788450173
    ],
    "wof:geomhash": "4d245ebf3589e8b5ebf03b5406be8aae",
    "wof:id": 2048245725,
    "wof:repo": "sfomuseum-data-flights-2026-09"
  },
  "bbox": [
    -122.406,
    37.62811,
    -122.19021,
    37.7457
  ],
  "geometry": {"type":"LineString","coordinates":[[-122.39167,37.62811],[-122.406,37.6379],[-122.39703,37.66655],[-122.3724,37.67328],[-122.34377,37.67812],[-122.26766,37.70164],[-122.22736,37.7149],[-122.19021,37.7457]]}
}
