{
  "id": 2048448557,
  "type": "Feature",
  "properties": {
    "geom:area": 0,
    "geom:bbox": "-122.353010,37.470080,-121.256840,37.611780",
    "geom:latitude": 37.5407770400257,
    "geom:longitude": -121.8086697882722,
    "src:alt_label": "swim-approach",
    "src:geom": "swim",
    "swim:elevations": [
      4945,
      4827,
      4624,
      4407,
      4207,
      4121,
      3999,
      3981,
      3601,
      3549,
      3197,
      3063,
      2788,
      2566,
      2527,
      2356,
      2130,
      2092,
      1947,
      1830,
      1744,
      1650,
      1403,
      1168,
      1070,
      940,
      690,
      625,
      506,
      392,
      208,
      65,
      42
    ],
    "swim:geom": "approach",
    "swim:timestamps": [
      1790520086,
      1790520100,
      1790520129,
      1790520166,
      1790520201,
      1790520224,
      1790520242,
      1790520245,
      1790520295,
      1790520303,
      1790520356,
      1790520375,
      1790520414,
      1790520448,
      1790520452,
      1790520480,
      1790520536,
      1790520545,
      1790520564,
      1790520592,
      1790520616,
      1790520632,
      1790520679,
      1790520737,
      1790520756,
      1790520790,
      1790520836,
      1790520846,
      1790520876,
      1790520907,
      1790520955,
      1790520986,
      1790520994
    ],
    "wof:geomhash": "1c98ae2907d7878eaeb3f841ac8e8fe8",
    "wof:id": 2048448557,
    "wof:repo": "sfomuseum-data-flights-2026-09"
  },
  "bbox": [
    -122.35301,
    37.47008,
    -121.25684,
    37.61178
  ],
  "geometry": {"type":"LineString","coordinates":[[-121.25684,37.59355],[-121.28213,37.59015],[-121.33371,37.58451],[-121.39409,37.57779],[-121.45134,37.57107],[-121.48632,37.56706],[-121.51256,37.56398],[-121.51683,37.56347],[-121.58761,37.55505],[-121.59909,37.55366],[-121.67148,37.53966],[-121.69643,37.53355],[-121.73572,37.50523],[-121.76718,37.47805],[-121.77185,37.47563],[-121.80754,37.47008],[-121.88173,37.47968],[-121.89422,37.48141],[-121.91911,37.48486],[-121.95612,37.48996],[-121.98627,37.49475],[-122.00492,37.50026],[-122.06118,37.51846],[-122.12507,37.53919],[-122.14566,37.54589],[-122.17974,37.55689],[-122.22472,37.5715],[-122.2347,37.57475],[-122.26356,37.58396],[-122.28873,37.59114],[-122.3252,37.60173],[-122.3478,37.60954],[-122.35301,37.61178]]}
}
