{
  "id": 2048382609,
  "type": "Feature",
  "properties": {
    "geom:area": 0,
    "geom:bbox": "-122.404860,37.624890,-121.514640,38.509010",
    "geom:latitude": 38.03397824252474,
    "geom:longitude": -121.94477943831447,
    "src:alt_label": "swim-takeoff",
    "src:geom": "swim",
    "swim:elevations": [
      152,
      534,
      688,
      1218,
      1612,
      1849,
      2419,
      2899,
      2989,
      3495,
      3985,
      4237,
      4483,
      5196,
      5578,
      5839,
      6033,
      6497,
      6984,
      7242,
      7347,
      7469,
      7596,
      7808,
      8277,
      8319
    ],
    "swim:geom": "takeoff",
    "swim:timestamps": [
      1789824079,
      1789824111,
      1789824124,
      1789824165,
      1789824194,
      1789824210,
      1789824240,
      1789824266,
      1789824273,
      1789824321,
      1789824356,
      1789824373,
      1789824390,
      1789824443,
      1789824473,
      1789824495,
      1789824512,
      1789824552,
      1789824593,
      1789824617,
      1789824633,
      1789824673,
      1789824691,
      1789824724,
      1789824778,
      1789824783
    ],
    "wof:geomhash": "39e601b9c8178d3189392785f36ed5a7",
    "wof:id": 2048382609,
    "wof:repo": "sfomuseum-data-flights-2026-09"
  },
  "bbox": [
    -122.40486,
    37.62489,
    -121.51464,
    38.50901
  ],
  "geometry": {"type":"LineString","coordinates":[[-122.38953,37.62489],[-122.40486,37.6467],[-122.39652,37.65624],[-122.34747,37.66961],[-122.30889,37.68314],[-122.28586,37.69177],[-122.24171,37.70812],[-122.20616,37.7274],[-122.19918,37.73394],[-122.14887,37.79099],[-122.10822,37.83527],[-122.08694,37.85853],[-122.06631,37.88123],[-122.00105,37.95353],[-121.9622,37.99625],[-121.93398,38.02722],[-121.91173,38.05166],[-121.85753,38.11295],[-121.80355,38.17639],[-121.76972,38.21589],[-121.74785,38.24122],[-121.68902,38.309],[-121.66179,38.34013],[-121.60922,38.40062],[-121.5215,38.50059],[-121.51464,38.50901]]}
}
