{
  "id": 2048232697,
  "type": "Feature",
  "properties": {
    "date:cessation_lower": "2026-09-02",
    "date:cessation_upper": "2026-09-02",
    "date:inception_lower": "1970-01-01",
    "date:inception_upper": "1970-01-01",
    "edtf:cessation": "2026-09-02T01:43:30-07:00",
    "edtf:inception": "1970-01-01T00:00:00Z",
    "flysfo:actual_timestamp": -1,
    "flysfo:airline": "UA",
    "flysfo:base_airline": "",
    "flysfo:base_flight_number": "7243",
    "flysfo:date": "2026-09-02",
    "flysfo:estimated_timestamp": 1788364200,
    "flysfo:event": "A",
    "flysfo:flight_number": "UA571",
    "flysfo:gate": "D14",
    "flysfo:journey": "ATL-SFO",
    "flysfo:scheduled_timestamp": 1788365580,
    "flysfo:timestamp": 1788365580,
    "geom:area": 0,
    "geom:bbox": "-122.370943,33.636518,-84.430686,37.617990",
    "geom:latitude": 35.627254,
    "geom:longitude": -103.4008145,
    "iata:airline": "UA",
    "iata:base_airline": "",
    "icao:aircraft": "B39M",
    "icao:airline": "UAL",
    "icao:base_airline": "CCA",
    "lbl:latitude": 37.618149,
    "lbl:longitude": -122.381669,
    "sfomuseum:aircraft_id": 1528104577,
    "sfomuseum:airline_id": 1159285413,
    "sfomuseum:arrival_id": 102527513,
    "sfomuseum:base_flight_id": "20260902-A-CCA-7243",
    "sfomuseum:departure_id": 102526927,
    "sfomuseum:flight_id": "20260902-A-UAL-571",
    "sfomuseum:flight_number": [
      "UAL571",
      "UA571"
    ],
    "sfomuseum:placetype": "flight",
    "src:geom": "flysfo",
    "src:geom_alt": [
      "swim-approach"
    ],
    "swim:tail_number": "N17435",
    "wof:belongsto": [
      1947304067,
      102527513,
      1947304595,
      102191575,
      85633793,
      102087579,
      85922583,
      554784711,
      85688637,
      1947304613,
      1947304591,
      102085387
    ],
    "wof:country": "US",
    "wof:created": 1788451696,
    "wof:geomhash": "ae92617dd2aca2afdb0c9096232ff0bb",
    "wof:hierarchy": [
      {
        "building_id": 1947304067,
        "campus_id": 102527513,
        "concourse_id": 1947304595,
        "continent_id": 102191575,
        "country_id": 85633793,
        "county_id": 102087579,
        "custom_id": 2048232697,
        "flight_id": 2048232697,
        "locality_id": 85922583,
        "postalcode_id": 554784711,
        "region_id": 85688637,
        "venue_id": 1947304613,
        "wing_id": 1947304591
      },
      {
        "building_id": 1947304067,
        "campus_id": 102527513,
        "concourse_id": 1947304595,
        "continent_id": 102191575,
        "country_id": 85633793,
        "county_id": 102085387,
        "custom_id": 2048232697,
        "flight_id": 2048232697,
        "region_id": 85688637,
        "venue_id": 1947304613,
        "wing_id": 1947304591
      }
    ],
    "wof:id": 2048232697,
    "wof:involves": [
      102527513,
      102526927,
      1159285413,
      1947304613,
      1159283605,
      1528104577
    ],
    "wof:lastmodified": 1788452268,
    "wof:name": "UA571 (ATL-SFO)",
    "wof:parent_id": 1947304613,
    "wof:placetype": "custom",
    "wof:placetype_alt": [
      "flight"
    ],
    "wof:repo": "sfomuseum-data-flights-2026-09",
    "wof:superseded_by": [],
    "wof:supersedes": []
  },
  "bbox": [
    -122.370943,
    33.636518,
    -84.430686,
    37.61799
  ],
  "geometry": {"type":"MultiPoint","coordinates":[[-84.430686,33.636518],[-122.370943,37.61799]]}
}
