{
  "id": 2048446159,
  "type": "Feature",
  "properties": {
    "geom:area": 0,
    "geom:bbox": "-122.233333,37.499722,-122.027778,37.566667",
    "geom:latitude": 37.52292504903951,
    "geom:longitude": -122.13250204673551,
    "src:alt_label": "swim-path",
    "src:geom": "swim",
    "swim:altitudes": [
      "051",
      "040",
      "041",
      "031",
      "021"
    ],
    "swim:geom": "path",
    "swim:speeds": [
      222,
      210,
      216,
      209,
      184
    ],
    "swim:timestamps": [
      1790558998,
      1790559052,
      1790559058,
      1790559113,
      1790559178
    ],
    "wof:geomhash": "06ce058eb849e1f2fd6b48d365013d7a",
    "wof:id": 2048446159,
    "wof:repo": "sfomuseum-data-flights-2026-09"
  },
  "bbox": [
    -122.23333333333333,
    37.499722222222225,
    -122.02777777777777,
    37.56666666666667
  ],
  "geometry": {"type":"LineString","coordinates":[[-122.02777777777777,37.499722222222225],[-122.1,37.5],[-122.10194444444444,37.50611111111111],[-122.16666666666667,37.53333333333333],[-122.23333333333333,37.56666666666667]]}
}
