{
  "id": 2048343973,
  "type": "Feature",
  "properties": {
    "geom:area": 0,
    "geom:bbox": "-123.481660,36.908060,-122.143250,37.613120",
    "geom:latitude": 37.272518609250795,
    "geom:longitude": -122.73089116229781,
    "src:alt_label": "swim-approach",
    "src:geom": "swim",
    "swim:elevations": [
      5819,
      5517,
      5179,
      4572,
      4512,
      3994,
      3744,
      3383,
      3266,
      3168,
      3087,
      3048,
      2996,
      2963,
      2848,
      2776,
      2743,
      2745,
      2679,
      2650,
      2612,
      2500,
      2414,
      2318,
      2222,
      1821,
      1605,
      1554,
      1362,
      1036,
      965,
      893,
      857,
      766,
      610,
      384,
      350,
      151,
      123,
      0
    ],
    "swim:geom": "approach",
    "swim:timestamps": [
      1789461825,
      1789461848,
      1789461877,
      1789461928,
      1789461932,
      1789461975,
      1789461996,
      1789462033,
      1789462064,
      1789462097,
      1789462129,
      1789462160,
      1789462193,
      1789462201,
      1789462256,
      1789462275,
      1789462310,
      1789462320,
      1789462366,
      1789462387,
      1789462412,
      1789462460,
      1789462484,
      1789462506,
      1789462540,
      1789462583,
      1789462601,
      1789462606,
      1789462624,
      1789462675,
      1789462688,
      1789462735,
      1789462746,
      1789462780,
      1789462807,
      1789462856,
      1789462865,
      1789462914,
      1789462922,
      1789462952
    ],
    "wof:geomhash": "756b88ee6b63e11e3fd217aa9cddeaa5",
    "wof:id": 2048343973,
    "wof:repo": "sfomuseum-data-flights-2026-09"
  },
  "bbox": [
    -123.48166,
    36.90806,
    -122.14325,
    37.61312
  ],
  "geometry": {"type":"LineString","coordinates":[[-123.48166,36.90806],[-123.43101,36.93737],[-123.37021,36.97265],[-123.26644,37.03102],[-123.25813,37.03578],[-123.17217,37.08422],[-123.13082,37.10733],[-123.06069,37.14713],[-123.00407,37.17883],[-122.9469,37.21091],[-122.89141,37.24194],[-122.83199,37.26505],[-122.76547,37.28046],[-122.75069,37.28394],[-122.66064,37.30521],[-122.63168,37.31169],[-122.57898,37.32376],[-122.56596,37.32676],[-122.50309,37.34141],[-122.47359,37.34825],[-122.43986,37.35608],[-122.37544,37.37088],[-122.34202,37.37859],[-122.31187,37.38547],[-122.26662,37.39583],[-122.21347,37.41582],[-122.19401,37.42782],[-122.18872,37.43115],[-122.1713,37.44425],[-122.14643,37.48923],[-122.14325,37.50102],[-122.17425,37.5327],[-122.18522,37.53802],[-122.21857,37.55267],[-122.24549,37.56413],[-122.29075,37.58327],[-122.29782,37.58622],[-122.3354,37.60204],[-122.34142,37.6046],[-122.36332,37.61312]]}
}
