{
  "id": 2048296373,
  "type": "Feature",
  "properties": {
    "geom:area": 0,
    "geom:bbox": "-122.564120,36.746600,-121.381410,37.666440",
    "geom:latitude": 37.194544056756,
    "geom:longitude": -122.07908895566206,
    "src:alt_label": "swim-takeoff",
    "src:geom": "swim",
    "swim:elevations": [
      152,
      381,
      646,
      1045,
      1221,
      1505,
      2280,
      2754,
      2908,
      3190,
      3489,
      3739,
      3877,
      4339,
      4535,
      4786,
      4990,
      5363,
      5592,
      5775,
      5975,
      6091,
      6396,
      6591,
      6793,
      7001,
      7181,
      7301,
      7503,
      7683,
      7697
    ],
    "swim:geom": "takeoff",
    "swim:timestamps": [
      1788955287,
      1788955309,
      1788955332,
      1788955367,
      1788955400,
      1788955432,
      1788955494,
      1788955525,
      1788955540,
      1788955565,
      1788955603,
      1788955641,
      1788955657,
      1788955707,
      1788955728,
      1788955756,
      1788955781,
      1788955820,
      1788955853,
      1788955881,
      1788955908,
      1788955927,
      1788955971,
      1788956000,
      1788956036,
      1788956067,
      1788956096,
      1788956114,
      1788956150,
      1788956187,
      1788956191
    ],
    "wof:geomhash": "0e018194a85fc25a82b8be323ed3267f",
    "wof:id": 2048296373,
    "wof:repo": "sfomuseum-data-flights-2026-09"
  },
  "bbox": [
    -122.56412,
    36.7466,
    -121.38141,
    37.66644
  ],
  "geometry": {"type":"LineString","coordinates":[[-122.39831,37.62844],[-122.41939,37.63761],[-122.44154,37.64695],[-122.47814,37.66321],[-122.51889,37.66644],[-122.54761,37.63747],[-122.56412,37.55992],[-122.54989,37.51966],[-122.54301,37.50125],[-122.52998,37.46911],[-122.49154,37.42315],[-122.44675,37.37394],[-122.42461,37.35388],[-122.33803,37.30236],[-122.30071,37.2816],[-122.24925,37.2521],[-122.20315,37.22549],[-122.13124,37.18369],[-122.0704,37.14822],[-122.01671,37.11695],[-121.96362,37.08598],[-121.92636,37.06424],[-121.83891,37.01359],[-121.78039,36.97961],[-121.70739,36.93699],[-121.64328,36.89949],[-121.58226,36.86377],[-121.54601,36.8425],[-121.47062,36.79804],[-121.3904,36.75207],[-121.38141,36.7466]]}
}
