{
  "id": 2048320597,
  "type": "Feature",
  "properties": {
    "geom:area": 0,
    "geom:bbox": "-122.413230,37.626810,-121.249880,38.422180",
    "geom:latitude": 38.082460998663116,
    "geom:longitude": -121.93670873249071,
    "src:alt_label": "swim-takeoff",
    "src:geom": "swim",
    "swim:elevations": [
      213,
      722,
      914,
      1077,
      1273,
      1504,
      1646,
      2333,
      2629,
      2883,
      3102,
      3262,
      3416,
      3525,
      3570,
      3924,
      4014,
      4416,
      4692,
      4842,
      5050,
      5174,
      5418,
      5572,
      5670,
      5758,
      5829,
      5968,
      6159
    ],
    "swim:geom": "takeoff",
    "swim:timestamps": [
      1789251882,
      1789251926,
      1789251951,
      1789251970,
      1789251985,
      1789252009,
      1789252021,
      1789252076,
      1789252106,
      1789252130,
      1789252154,
      1789252192,
      1789252225,
      1789252252,
      1789252261,
      1789252312,
      1789252325,
      1789252378,
      1789252405,
      1789252432,
      1789252468,
      1789252489,
      1789252520,
      1789252547,
      1789252562,
      1789252578,
      1789252595,
      1789252624,
      1789252660
    ],
    "wof:geomhash": "de43af9baa318631e197f8b3de6f0432",
    "wof:id": 2048320597,
    "wof:repo": "sfomuseum-data-flights-2026-09"
  },
  "bbox": [
    -122.41323,
    37.62681,
    -121.24988,
    38.42218
  ],
  "geometry": {"type":"LineString","coordinates":[[-122.39458,37.62681],[-122.41323,37.65735],[-122.39242,37.67839],[-122.3735,37.69419],[-122.35821,37.70801],[-122.33945,37.73346],[-122.33931,37.74851],[-122.37067,37.81254],[-122.38511,37.84967],[-122.38595,37.88252],[-122.38405,37.9158],[-122.34476,37.96336],[-122.27931,37.98622],[-122.22232,38.00658],[-122.20291,38.01395],[-122.08966,38.05886],[-122.06173,38.06997],[-121.93959,38.11853],[-121.87614,38.14363],[-121.81188,38.16915],[-121.72427,38.20392],[-121.67256,38.22458],[-121.59328,38.25587],[-121.52677,38.28223],[-121.48717,38.29786],[-121.44821,38.31328],[-121.40535,38.33207],[-121.33458,38.37027],[-121.24988,38.42218]]}
}
