{
  "id": 2048396071,
  "type": "Feature",
  "properties": {
    "geom:area": 0,
    "geom:bbox": "-122.355410,36.720330,-121.877350,37.610400",
    "geom:latitude": 37.20899883175475,
    "geom:longitude": -122.06867182483045,
    "src:alt_label": "swim-approach",
    "src:geom": "swim",
    "swim:elevations": [
      5712,
      5488,
      5128,
      5034,
      4526,
      4424,
      3962,
      3772,
      3752,
      3357,
      3174,
      3076,
      2801,
      2653,
      2444,
      2237,
      2026,
      1896,
      1692,
      1523,
      1524,
      1516,
      1226,
      1187,
      919,
      782,
      424,
      331,
      211,
      151,
      31
    ],
    "swim:geom": "approach",
    "swim:timestamps": [
      1790010018,
      1790010035,
      1790010079,
      1790010091,
      1790010145,
      1790010155,
      1790010202,
      1790010238,
      1790010243,
      1790010284,
      1790010302,
      1790010330,
      1790010373,
      1790010403,
      1790010438,
      1790010474,
      1790010508,
      1790010530,
      1790010564,
      1790010595,
      1790010620,
      1790010646,
      1790010686,
      1790010704,
      1790010735,
      1790010750,
      1790010802,
      1790010827,
      1790010851,
      1790010875,
      1790010904
    ],
    "wof:geomhash": "c52ed80a5c8ae4a8e7f4258dbf2bbf0f",
    "wof:id": 2048396071,
    "wof:repo": "sfomuseum-data-flights-2026-09"
  },
  "bbox": [
    -122.35541,
    36.72033,
    -121.87735,
    37.6104
  ],
  "geometry": {"type":"LineString","coordinates":[[-121.87735,36.72033],[-121.8921,36.74474],[-121.91317,36.80929],[-121.91788,36.82637],[-121.93915,36.90247],[-121.94326,36.91715],[-121.96519,36.98305],[-121.98447,37.03238],[-121.9867,37.03824],[-122.00659,37.08907],[-122.01484,37.11042],[-122.02851,37.1451],[-122.04821,37.19574],[-122.06139,37.22903],[-122.07677,37.26844],[-122.09203,37.30715],[-122.10624,37.34304],[-122.11497,37.36527],[-122.12746,37.40009],[-122.13822,37.43122],[-122.14685,37.45681],[-122.15584,37.4833],[-122.16996,37.52366],[-122.1827,37.53739],[-122.2147,37.55033],[-122.22878,37.5561],[-122.27793,37.57796],[-122.29704,37.58567],[-122.3152,37.59357],[-122.33342,37.60119],[-122.35541,37.6104]]}
}
