{
  "id": 2048457965,
  "type": "Feature",
  "properties": {
    "geom:area": 0,
    "geom:bbox": "-122.660310,37.538150,-122.103050,38.488620",
    "geom:latitude": 37.87691294689289,
    "geom:longitude": -122.43339424473162,
    "src:alt_label": "swim-approach",
    "src:geom": "swim",
    "swim:elevations": [
      7381,
      7163,
      6555,
      6216,
      6123,
      5912,
      5784,
      5609,
      5256,
      4563,
      4358,
      4325,
      4154,
      3940,
      3572,
      3413,
      3359,
      3353,
      3353,
      3341,
      2934,
      2777,
      2609,
      2124,
      1943,
      1614,
      1524,
      1436,
      1285,
      1259,
      1209,
      1165,
      831,
      708,
      567,
      475,
      367,
      304,
      245,
      141,
      63
    ],
    "swim:geom": "approach",
    "swim:timestamps": [
      1790628142,
      1790628160,
      1790628203,
      1790628234,
      1790628243,
      1790628263,
      1790628273,
      1790628289,
      1790628322,
      1790628385,
      1790628418,
      1790628437,
      1790628472,
      1790628497,
      1790628536,
      1790628562,
      1790628580,
      1790628616,
      1790628654,
      1790628666,
      1790628717,
      1790628735,
      1790628753,
      1790628804,
      1790628823,
      1790628862,
      1790628894,
      1790628924,
      1790628953,
      1790628961,
      1790628999,
      1790629026,
      1790629077,
      1790629099,
      1790629115,
      1790629131,
      1790629163,
      1790629177,
      1790629200,
      1790629226,
      1790629246
    ],
    "wof:geomhash": "69107c6f5927874194aacf439e0eaa9f",
    "wof:id": 2048457965,
    "wof:repo": "sfomuseum-data-flights-2026-09"
  },
  "bbox": [
    -122.66031,
    37.53815,
    -122.10305,
    38.48862
  ],
  "geometry": {"type":"LineString","coordinates":[[-122.48083,38.48862],[-122.49978,38.4523],[-122.5266,38.36886],[-122.54476,38.30899],[-122.55007,38.29173],[-122.56191,38.25363],[-122.56793,38.23447],[-122.57773,38.20359],[-122.59731,38.14154],[-122.6329,38.02774],[-122.6505,37.97116],[-122.66031,37.93911],[-122.65053,37.88108],[-122.61975,37.84823],[-122.56663,37.79862],[-122.53158,37.76595],[-122.50824,37.74404],[-122.46248,37.70885],[-122.40638,37.6931],[-122.39017,37.68866],[-122.32118,37.66987],[-122.29836,37.66406],[-122.27342,37.65837],[-122.20836,37.64158],[-122.18527,37.63457],[-122.13585,37.61895],[-122.10305,37.59877],[-122.10527,37.56981],[-122.11683,37.54331],[-122.12308,37.53815],[-122.15598,37.54371],[-122.17717,37.55386],[-122.2206,37.56955],[-122.23866,37.57557],[-122.25214,37.58],[-122.26598,37.58438],[-122.29059,37.59176],[-122.30093,37.59501],[-122.31888,37.60072],[-122.33869,37.60646],[-122.35348,37.612]]}
}
