{
  "id": 2048304751,
  "type": "Feature",
  "properties": {
    "date:inception_lower": "2026-09-10",
    "date:inception_upper": "2026-09-10",
    "edtf:cessation": "",
    "edtf:inception": "2026-09-10",
    "flysfo:actual_timestamp": -1,
    "flysfo:airline": "SK",
    "flysfo:base_airline": "",
    "flysfo:base_flight_number": "2718",
    "flysfo:date": "2026-09-10",
    "flysfo:estimated_timestamp": 1789075800,
    "flysfo:event": "D",
    "flysfo:flight_number": "SK3932",
    "flysfo:gate": "C5",
    "flysfo:journey": "SFO-LAX",
    "flysfo:scheduled_timestamp": 1789075800,
    "flysfo:timestamp": 1789075800,
    "geom:area": 0,
    "geom:bbox": "-122.370943,33.942593,-118.389510,37.617990",
    "geom:latitude": 35.780291500000004,
    "geom:longitude": -120.38022649999999,
    "iata:airline": "SK",
    "iata:base_airline": "",
    "icao:airline": "SAS",
    "icao:base_airline": "AFR",
    "lbl:latitude": 37.615184,
    "lbl:longitude": -122.382965,
    "sfomuseum:airline_id": 1159285129,
    "sfomuseum:arrival_id": 102533795,
    "sfomuseum:base_flight_id": "20260910-D-AFR-2718",
    "sfomuseum:departure_id": 102527513,
    "sfomuseum:flight_id": "20260910-D-SAS-3932",
    "sfomuseum:flight_number": [
      "SAS3932",
      "SK3932"
    ],
    "sfomuseum:placetype": "flight",
    "src:geom": "flysfo",
    "wof:belongsto": [
      1947304067,
      102527513,
      1947304663,
      102191575,
      85633793,
      102087579,
      85922583,
      554784711,
      85688637,
      1947304675,
      1947304591,
      102085387
    ],
    "wof:country": "US",
    "wof:created": 1789143313,
    "wof:geomhash": "602be2a828e3460cadf44be5b1c2e36b",
    "wof:hierarchy": [
      {
        "building_id": 1947304067,
        "campus_id": 102527513,
        "concourse_id": 1947304663,
        "continent_id": 102191575,
        "country_id": 85633793,
        "county_id": 102087579,
        "custom_id": 2048304751,
        "flight_id": 2048304751,
        "locality_id": 85922583,
        "postalcode_id": 554784711,
        "region_id": 85688637,
        "venue_id": 1947304675,
        "wing_id": 1947304591
      },
      {
        "building_id": 1947304067,
        "campus_id": 102527513,
        "concourse_id": 1947304663,
        "continent_id": 102191575,
        "country_id": 85633793,
        "county_id": 102085387,
        "custom_id": 2048304751,
        "flight_id": 2048304751,
        "region_id": 85688637,
        "venue_id": 1947304675,
        "wing_id": 1947304591
      }
    ],
    "wof:id": 2048304751,
    "wof:involves": [
      102533795,
      102527513,
      1159285129,
      1947304675,
      1159283627
    ],
    "wof:lastmodified": 1789143313,
    "wof:name": "SK3932 (SFO-LAX)",
    "wof:parent_id": 1947304675,
    "wof:placetype": "custom",
    "wof:placetype_alt": [
      "flight"
    ],
    "wof:repo": "sfomuseum-data-flights-2026-09",
    "wof:superseded_by": [],
    "wof:supersedes": []
  },
  "bbox": [
    -122.370943,
    33.942593,
    -118.38951,
    37.61799
  ],
  "geometry": {"type":"MultiPoint","coordinates":[[-122.370943,37.61799],[-118.38951,33.942593]]}
}
