{
  "id": 2048418083,
  "type": "Feature",
  "properties": {
    "geom:area": 0,
    "geom:bbox": "-122.358280,37.491680,-121.242370,37.613920",
    "geom:latitude": 37.54728048107452,
    "geom:longitude": -121.80520179587063,
    "src:alt_label": "swim-approach",
    "src:geom": "swim",
    "swim:elevations": [
      4746,
      4466,
      4385,
      3928,
      3835,
      3718,
      3445,
      3258,
      3244,
      3183,
      3078,
      2762,
      2588,
      2559,
      2340,
      2072,
      2013,
      1925,
      1727,
      1603,
      1385,
      1339,
      960,
      912,
      898,
      874,
      547,
      532,
      395,
      210,
      116,
      29
    ],
    "swim:geom": "approach",
    "swim:timestamps": [
      1790237757,
      1790237785,
      1790237795,
      1790237845,
      1790237854,
      1790237867,
      1790237897,
      1790237938,
      1790237942,
      1790237956,
      1790237984,
      1790238025,
      1790238050,
      1790238061,
      1790238101,
      1790238145,
      1790238162,
      1790238182,
      1790238219,
      1790238238,
      1790238267,
      1790238274,
      1790238328,
      1790238338,
      1790238350,
      1790238362,
      1790238416,
      1790238425,
      1790238457,
      1790238493,
      1790238525,
      1790238550
    ],
    "wof:geomhash": "87c353441a16ffe70f8394b6677c7433",
    "wof:id": 2048418083,
    "wof:repo": "sfomuseum-data-flights-2026-09"
  },
  "bbox": [
    -122.35828,
    37.49168,
    -121.24237,
    37.61392
  ],
  "geometry": {"type":"LineString","coordinates":[[-121.24237,37.59545],[-121.29809,37.5882],[-121.31861,37.58602],[-121.41816,37.57506],[-121.43592,37.57305],[-121.45965,37.57025],[-121.51882,37.56312],[-121.5931,37.55448],[-121.59968,37.55373],[-121.62308,37.55079],[-121.6658,37.54097],[-121.72536,37.52686],[-121.76124,37.51825],[-121.77704,37.51445],[-121.83325,37.50098],[-121.89694,37.49168],[-121.92116,37.49238],[-121.9516,37.49305],[-122.00513,37.50042],[-122.03039,37.50878],[-122.0698,37.52139],[-122.0783,37.52415],[-122.14611,37.54608],[-122.15905,37.55026],[-122.17361,37.55505],[-122.18694,37.55936],[-122.24435,37.57778],[-122.25392,37.58085],[-122.28593,37.59052],[-122.3167,37.59939],[-122.3411,37.60697],[-122.35828,37.61392]]}
}
