{
  "id": 2048317679,
  "type": "Feature",
  "properties": {
    "geom:area": 0,
    "geom:bbox": "-122.361820,36.844980,-121.923210,37.615320",
    "geom:latitude": 37.27907995668367,
    "geom:longitude": -122.0896223733321,
    "src:alt_label": "swim-approach",
    "src:geom": "swim",
    "swim:elevations": [
      5036,
      4617,
      4437,
      4264,
      3959,
      3805,
      3724,
      3507,
      3451,
      3196,
      3076,
      2784,
      2712,
      2395,
      2212,
      1859,
      1836,
      1583,
      1500,
      1243,
      1187,
      1071,
      974,
      954,
      885,
      670,
      537,
      459,
      302,
      242,
      201,
      41,
      235
    ],
    "swim:geom": "approach",
    "swim:timestamps": [
      1789235521,
      1789235561,
      1789235581,
      1789235601,
      1789235637,
      1789235657,
      1789235668,
      1789235695,
      1789235703,
      1789235758,
      1789235782,
      1789235817,
      1789235827,
      1789235871,
      1789235888,
      1789235936,
      1789235944,
      1789235993,
      1789236012,
      1789236052,
      1789236061,
      1789236084,
      1789236116,
      1789236137,
      1789236152,
      1789236196,
      1789236234,
      1789236254,
      1789236298,
      1789236319,
      1789236331,
      1789236388,
      1789236397
    ],
    "wof:geomhash": "b76ad9925eded72781b7e9f21a8581fc",
    "wof:id": 2048317679,
    "wof:repo": "sfomuseum-data-flights-2026-09"
  },
  "bbox": [
    -122.36182,
    36.84498,
    -121.92321,
    37.61532
  ],
  "geometry": {"type":"LineString","coordinates":[[-121.92321,36.84498],[-121.94094,36.9094],[-121.94981,36.94189],[-121.96003,36.97041],[-121.97966,37.02149],[-121.99037,37.04751],[-121.99651,37.06251],[-122.01057,37.09817],[-122.01442,37.10815],[-122.03978,37.1749],[-122.05025,37.20094],[-122.06551,37.23903],[-122.06972,37.25018],[-122.08837,37.29822],[-122.09576,37.31626],[-122.09541,37.37077],[-122.09395,37.37887],[-122.09447,37.42949],[-122.09949,37.44686],[-122.12434,37.479],[-122.13066,37.48673],[-122.14485,37.50413],[-122.16225,37.5275],[-122.17752,37.53804],[-122.19007,37.54351],[-122.22903,37.55958],[-122.25824,37.57196],[-122.27219,37.57775],[-122.30025,37.58952],[-122.31287,37.59488],[-122.32024,37.59807],[-122.35573,37.61295],[-122.36182,37.61532]]}
}
