{
  "id": 2048467093,
  "type": "Feature",
  "properties": {
    "geom:area": 0,
    "geom:bbox": "-122.313333,37.491667,-86.350000,40.180556",
    "geom:latitude": 39.39391192438552,
    "geom:longitude": -104.36910538221332,
    "src:alt_label": "swim-path",
    "src:geom": "swim",
    "swim:altitudes": [
      "023",
      "049",
      "057",
      "090",
      "119",
      "137",
      "161",
      "185",
      "206",
      "225",
      "261",
      "279",
      "299",
      "314",
      "320C",
      "320C",
      "320C",
      "320C",
      "320C",
      "320C",
      "320C",
      "320C",
      "320C",
      "320C",
      "320C",
      "320C",
      "320C",
      "320C",
      "320C",
      "320C",
      "320C",
      "320C",
      "320C",
      "320C",
      "320C",
      "320C",
      "320C",
      "320C",
      "320C",
      "320C",
      "320C",
      "320C",
      "320C",
      "320C",
      "320C",
      "320C",
      "320C",
      "320C",
      "320C",
      "320C",
      "320C",
      "320C",
      "320C",
      "320C",
      "320C",
      "320C",
      "320C",
      "320C",
      "320C",
      "320C",
      "320C",
      "320C",
      "320C",
      "320C",
      "320C",
      "320C",
      "320C",
      "320C",
      "320C",
      "320C",
      "320C",
      "320C",
      "320C",
      "320C",
      "320C",
      "320C",
      "320C",
      "320C",
      "320C",
      "320C",
      "320C",
      "320C",
      "320C",
      "320C",
      "320C",
      "320C",
      "320C",
      "320C",
      "320C",
      "320C",
      "320C",
      "320C",
      "320C",
      "320C",
      "320C",
      "320C",
      "320C",
      "320C",
      "320C",
      "320C",
      "320C",
      "320C",
      "320C",
      "320C",
      "320C",
      "320C",
      "320C",
      "320C",
      "320C",
      "320C",
      "320C",
      "320C",
      "320C",
      "320C",
      "320C",
      "320C",
      "320C",
      "320C",
      "320C",
      "320C",
      "320C",
      "320C",
      "320C",
      "320C",
      "309",
      "298",
      "289",
      "280C",
      "280C",
      "280C",
      "280C",
      "280C",
      "280C",
      "280C",
      "280C",
      "280C",
      "280C",
      "280C",
      "280C",
      "280C",
      "280C",
      "280C",
      "280C",
      "280C",
      "280C",
      "280C",
      "280C",
      "280C",
      "280C",
      "280C",
      "280C",
      "280C",
      "280C",
      "280C",
      "280C",
      "280C",
      "280C",
      "280C",
      "280C",
      "280C",
      "280C",
      "280C",
      "280C",
      "280C",
      "280C",
      "280C",
      "280C",
      "280C",
      "280C",
      "280C",
      "280C",
      "280C",
      "280C",
      "280C",
      "280C",
      "280",
      "286",
      "297",
      "304",
      "313",
      "322",
      "343",
      "352",
      "358C",
      "360C",
      "360C",
      "360C",
      "360C",
      "360C",
      "360C",
      "360",
      "361",
      "367",
      "376",
      "380C",
      "380C",
      "380C",
      "380C",
      "380C",
      "380C",
      "380C",
      "380C",
      "380C",
      "380C",
      "380C",
      "380C",
      "380C",
      "380C",
      "380C",
      "380C",
      "380C",
      "380C",
      "380C",
      "380C",
      "380C",
      "380C",
      "380C",
      "380C",
      "380C",
      "380C",
      "380C",
      "380C",
      "380C",
      "380C",
      "380C",
      "380C",
      "380C",
      "380C",
      "380C",
      "380C",
      "380C",
      "380C",
      "380C",
      "380C",
      "380C",
      "380C",
      "380C",
      "380C",
      "380C",
      "380C",
      "380C",
      "380C",
      "380C",
      "380C",
      "380C",
      "380C",
      "380C",
      "380C",
      "380C",
      "380C",
      "380C",
      "380C",
      "380C",
      "380C",
      "380C",
      "380C",
      "380C",
      "380C",
      "380C",
      "380C",
      "380C",
      "380C",
      "380C",
      "380C",
      "380C",
      "380C",
      "380C",
      "380C",
      "380C",
      "380C",
      "380C",
      "380C",
      "380C",
      "380C",
      "380C",
      "380C",
      "380C",
      "380C",
      "380C",
      "380C",
      "380C",
      "380C",
      "380C",
      "380C",
      "380C",
      "380C",
      "380C",
      "380C",
      "380C",
      "380C",
      "380C",
      "380C",
      "380C",
      "380C",
      "380C",
      "380C",
      "380C",
      "380C",
      "380C",
      "380C",
      "380C",
      "380C",
      "380C",
      "380C",
      "380C",
      "380C",
      "380C",
      "380C",
      "380C",
      "380C",
      "380C",
      "380C",
      "380C",
      "380C",
      "380C",
      "380C",
      "380C",
      "380C",
      "380C",
      "380",
      "380",
      "380",
      "380",
      "377",
      "356",
      "327",
      "293",
      "268",
      "244",
      "226",
      "206",
      "181",
      "183",
      "158",
      "136",
      "115",
      "100",
      "088",
      "077",
      "070",
      "060",
      "049",
      "037",
      "025",
      "016",
      "015",
      "008"
    ],
    "swim:geom": "path",
    "swim:speeds": [
      208,
      252,
      265,
      283,
      293,
      351,
      373,
      380,
      395,
      412,
      432,
      439,
      436,
      435,
      429,
      424,
      423,
      421,
      415,
      404,
      405,
      406,
      407,
      408,
      414,
      414,
      415,
      414,
      414,
      413,
      412,
      411,
      410,
      408,
      407,
      406,
      405,
      404,
      404,
      404,
      404,
      404,
      406,
      405,
      405,
      407,
      408,
      409,
      408,
      407,
      406,
      405,
      404,
      404,
      404,
      403,
      402,
      401,
      398,
      397,
      396,
      397,
      398,
      399,
      399,
      398,
      397,
      396,
      395,
      395,
      396,
      397,
      398,
      399,
      399,
      399,
      400,
      399,
      397,
      399,
      399,
      402,
      399,
      401,
      400,
      401,
      399,
      399,
      397,
      397,
      395,
      393,
      391,
      391,
      389,
      389,
      388,
      388,
      389,
      389,
      389,
      390,
      391,
      391,
      392,
      393,
      393,
      393,
      393,
      393,
      393,
      394,
      394,
      394,
      394,
      395,
      395,
      395,
      398,
      395,
      394,
      394,
      394,
      393,
      371,
      360,
      361,
      382,
      420,
      409,
      420,
      415,
      420,
      416,
      422,
      416,
      424,
      418,
      425,
      420,
      427,
      423,
      428,
      423,
      429,
      423,
      430,
      424,
      431,
      425,
      431,
      430,
      432,
      434,
      431,
      434,
      434,
      434,
      435,
      437,
      436,
      439,
      437,
      442,
      437,
      443,
      438,
      444,
      445,
      445,
      446,
      444,
      445,
      442,
      443,
      442,
      443,
      440,
      442,
      436,
      436,
      425,
      409,
      411,
      407,
      406,
      406,
      406,
      400,
      403,
      397,
      395,
      395,
      393,
      385,
      386,
      383,
      382,
      381,
      381,
      380,
      381,
      382,
      382,
      386,
      383,
      386,
      385,
      386,
      385,
      385,
      384,
      385,
      386,
      386,
      387,
      387,
      388,
      388,
      388,
      389,
      389,
      390,
      390,
      391,
      391,
      392,
      392,
      394,
      397,
      397,
      399,
      401,
      402,
      404,
      405,
      407,
      409,
      411,
      411,
      413,
      414,
      415,
      415,
      416,
      418,
      420,
      425,
      432,
      436,
      439,
      441,
      443,
      442,
      441,
      440,
      438,
      437,
      435,
      434,
      434,
      434,
      434,
      435,
      437,
      437,
      437,
      437,
      436,
      436,
      438,
      439,
      441,
      441,
      442,
      444,
      444,
      445,
      445,
      445,
      447,
      445,
      448,
      451,
      449,
      451,
      449,
      449,
      448,
      448,
      448,
      448,
      448,
      451,
      451,
      453,
      454,
      456,
      459,
      460,
      465,
      465,
      464,
      463,
      463,
      457,
      456,
      453,
      452,
      449,
      448,
      448,
      448,
      449,
      449,
      454,
      457,
      456,
      453,
      451,
      451,
      453,
      453,
      450,
      460,
      462,
      465,
      457,
      439,
      409,
      404,
      391,
      396,
      386,
      373,
      363,
      338,
      307,
      292,
      259,
      237,
      226,
      225,
      217,
      178,
      161,
      150
    ],
    "swim:timestamps": [
      1790676947,
      1790677007,
      1790677029,
      1790677089,
      1790677149,
      1790677210,
      1790677270,
      1790677330,
      1790677390,
      1790677450,
      1790677570,
      1790677630,
      1790677690,
      1790677750,
      1790677810,
      1790677870,
      1790677930,
      1790677991,
      1790678051,
      1790678170,
      1790678230,
      1790678290,
      1790678351,
      1790678410,
      1790678471,
      1790678532,
      1790678593,
      1790678653,
      1790678712,
      1790678771,
      1790678833,
      1790678892,
      1790678953,
      1790679013,
      1790679071,
      1790679131,
      1790679191,
      1790679252,
      1790679311,
      1790679373,
      1790679432,
      1790679493,
      1790679552,
      1790679671,
      1790679731,
      1790679791,
      1790679852,
      1790679912,
      1790679972,
      1790680032,
      1790680094,
      1790680152,
      1790680212,
      1790680272,
      1790680332,
      1790680392,
      1790680453,
      1790680513,
      1790680571,
      1790680633,
      1790680693,
      1790680753,
      1790680812,
      1790680873,
      1790680933,
      1790680992,
      1790681052,
      1790681113,
      1790681172,
      1790681232,
      1790681292,
      1790681353,
      1790681413,
      1790681473,
      1790681533,
      1790681593,
      1790681636,
      1790681665,
      1790681696,
      1790681715,
      1790681725,
      1790681756,
      1790681785,
      1790681816,
      1790681845,
      1790681876,
      1790681906,
      1790681936,
      1790681966,
      1790681996,
      1790682026,
      1790682056,
      1790682086,
      1790682116,
      1790682146,
      1790682176,
      1790682206,
      1790682236,
      1790682266,
      1790682296,
      1790682326,
      1790682356,
      1790682386,
      1790682416,
      1790682446,
      1790682476,
      1790682506,
      1790682536,
      1790682566,
      1790682596,
      1790682626,
      1790682656,
      1790682686,
      1790682716,
      1790682746,
      1790682776,
      1790682806,
      1790682836,
      1790682866,
      1790682896,
      1790682956,
      1790683016,
      1790683076,
      1790683136,
      1790683257,
      1790683317,
      1790683377,
      1790683437,
      1790683557,
      1790683589,
      1790683617,
      1790683649,
      1790683677,
      1790683709,
      1790683737,
      1790683769,
      1790683797,
      1790683829,
      1790683857,
      1790683889,
      1790683917,
      1790683950,
      1790683977,
      1790684010,
      1790684037,
      1790684070,
      1790684097,
      1790684130,
      1790684157,
      1790684190,
      1790684217,
      1790684250,
      1790684277,
      1790684310,
      1790684337,
      1790684370,
      1790684397,
      1790684430,
      1790684490,
      1790684517,
      1790684550,
      1790684577,
      1790684610,
      1790684637,
      1790684670,
      1790684697,
      1790684730,
      1790684757,
      1790684790,
      1790684818,
      1790684850,
      1790684878,
      1790684910,
      1790684938,
      1790684970,
      1790684998,
      1790685030,
      1790685058,
      1790685090,
      1790685118,
      1790685150,
      1790685210,
      1790685238,
      1790685270,
      1790685298,
      1790685330,
      1790685358,
      1790685390,
      1790685418,
      1790685450,
      1790685478,
      1790685510,
      1790685538,
      1790685570,
      1790685598,
      1790685630,
      1790685658,
      1790685690,
      1790685718,
      1790685750,
      1790685778,
      1790685811,
      1790685871,
      1790685898,
      1790685931,
      1790685958,
      1790685991,
      1790686018,
      1790686051,
      1790686078,
      1790686111,
      1790686138,
      1790686171,
      1790686198,
      1790686231,
      1790686259,
      1790686291,
      1790686319,
      1790686351,
      1790686379,
      1790686411,
      1790686439,
      1790686471,
      1790686499,
      1790686531,
      1790686559,
      1790686591,
      1790686619,
      1790686651,
      1790686679,
      1790686711,
      1790686739,
      1790686771,
      1790686799,
      1790686831,
      1790686859,
      1790686891,
      1790686919,
      1790686951,
      1790686979,
      1790687011,
      1790687039,
      1790687071,
      1790687099,
      1790687132,
      1790687192,
      1790687252,
      1790687312,
      1790687372,
      1790687432,
      1790687492,
      1790687552,
      1790687612,
      1790687672,
      1790687732,
      1790687792,
      1790687852,
      1790687912,
      1790687972,
      1790688032,
      1790688092,
      1790688152,
      1790688213,
      1790688273,
      1790688333,
      1790688393,
      1790688453,
      1790688513,
      1790688573,
      1790688633,
      1790688693,
      1790688753,
      1790688813,
      1790688857,
      1790688873,
      1790688917,
      1790688933,
      1790688977,
      1790688993,
      1790689037,
      1790689053,
      1790689097,
      1790689114,
      1790689157,
      1790689174,
      1790689217,
      1790689234,
      1790689277,
      1790689294,
      1790689337,
      1790689354,
      1790689397,
      1790689414,
      1790689457,
      1790689474,
      1790689517,
      1790689534,
      1790689594,
      1790689637,
      1790689654,
      1790689697,
      1790689757,
      1790689774,
      1790689817,
      1790689834,
      1790689878,
      1790689894,
      1790689938,
      1790689955,
      1790689998,
      1790690015,
      1790690058,
      1790690075,
      1790690118,
      1790690135,
      1790690178,
      1790690238,
      1790690298,
      1790690358,
      1790690418,
      1790690478,
      1790690538,
      1790690598,
      1790690658,
      1790690718,
      1790690778,
      1790690838,
      1790690898,
      1790690958,
      1790691015,
      1790691079,
      1790691129,
      1790691139,
      1790691199,
      1790691259,
      1790691319,
      1790691379,
      1790691442,
      1790691499,
      1790691559,
      1790691619,
      1790691679,
      1790691739,
      1790691799,
      1790691859,
      1790691868,
      1790691919
    ],
    "wof:geomhash": "08eced89146dc02cbe749b8eb90e0bf0",
    "wof:id": 2048467093,
    "wof:repo": "sfomuseum-data-flights-2026-09"
  },
  "bbox": [
    -122.31333333333333,
    37.49166666666667,
    -86.35,
    40.18055555555555
  ],
  "geometry": {"type":"LineString","coordinates":[[-86.35,39.68333333333333],[-86.41666666666667,39.65],[-86.44500000000001,39.64111111111111],[-86.54472222222222,39.62388888888889],[-86.64750000000001,39.61944444444445],[-86.76888888888888,39.619166666666665],[-86.90222222222222,39.61805555555556],[-87.03944444444444,39.61666666666667],[-87.18,39.61527777777778],[-87.32388888888889,39.61388888888889],[-87.63166666666666,39.61027777777778],[-87.78972222222222,39.60805555555556],[-87.94722222222222,39.60527777777778],[-88.10277777777777,39.60305555555556],[-88.25638888888889,39.6],[-88.39777777777779,39.597500000000004],[-88.54833333333333,39.59444444444445],[-88.69833333333334,39.590833333333336],[-88.84861111111111,39.594722222222224],[-89.13472222222222,39.67861111111111],[-89.27027777777778,39.719166666666666],[-89.4088888888889,39.76027777777778],[-89.54472222222222,39.800555555555555],[-89.68583333333333,39.83833333333334],[-89.83444444444444,39.85194444444445],[-89.98444444444445,39.86333333333334],[-90.135,39.874722222222225],[-90.285,39.885555555555555],[-90.43277777777779,39.896388888888886],[-90.55138888888888,39.905],[-90.70083333333334,39.915277777777774],[-90.84638888888888,39.92527777777777],[-91.02222222222223,39.93722222222222],[-91.16944444444445,39.94694444444444],[-91.31527777777778,39.95638888888889],[-91.46166666666667,39.96555555555556],[-91.60555555555555,39.974444444444444],[-91.75166666666667,39.983333333333334],[-91.89750000000001,39.992222222222225],[-92.04305555555555,40.00055555555556],[-92.16027777777778,40.0075],[-92.30694444444444,40.01555555555556],[-92.47555555555556,40.02472222222222],[-92.75222222222222,40.03944444444444],[-92.89833333333334,40.04694444444444],[-93.04777777777778,40.05416666666667],[-93.19583333333334,40.061388888888885],[-93.34416666666667,40.068333333333335],[-93.49222222222222,40.075],[-93.6388888888889,40.08166666666667],[-93.78444444444445,40.08777777777778],[-93.92944444444444,40.09388888888889],[-94.07555555555555,40.1],[-94.22222222222223,40.10583333333334],[-94.36888888888888,40.11138888888889],[-94.51416666666667,40.11666666666667],[-94.66222222222223,40.121944444444445],[-94.80527777777777,40.12694444444445],[-94.94833333333334,40.13166666666667],[-95.09194444444444,40.13611111111111],[-95.23361111111112,40.14055555555556],[-95.3786111111111,40.14472222222222],[-95.49166666666667,40.147777777777776],[-95.66916666666667,40.15277777777778],[-95.81472222222222,40.156388888888884],[-95.95138888888889,40.15972222222222],[-96.09444444444443,40.16305555555555],[-96.24694444444445,40.16638888888889],[-96.39277777777778,40.16888888888889],[-96.535,40.17055555555555],[-96.66833333333334,40.1725],[-96.82194444444444,40.174166666666665],[-96.95611111111111,40.175555555555555],[-97.10027777777778,40.17666666666666],[-97.25611111111111,40.17777777777778],[-97.41027777777778,40.178888888888885],[-97.49527777777777,40.18],[-97.55499999999999,40.17944444444444],[-97.64055555555557,40.18],[-97.69833333333334,40.18],[-97.73055555555555,40.18],[-97.78416666666666,40.180277777777775],[-97.8775,40.180277777777775],[-97.93416666666667,40.18055555555555],[-98.02083333333333,40.18055555555555],[-98.07916666666667,40.18055555555555],[-98.165,40.18055555555555],[-98.22416666666666,40.18055555555555],[-98.31138888888889,40.180277777777775],[-98.36583333333333,40.18],[-98.45222222222222,40.17972222222222],[-98.50861111111111,40.17944444444444],[-98.59472222222222,40.17916666666667],[-98.65027777777779,40.178888888888885],[-98.73416666666667,40.17833333333333],[-98.79055555555556,40.17805555555555],[-98.87527777777777,40.177499999999995],[-98.93083333333334,40.176944444444445],[-99.01833333333333,40.17638888888889],[-99.07305555555556,40.17583333333333],[-99.16111111111111,40.175],[-99.21638888888889,40.17444444444444],[-99.30222222222221,40.17361111111111],[-99.3586111111111,40.172777777777775],[-99.44777777777779,40.17194444444444],[-99.50333333333333,40.17111111111111],[-99.56166666666667,40.17055555555555],[-99.64555555555556,40.16916666666666],[-99.70527777777778,40.16833333333333],[-99.78833333333333,40.16722222222222],[-99.84833333333333,40.16638888888889],[-99.94416666666667,40.164722222222224],[-99.98972222222223,40.16416666666667],[-100.08638888888889,40.1625],[-100.16277777777778,40.16111111111111],[-100.23055555555555,40.15972222222222],[-100.27388888888889,40.15888888888889],[-100.37527777777777,40.15694444444444],[-100.41916666666667,40.155277777777776],[-100.51861111111111,40.153888888888886],[-100.66083333333334,40.15083333333333],[-100.80388888888889,40.1475],[-100.94861111111112,40.14388888888889],[-101.06083333333333,40.14083333333333],[-101.34277777777777,40.13361111111111],[-101.47416666666666,40.12777777777778],[-101.60416666666666,40.121944444444445],[-101.73972222222223,40.11555555555556],[-102.03916666666666,40.10111111111111],[-102.12833333333333,40.09666666666667],[-102.19194444444445,40.093333333333334],[-102.28194444444445,40.088055555555556],[-102.34277777777777,40.08555555555556],[-102.43361111111112,40.07972222222222],[-102.49666666666667,40.077222222222225],[-102.58555555555554,40.07222222222222],[-102.65083333333334,40.06888888888889],[-102.74,40.06388888888888],[-102.81388888888888,40.059999999999995],[-102.89416666666668,40.055277777777775],[-102.96888888888888,40.05083333333333],[-103.04944444444445,40.04611111111111],[-103.1236111111111,40.041666666666664],[-103.20361111111112,40.03722222222222],[-103.2786111111111,40.0325],[-103.3586111111111,40.028055555555554],[-103.43444444444445,40.022777777777776],[-103.51333333333334,40.01777777777777],[-103.58944444444444,40.01305555555555],[-103.66916666666667,40.00833333333333],[-103.74361111111111,40.00333333333333],[-103.8275,39.9975],[-103.89916666666667,39.99333333333333],[-103.9863888888889,39.986111111111114],[-104.05499999999999,39.98277777777778],[-104.14277777777778,39.976111111111116],[-104.21166666666667,39.971944444444446],[-104.30305555555556,39.96527777777778],[-104.45805555555556,39.95444444444445],[-104.52388888888889,39.95],[-104.61833333333333,39.942499999999995],[-104.68277777777779,39.93861111111111],[-104.77777777777777,39.93111111111111],[-104.83944444444444,39.926944444444445],[-104.93611111111112,39.91972222222222],[-104.99722222222222,39.915277777777774],[-105.09916666666666,39.906666666666666],[-105.15694444444445,39.903055555555554],[-105.2611111111111,39.89472222222222],[-105.34888888888888,39.88805555555555],[-105.42027777777778,39.88111111111111],[-105.50805555555556,39.875277777777775],[-105.57888888888888,39.86833333333333],[-105.66527777777779,39.86277777777778],[-105.73694444444445,39.85444444444445],[-105.82138888888889,39.849722222222226],[-105.89472222222223,39.84277777777778],[-105.97972222222222,39.83638888888889],[-106.05111111111111,39.82944444444445],[-106.13472222222222,39.823055555555555],[-106.20583333333333,39.815555555555555],[-106.35527777777777,39.80361111111111],[-106.43388888888889,39.79722222222222],[-106.50055555555555,39.79083333333333],[-106.56194444444444,39.785555555555554],[-106.64444444444445,39.775277777777774],[-106.70694444444445,39.769444444444446],[-106.78805555555556,39.76],[-106.84805555555555,39.75388888888889],[-106.92972222222222,39.74277777777778],[-106.98444444444445,39.73888888888889],[-107.06888888888888,39.72833333333333],[-107.12555555555555,39.723055555555554],[-107.20805555555556,39.71277777777778],[-107.26166666666667,39.7075],[-107.34388888888888,39.698055555555555],[-107.39833333333334,39.69194444444444],[-107.47777777777777,39.68194444444444],[-107.53222222222222,39.67638888888889],[-107.6125,39.66694444444444],[-107.67472222222223,39.66],[-107.74722222222222,39.650277777777774],[-107.88694444444445,39.63444444444444],[-107.94888888888889,39.62694444444445],[-108.02277777777778,39.61805555555556],[-108.08805555555556,39.61027777777778],[-108.16027777777778,39.60138888888889],[-108.22583333333334,39.593333333333334],[-108.29722222222222,39.58444444444444],[-108.36388888888888,39.57638888888889],[-108.43277777777779,39.56805555555556],[-108.50083333333333,39.559444444444445],[-108.57,39.550555555555555],[-108.62555555555555,39.54361111111111],[-108.71111111111111,39.532777777777774],[-108.7675,39.525555555555556],[-108.85249999999999,39.514722222222225],[-108.90805555555556,39.507777777777775],[-108.99333333333334,39.49666666666667],[-109.04805555555555,39.489444444444445],[-109.13055555555555,39.478611111111114],[-109.18583333333333,39.47138888888889],[-109.27027777777778,39.46027777777778],[-109.325,39.45305555555556],[-109.40972222222223,39.44166666666666],[-109.46277777777777,39.43472222222222],[-109.54916666666666,39.42305555555555],[-109.60277777777777,39.41583333333333],[-109.6875,39.404444444444444],[-109.74472222222222,39.396388888888886],[-109.83,39.38472222222222],[-109.88472222222222,39.37722222222222],[-109.97194444444445,39.36527777777778],[-110.02833333333334,39.3575],[-110.11638888888888,39.34583333333334],[-110.17277777777778,39.33833333333334],[-110.25944444444444,39.32666666666667],[-110.3175,39.31888888888889],[-110.40527777777778,39.30694444444444],[-110.46305555555556,39.29888888888889],[-110.55305555555556,39.28638888888889],[-110.61138888888888,39.27833333333333],[-110.69916666666667,39.26638888888889],[-110.7575,39.25805555555556],[-110.84583333333333,39.245555555555555],[-110.99277777777777,39.224444444444444],[-111.14333333333335,39.20305555555556],[-111.29277777777777,39.181666666666665],[-111.4225,39.16277777777778],[-111.57666666666667,39.140277777777776],[-111.73027777777779,39.1175],[-111.88555555555556,39.094166666666666],[-112.04055555555556,39.07083333333334],[-112.19694444444445,39.04694444444444],[-112.35,39.02333333333333],[-112.50166666666667,39],[-112.65305555555557,38.976111111111116],[-112.83555555555554,38.947222222222216],[-112.98694444444445,38.92305555555555],[-113.13611111111112,38.89888888888889],[-113.28888888888889,38.87416666666667],[-113.43694444444445,38.849722222222226],[-113.58833333333332,38.825],[-113.74111111111111,38.799166666666665],[-113.89333333333335,38.77361111111111],[-114.04416666666667,38.74805555555556],[-114.19388888888889,38.722500000000004],[-114.34555555555555,38.69638888888888],[-114.49583333333334,38.67027777777778],[-114.64694444444446,38.64361111111111],[-114.79861111111111,38.61694444444444],[-114.9525,38.589444444444446],[-115.10305555555556,38.5625],[-115.2175,38.54194444444444],[-115.25694444444444,38.53444444444444],[-115.37277777777777,38.513333333333335],[-115.40083333333334,38.50833333333333],[-115.52638888888889,38.48638888888889],[-115.55722222222222,38.47972222222222],[-115.68055555555556,38.45722222222223],[-115.71222222222222,38.450833333333335],[-115.83583333333333,38.428888888888885],[-115.865,38.42222222222222],[-115.99111111111111,38.39833333333333],[-116.02222222222223,38.3925],[-116.14722222222223,38.36888888888889],[-116.17694444444444,38.36333333333334],[-116.29972222222221,38.34],[-116.32944444444443,38.33416666666667],[-116.45305555555557,38.30638888888888],[-116.48111111111112,38.30027777777777],[-116.60472222222222,38.27222222222222],[-116.63555555555556,38.265277777777776],[-116.76,38.23694444444445],[-116.78916666666666,38.23027777777778],[-116.91444444444446,38.20166666666667],[-116.94305555555556,38.19499999999999],[-117.09833333333333,38.159444444444446],[-117.22472222222223,38.13],[-117.265,38.120555555555555],[-117.38333333333334,38.09305555555556],[-117.525,38.06083333333333],[-117.58694444444444,38.04666666666667],[-117.67944444444444,38.02472222222222],[-117.74138888888889,38.01027777777778],[-117.83749999999999,37.99638888888889],[-117.89805555555556,37.99],[-117.995,37.97972222222222],[-118.05638888888889,37.973055555555554],[-118.15333333333334,37.96277777777778],[-118.21388888888889,37.95611111111111],[-118.30777777777777,37.94611111111111],[-118.36999999999999,37.93944444444444],[-118.46555555555555,37.928888888888885],[-118.495,37.925555555555555],[-118.625,37.91111111111111],[-118.78472222222221,37.893055555555556],[-118.94416666666667,37.875277777777775],[-119.10944444444443,37.85638888888889],[-119.26555555555555,37.838055555555556],[-119.4225,37.819722222222225],[-119.58055555555555,37.800555555555555],[-119.73944444444444,37.781666666666666],[-119.89500000000001,37.76305555555555],[-120.05472222222222,37.74305555555556],[-120.21416666666667,37.723333333333336],[-120.37722222222222,37.7025],[-120.53805555555556,37.683611111111105],[-120.69,37.66583333333333],[-120.83333333333333,37.65],[-120.94777777777779,37.63472222222222],[-121.08333333333333,37.61666666666667],[-121.085,37.61666666666667],[-121.22888888888889,37.597500000000004],[-121.36055555555555,37.58166666666667],[-121.48527777777778,37.56722222222223],[-121.60583333333332,37.55305555555555],[-121.71666666666667,37.53333333333333],[-121.81,37.506388888888885],[-121.90222222222222,37.49166666666667],[-121.98611111111111,37.49472222222222],[-122.05833333333334,37.5175],[-122.13111111111111,37.54111111111111],[-122.20861111111111,37.566111111111105],[-122.26388888888889,37.58388888888889],[-122.28333333333333,37.583333333333336],[-122.31333333333333,37.598333333333336]]}
}
