{
  "id": 2048273425,
  "type": "Feature",
  "properties": {
    "geom:area": 0,
    "geom:bbox": "-122.360940,36.718980,-121.876000,37.615120",
    "geom:latitude": 37.21073985143112,
    "geom:longitude": -122.07067239723365,
    "src:alt_label": "swim-approach",
    "src:geom": "swim",
    "swim:elevations": [
      5285,
      4826,
      4551,
      4162,
      2166,
      1651,
      1337,
      1250,
      896,
      733,
      682,
      514,
      369,
      261,
      123,
      0
    ],
    "swim:geom": "approach",
    "swim:timestamps": [
      1788825991,
      1788826039,
      1788826069,
      1788826108,
      1788826434,
      1788826516,
      1788826582,
      1788826597,
      1788826678,
      1788826708,
      1788826719,
      1788826757,
      1788826795,
      1788826821,
      1788826853,
      1788826881
    ],
    "wof:geomhash": "7f3dd13699745780eb67baab2e3d5371",
    "wof:id": 2048273425,
    "wof:repo": "sfomuseum-data-flights-2026-09"
  },
  "bbox": [
    -122.36094,
    36.71898,
    -121.876,
    37.61512
  ],
  "geometry": {"type":"LineString","coordinates":[[-121.876,36.71898],[-121.90955,36.79784],[-121.92415,36.84899],[-121.9421,36.91323],[-122.09738,37.32099],[-122.12953,37.4057],[-122.15017,37.46665],[-122.15473,37.48025],[-122.18967,37.54322],[-122.21744,37.55476],[-122.22823,37.55936],[-122.25975,37.57257],[-122.29092,37.58569],[-122.3118,37.59445],[-122.33853,37.60572],[-122.36094,37.61512]]}
}
