{
  "id": 2048284627,
  "type": "Feature",
  "properties": {
    "geom:area": 0,
    "geom:bbox": "-122.361180,37.491570,-121.279900,37.615860",
    "geom:latitude": 37.545597504722764,
    "geom:longitude": -121.82551304541563,
    "src:alt_label": "swim-approach",
    "src:geom": "swim",
    "swim:elevations": [
      4679,
      4316,
      3999,
      3753,
      3466,
      3257,
      3205,
      2560,
      2530,
      2530,
      2197,
      2050,
      1998,
      1816,
      1546,
      1318,
      1242,
      1061,
      854,
      771,
      639,
      488,
      327,
      173,
      0
    ],
    "swim:geom": "approach",
    "swim:timestamps": [
      1788856068,
      1788856102,
      1788856132,
      1788856154,
      1788856181,
      1788856217,
      1788856231,
      1788856336,
      1788856345,
      1788856352,
      1788856399,
      1788856425,
      1788856440,
      1788856482,
      1788856522,
      1788856557,
      1788856568,
      1788856598,
      1788856629,
      1788856644,
      1788856670,
      1788856701,
      1788856734,
      1788856764,
      1788856797
    ],
    "wof:geomhash": "e261423d190dbc24dcd2dc845b2ded69",
    "wof:id": 2048284627,
    "wof:repo": "sfomuseum-data-flights-2026-09"
  },
  "bbox": [
    -122.36118,
    37.49157,
    -121.2799,
    37.61586
  ],
  "geometry": {"type":"LineString","coordinates":[[-121.2799,37.5905],[-121.35132,37.58268],[-121.41258,37.57551],[-121.45815,37.57032],[-121.51157,37.56411],[-121.57924,37.55606],[-121.60433,37.55319],[-121.77006,37.51603],[-121.78364,37.51275],[-121.79561,37.50992],[-121.86514,37.49336],[-121.90375,37.49157],[-121.92668,37.49217],[-121.99074,37.49595],[-122.04767,37.51398],[-122.09769,37.53026],[-122.11373,37.53557],[-122.1556,37.54898],[-122.19504,37.56173],[-122.2146,37.5681],[-122.24595,37.57832],[-122.2783,37.58829],[-122.30949,37.59735],[-122.33515,37.60496],[-122.36118,37.61586]]}
}
