{
  "id": 2048228557,
  "type": "Feature",
  "properties": {
    "geom:area": 0,
    "geom:bbox": "-123.507380,37.627140,-122.394500,37.732550",
    "geom:latitude": 37.69868322208716,
    "geom:longitude": -122.94671931794916,
    "src:alt_label": "swim-takeoff",
    "src:geom": "swim",
    "swim:elevations": [
      152,
      731,
      1099,
      1216,
      1542,
      1792,
      2134,
      2749,
      2806,
      3261,
      3452,
      3696,
      3999,
      4147,
      4658,
      5009,
      5395,
      5750,
      6002,
      6184,
      6625
    ],
    "swim:geom": "takeoff",
    "swim:timestamps": [
      1788275433,
      1788275478,
      1788275516,
      1788275539,
      1788275572,
      1788275590,
      1788275624,
      1788275668,
      1788275672,
      1788275721,
      1788275753,
      1788275783,
      1788275811,
      1788275825,
      1788275862,
      1788275892,
      1788275920,
      1788275959,
      1788275984,
      1788276004,
      1788276048
    ],
    "wof:geomhash": "2e9e9c72a230a067a41c15c3a26be727",
    "wof:id": 2048228557,
    "wof:repo": "sfomuseum-data-flights-2026-09"
  },
  "bbox": [
    -123.50738,
    37.62714,
    -122.3945,
    37.73255
  ],
  "geometry": {"type":"LineString","coordinates":[[-122.3945,37.62714],[-122.43881,37.64648],[-122.47825,37.66339],[-122.50559,37.67392],[-122.55294,37.67785],[-122.57985,37.67931],[-122.63357,37.68281],[-122.70514,37.68719],[-122.71177,37.68759],[-122.79423,37.69232],[-122.85582,37.69595],[-122.91752,37.69956],[-122.97674,37.70299],[-123.00707,37.70477],[-123.08847,37.7096],[-123.15574,37.71334],[-123.217,37.71683],[-123.30257,37.72149],[-123.3599,37.7246],[-123.40504,37.72698],[-123.50738,37.73255]]}
}
