{
  "id": 2048480141,
  "type": "Feature",
  "properties": {
    "geom:area": 0,
    "geom:bbox": "-122.454444,37.666667,-122.048056,48.525278",
    "geom:latitude": 43.07526841005318,
    "geom:longitude": -122.16951135857498,
    "src:alt_label": "swim-path",
    "src:geom": "swim",
    "swim:altitudes": [
      "036",
      "037",
      "057",
      "084",
      "107",
      "125",
      "147",
      "148",
      "168",
      "169",
      "192",
      "212",
      "213",
      "229",
      "231",
      "246",
      "262",
      "264",
      "276",
      "278",
      "289",
      "306",
      "309",
      "322",
      "325",
      "338C",
      "340C",
      "340C",
      "340C",
      "340C",
      "340C",
      "340C",
      "340C",
      "340C",
      "340C",
      "340C",
      "340C",
      "340C",
      "340C",
      "340C",
      "340C",
      "340C",
      "340C",
      "340C",
      "340C",
      "340C",
      "340C",
      "340C",
      "340C",
      "340C",
      "340C",
      "340C",
      "340C",
      "340C",
      "340C",
      "340C",
      "340C",
      "340C",
      "340C",
      "340C",
      "340C",
      "340C",
      "340C",
      "340C",
      "340C",
      "340C",
      "340C",
      "340C",
      "340C",
      "340C",
      "340C",
      "340C",
      "340C",
      "340C",
      "340C",
      "340C",
      "340C",
      "340C",
      "340C",
      "340C",
      "340C",
      "340C",
      "340C",
      "340C",
      "340C",
      "340C",
      "340C",
      "340C",
      "340C",
      "340C",
      "340C",
      "340C",
      "340C",
      "340C",
      "340C",
      "340C",
      "340C",
      "340C",
      "340C",
      "340C",
      "340C",
      "340C",
      "338",
      "328",
      "318",
      "308",
      "297",
      "285",
      "280",
      "280",
      "280",
      "280",
      "280",
      "266",
      "246",
      "224",
      "204",
      "185",
      "166",
      "148"
    ],
    "swim:geom": "path",
    "swim:speeds": [
      187,
      191,
      262,
      276,
      303,
      342,
      343,
      361,
      368,
      377,
      377,
      388,
      391,
      396,
      406,
      409,
      422,
      427,
      433,
      438,
      441,
      450,
      449,
      449,
      447,
      442,
      441,
      440,
      442,
      445,
      447,
      446,
      448,
      455,
      449,
      453,
      450,
      453,
      451,
      452,
      451,
      452,
      451,
      451,
      451,
      451,
      451,
      450,
      451,
      450,
      450,
      449,
      449,
      449,
      448,
      448,
      448,
      447,
      447,
      447,
      447,
      447,
      446,
      446,
      446,
      446,
      446,
      446,
      447,
      448,
      448,
      449,
      448,
      447,
      445,
      444,
      442,
      442,
      441,
      441,
      441,
      442,
      442,
      442,
      442,
      441,
      441,
      441,
      440,
      439,
      438,
      438,
      438,
      438,
      439,
      439,
      440,
      441,
      442,
      442,
      442,
      442,
      442,
      441,
      450,
      443,
      434,
      427,
      423,
      422,
      420,
      420,
      419,
      404,
      389,
      375,
      361,
      343,
      340,
      334
    ],
    "swim:timestamps": [
      1790792396,
      1790792413,
      1790792473,
      1790792533,
      1790792593,
      1790792653,
      1790792704,
      1790792714,
      1790792764,
      1790792774,
      1790792824,
      1790792884,
      1790792894,
      1790792944,
      1790792954,
      1790793004,
      1790793064,
      1790793074,
      1790793124,
      1790793134,
      1790793185,
      1790793245,
      1790793254,
      1790793305,
      1790793314,
      1790793365,
      1790793375,
      1790793425,
      1790793435,
      1790793495,
      1790793555,
      1790793605,
      1790793615,
      1790793665,
      1790793675,
      1790793725,
      1790793735,
      1790793785,
      1790793795,
      1790793845,
      1790793855,
      1790793905,
      1790793915,
      1790793975,
      1790794026,
      1790794036,
      1790794086,
      1790794096,
      1790794146,
      1790794156,
      1790794216,
      1790794266,
      1790794276,
      1790794326,
      1790794336,
      1790794386,
      1790794396,
      1790794446,
      1790794456,
      1790794506,
      1790794566,
      1790794576,
      1790794626,
      1790794636,
      1790794686,
      1790794696,
      1790794747,
      1790794757,
      1790794807,
      1790794867,
      1790794927,
      1790794987,
      1790795047,
      1790795107,
      1790795167,
      1790795227,
      1790795287,
      1790795347,
      1790795407,
      1790795468,
      1790795528,
      1790795588,
      1790795648,
      1790795708,
      1790795768,
      1790795828,
      1790795888,
      1790795948,
      1790796068,
      1790796128,
      1790796188,
      1790796249,
      1790796309,
      1790796369,
      1790796429,
      1790796489,
      1790796549,
      1790796609,
      1790796669,
      1790796729,
      1790796789,
      1790796849,
      1790796909,
      1790796969,
      1790797030,
      1790797090,
      1790797150,
      1790797210,
      1790797270,
      1790797330,
      1790797390,
      1790797450,
      1790797510,
      1790797570,
      1790797630,
      1790797690,
      1790797750,
      1790797811,
      1790797871,
      1790797931
    ],
    "wof:geomhash": "4e8c3425f3cd09647b611e5864062f66",
    "wof:id": 2048480141,
    "wof:repo": "sfomuseum-data-flights-2026-09"
  },
  "bbox": [
    -122.45444444444445,
    37.666666666666664,
    -122.04805555555555,
    48.525277777777774
  ],
  "geometry": {"type":"LineString","coordinates":[[-122.3,37.666666666666664],[-122.29305555555555,37.67638888888889],[-122.2225,37.716944444444444],[-122.20361111111112,37.79055555555556],[-122.18972222222223,37.871944444444445],[-122.17472222222223,37.964444444444446],[-122.16111111111111,38.05611111111111],[-122.15833333333335,38.06333333333333],[-122.14194444444445,38.159444444444446],[-122.14083333333333,38.1675],[-122.12444444444444,38.265],[-122.09944444444444,38.37416666666667],[-122.10499999999999,38.37972222222222],[-122.08472222222221,38.48444444444444],[-122.08472222222221,38.49916666666667],[-122.06527777777778,38.59916666666667],[-122.04805555555555,38.717222222222226],[-122.05305555555556,38.73416666666667],[-122.05305555555556,38.83888888888889],[-122.05638888888889,38.85777777777778],[-122.05722222222222,38.963055555555556],[-122.05944444444444,39.08833333333334],[-122.06027777777777,39.10861111111111],[-122.05972222222222,39.213055555555556],[-122.06305555555555,39.23277777777778],[-122.06388888888888,39.334722222222226],[-122.06611111111111,39.35444444444445],[-122.06694444444445,39.4575],[-122.06833333333333,39.45444444444445],[-122.07166666666666,39.606944444444444],[-122.07444444444444,39.731388888888894],[-122.07472222222222,39.830000000000005],[-122.07694444444444,39.856944444444444],[-122.07916666666667,39.95611111111111],[-122.07972222222222,39.97944444444445],[-122.08194444444445,40.07888888888889],[-122.0825,40.10305555555556],[-122.08444444444444,40.200833333333335],[-122.08444444444444,40.20277777777778],[-122.08722222222222,40.32472222222223],[-122.08777777777777,40.35],[-122.08999999999999,40.45027777777778],[-122.09055555555555,40.47416666666667],[-122.09333333333333,40.599722222222226],[-122.09583333333333,40.69916666666666],[-122.09638888888888,40.724722222222226],[-122.09833333333333,40.82333333333334],[-122.09888888888888,40.848333333333336],[-122.10111111111111,40.948055555555555],[-122.10166666666666,40.97527777777778],[-122.10444444444444,41.10027777777778],[-122.10694444444444,41.20388888888889],[-122.10749999999999,41.223055555555554],[-122.10972222222222,41.330000000000005],[-122.11027777777777,41.348333333333336],[-122.1125,41.45333333333333],[-122.11333333333333,41.47916666666667],[-122.11527777777778,41.57638888888889],[-122.11611111111111,41.600833333333334],[-122.11833333333333,41.70166666666667],[-122.12138888888889,41.82611111111112],[-122.12194444444444,41.85277777777778],[-122.12416666666665,41.95138888888889],[-122.12472222222222,41.97777777777778],[-122.12722222222222,42.07916666666667],[-122.1275,42.10305555555556],[-122.13,42.20666666666667],[-122.13055555555555,42.231388888888894],[-122.13305555555554,42.33027777777778],[-122.13555555555556,42.45666666666667],[-122.1388888888889,42.58305555555556],[-122.14194444444445,42.70722222222223],[-122.14472222222223,42.83111111111111],[-122.14777777777779,42.955555555555556],[-122.15055555555556,43.07805555555556],[-122.15361111111112,43.20027777777778],[-122.15666666666667,43.31777777777778],[-122.15944444444445,43.44027777777777],[-122.16250000000001,43.56333333333333],[-122.16555555555556,43.68527777777778],[-122.16861111111112,43.80611111111111],[-122.17166666666667,43.92944444444444],[-122.17444444444445,44.05222222222222],[-122.17777777777778,44.17527777777777],[-122.18083333333334,44.29666666666667],[-122.18388888888889,44.42027777777778],[-122.18694444444445,44.54194444444444],[-122.19,44.663333333333334],[-122.19638888888889,44.908055555555556],[-122.19944444444445,45.02916666666667],[-122.2025,45.14944444444444],[-122.20583333333333,45.27055555555555],[-122.2088888888889,45.39361111111111],[-122.21194444444444,45.51416666666667],[-122.21527777777779,45.6375],[-122.21833333333333,45.75861111111111],[-122.22166666666666,45.882222222222225],[-122.22555555555556,46.02305555555555],[-122.2286111111111,46.14527777777778],[-122.23138888888889,46.24861111111111],[-122.23472222222222,46.37083333333334],[-122.23805555555556,46.494166666666665],[-122.24138888888889,46.615],[-122.24472222222222,46.73861111111111],[-122.24833333333333,46.86388888888889],[-122.25138888888888,46.984722222222224],[-122.255,47.10722222222223],[-122.25888888888889,47.24777777777778],[-122.26194444444444,47.36277777777778],[-122.26527777777778,47.48027777777778],[-122.26805555555555,47.574444444444445],[-122.2713888888889,47.69],[-122.27527777777777,47.82972222222222],[-122.28222222222222,47.93388888888889],[-122.31222222222222,48.03861111111111],[-122.34333333333333,48.145833333333336],[-122.37194444444444,48.243611111111115],[-122.40111111111112,48.344166666666666],[-122.42777777777778,48.434999999999995],[-122.45444444444445,48.525277777777774]]}
}
