{
  "id": 2048287837,
  "type": "Feature",
  "properties": {
    "geom:area": 0,
    "geom:bbox": "-123.503840,37.628970,-122.393920,37.732120",
    "geom:latitude": 37.69854966099359,
    "geom:longitude": -122.94500843621657,
    "src:alt_label": "swim-takeoff",
    "src:geom": "swim",
    "swim:elevations": [
      122,
      484,
      612,
      689,
      855,
      989,
      1208,
      1541,
      1895,
      2099,
      2201,
      2468,
      2783,
      3262,
      3431,
      3617,
      3713,
      3902,
      4037,
      4135,
      4591,
      4770
    ],
    "swim:geom": "takeoff",
    "swim:timestamps": [
      1788869603,
      1788869629,
      1788869660,
      1788869670,
      1788869693,
      1788869725,
      1788869749,
      1788869778,
      1788869806,
      1788869832,
      1788869863,
      1788869928,
      1788869957,
      1788869996,
      1788870019,
      1788870038,
      1788870053,
      1788870087,
      1788870106,
      1788870122,
      1788870173,
      1788870205
    ],
    "wof:geomhash": "a2030e30ef17480a4fe610eb4d01b4fe",
    "wof:id": 2048287837,
    "wof:repo": "sfomuseum-data-flights-2026-09"
  },
  "bbox": [
    -123.50384,
    37.62897,
    -122.39392,
    37.73212
  ],
  "geometry": {"type":"LineString","coordinates":[[-122.39392,37.62897],[-122.41964,37.63955],[-122.45159,37.65296],[-122.46295,37.65779],[-122.48947,37.66898],[-122.53463,37.67768],[-122.57208,37.67938],[-122.61973,37.68195],[-122.66527,37.68468],[-122.70702,37.68713],[-122.76122,37.69022],[-122.89174,37.69792],[-122.95401,37.7015],[-123.03452,37.70626],[-123.08368,37.70898],[-123.12445,37.71129],[-123.1561,37.71306],[-123.23173,37.71722],[-123.27417,37.71959],[-123.31156,37.7217],[-123.42929,37.7282],[-123.50384,37.73212]]}
}
