{
  "id": 2048293343,
  "type": "Feature",
  "properties": {
    "geom:area": 0,
    "geom:bbox": "-122.406270,37.624190,-121.256940,37.963670",
    "geom:latitude": 37.830113029671786,
    "geom:longitude": -121.85520224112969,
    "src:alt_label": "swim-takeoff",
    "src:geom": "swim",
    "swim:elevations": [
      122,
      433,
      578,
      682,
      835,
      1221,
      1508,
      1932,
      2032,
      2615,
      2748,
      3180,
      3312,
      3399,
      3450,
      3549,
      3712,
      4016,
      4220,
      4360,
      4586,
      4808,
      5166,
      5396,
      5448
    ],
    "swim:geom": "takeoff",
    "swim:timestamps": [
      1788960989,
      1788961017,
      1788961047,
      1788961074,
      1788961102,
      1788961136,
      1788961161,
      1788961197,
      1788961205,
      1788961256,
      1788961269,
      1788961316,
      1788961345,
      1788961365,
      1788961377,
      1788961397,
      1788961428,
      1788961464,
      1788961490,
      1788961509,
      1788961538,
      1788961567,
      1788961614,
      1788961649,
      1788961658
    ],
    "wof:geomhash": "8991ad079420f241448b3eef698d485d",
    "wof:id": 2048293343,
    "wof:repo": "sfomuseum-data-flights-2026-09"
  },
  "bbox": [
    -122.40627,
    37.62419,
    -121.25694,
    37.96367
  ],
  "geometry": {"type":"LineString","coordinates":[[-122.38811,37.62419],[-122.40627,37.64117],[-122.39155,37.66257],[-122.35923,37.67115],[-122.32169,37.68153],[-122.27272,37.69838],[-122.23504,37.71108],[-122.18415,37.73365],[-122.17363,37.73912],[-122.10275,37.77563],[-122.08406,37.78529],[-122.01756,37.8194],[-121.96523,37.8333],[-121.92742,37.84022],[-121.90338,37.84472],[-121.86412,37.85208],[-121.7968,37.8647],[-121.71511,37.8798],[-121.65662,37.89065],[-121.61312,37.89864],[-121.54596,37.91096],[-121.47742,37.92354],[-121.3657,37.94388],[-121.28093,37.95929],[-121.25694,37.96367]]}
}
