{
  "id": 2048397097,
  "type": "Feature",
  "properties": {
    "geom:area": 0,
    "geom:bbox": "-122.405750,37.624690,-121.243530,38.134770",
    "geom:latitude": 37.90830669250655,
    "geom:longitude": -121.85607026989356,
    "src:alt_label": "swim-takeoff",
    "src:geom": "swim",
    "swim:elevations": [
      152,
      459,
      484,
      530,
      954,
      1254,
      1400,
      1987,
      2343,
      2652,
      3019,
      3238,
      3391,
      3534,
      3958,
      4079,
      4611,
      4867,
      5113,
      5387,
      5754,
      5946,
      6223,
      6407,
      6700,
      6789,
      6929
    ],
    "swim:geom": "takeoff",
    "swim:timestamps": [
      1789975792,
      1789975823,
      1789975830,
      1789975839,
      1789975885,
      1789975914,
      1789975929,
      1789975969,
      1789976008,
      1789976033,
      1789976066,
      1789976089,
      1789976120,
      1789976142,
      1789976186,
      1789976196,
      1789976245,
      1789976270,
      1789976296,
      1789976330,
      1789976366,
      1789976387,
      1789976420,
      1789976446,
      1789976488,
      1789976500,
      1789976520
    ],
    "wof:geomhash": "fa807a7e4378e833f3cae07005584b10",
    "wof:id": 2048397097,
    "wof:repo": "sfomuseum-data-flights-2026-09"
  },
  "bbox": [
    -122.40575,
    37.62469,
    -121.24353,
    38.13477
  ],
  "geometry": {"type":"LineString","coordinates":[[-122.38911,37.62469],[-122.40575,37.64383],[-122.40382,37.6496],[-122.39718,37.65649],[-122.33895,37.67504],[-122.29949,37.68795],[-122.27897,37.69852],[-122.25795,37.74389],[-122.23287,37.788],[-122.19663,37.80184],[-122.14495,37.81966],[-122.10883,37.83246],[-122.05665,37.85089],[-122.0161,37.86527],[-121.93377,37.89435],[-121.91314,37.90164],[-121.81915,37.9347],[-121.76967,37.95212],[-121.71781,37.97023],[-121.64897,37.99425],[-121.57385,38.02044],[-121.53021,38.03565],[-121.46056,38.05979],[-121.40626,38.07865],[-121.31492,38.11017],[-121.28898,38.11915],[-121.24353,38.13477]]}
}
