{
  "id": 2048278731,
  "type": "Feature",
  "properties": {
    "date:inception_lower": "2026-09-07",
    "date:inception_upper": "2026-09-07",
    "edtf:cessation": "",
    "edtf:inception": "2026-09-07",
    "flysfo:actual_timestamp": -1,
    "flysfo:airline": "LH",
    "flysfo:date": "2026-09-07",
    "flysfo:estimated_timestamp": 1788994800,
    "flysfo:event": "D",
    "flysfo:flight_number": "LH9853",
    "flysfo:gate": "",
    "flysfo:journey": "SFO-MUC",
    "flysfo:scheduled_timestamp": 1788822000,
    "flysfo:timestamp": 1788994800,
    "geom:area": 0,
    "geom:bbox": "-122.370943,37.617990,11.776808,48.352681",
    "geom:latitude": 42.9853355,
    "geom:longitude": -55.2970675,
    "iata:airline": "LH",
    "icao:airline": "DLH",
    "lbl:latitude": 37.61799,
    "lbl:longitude": -122.370943,
    "sfomuseum:airline_id": 1159286015,
    "sfomuseum:arrival_id": 102549067,
    "sfomuseum:departure_id": 102527513,
    "sfomuseum:flight_id": "20260907-D-DLH-9853",
    "sfomuseum:flight_number": [
      "DLH9853",
      "LH9853"
    ],
    "sfomuseum:placetype": "flight",
    "src:geom": "flysfo",
    "wof:belongsto": [],
    "wof:country": "US",
    "wof:created": 1788884051,
    "wof:geomhash": "d9a5d9d800d6bc92413ff3768040f8da",
    "wof:hierarchy": [
      {
        "custom_id": 2048278731,
        "flight_id": 2048278731
      }
    ],
    "wof:id": 2048278731,
    "wof:involves": [
      102549067,
      102527513,
      1159286015,
      -1
    ],
    "wof:lastmodified": 1788884051,
    "wof:name": "LH9853 (SFO-MUC)",
    "wof:parent_id": -1,
    "wof:placetype": "custom",
    "wof:placetype_alt": [
      "flight"
    ],
    "wof:repo": "sfomuseum-data-flights-2026-09",
    "wof:superseded_by": [],
    "wof:supersedes": []
  },
  "bbox": [
    -122.370943,
    37.61799,
    11.776808,
    48.352681
  ],
  "geometry": {"type":"MultiPoint","coordinates":[[-122.370943,37.61799],[11.776808,48.352681]]}
}
