{
  "id": 2048404665,
  "type": "Feature",
  "properties": {
    "geom:area": 0,
    "geom:bbox": "-122.352910,37.362110,-122.113710,37.609480",
    "geom:latitude": 37.51009730309829,
    "geom:longitude": -122.20808978432525,
    "src:alt_label": "swim-approach",
    "src:geom": "swim",
    "swim:elevations": [
      1940,
      1674,
      1552,
      1456,
      1243,
      1094,
      851,
      702,
      530,
      478,
      395,
      246,
      83,
      59
    ],
    "swim:geom": "approach",
    "swim:timestamps": [
      1790096236,
      1790096275,
      1790096305,
      1790096320,
      1790096352,
      1790096372,
      1790096410,
      1790096439,
      1790096479,
      1790096496,
      1790096510,
      1790096538,
      1790096576,
      1790096584
    ],
    "wof:geomhash": "99cca877d9afcfa6a673f15c606296f8",
    "wof:id": 2048404665,
    "wof:repo": "sfomuseum-data-flights-2026-09"
  },
  "bbox": [
    -122.35291,
    37.36211,
    -122.11371,
    37.60948
  ],
  "geometry": {"type":"LineString","coordinates":[[-122.11371,37.36211],[-122.13095,37.41029],[-122.14266,37.4449],[-122.14908,37.46156],[-122.16655,37.49311],[-122.17946,37.51148],[-122.20371,37.54483],[-122.23262,37.55826],[-122.27089,37.57491],[-122.28552,37.58104],[-122.29612,37.58555],[-122.31899,37.59504],[-122.34723,37.60705],[-122.35291,37.60948]]}
}
