{
  "id": 2048272789,
  "type": "Feature",
  "properties": {
    "geom:area": 0,
    "geom:bbox": "-122.362690,36.739870,-121.889920,37.613800",
    "geom:latitude": 37.23470688919387,
    "geom:longitude": -122.09255626577868,
    "src:alt_label": "swim-approach",
    "src:geom": "swim",
    "swim:elevations": [
      5282,
      5060,
      4797,
      4648,
      4291,
      4190,
      3894,
      3734,
      3496,
      3278,
      3087,
      3054,
      2770,
      2681,
      2498,
      2439,
      2371,
      2201,
      2015,
      1886,
      1661,
      1453,
      1362,
      1322,
      1219,
      1219,
      1129,
      1087,
      761,
      706,
      513,
      398,
      278,
      208,
      61,
      0
    ],
    "swim:geom": "approach",
    "swim:timestamps": [
      1788813563,
      1788813589,
      1788813618,
      1788813639,
      1788813684,
      1788813703,
      1788813744,
      1788813768,
      1788813804,
      1788813836,
      1788813868,
      1788813877,
      1788813922,
      1788813940,
      1788813984,
      1788813995,
      1788814015,
      1788814044,
      1788814076,
      1788814101,
      1788814128,
      1788814166,
      1788814191,
      1788814203,
      1788814258,
      1788814275,
      1788814311,
      1788814322,
      1788814371,
      1788814381,
      1788814425,
      1788814453,
      1788814492,
      1788814512,
      1788814554,
      1788814569
    ],
    "wof:geomhash": "48a4e202b59e4de32cf896ece427deb2",
    "wof:id": 2048272789,
    "wof:repo": "sfomuseum-data-flights-2026-09"
  },
  "bbox": [
    -122.36269,
    36.73987,
    -121.88992,
    37.6138
  ],
  "geometry": {"type":"LineString","coordinates":[[-121.88992,36.73987],[-121.9046,36.77926],[-121.91675,36.82344],[-121.9255,36.85474],[-121.94454,36.92131],[-121.95202,36.94803],[-121.9728,37.00237],[-121.9845,37.03209],[-122.00194,37.07705],[-122.0164,37.1146],[-122.03066,37.15089],[-122.03472,37.16117],[-122.06297,37.20844],[-122.08484,37.22077],[-122.1358,37.24942],[-122.14851,37.25641],[-122.17216,37.26966],[-122.20581,37.2893],[-122.216,37.32296],[-122.19317,37.34473],[-122.16319,37.36436],[-122.1261,37.39479],[-122.11278,37.42113],[-122.10759,37.4316],[-122.11284,37.47903],[-122.12518,37.49108],[-122.15046,37.51599],[-122.15802,37.52326],[-122.20445,37.54695],[-122.21394,37.55094],[-122.25508,37.56825],[-122.27767,37.57785],[-122.30637,37.58984],[-122.32124,37.5961],[-122.35076,37.60852],[-122.36269,37.6138]]}
}
