{
  "id": 2048291161,
  "type": "Feature",
  "properties": {
    "geom:area": 0,
    "geom:bbox": "-122.353320,37.491630,-121.258100,37.611870",
    "geom:latitude": 37.5456451898689,
    "geom:longitude": -121.81068529119402,
    "src:alt_label": "swim-approach",
    "src:geom": "swim",
    "swim:elevations": [
      4610,
      4367,
      4163,
      3753,
      3615,
      3235,
      3205,
      2897,
      2727,
      2556,
      2488,
      2278,
      2146,
      2088,
      2034,
      1934,
      1829,
      1647,
      1582,
      1459,
      1248,
      1055,
      919,
      717,
      496,
      457,
      294,
      115,
      43
    ],
    "swim:geom": "approach",
    "swim:timestamps": [
      1788950535,
      1788950560,
      1788950581,
      1788950625,
      1788950640,
      1788950694,
      1788950701,
      1788950754,
      1788950775,
      1788950807,
      1788950826,
      1788950864,
      1788950887,
      1788950923,
      1788950936,
      1788950955,
      1788950993,
      1788951024,
      1788951037,
      1788951080,
      1788951106,
      1788951147,
      1788951162,
      1788951186,
      1788951235,
      1788951242,
      1788951282,
      1788951324,
      1788951343
    ],
    "wof:geomhash": "9eab85b726f6e3c8344cccb23e4d4596",
    "wof:id": 2048291161,
    "wof:repo": "sfomuseum-data-flights-2026-09"
  },
  "bbox": [
    -122.35332,
    37.49163,
    -121.2581,
    37.61187
  ],
  "geometry": {"type":"LineString","coordinates":[[-121.2581,37.59359],[-121.31044,37.58694],[-121.35247,37.58246],[-121.43993,37.57242],[-121.47,37.56908],[-121.57377,37.5568],[-121.58587,37.55543],[-121.67709,37.53819],[-121.71261,37.52974],[-121.76585,37.51717],[-121.79539,37.51003],[-121.85161,37.49659],[-121.88677,37.49163],[-121.93687,37.49289],[-121.95474,37.49322],[-121.97922,37.49396],[-122.0227,37.50636],[-122.05982,37.51823],[-122.07387,37.52276],[-122.12024,37.53769],[-122.14703,37.54637],[-122.18841,37.55883],[-122.20255,37.56255],[-122.22505,37.56827],[-122.26874,37.57996],[-122.27434,37.58161],[-122.3072,37.59317],[-122.34012,37.60647],[-122.35332,37.61187]]}
}
