{
  "id": 2048475889,
  "type": "Feature",
  "properties": {
    "geom:area": 0,
    "geom:bbox": "-122.343056,30.051389,-97.678333,38.334444",
    "geom:latitude": 35.94544181232237,
    "geom:longitude": -109.24145273323816,
    "src:alt_label": "swim-path",
    "src:geom": "swim",
    "swim:altitudes": [
      "014",
      "031",
      "045",
      "057",
      "072",
      "083",
      "097",
      "120",
      "131",
      "151",
      "170",
      "187",
      "204",
      "221",
      "236",
      "240",
      "240",
      "246",
      "257",
      "271",
      "282",
      "294",
      "304",
      "314",
      "323",
      "333",
      "343",
      "359C",
      "360C",
      "360C",
      "360C",
      "360C",
      "360C",
      "360C",
      "360C",
      "360C",
      "360C",
      "360C",
      "360C",
      "360C",
      "360C",
      "360C",
      "360C",
      "360C",
      "360C",
      "360C",
      "360C",
      "360C",
      "360C",
      "360C",
      "360C",
      "360C",
      "360C",
      "360C",
      "360C",
      "360C",
      "360C",
      "360C",
      "360C",
      "360C",
      "360C",
      "360C",
      "360C",
      "360C",
      "360C",
      "360C",
      "360C",
      "360C",
      "360C",
      "360C",
      "360C",
      "360C",
      "360C",
      "360C",
      "360C",
      "360C",
      "360C",
      "360C",
      "360C",
      "360C",
      "360C",
      "360C",
      "360C",
      "360C",
      "360C",
      "360C",
      "360C",
      "360C",
      "360C",
      "360C",
      "360C",
      "360C",
      "360C",
      "360C",
      "360C",
      "360C",
      "360C",
      "360C",
      "360C",
      "360C",
      "360C",
      "360C",
      "360C",
      "360C",
      "360C",
      "360C",
      "360C",
      "360C",
      "360C",
      "360C",
      "360C",
      "360C",
      "360C",
      "360C",
      "360C",
      "360C",
      "360C",
      "360C",
      "360C",
      "360C",
      "360C",
      "360C",
      "360C",
      "360C",
      "360C",
      "360C",
      "360C",
      "360C",
      "360C",
      "360C",
      "360C",
      "360C",
      "360C",
      "360C",
      "360C",
      "360C",
      "360C",
      "360C",
      "360C",
      "360C",
      "360C",
      "360C",
      "360C",
      "360C",
      "360C",
      "360C",
      "360C",
      "360C",
      "360C",
      "360C",
      "360C",
      "360C",
      "360C",
      "360C",
      "360C",
      "360C",
      "360C",
      "360C",
      "360C",
      "360C",
      "360C",
      "360C",
      "360C",
      "360C",
      "360C",
      "360C",
      "360C",
      "360C",
      "360C",
      "360C",
      "360C",
      "360C",
      "360C",
      "360C",
      "360C",
      "360C",
      "360C",
      "363",
      "363",
      "373",
      "380C",
      "380C",
      "380C",
      "380C",
      "380C",
      "380C",
      "380C",
      "380C",
      "380C",
      "380C",
      "380C",
      "380C",
      "380C",
      "380C",
      "380C",
      "380C",
      "380C",
      "380C",
      "380C",
      "380C",
      "380C",
      "380C",
      "380C",
      "380C",
      "380C",
      "380C",
      "380C",
      "380C",
      "380C",
      "380C",
      "380C",
      "380C",
      "380C",
      "380C",
      "380C",
      "380C",
      "380C",
      "380C",
      "380C",
      "380C",
      "380C",
      "380C",
      "380C",
      "380C",
      "380C",
      "380C",
      "380C",
      "380C",
      "380C",
      "380C",
      "380C",
      "380C",
      "380C",
      "380C",
      "380C",
      "380C",
      "380C",
      "380C",
      "380C",
      "380C",
      "380C",
      "380C",
      "380C",
      "380C",
      "380C",
      "380C",
      "380C",
      "380C",
      "380C",
      "380C",
      "380C",
      "380C",
      "380C",
      "380C",
      "380",
      "380",
      "380",
      "380",
      "367",
      "342",
      "312",
      "287",
      "282",
      "262",
      "258",
      "237",
      "236",
      "216",
      "194",
      "178",
      "176",
      "167",
      "151",
      "147",
      "135",
      "130",
      "118",
      "115",
      "106",
      "102",
      "095",
      "087",
      "077",
      "072",
      "063",
      "060",
      "060",
      "060",
      "053",
      "046",
      "036",
      "033",
      "025",
      "021",
      "014",
      "011",
      "006",
      "003"
    ],
    "swim:geom": "path",
    "swim:speeds": [
      180,
      203,
      223,
      238,
      258,
      276,
      295,
      336,
      343,
      362,
      376,
      392,
      393,
      400,
      403,
      429,
      441,
      463,
      467,
      469,
      465,
      460,
      456,
      454,
      453,
      451,
      448,
      422,
      425,
      435,
      440,
      443,
      447,
      449,
      451,
      453,
      454,
      454,
      453,
      453,
      453,
      456,
      453,
      455,
      453,
      450,
      453,
      450,
      452,
      454,
      453,
      454,
      455,
      455,
      456,
      456,
      456,
      457,
      457,
      458,
      458,
      458,
      457,
      457,
      456,
      456,
      455,
      453,
      452,
      451,
      451,
      451,
      451,
      452,
      452,
      452,
      451,
      452,
      452,
      453,
      453,
      454,
      454,
      455,
      454,
      454,
      454,
      454,
      454,
      454,
      453,
      453,
      453,
      453,
      453,
      453,
      453,
      453,
      453,
      452,
      449,
      451,
      449,
      449,
      448,
      448,
      447,
      448,
      449,
      450,
      449,
      448,
      449,
      447,
      448,
      448,
      449,
      448,
      449,
      450,
      451,
      451,
      452,
      453,
      454,
      456,
      457,
      459,
      461,
      463,
      464,
      465,
      465,
      465,
      465,
      465,
      465,
      465,
      465,
      465,
      465,
      465,
      465,
      466,
      467,
      467,
      462,
      467,
      469,
      473,
      470,
      471,
      473,
      472,
      472,
      472,
      472,
      473,
      472,
      473,
      475,
      476,
      476,
      477,
      477,
      476,
      476,
      475,
      474,
      472,
      471,
      470,
      470,
      469,
      469,
      464,
      464,
      465,
      465,
      467,
      467,
      467,
      466,
      466,
      463,
      456,
      456,
      458,
      457,
      454,
      453,
      452,
      451,
      449,
      450,
      451,
      454,
      455,
      455,
      453,
      451,
      440,
      449,
      446,
      451,
      449,
      452,
      449,
      453,
      450,
      453,
      452,
      454,
      452,
      453,
      452,
      453,
      453,
      454,
      453,
      454,
      457,
      457,
      457,
      457,
      456,
      456,
      454,
      454,
      446,
      445,
      443,
      443,
      441,
      440,
      439,
      438,
      437,
      436,
      422,
      421,
      420,
      419,
      419,
      419,
      418,
      419,
      419,
      419,
      418,
      416,
      416,
      417,
      417,
      416,
      415,
      415,
      415,
      414,
      415,
      437,
      449,
      446,
      443,
      442,
      427,
      430,
      409,
      397,
      362,
      359,
      326,
      320,
      322,
      310,
      314,
      307,
      303,
      280,
      281,
      270,
      274,
      266,
      269,
      251,
      255,
      245,
      243,
      224,
      228,
      225,
      214,
      182,
      175,
      159,
      162,
      155,
      157
    ],
    "swim:timestamps": [
      1790766829,
      1790766871,
      1790766913,
      1790766931,
      1790766976,
      1790766992,
      1790767036,
      1790767094,
      1790767157,
      1790767217,
      1790767277,
      1790767337,
      1790767397,
      1790767457,
      1790767517,
      1790767577,
      1790767636,
      1790767697,
      1790767757,
      1790767817,
      1790767877,
      1790767937,
      1790767997,
      1790768057,
      1790768117,
      1790768177,
      1790768237,
      1790768298,
      1790768358,
      1790768417,
      1790768478,
      1790768538,
      1790768598,
      1790768658,
      1790768718,
      1790768778,
      1790768838,
      1790768898,
      1790768958,
      1790769018,
      1790769078,
      1790769114,
      1790769138,
      1790769174,
      1790769198,
      1790769233,
      1790769258,
      1790769293,
      1790769318,
      1790769354,
      1790769378,
      1790769416,
      1790769439,
      1790769473,
      1790769499,
      1790769535,
      1790769559,
      1790769593,
      1790769619,
      1790769655,
      1790769679,
      1790769716,
      1790769739,
      1790769776,
      1790769799,
      1790769836,
      1790769859,
      1790769894,
      1790769919,
      1790769954,
      1790769979,
      1790770014,
      1790770039,
      1790770074,
      1790770099,
      1790770135,
      1790770159,
      1790770195,
      1790770219,
      1790770256,
      1790770279,
      1790770316,
      1790770340,
      1790770374,
      1790770400,
      1790770434,
      1790770460,
      1790770494,
      1790770520,
      1790770554,
      1790770580,
      1790770616,
      1790770640,
      1790770676,
      1790770700,
      1790770736,
      1790770766,
      1790770794,
      1790770826,
      1790770854,
      1790770886,
      1790770915,
      1790770946,
      1790770975,
      1790771006,
      1790771034,
      1790771066,
      1790771094,
      1790771126,
      1790771154,
      1790771187,
      1790771214,
      1790771247,
      1790771276,
      1790771307,
      1790771337,
      1790771367,
      1790771394,
      1790771427,
      1790771454,
      1790771487,
      1790771514,
      1790771547,
      1790771576,
      1790771607,
      1790771636,
      1790771667,
      1790771695,
      1790771727,
      1790771756,
      1790771787,
      1790771815,
      1790771847,
      1790771875,
      1790771907,
      1790771935,
      1790771967,
      1790771995,
      1790772027,
      1790772055,
      1790772087,
      1790772116,
      1790772147,
      1790772177,
      1790772207,
      1790772237,
      1790772262,
      1790772322,
      1790772382,
      1790772447,
      1790772502,
      1790772562,
      1790772568,
      1790772628,
      1790772682,
      1790772742,
      1790772748,
      1790772808,
      1790772862,
      1790772922,
      1790772928,
      1790772988,
      1790773048,
      1790773102,
      1790773108,
      1790773162,
      1790773223,
      1790773283,
      1790773343,
      1790773403,
      1790773463,
      1790773523,
      1790773583,
      1790773643,
      1790773649,
      1790773703,
      1790773709,
      1790773763,
      1790773769,
      1790773829,
      1790773883,
      1790773889,
      1790773943,
      1790773949,
      1790774003,
      1790774063,
      1790774123,
      1790774183,
      1790774243,
      1790774303,
      1790774364,
      1790774424,
      1790774484,
      1790774544,
      1790774604,
      1790774664,
      1790774724,
      1790774784,
      1790774844,
      1790774904,
      1790774964,
      1790775003,
      1790775024,
      1790775063,
      1790775084,
      1790775123,
      1790775144,
      1790775183,
      1790775204,
      1790775243,
      1790775265,
      1790775303,
      1790775325,
      1790775363,
      1790775385,
      1790775424,
      1790775445,
      1790775484,
      1790775505,
      1790775544,
      1790775565,
      1790775604,
      1790775625,
      1790775664,
      1790775685,
      1790775724,
      1790775745,
      1790775784,
      1790775805,
      1790775844,
      1790775865,
      1790775904,
      1790775925,
      1790775964,
      1790775985,
      1790776024,
      1790776045,
      1790776084,
      1790776106,
      1790776144,
      1790776166,
      1790776204,
      1790776226,
      1790776264,
      1790776286,
      1790776346,
      1790776384,
      1790776406,
      1790776444,
      1790776504,
      1790776564,
      1790776624,
      1790776685,
      1790776745,
      1790776805,
      1790776865,
      1790776925,
      1790776985,
      1790777045,
      1790777105,
      1790777165,
      1790777205,
      1790777225,
      1790777265,
      1790777285,
      1790777330,
      1790777345,
      1790777405,
      1790777465,
      1790777505,
      1790777525,
      1790777565,
      1790777625,
      1790777645,
      1790777685,
      1790777705,
      1790777745,
      1790777766,
      1790777805,
      1790777826,
      1790777853,
      1790777886,
      1790777925,
      1790777946,
      1790777985,
      1790778006,
      1790778033,
      1790778066,
      1790778099,
      1790778126,
      1790778160,
      1790778186,
      1790778225,
      1790778246,
      1790778285,
      1790778306,
      1790778345,
      1790778366
    ],
    "wof:geomhash": "efa204473567814ccc63b36ed7f38e71",
    "wof:id": 2048475889,
    "wof:repo": "sfomuseum-data-flights-2026-09"
  },
  "bbox": [
    -122.34305555555555,
    30.05138888888889,
    -97.67833333333334,
    38.33444444444444
  ],
  "geometry": {"type":"LineString","coordinates":[[-97.67833333333334,30.170833333333334],[-97.69222222222223,30.136388888888888],[-97.71416666666667,30.10777777777778],[-97.73222222222222,30.085277777777776],[-97.765,30.055833333333332],[-97.79888888888888,30.05138888888889],[-97.85277777777777,30.05777777777778],[-97.9025,30.135555555555555],[-97.90305555555557,30.225555555555555],[-97.90555555555557,30.325833333333332],[-97.90833333333335,30.430555555555557],[-97.9225,30.537222222222223],[-98.00333333333333,30.623055555555556],[-98.08666666666666,30.709444444444443],[-98.17166666666667,30.796666666666667],[-98.26055555555556,30.88722222222222],[-98.35166666666666,30.980277777777776],[-98.44861111111112,31.078333333333333],[-98.54805555555555,31.17888888888889],[-98.6463888888889,31.278055555555554],[-98.74527777777777,31.375833333333333],[-98.85305555555556,31.46222222222222],[-98.96111111111111,31.54888888888889],[-99.06888888888888,31.634999999999998],[-99.17305555555556,31.71833333333333],[-99.28111111111112,31.80388888888889],[-99.38833333333334,31.88888888888889],[-99.48916666666666,31.968888888888888],[-99.59055555555555,32.04833333333333],[-99.69638888888889,32.13194444444444],[-99.80388888888889,32.21638888888889],[-99.9113888888889,32.30027777777777],[-100.02166666666666,32.38611111111111],[-100.13305555555554,32.47277777777778],[-100.24527777777777,32.559999999999995],[-100.35666666666665,32.64555555555555],[-100.46777777777778,32.73111111111111],[-100.57972222222222,32.816944444444445],[-100.69027777777778,32.901666666666664],[-100.8025,32.98722222222222],[-100.91333333333334,33.07166666666667],[-100.97444444444444,33.117777777777775],[-101.02583333333334,33.156666666666666],[-101.08305555555555,33.200833333333335],[-101.13722222222223,33.240833333333335],[-101.19388888888889,33.28361111111111],[-101.24805555555555,33.324444444444445],[-101.30583333333333,33.36833333333333],[-101.35138888888888,33.401944444444446],[-101.4175,33.452222222222225],[-101.46333333333334,33.48583333333333],[-101.53,33.53583333333333],[-101.57694444444444,33.57055555555556],[-101.6438888888889,33.620555555555555],[-101.68916666666667,33.65416666666667],[-101.75888888888889,33.70583333333334],[-101.80416666666666,33.739444444444445],[-101.87166666666666,33.78944444444444],[-101.91833333333334,33.823888888888895],[-101.985,33.87305555555555],[-102.03222222222222,33.907777777777774],[-102.1,33.9575],[-102.14583333333334,33.99111111111111],[-102.21444444444445,34.041666666666664],[-102.27722222222222,34.087500000000006],[-102.32916666666667,34.125277777777775],[-102.39027777777778,34.169999999999995],[-102.46277777777777,34.22277777777778],[-102.50333333333333,34.25222222222222],[-102.57305555555556,34.302499999999995],[-102.61777777777777,34.335],[-102.68861111111111,34.38611111111111],[-102.73194444444445,34.4175],[-102.80277777777778,34.468333333333334],[-102.84972222222221,34.499722222222225],[-102.9263888888889,34.540277777777774],[-102.97833333333334,34.5675],[-103.05499999999999,34.6075],[-103.10638888888889,34.63388888888889],[-103.1863888888889,34.675555555555555],[-103.2375,34.70194444444445],[-103.31583333333333,34.7425],[-103.36833333333333,34.769444444444446],[-103.44611111111111,34.809444444444445],[-103.4975,34.83583333333333],[-103.57527777777777,34.87583333333333],[-103.62805555555555,34.903055555555554],[-103.7063888888889,34.94305555555555],[-103.76,34.97027777777778],[-103.83722222222222,35.00972222222222],[-103.88944444444445,35.03611111111111],[-103.96638888888889,35.075],[-104.02,35.102222222222224],[-104.09333333333333,35.13944444444444],[-104.15111111111112,35.16861111111111],[-104.22555555555556,35.20583333333334],[-104.29916666666666,35.24138888888889],[-104.36,35.27333333333333],[-104.42166666666667,35.30333333333333],[-104.48222222222222,35.33444444444444],[-104.55416666666666,35.368611111111115],[-104.60388888888889,35.39527777777778],[-104.6875,35.43472222222222],[-104.73611111111111,35.46055555555556],[-104.81944444444444,35.50083333333333],[-104.86416666666666,35.52388888888889],[-104.9525,35.56666666666667],[-104.99666666666667,35.589444444444446],[-105.07638888888889,35.626666666666665],[-105.12722222222222,35.653055555555554],[-105.20222222222222,35.68472222222222],[-105.265,35.70722222222223],[-105.34305555555555,35.73722222222222],[-105.4025,35.76],[-105.4786111111111,35.78916666666667],[-105.54194444444444,35.81333333333333],[-105.61916666666666,35.8425],[-105.68027777777779,35.865833333333335],[-105.75777777777778,35.894999999999996],[-105.83166666666666,35.92305555555555],[-105.89722222222223,35.94777777777777],[-105.97333333333333,35.97638888888889],[-106.05305555555556,36.006388888888885],[-106.11833333333333,36.030833333333334],[-106.185,36.05555555555555],[-106.26333333333334,36.084722222222226],[-106.32138888888889,36.10611111111111],[-106.41055555555556,36.13944444444444],[-106.46555555555555,36.16],[-106.55194444444444,36.19194444444444],[-106.6111111111111,36.21388888888889],[-106.6975,36.245555555555555],[-106.75694444444444,36.26722222222222],[-106.84388888888888,36.29888888888889],[-106.90277777777779,36.32027777777778],[-106.9888888888889,36.35194444444445],[-107.04805555555555,36.373333333333335],[-107.13583333333334,36.405],[-107.19333333333334,36.42583333333333],[-107.28083333333333,36.4575],[-107.34027777777777,36.47833333333333],[-107.42805555555556,36.50666666666667],[-107.48916666666666,36.52611111111111],[-107.57583333333334,36.55416666666667],[-107.63777777777779,36.57416666666667],[-107.7275,36.60333333333333],[-107.77972222222222,36.62277777777778],[-107.93416666666667,36.67055555555555],[-108.08777777777777,36.71888888888889],[-108.2725,36.77833333333333],[-108.39083333333333,36.81666666666667],[-108.54472222222222,36.86472222222223],[-108.57444444444444,36.87388888888889],[-108.72638888888889,36.92111111111111],[-108.85083333333333,36.95916666666667],[-109.00416666666666,37.007222222222225],[-109.03055555555555,37.01555555555556],[-109.185,37.06333333333333],[-109.3125,37.1025],[-109.46722222222222,37.150277777777774],[-109.49138888888889,37.15694444444444],[-109.64777777777779,37.20416666666667],[-109.8025,37.25111111111111],[-109.92111111111112,37.286944444444444],[-109.95527777777778,37.29722222222222],[-110.07555555555555,37.33277777777778],[-110.2611111111111,37.38805555555555],[-110.41694444444445,37.43388888888889],[-110.57138888888889,37.47916666666667],[-110.72638888888889,37.524166666666666],[-110.87944444444443,37.56861111111112],[-111.03666666666666,37.60611111111111],[-111.19277777777778,37.64277777777778],[-111.35111111111111,37.68],[-111.35666666666665,37.68111111111111],[-111.50611111111111,37.71555555555556],[-111.51138888888889,37.716944444444444],[-111.66222222222223,37.75138888888889],[-111.6675,37.7525],[-111.82555555555555,37.78861111111111],[-111.97666666666667,37.82277777777778],[-111.98166666666667,37.823888888888895],[-112.13361111111112,37.8525],[-112.14166666666668,37.85388888888889],[-112.29194444444444,37.88138888888889],[-112.44555555555556,37.90888888888889],[-112.60111111111111,37.936388888888885],[-112.75583333333333,37.96388888888889],[-112.91194444444444,37.99111111111111],[-113.06527777777778,38.01777777777777],[-113.21916666666667,38.044444444444444],[-113.37194444444444,38.07027777777778],[-113.52638888888889,38.09638888888889],[-113.68194444444445,38.1225],[-113.83666666666666,38.14833333333333],[-113.9925,38.17388888888889],[-114.14972222222222,38.19972222222222],[-114.30638888888889,38.22527777777778],[-114.4625,38.250277777777775],[-114.62055555555555,38.275277777777774],[-114.77527777777777,38.3],[-114.88916666666667,38.31722222222223],[-114.92972222222222,38.323888888888895],[-115.04777777777778,38.331388888888895],[-115.08749999999999,38.32972222222222],[-115.20805555555556,38.33166666666667],[-115.24861111111112,38.33111111111111],[-115.36833333333333,38.33277777777778],[-115.39888888888889,38.33222222222223],[-115.52833333333334,38.33222222222223],[-115.55805555555555,38.33277777777778],[-115.68944444444445,38.33444444444444],[-115.71833333333333,38.333333333333336],[-115.84944444444444,38.33388888888889],[-115.88027777777778,38.33361111111111],[-116.01055555555556,38.33361111111111],[-116.04055555555556,38.33361111111111],[-116.16916666666667,38.33361111111111],[-116.20111111111112,38.333333333333336],[-116.32972222222222,38.330000000000005],[-116.36083333333333,38.325833333333335],[-116.48833333333333,38.29833333333333],[-116.51722222222222,38.29194444444444],[-116.64194444444445,38.263888888888886],[-116.67277777777778,38.25694444444444],[-116.79722222222222,38.228611111111114],[-116.82638888888889,38.221944444444446],[-116.95027777777779,38.19361111111111],[-116.97805555555556,38.18722222222222],[-117.10111111111111,38.15888888888889],[-117.13111111111111,38.151944444444446],[-117.25027777777778,38.12416666666667],[-117.2936111111111,38.11416666666667],[-117.3825,38.093611111111116],[-117.44083333333333,38.08027777777778],[-117.53194444444445,38.05916666666666],[-117.58749999999999,38.04611111111111],[-117.67805555555556,38.025],[-117.73472222222222,38.01166666666666],[-117.82277777777777,37.99805555555556],[-117.87888888888888,37.99194444444444],[-117.96833333333333,37.9825],[-118.02527777777777,37.97638888888889],[-118.11472222222221,37.966944444444444],[-118.1713888888889,37.96083333333333],[-118.3175,37.94499999999999],[-118.40555555555557,37.93555555555555],[-118.46277777777777,37.92916666666667],[-118.55222222222221,37.919444444444444],[-118.69611111111111,37.90333333333333],[-118.84194444444444,37.886944444444445],[-118.98722222222223,37.87027777777778],[-119.11694444444444,37.85527777777778],[-119.26305555555555,37.83833333333334],[-119.40722222222223,37.82138888888889],[-119.55166666666666,37.80416666666667],[-119.69694444444445,37.786944444444444],[-119.84055555555555,37.769444444444446],[-119.98333333333333,37.75194444444445],[-120.1275,37.73416666666667],[-120.27944444444444,37.715],[-120.4,37.7],[-120.43444444444445,37.695277777777775],[-120.55,37.68333333333333],[-120.58777777777777,37.67805555555555],[-120.71666666666667,37.666666666666664],[-120.73694444444445,37.66027777777778],[-120.88055555555555,37.643055555555556],[-121.01805555555555,37.62583333333333],[-121.11666666666666,37.61666666666667],[-121.14611111111111,37.608333333333334],[-121.23333333333333,37.6],[-121.35,37.583333333333336],[-121.38277777777778,37.57888888888889],[-121.46666666666667,37.56666666666667],[-121.49027777777778,37.56638888888889],[-121.56666666666666,37.55],[-121.59583333333333,37.55416666666667],[-121.66666666666667,37.55],[-121.69055555555556,37.53527777777778],[-121.73333333333333,37.516666666666666],[-121.78277777777778,37.51305555555555],[-121.85,37.5],[-121.87222222222222,37.49194444444444],[-121.93333333333334,37.5],[-121.96027777777778,37.49583333333334],[-122,37.5],[-122.04555555555555,37.50055555555556],[-122.1,37.5],[-122.12138888888889,37.513333333333335],[-122.16666666666667,37.53333333333333],[-122.18916666666667,37.5425],[-122.23333333333333,37.56666666666667],[-122.2461111111111,37.56722222222223],[-122.28333333333333,37.583333333333336],[-122.29555555555555,37.588055555555556],[-122.33333333333333,37.6],[-122.34305555555555,37.6075]]}
}
