{
  "id": 2048314323,
  "type": "Feature",
  "properties": {
    "geom:area": 0,
    "geom:bbox": "-122.526630,37.627500,-121.250250,38.055010",
    "geom:latitude": 37.882372946610964,
    "geom:longitude": -121.96315689971995,
    "src:alt_label": "swim-takeoff",
    "src:geom": "swim",
    "swim:elevations": [
      183,
      238,
      765,
      947,
      1143,
      1323,
      1495,
      1759,
      2381,
      2715,
      3086,
      3278,
      3375,
      3518,
      3920,
      4076,
      4437,
      4702,
      4996,
      5310,
      5635,
      5829,
      6098,
      6249,
      6551,
      6646,
      6934
    ],
    "swim:geom": "takeoff",
    "swim:timestamps": [
      1789115965,
      1789115970,
      1789116011,
      1789116034,
      1789116071,
      1789116101,
      1789116123,
      1789116153,
      1789116201,
      1789116234,
      1789116265,
      1789116297,
      1789116312,
      1789116339,
      1789116380,
      1789116396,
      1789116431,
      1789116455,
      1789116491,
      1789116530,
      1789116562,
      1789116590,
      1789116621,
      1789116648,
      1789116682,
      1789116695,
      1789116730
    ],
    "wof:geomhash": "7a7c1f12963bdc675574a308d32a949e",
    "wof:id": 2048314323,
    "wof:repo": "sfomuseum-data-flights-2026-09"
  },
  "bbox": [
    -122.52663,
    37.6275,
    -121.25025,
    38.05501
  ],
  "geometry": {"type":"LineString","coordinates":[[-122.39592,37.6275],[-122.4003,37.62947],[-122.43741,37.64543],[-122.4573,37.65419],[-122.4956,37.6706],[-122.52431,37.69208],[-122.52663,37.71766],[-122.50013,37.74913],[-122.42297,37.76671],[-122.36726,37.7785],[-122.31555,37.7906],[-122.26126,37.80774],[-122.23362,37.81698],[-122.1827,37.83429],[-122.10071,37.86115],[-122.06632,37.87237],[-121.99246,37.89684],[-121.94119,37.9136],[-121.85903,37.94032],[-121.766,37.96193],[-121.68845,37.97608],[-121.61805,37.98848],[-121.53878,38.0031],[-121.46847,38.01565],[-121.38023,38.03143],[-121.34617,38.03757],[-121.25025,38.05501]]}
}
