{
  "id": 2048309661,
  "type": "Feature",
  "properties": {
    "geom:area": 0,
    "geom:bbox": "-123.459260,37.103420,-122.079160,37.610940",
    "geom:latitude": 37.31157607107811,
    "geom:longitude": -122.64380619314794,
    "src:alt_label": "swim-approach",
    "src:geom": "swim",
    "swim:elevations": [
      5728,
      5597,
      5019,
      4887,
      4719,
      4262,
      4177,
      4123,
      3581,
      3490,
      3118,
      3048,
      3048,
      3048,
      3048,
      3048,
      3048,
      3039,
      2944,
      2864,
      2814,
      2746,
      2741,
      2737,
      2527,
      2382,
      2257,
      2190,
      1952,
      1776,
      1540,
      1543,
      1524,
      1523,
      1524,
      1524,
      1524,
      1367,
      1250,
      1015,
      914,
      768,
      717,
      569,
      512,
      445,
      277,
      148,
      98,
      40
    ],
    "swim:geom": "approach",
    "swim:timestamps": [
      1789154419,
      1789154432,
      1789154488,
      1789154502,
      1789154521,
      1789154565,
      1789154574,
      1789154581,
      1789154636,
      1789154645,
      1789154685,
      1789154719,
      1789154758,
      1789154763,
      1789154813,
      1789154836,
      1789154859,
      1789154898,
      1789154921,
      1789154934,
      1789154945,
      1789154970,
      1789155000,
      1789155040,
      1789155072,
      1789155112,
      1789155143,
      1789155155,
      1789155193,
      1789155222,
      1789155259,
      1789155293,
      1789155317,
      1789155348,
      1789155364,
      1789155403,
      1789155424,
      1789155477,
      1789155491,
      1789155522,
      1789155551,
      1789155590,
      1789155607,
      1789155645,
      1789155658,
      1789155672,
      1789155709,
      1789155748,
      1789155761,
      1789155782
    ],
    "wof:geomhash": "c65c5acbeae1e3d561b58079baf76bc2",
    "wof:id": 2048309661,
    "wof:repo": "sfomuseum-data-flights-2026-09"
  },
  "bbox": [
    -123.45926,
    37.10342,
    -122.07916,
    37.61094
  ],
  "geometry": {"type":"LineString","coordinates":[[-123.45926,37.10342],[-123.42679,37.11186],[-123.29666,37.14585],[-123.26585,37.15385],[-123.22351,37.16481],[-123.1246,37.19047],[-123.10644,37.19512],[-123.09166,37.19893],[-122.97363,37.22952],[-122.95486,37.23431],[-122.8735,37.25495],[-122.80722,37.27101],[-122.74012,37.28616],[-122.73248,37.28796],[-122.65974,37.27955],[-122.62974,37.26891],[-122.59927,37.25807],[-122.5474,37.23974],[-122.51683,37.22909],[-122.49953,37.22298],[-122.48463,37.21772],[-122.45063,37.21221],[-122.41954,37.2344],[-122.41941,37.27924],[-122.40166,37.31275],[-122.37916,37.35087],[-122.36258,37.37859],[-122.35647,37.38869],[-122.3242,37.40929],[-122.28922,37.40722],[-122.24456,37.40438],[-122.20462,37.40187],[-122.17605,37.40011],[-122.1395,37.4012],[-122.12539,37.41039],[-122.09322,37.43602],[-122.07916,37.45116],[-122.10375,37.49285],[-122.11285,37.50318],[-122.1387,37.51913],[-122.16494,37.53044],[-122.20146,37.54576],[-122.21656,37.55216],[-122.24955,37.56603],[-122.26037,37.57049],[-122.27231,37.57554],[-122.30228,37.58819],[-122.33107,37.60026],[-122.34117,37.60447],[-122.35668,37.61094]]}
}
