{
  "id": 2048250621,
  "type": "Feature",
  "properties": {
    "geom:area": 0,
    "geom:bbox": "-122.358280,37.491540,-121.288880,37.613640",
    "geom:latitude": 37.54505285564026,
    "geom:longitude": -121.82828679051855,
    "src:alt_label": "swim-approach",
    "src:geom": "swim",
    "swim:elevations": [
      4681,
      4199,
      3900,
      3623,
      3390,
      3256,
      3106,
      3074,
      2698,
      2605,
      2434,
      2222,
      2072,
      1985,
      1856,
      1854,
      1614,
      1574,
      1372,
      1159,
      946,
      914,
      722,
      546,
      549,
      420,
      336,
      213,
      122,
      5
    ],
    "swim:geom": "approach",
    "swim:timestamps": [
      1788548831,
      1788548878,
      1788548906,
      1788548933,
      1788548957,
      1788548985,
      1788549021,
      1788549030,
      1788549081,
      1788549093,
      1788549140,
      1788549172,
      1788549206,
      1788549228,
      1788549268,
      1788549273,
      1788549324,
      1788549338,
      1788549379,
      1788549414,
      1788549444,
      1788549466,
      1788549506,
      1788549536,
      1788549548,
      1788549588,
      1788549618,
      1788549655,
      1788549681,
      1788549712
    ],
    "wof:geomhash": "9a4f56e65a78507b16cc9d9f30e4b379",
    "wof:id": 2048250621,
    "wof:repo": "sfomuseum-data-flights-2026-09"
  },
  "bbox": [
    -122.35828,
    37.49154,
    -121.28888,
    37.61364
  ],
  "geometry": {"type":"LineString","coordinates":[[-121.28888,37.58934],[-121.37732,37.57918],[-121.42983,37.57329],[-121.48146,37.56753],[-121.52587,37.56232],[-121.57716,37.55624],[-121.6378,37.54748],[-121.65062,37.54436],[-121.72769,37.5261],[-121.7456,37.52199],[-121.81157,37.50594],[-121.85292,37.49601],[-121.89712,37.49154],[-121.92689,37.4924],[-121.97936,37.49386],[-121.98556,37.49485],[-122.04124,37.51213],[-122.05489,37.51656],[-122.09389,37.52918],[-122.12497,37.5391],[-122.1529,37.54823],[-122.17283,37.55466],[-122.20812,37.56612],[-122.23539,37.57489],[-122.24434,37.57784],[-122.27696,37.58782],[-122.29692,37.59355],[-122.32126,37.60092],[-122.33816,37.60597],[-122.35828,37.61364]]}
}
