{
  "id": 2048466747,
  "type": "Feature",
  "properties": {
    "geom:area": 0,
    "geom:bbox": "-122.845820,37.382380,-122.108130,38.486800",
    "geom:latitude": 37.798258331786045,
    "geom:longitude": -122.48307397800906,
    "src:alt_label": "swim-approach",
    "src:geom": "swim",
    "swim:elevations": [
      7494,
      7279,
      6890,
      6650,
      6380,
      6012,
      5915,
      5608,
      5534,
      5175,
      4939,
      4667,
      4280,
      4048,
      3725,
      3439,
      3351,
      3353,
      3353,
      3353,
      3353,
      3137,
      2889,
      2664,
      2313,
      2205,
      1882,
      1830,
      1769,
      1596,
      1524,
      1524,
      1524,
      1524,
      1386,
      1158,
      1081,
      960,
      760,
      683,
      506,
      372,
      254,
      124,
      28,
      201
    ],
    "swim:geom": "approach",
    "swim:timestamps": [
      1790681447,
      1790681469,
      1790681506,
      1790681530,
      1790681557,
      1790681594,
      1790681605,
      1790681635,
      1790681643,
      1790681678,
      1790681703,
      1790681733,
      1790681774,
      1790681798,
      1790681834,
      1790681869,
      1790681888,
      1790681935,
      1790681943,
      1790681975,
      1790682008,
      1790682041,
      1790682073,
      1790682099,
      1790682140,
      1790682151,
      1790682192,
      1790682212,
      1790682241,
      1790682270,
      1790682304,
      1790682355,
      1790682360,
      1790682398,
      1790682441,
      1790682469,
      1790682483,
      1790682510,
      1790682557,
      1790682577,
      1790682618,
      1790682654,
      1790682684,
      1790682722,
      1790682745,
      1790682754
    ],
    "wof:geomhash": "6b4c3ac7150cab6ed6e6fa3ac94f2cab",
    "wof:id": 2048466747,
    "wof:repo": "sfomuseum-data-flights-2026-09"
  },
  "bbox": [
    -122.84582,
    37.38238,
    -122.10813,
    38.4868
  ],
  "geometry": {"type":"LineString","coordinates":[[-122.84582,38.4868],[-122.83322,38.44528],[-122.81225,38.37541],[-122.79908,38.3305],[-122.78429,38.28074],[-122.76443,38.21406],[-122.75849,38.19373],[-122.74301,38.14035],[-122.73927,38.12742],[-122.7212,38.06521],[-122.70854,38.02137],[-122.69398,37.97097],[-122.67005,37.90268],[-122.64057,37.86859],[-122.59058,37.82155],[-122.54477,37.77805],[-122.52016,37.75476],[-122.46297,37.70109],[-122.45446,37.69317],[-122.42156,37.66235],[-122.38789,37.63062],[-122.35633,37.59774],[-122.33577,37.56188],[-122.32245,37.53268],[-122.29558,37.48885],[-122.2886,37.47735],[-122.26168,37.43313],[-122.24884,37.41285],[-122.22686,37.38896],[-122.19283,37.38238],[-122.15404,37.38333],[-122.10974,37.40919],[-122.10814,37.41301],[-122.10813,37.44299],[-122.12031,37.4766],[-122.13668,37.49641],[-122.14588,37.50549],[-122.16293,37.52229],[-122.2001,37.54517],[-122.21767,37.55262],[-122.25533,37.56847],[-122.28403,37.58037],[-122.30712,37.59028],[-122.33681,37.60269],[-122.35514,37.61034],[-122.36223,37.61302]]}
}
