{
  "id": 2048392011,
  "type": "Feature",
  "properties": {
    "geom:area": 0,
    "geom:bbox": "-123.489950,37.632260,-122.407330,37.731260",
    "geom:latitude": 37.69868606411244,
    "geom:longitude": -122.94503538564852,
    "src:alt_label": "swim-takeoff",
    "src:geom": "swim",
    "swim:elevations": [
      339,
      714,
      965,
      1124,
      1497,
      3138,
      3289,
      3476,
      3712,
      4010,
      4073,
      4202,
      4389,
      4479,
      4695,
      5423,
      5671,
      6033
    ],
    "swim:geom": "takeoff",
    "swim:timestamps": [
      1789949396,
      1789949426,
      1789949453,
      1789949474,
      1789949528,
      1789949660,
      1789949684,
      1789949726,
      1789949758,
      1789949782,
      1789949789,
      1789949800,
      1789949818,
      1789949829,
      1789949850,
      1789949907,
      1789949932,
      1789949965
    ],
    "wof:geomhash": "2ad763a761870b9a5c5a587ada3e34e2",
    "wof:id": 2048392011,
    "wof:repo": "sfomuseum-data-flights-2026-09"
  },
  "bbox": [
    -123.48995,
    37.63226,
    -122.40733,
    37.73126
  ],
  "geometry": {"type":"LineString","coordinates":[[-122.40733,37.63226],[-122.43599,37.64492],[-122.46334,37.65683],[-122.48621,37.66689],[-122.56201,37.6786],[-122.78341,37.69158],[-122.82712,37.69431],[-122.91235,37.69915],[-122.98344,37.70303],[-123.03845,37.70629],[-123.05423,37.70723],[-123.08014,37.70869],[-123.1228,37.71105],[-123.15103,37.71269],[-123.2024,37.71555],[-123.34374,37.7235],[-123.40619,37.72665],[-123.48995,37.73126]]}
}
