{
  "id": 2048463631,
  "type": "Feature",
  "properties": {
    "geom:area": 0,
    "geom:bbox": "-122.350470,36.725210,-121.880690,37.608380",
    "geom:latitude": 37.20989369098506,
    "geom:longitude": -122.06823435445257,
    "src:alt_label": "swim-approach",
    "src:geom": "swim",
    "swim:elevations": [
      5919,
      5609,
      5325,
      4954,
      4624,
      4460,
      4210,
      3924,
      3743,
      3418,
      3169,
      3059,
      2790,
      2744,
      2387,
      2287,
      2102,
      2050,
      1804,
      1643,
      1595,
      1354,
      1246,
      1108,
      974,
      862,
      765,
      693,
      444,
      299,
      263,
      128,
      60
    ],
    "swim:geom": "approach",
    "swim:timestamps": [
      1790683043,
      1790683075,
      1790683103,
      1790683144,
      1790683178,
      1790683196,
      1790683224,
      1790683256,
      1790683278,
      1790683315,
      1790683345,
      1790683360,
      1790683402,
      1790683414,
      1790683465,
      1790683481,
      1790683504,
      1790683511,
      1790683543,
      1790683570,
      1790683590,
      1790683638,
      1790683657,
      1790683686,
      1790683714,
      1790683735,
      1790683749,
      1790683762,
      1790683817,
      1790683856,
      1790683865,
      1790683907,
      1790683931
    ],
    "wof:geomhash": "c4db6b86e97a0f07957d36a9b7d69119",
    "wof:id": 2048463631,
    "wof:repo": "sfomuseum-data-flights-2026-09"
  },
  "bbox": [
    -122.35047,
    36.72521,
    -121.88069,
    37.60838
  ],
  "geometry": {"type":"LineString","coordinates":[[-121.88069,36.72521],[-121.90295,36.77377],[-121.91533,36.8168],[-121.93231,36.87769],[-121.94659,36.92993],[-121.95458,36.95642],[-121.97021,36.99607],[-121.98802,37.04181],[-121.9996,37.07173],[-122.01885,37.12049],[-122.03439,37.16006],[-122.0418,37.17916],[-122.06207,37.23081],[-122.06733,37.24422],[-122.08829,37.29787],[-122.09447,37.31354],[-122.10319,37.33556],[-122.10586,37.3422],[-122.1178,37.37196],[-122.12629,37.3966],[-122.13253,37.41492],[-122.14773,37.45951],[-122.15379,37.47701],[-122.16302,37.50378],[-122.1718,37.5281],[-122.18838,37.54006],[-122.2025,37.54591],[-122.21563,37.55179],[-122.26841,37.57387],[-122.29768,37.58622],[-122.30462,37.58911],[-122.334,37.60151],[-122.35047,37.60838]]}
}
