{
  "id": 2048387495,
  "type": "Feature",
  "properties": {
    "geom:area": 0,
    "geom:bbox": "-122.359030,37.491270,-121.564220,37.614320",
    "geom:latitude": 37.535475431011726,
    "geom:longitude": -121.96454668817859,
    "src:alt_label": "swim-approach",
    "src:geom": "swim",
    "swim:elevations": [
      3198,
      3078,
      2921,
      2824,
      2600,
      2438,
      2340,
      2133,
      2000,
      1828,
      1816,
      1649,
      1330,
      1072,
      834,
      666,
      618,
      384,
      251,
      116,
      0
    ],
    "swim:geom": "approach",
    "swim:timestamps": [
      1789928087,
      1789928128,
      1789928156,
      1789928171,
      1789928203,
      1789928243,
      1789928270,
      1789928292,
      1789928311,
      1789928351,
      1789928380,
      1789928420,
      1789928454,
      1789928484,
      1789928514,
      1789928547,
      1789928558,
      1789928597,
      1789928630,
      1789928665,
      1789928687
    ],
    "wof:geomhash": "e365d8927a6d4d6b6bec2faa653b05ce",
    "wof:id": 2048387495,
    "wof:repo": "sfomuseum-data-flights-2026-09"
  },
  "bbox": [
    -122.35903,
    37.49127,
    -121.56422,
    37.61432
  ],
  "geometry": {"type":"LineString","coordinates":[[-121.56422,37.5579],[-121.63981,37.5472],[-121.68483,37.53646],[-121.70915,37.5306],[-121.76142,37.51821],[-121.82063,37.50396],[-121.85934,37.49467],[-121.89459,37.49127],[-121.92521,37.49218],[-121.98692,37.49535],[-122.02982,37.50824],[-122.08212,37.52515],[-122.12299,37.53851],[-122.1604,37.55056],[-122.19647,37.56238],[-122.23425,37.57444],[-122.24619,37.57829],[-122.2855,37.58993],[-122.3139,37.59866],[-122.34165,37.60752],[-122.35903,37.61432]]}
}
