{
  "id": 2048355067,
  "type": "Feature",
  "properties": {
    "geom:area": 0,
    "geom:bbox": "-122.397890,37.625830,-121.292820,38.306340",
    "geom:latitude": 37.990657198894056,
    "geom:longitude": -121.87132668602403,
    "src:alt_label": "swim-takeoff",
    "src:geom": "swim",
    "swim:elevations": [
      183,
      664,
      881,
      1172,
      1334,
      1747,
      2243,
      2330,
      2970,
      3160,
      3357,
      3598,
      3875,
      4348,
      4706,
      4859,
      5319,
      5543,
      6036,
      6256,
      6540,
      6608,
      7050,
      7194
    ],
    "swim:geom": "takeoff",
    "swim:timestamps": [
      1789584254,
      1789584292,
      1789584313,
      1789584352,
      1789584379,
      1789584407,
      1789584448,
      1789584456,
      1789584499,
      1789584513,
      1789584552,
      1789584593,
      1789584616,
      1789584654,
      1789584687,
      1789584701,
      1789584740,
      1789584759,
      1789584807,
      1789584833,
      1789584865,
      1789584873,
      1789584921,
      1789584936
    ],
    "wof:geomhash": "89ee5e4eb0934274a4322676ef4c1e95",
    "wof:id": 2048355067,
    "wof:repo": "sfomuseum-data-flights-2026-09"
  },
  "bbox": [
    -122.39789,
    37.62583,
    -121.29282,
    38.30634
  ],
  "geometry": {"type":"LineString","coordinates":[[-122.39111,37.62583],[-122.39789,37.65207],[-122.37803,37.66078],[-122.33456,37.67555],[-122.29718,37.68848],[-122.25472,37.70334],[-122.19868,37.73275],[-122.18923,37.74195],[-122.14513,37.79153],[-122.13113,37.80718],[-122.08686,37.85655],[-122.03537,37.91375],[-122.00297,37.94917],[-121.94526,38.00298],[-121.87675,38.03836],[-121.8461,38.05248],[-121.76105,38.0917],[-121.71757,38.11171],[-121.60766,38.16216],[-121.54779,38.18966],[-121.46907,38.22574],[-121.44962,38.23467],[-121.33233,38.28823],[-121.29282,38.30634]]}
}
