{
  "id": 2048462935,
  "type": "Feature",
  "properties": {
    "geom:area": 0,
    "geom:bbox": "-122.416667,37.635278,-70.783333,42.679444",
    "geom:latitude": 39.852748950307934,
    "geom:longitude": -96.38797237567547,
    "src:alt_label": "swim-path",
    "src:geom": "swim",
    "swim:altitudes": [
      "011",
      "017",
      "034",
      "050",
      "072",
      "098",
      "111",
      "128",
      "144",
      "162",
      "171",
      "186",
      "202",
      "216",
      "230",
      "247",
      "266",
      "282",
      "293",
      "296",
      "299",
      "303",
      "307",
      "310",
      "314",
      "318",
      "325",
      "330C",
      "330C",
      "330C",
      "330C",
      "330C",
      "330C",
      "330C",
      "330C",
      "330C",
      "330C",
      "330C",
      "330C",
      "330C",
      "330C",
      "330C",
      "330C",
      "330C",
      "330C",
      "330C",
      "330C",
      "330C",
      "330C",
      "330C",
      "330C",
      "330C",
      "330C",
      "330C",
      "330C",
      "330C",
      "330C",
      "330C",
      "330C",
      "330C",
      "330C",
      "330C",
      "330C",
      "330C",
      "330C",
      "330C",
      "330C",
      "330C",
      "330C",
      "330C",
      "330C",
      "330C",
      "330C",
      "330C",
      "330C",
      "330C",
      "330C",
      "330C",
      "330C",
      "330C",
      "330C",
      "330C",
      "330C",
      "330C",
      "330C",
      "330C",
      "330C",
      "330C",
      "330C",
      "330C",
      "330C",
      "330C",
      "330C",
      "330C",
      "330C",
      "330C",
      "330C",
      "330C",
      "330C",
      "330C",
      "330C",
      "330C",
      "330C",
      "330C",
      "330C",
      "330C",
      "330C",
      "330C",
      "330",
      "334",
      "341",
      "347",
      "350C",
      "350C",
      "350C",
      "350C",
      "350C",
      "350C",
      "350C",
      "350C",
      "350C",
      "350C",
      "350C",
      "350C",
      "350C",
      "350C",
      "350C",
      "350C",
      "350C",
      "350C",
      "350C",
      "350C",
      "350C",
      "350C",
      "350C",
      "350C",
      "350C",
      "350C",
      "350C",
      "350C",
      "350C",
      "350C",
      "350C",
      "350C",
      "350C",
      "350C",
      "350C",
      "350C",
      "350C",
      "350C",
      "350C",
      "350C",
      "350C",
      "350C",
      "350C",
      "350C",
      "350C",
      "350C",
      "350C",
      "350C",
      "350C",
      "350C",
      "350C",
      "350C",
      "350C",
      "350C",
      "350C",
      "350C",
      "350C",
      "350C",
      "350C",
      "350C",
      "350C",
      "350C",
      "350C",
      "350C",
      "350C",
      "350C",
      "350C",
      "350C",
      "350C",
      "350C",
      "350C",
      "350C",
      "350C",
      "350C",
      "350C",
      "350C",
      "350C",
      "350C",
      "350C",
      "350C",
      "350C",
      "350C",
      "350C",
      "350C",
      "350C",
      "350C",
      "350C",
      "350C",
      "350C",
      "350C",
      "350C",
      "350C",
      "350C",
      "350C",
      "350C",
      "350C",
      "350C",
      "350C",
      "350C",
      "350C",
      "350C",
      "350C",
      "350C",
      "350C",
      "350C",
      "350C",
      "350C",
      "350C",
      "350C",
      "350C",
      "350C",
      "350C",
      "350C",
      "350C",
      "350C",
      "350C",
      "350C",
      "350C",
      "350C",
      "350C",
      "350C",
      "350C",
      "350C",
      "350C",
      "350C",
      "350C",
      "350C",
      "350C",
      "350C",
      "350C",
      "350C",
      "350C",
      "350C",
      "350C",
      "350C",
      "350C",
      "350C",
      "350C",
      "350C",
      "350C",
      "350C",
      "350C",
      "350C",
      "350C",
      "350C",
      "350C",
      "350C",
      "350C",
      "350C",
      "350C",
      "350C",
      "350C",
      "350C",
      "350C",
      "350C",
      "350C",
      "350C",
      "350C",
      "350C",
      "350C",
      "350C",
      "350C",
      "350C",
      "350C",
      "350C",
      "350C",
      "350C",
      "350C",
      "350C",
      "350C",
      "350C",
      "350C",
      "350C",
      "350C",
      "350C",
      "350C",
      "350C",
      "350C",
      "350C",
      "350C",
      "350C",
      "350C",
      "350C",
      "350C",
      "350C",
      "350C",
      "350C",
      "350C",
      "350C",
      "350C",
      "350C",
      "350C",
      "350C",
      "350C",
      "350C",
      "350C",
      "350C",
      "350C",
      "350C",
      "350C",
      "350C",
      "350C",
      "350C",
      "350C",
      "350C",
      "350C",
      "350C",
      "350C",
      "350C",
      "350C",
      "350C",
      "350C",
      "350C",
      "350C",
      "350C",
      "350C",
      "350C",
      "350C",
      "350C",
      "350C",
      "350C",
      "350C",
      "350C",
      "350C",
      "350C",
      "350C",
      "350C",
      "350C",
      "350C",
      "350C",
      "350C",
      "350C",
      "350C",
      "350C",
      "350C",
      "350C",
      "350C",
      "350C",
      "350C",
      "350C",
      "350C",
      "350C",
      "350C",
      "350C",
      "350C",
      "350C",
      "350C",
      "350C",
      "350C",
      "350C",
      "350C",
      "350C",
      "350C",
      "350C",
      "350C",
      "350C",
      "350C",
      "350C",
      "350C",
      "350C",
      "350C",
      "350C",
      "350C",
      "350C",
      "350C",
      "350C",
      "350C",
      "350C",
      "350C",
      "350C",
      "350C",
      "350C",
      "350C",
      "350C",
      "350C",
      "350C",
      "350C",
      "350C",
      "350C",
      "350C",
      "350C",
      "350C",
      "350C",
      "350C",
      "350C",
      "350C",
      "350C",
      "350C",
      "350C",
      "350C",
      "350C",
      "350C",
      "350C",
      "350C",
      "350C",
      "350C",
      "350C",
      "350C",
      "350C",
      "350C",
      "350C",
      "350C",
      "350C",
      "350C",
      "350C",
      "350",
      "350",
      "350",
      "329",
      "296",
      "273",
      "251",
      "229",
      "205",
      "191",
      "183",
      "182",
      "164",
      "163",
      "142",
      "123",
      "118",
      "101",
      "099",
      "086",
      "073",
      "071",
      "070",
      "067",
      "058",
      "054",
      "044",
      "041",
      "033",
      "024",
      "020",
      "020",
      "020",
      "020",
      "017",
      "013",
      "009",
      "004",
      "001"
    ],
    "swim:geom": "path",
    "swim:speeds": [
      181,
      191,
      194,
      242,
      268,
      270,
      313,
      337,
      362,
      362,
      380,
      392,
      396,
      401,
      410,
      412,
      399,
      389,
      388,
      388,
      394,
      390,
      399,
      402,
      403,
      408,
      411,
      415,
      422,
      424,
      426,
      430,
      420,
      421,
      419,
      417,
      420,
      418,
      420,
      419,
      421,
      421,
      423,
      423,
      424,
      424,
      425,
      431,
      433,
      435,
      436,
      437,
      442,
      447,
      447,
      448,
      448,
      449,
      449,
      450,
      451,
      452,
      453,
      456,
      459,
      462,
      463,
      465,
      466,
      467,
      468,
      469,
      468,
      468,
      466,
      465,
      466,
      467,
      472,
      475,
      476,
      477,
      478,
      478,
      478,
      479,
      479,
      480,
      480,
      478,
      477,
      479,
      483,
      485,
      486,
      488,
      488,
      491,
      490,
      492,
      493,
      490,
      488,
      486,
      486,
      487,
      489,
      491,
      492,
      493,
      495,
      498,
      504,
      507,
      512,
      514,
      515,
      513,
      512,
      511,
      512,
      513,
      513,
      510,
      508,
      505,
      503,
      503,
      500,
      498,
      496,
      494,
      493,
      492,
      492,
      492,
      493,
      496,
      498,
      501,
      503,
      505,
      506,
      507,
      507,
      507,
      508,
      510,
      512,
      513,
      514,
      514,
      514,
      514,
      512,
      511,
      509,
      510,
      512,
      514,
      515,
      516,
      518,
      525,
      519,
      524,
      521,
      523,
      521,
      521,
      522,
      521,
      521,
      521,
      521,
      520,
      519,
      516,
      515,
      514,
      513,
      510,
      507,
      504,
      503,
      502,
      503,
      504,
      503,
      502,
      501,
      501,
      500,
      500,
      499,
      498,
      499,
      500,
      499,
      499,
      498,
      497,
      497,
      497,
      487,
      485,
      483,
      483,
      482,
      481,
      481,
      480,
      481,
      481,
      481,
      481,
      481,
      481,
      478,
      481,
      478,
      480,
      479,
      480,
      479,
      479,
      479,
      477,
      478,
      476,
      477,
      476,
      476,
      475,
      475,
      475,
      474,
      474,
      473,
      472,
      471,
      470,
      470,
      469,
      469,
      469,
      468,
      468,
      467,
      466,
      464,
      463,
      462,
      461,
      459,
      458,
      457,
      456,
      455,
      455,
      455,
      444,
      440,
      439,
      438,
      437,
      438,
      440,
      442,
      442,
      443,
      443,
      443,
      443,
      442,
      441,
      440,
      440,
      441,
      452,
      447,
      453,
      449,
      452,
      450,
      450,
      451,
      452,
      452,
      452,
      453,
      453,
      454,
      454,
      455,
      456,
      456,
      457,
      458,
      458,
      459,
      460,
      460,
      461,
      463,
      463,
      465,
      466,
      467,
      468,
      469,
      470,
      470,
      470,
      470,
      470,
      470,
      470,
      470,
      471,
      471,
      471,
      472,
      472,
      473,
      473,
      474,
      474,
      474,
      474,
      475,
      475,
      475,
      476,
      476,
      476,
      475,
      475,
      476,
      475,
      475,
      475,
      474,
      475,
      473,
      474,
      473,
      473,
      473,
      473,
      470,
      472,
      470,
      472,
      475,
      473,
      475,
      478,
      476,
      479,
      477,
      480,
      479,
      480,
      479,
      480,
      480,
      474,
      481,
      481,
      479,
      479,
      478,
      477,
      476,
      475,
      475,
      475,
      474,
      474,
      474,
      473,
      473,
      473,
      473,
      473,
      473,
      473,
      473,
      473,
      474,
      475,
      476,
      476,
      478,
      479,
      479,
      480,
      481,
      482,
      483,
      484,
      485,
      486,
      486,
      487,
      488,
      488,
      489,
      489,
      490,
      490,
      491,
      491,
      492,
      492,
      492,
      492,
      492,
      492,
      492,
      498,
      482,
      471,
      454,
      436,
      428,
      425,
      427,
      405,
      408,
      397,
      379,
      341,
      329,
      310,
      293,
      284,
      277,
      257,
      250,
      242,
      236,
      236,
      221,
      219,
      210,
      197,
      178,
      175,
      165,
      169,
      146,
      142,
      141,
      141
    ],
    "swim:timestamps": [
      1790657702,
      1790657717,
      1790657762,
      1790657822,
      1790657883,
      1790657943,
      1790658003,
      1790658063,
      1790658123,
      1790658183,
      1790658243,
      1790658303,
      1790658363,
      1790658423,
      1790658483,
      1790658543,
      1790658603,
      1790658663,
      1790658723,
      1790658760,
      1790658783,
      1790658820,
      1790658843,
      1790658880,
      1790658903,
      1790658940,
      1790659000,
      1790659060,
      1790659084,
      1790659121,
      1790659144,
      1790659181,
      1790659264,
      1790659301,
      1790659324,
      1790659361,
      1790659384,
      1790659421,
      1790659444,
      1790659481,
      1790659504,
      1790659541,
      1790659564,
      1790659601,
      1790659624,
      1790659661,
      1790659684,
      1790659721,
      1790659744,
      1790659781,
      1790659804,
      1790659841,
      1790659864,
      1790659901,
      1790659924,
      1790659961,
      1790659984,
      1790660021,
      1790660044,
      1790660081,
      1790660104,
      1790660141,
      1790660164,
      1790660201,
      1790660225,
      1790660262,
      1790660285,
      1790660322,
      1790660345,
      1790660382,
      1790660405,
      1790660442,
      1790660465,
      1790660502,
      1790660562,
      1790660622,
      1790660682,
      1790660742,
      1790660802,
      1790660862,
      1790660922,
      1790660982,
      1790661042,
      1790661102,
      1790661162,
      1790661222,
      1790661282,
      1790661342,
      1790661402,
      1790661462,
      1790661523,
      1790661583,
      1790661643,
      1790661703,
      1790661763,
      1790661823,
      1790661883,
      1790661945,
      1790662003,
      1790662063,
      1790662125,
      1790662183,
      1790662243,
      1790662303,
      1790662363,
      1790662423,
      1790662483,
      1790662543,
      1790662603,
      1790662663,
      1790662723,
      1790662783,
      1790662843,
      1790662904,
      1790662964,
      1790663024,
      1790663084,
      1790663145,
      1790663205,
      1790663265,
      1790663326,
      1790663386,
      1790663446,
      1790663506,
      1790663566,
      1790663626,
      1790663686,
      1790663746,
      1790663806,
      1790663866,
      1790663926,
      1790663986,
      1790664046,
      1790664106,
      1790664166,
      1790664226,
      1790664286,
      1790664346,
      1790664406,
      1790664466,
      1790664526,
      1790664586,
      1790664646,
      1790664706,
      1790664766,
      1790664827,
      1790664887,
      1790664947,
      1790665007,
      1790665067,
      1790665127,
      1790665187,
      1790665247,
      1790665307,
      1790665367,
      1790665427,
      1790665487,
      1790665547,
      1790665607,
      1790665667,
      1790665727,
      1790665787,
      1790665847,
      1790665901,
      1790665907,
      1790665961,
      1790665991,
      1790666045,
      1790666051,
      1790666103,
      1790666165,
      1790666223,
      1790666232,
      1790666286,
      1790666304,
      1790666344,
      1790666364,
      1790666403,
      1790666424,
      1790666464,
      1790666484,
      1790666523,
      1790666584,
      1790666644,
      1790666706,
      1790666764,
      1790666824,
      1790666884,
      1790666944,
      1790667004,
      1790667064,
      1790667124,
      1790667185,
      1790667244,
      1790667305,
      1790667364,
      1790667667,
      1790667846,
      1790667905,
      1790667966,
      1790668024,
      1790668086,
      1790668145,
      1790668205,
      1790668266,
      1790668324,
      1790668384,
      1790668447,
      1790668506,
      1790668567,
      1790668625,
      1790668685,
      1790668745,
      1790668807,
      1790668865,
      1790668925,
      1790668987,
      1790669045,
      1790669083,
      1790669106,
      1790669143,
      1790669167,
      1790669202,
      1790669225,
      1790669262,
      1790669285,
      1790669323,
      1790669345,
      1790669383,
      1790669406,
      1790669440,
      1790669467,
      1790669501,
      1790669527,
      1790669562,
      1790669587,
      1790669622,
      1790669648,
      1790669680,
      1790669706,
      1790669741,
      1790669766,
      1790669802,
      1790669826,
      1790669862,
      1790669888,
      1790669920,
      1790669945,
      1790669981,
      1790670005,
      1790670041,
      1790670065,
      1790670102,
      1790670125,
      1790670162,
      1790670188,
      1790670220,
      1790670280,
      1790670343,
      1790670377,
      1790670400,
      1790670434,
      1790670462,
      1790670497,
      1790670522,
      1790670534,
      1790670595,
      1790670627,
      1790670656,
      1790670687,
      1790670713,
      1790670747,
      1790670773,
      1790670807,
      1790670833,
      1790670867,
      1790670893,
      1790670927,
      1790670953,
      1790670998,
      1790671013,
      1790671058,
      1790671074,
      1790671120,
      1790671136,
      1790671168,
      1790671193,
      1790671237,
      1790671255,
      1790671288,
      1790671300,
      1790671315,
      1790671349,
      1790671360,
      1790671373,
      1790671407,
      1790671418,
      1790671433,
      1790671467,
      1790671478,
      1790671493,
      1790671527,
      1790671538,
      1790671553,
      1790671599,
      1790671614,
      1790671660,
      1790671683,
      1790671718,
      1790671734,
      1790671778,
      1790671795,
      1790671841,
      1790671855,
      1790671898,
      1790671916,
      1790671958,
      1790671973,
      1790672018,
      1790672033,
      1790672080,
      1790672094,
      1790672140,
      1790672154,
      1790672198,
      1790672214,
      1790672259,
      1790672274,
      1790672321,
      1790672334,
      1790672378,
      1790672394,
      1790672438,
      1790672454,
      1790672493,
      1790672516,
      1790672560,
      1790672576,
      1790672613,
      1790672636,
      1790672673,
      1790672733,
      1790672739,
      1790672793,
      1790672800,
      1790672853,
      1790672860,
      1790672913,
      1790672973,
      1790673033,
      1790673093,
      1790673160,
      1790673213,
      1790673221,
      1790673273,
      1790673281,
      1790673333,
      1790673393,
      1790673399,
      1790673453,
      1790673461,
      1790673513,
      1790673521,
      1790673573,
      1790673582,
      1790673633,
      1790673639,
      1790673699,
      1790673753,
      1790673760,
      1790673820,
      1790673873,
      1790673880,
      1790673940,
      1790674000,
      1790674035,
      1790674053,
      1790674060,
      1790674095,
      1790674114,
      1790674121,
      1790674155,
      1790674174,
      1790674215,
      1790674234,
      1790674240,
      1790674275,
      1790674300,
      1790674336,
      1790674354,
      1790674363,
      1790674395,
      1790674414,
      1790674420,
      1790674457,
      1790674474,
      1790674483,
      1790674517,
      1790674534,
      1790674576,
      1790674600,
      1790674636,
      1790674660,
      1790674696,
      1790674714,
      1790674774,
      1790674834,
      1790674842,
      1790674894,
      1790674902,
      1790674954,
      1790674960,
      1790675014,
      1790675020,
      1790675074,
      1790675080,
      1790675141,
      1790675201,
      1790675262,
      1790675320,
      1790675380,
      1790675443,
      1790675500,
      1790675560,
      1790675621,
      1790675680,
      1790675708,
      1790675732,
      1790675741,
      1790675792,
      1790675803,
      1790675861,
      1790675921,
      1790675981,
      1790676044,
      1790676104,
      1790676158,
      1790676223,
      1790676230,
      1790676283,
      1790676296,
      1790676341,
      1790676356,
      1790676401,
      1790676416,
      1790676462,
      1790676482,
      1790676522,
      1790676542,
      1790676582,
      1790676602,
      1790676642,
      1790676669,
      1790676702,
      1790676741,
      1790676762
    ],
    "wof:geomhash": "dcb9cb15d02a6992b8adea930fd36aa5",
    "wof:id": 2048462935,
    "wof:repo": "sfomuseum-data-flights-2026-09"
  },
  "bbox": [
    -122.41666666666667,
    37.63527777777778,
    -70.78333333333333,
    42.67944444444444
  ],
  "geometry": {"type":"LineString","coordinates":[[-122.4075,37.63527777777778],[-122.41666666666667,37.65],[-122.36861111111111,37.66916666666666],[-122.29305555555555,37.69305555555555],[-122.20833333333334,37.72083333333334],[-122.1275,37.7625],[-122.04138888888889,37.80722222222222],[-121.93111111111112,37.83972222222222],[-121.80888888888889,37.862500000000004],[-121.68472222222222,37.885555555555555],[-121.57583333333334,37.90555555555555],[-121.4413888888889,37.93],[-121.30666666666666,37.95444444444445],[-121.16777777777779,37.97944444444445],[-121.0261111111111,38.00333333333333],[-120.8825,38.025],[-120.74666666666667,38.04611111111111],[-120.58638888888889,38.07055555555556],[-120.45194444444445,38.090833333333336],[-120.3888888888889,38.09805555555556],[-120.31611111111111,38.111111111111114],[-120.25222222222222,38.119166666666665],[-120.17750000000001,38.13138888888889],[-120.11138888888888,38.13972222222222],[-120.03555555555555,38.152499999999996],[-119.96944444444445,38.16027777777778],[-119.82694444444444,38.18111111111111],[-119.68166666666667,38.202222222222225],[-119.60111111111111,38.215],[-119.53333333333333,38.22277777777778],[-119.45222222222222,38.23638888888889],[-119.38416666666667,38.24527777777778],[-119.18055555555556,38.274166666666666],[-119.09333333333333,38.28583333333333],[-119.03583333333333,38.29416666666666],[-118.94777777777779,38.30472222222222],[-118.89055555555557,38.31388888888888],[-118.80277777777778,38.32527777777778],[-118.74444444444444,38.33388888888889],[-118.6563888888889,38.344722222222224],[-118.59944444444444,38.35333333333333],[-118.48111111111112,38.368611111111115],[-118.45111111111112,38.37277777777778],[-118.36527777777778,38.384166666666665],[-118.30222222222221,38.3925],[-118.20916666666668,38.40472222222222],[-118.155,38.41166666666666],[-118.05749999999999,38.424166666666665],[-117.9961111111111,38.43194444444444],[-117.90583333333333,38.44333333333333],[-117.84222222222222,38.45138888888889],[-117.74888888888889,38.46333333333334],[-117.68527777777778,38.47138888888889],[-117.59055555555555,38.48305555555556],[-117.52777777777777,38.490833333333335],[-117.43333333333334,38.50222222222222],[-117.36888888888888,38.51027777777778],[-117.27361111111111,38.519444444444446],[-117.2063888888889,38.51833333333333],[-117.11194444444443,38.516666666666666],[-117.04527777777777,38.51555555555556],[-116.94777777777779,38.51361111111111],[-116.88111111111111,38.51222222222222],[-116.78527777777778,38.51],[-116.71805555555555,38.50833333333333],[-116.62055555555555,38.505833333333335],[-116.55083333333333,38.50416666666667],[-116.4538888888889,38.501666666666665],[-116.38388888888889,38.499722222222225],[-116.28583333333333,38.496944444444445],[-116.21722222222222,38.495],[-116.11916666666666,38.492222222222225],[-116.05166666666666,38.49027777777778],[-115.955,38.487500000000004],[-115.78916666666666,38.481944444444444],[-115.6236111111111,38.47666666666667],[-115.4588888888889,38.47138888888889],[-115.31444444444445,38.46611111111111],[-115.14472222222223,38.459722222222226],[-114.9775,38.45333333333333],[-114.80777777777777,38.44638888888888],[-114.6375,38.43944444444444],[-114.46944444444445,38.4325],[-114.29972222222221,38.425],[-114.13,38.41722222222222],[-113.96305555555556,38.409444444444446],[-113.79027777777777,38.401111111111106],[-113.62138888888889,38.39277777777778],[-113.45138888888889,38.38388888888889],[-113.28444444444445,38.375],[-113.11611111111111,38.36611111111111],[-112.94527777777778,38.37],[-112.77527777777777,38.39388888888889],[-112.60583333333332,38.4175],[-112.43388888888889,38.44138888888889],[-112.26444444444445,38.46416666666667],[-112.0925,38.487500000000004],[-111.92361111111111,38.515277777777776],[-111.75444444444445,38.549166666666665],[-111.58472222222221,38.58277777777778],[-111.41527777777779,38.61611111111111],[-111.24638888888889,38.64888888888889],[-111.07833333333333,38.68111111111111],[-110.88972222222223,38.7175],[-110.72222222222223,38.74888888888889],[-110.55499999999999,38.78055555555555],[-110.38333333333334,38.812777777777775],[-110.21111111111111,38.83833333333334],[-110.03833333333333,38.85277777777778],[-109.86222222222221,38.86694444444444],[-109.68805555555556,38.88027777777778],[-109.51166666666667,38.89388888888889],[-109.33027777777778,38.907777777777774],[-109.15277777777779,38.920833333333334],[-108.96916666666667,38.93444444444444],[-108.78916666666666,38.947222222222216],[-108.6061111111111,38.95916666666667],[-108.42777777777778,38.971944444444446],[-108.24694444444445,38.98416666666667],[-108.065,38.99583333333334],[-107.88666666666667,39.01583333333333],[-107.70555555555556,39.04083333333333],[-107.52777777777777,39.065555555555555],[-107.34944444444444,39.09],[-107.17222222222223,39.11361111111111],[-106.99444444444444,39.13722222222222],[-106.81916666666666,39.16027777777778],[-106.64194444444445,39.183055555555555],[-106.46916666666667,39.205000000000005],[-106.29194444444444,39.2275],[-106.09444444444443,39.25055555555556],[-105.91972222222223,39.26444444444444],[-105.74305555555556,39.27777777777778],[-105.57027777777778,39.29055555555556],[-105.39472222222223,39.30361111111111],[-105.22166666666666,39.316111111111105],[-105.0436111111111,39.328611111111115],[-104.86916666666666,39.34055555555556],[-104.69194444444445,39.3525],[-104.51583333333333,39.36416666666667],[-104.33805555555556,39.37555555555556],[-104.15583333333333,39.386944444444445],[-103.9775,39.397777777777776],[-103.79555555555555,39.40861111111111],[-103.61527777777778,39.41888888888889],[-103.43222222222222,39.42916666666667],[-103.25055555555555,39.43944444444444],[-103.06861111111111,39.44888888888889],[-102.88416666666667,39.458333333333336],[-102.69833333333334,39.467777777777776],[-102.51666666666667,39.47638888888889],[-102.31583333333333,39.48583333333333],[-102.12944444444443,39.49444444444445],[-101.94666666666667,39.50055555555556],[-101.76527777777778,39.501666666666665],[-101.58388888888888,39.50277777777778],[-101.39972222222222,39.50361111111111],[-101.21861111111112,39.50416666666667],[-101.0325,39.504444444444445],[-100.84944444444444,39.50416666666667],[-100.66388888888889,39.50388888888889],[-100.47916666666667,39.503055555555555],[-100.29222222222222,39.50222222222222],[-100.12777777777777,39.50111111111111],[-100.10583333333332,39.50083333333333],[-99.935,39.499722222222225],[-99.86055555555555,39.50055555555556],[-99.67194444444445,39.5025],[-99.67555555555556,39.5025],[-99.48972222222223,39.50333333333333],[-99.29777777777778,39.50388888888889],[-99.11527777777778,39.50416666666667],[-99.1125,39.50416666666667],[-98.92805555555556,39.50416666666667],[-98.89083333333333,39.50416666666667],[-98.74305555555556,39.50416666666667],[-98.70305555555557,39.50388888888889],[-98.5611111111111,39.50333333333333],[-98.51972222222223,39.50333333333333],[-98.39805555555556,39.50277777777778],[-98.3386111111111,39.5025],[-98.21444444444445,39.501666666666665],[-98.03472222222221,39.500277777777775],[-97.83444444444444,39.49777777777778],[-97.65416666666667,39.495],[-97.47361111111111,39.492222222222225],[-97.29416666666667,39.48916666666667],[-97.11388888888888,39.48583333333333],[-96.93194444444445,39.481944444444444],[-96.75416666666666,39.47805555555556],[-96.57277777777777,39.473888888888894],[-96.41027777777778,39.46944444444445],[-96.23083333333334,39.46472222222223],[-96.03555555555555,39.45916666666667],[-95.8561111111111,39.45388888888889],[-95.67888888888889,39.44833333333333],[-94.80833333333334,39.41694444444444],[-94.27361111111111,39.375],[-94.09694444444445,39.34777777777778],[-93.92361111111111,39.32083333333334],[-93.75,39.29333333333333],[-93.57555555555555,39.265277777777776],[-93.37972222222221,39.233333333333334],[-93.20694444444445,39.20527777777778],[-93.03361111111111,39.21],[-92.86472222222221,39.23027777777778],[-92.69472222222223,39.250277777777775],[-92.52444444444444,39.269999999999996],[-92.35388888888889,39.28972222222222],[-92.18527777777778,39.308611111111105],[-92.01611111111112,39.3275],[-91.84638888888888,39.34638888888889],[-91.6763888888889,39.365],[-91.50611111111111,39.38305555555556],[-91.33666666666666,39.40138888888889],[-91.16305555555556,39.419444444444444],[-90.99111111111111,39.43694444444444],[-90.82166666666666,39.45388888888889],[-90.71722222222222,39.46472222222223],[-90.65027777777779,39.47138888888889],[-90.54694444444445,39.48166666666667],[-90.47555555555556,39.48833333333334],[-90.37472222222222,39.49861111111111],[-90.30472222222222,39.50527777777778],[-90.20277777777778,39.515277777777776],[-90.13555555555556,39.52111111111111],[-90.03333333333333,39.53194444444444],[-89.96444444444445,39.536944444444444],[-89.86277777777777,39.546388888888885],[-89.79416666666667,39.55277777777778],[-89.69416666666667,39.56194444444444],[-89.62416666666665,39.568333333333335],[-89.52444444444444,39.577222222222225],[-89.45416666666667,39.58361111111111],[-89.35305555555556,39.592222222222226],[-89.28388888888888,39.598333333333336],[-89.185,39.606944444444444],[-89.12972222222221,39.611666666666665],[-89.015,39.62138888888889],[-88.96305555555556,39.626111111111115],[-88.84861111111111,39.63527777777778],[-88.79583333333333,39.63972222222222],[-88.68055555555556,39.649166666666666],[-88.6275,39.65361111111111],[-88.51138888888889,39.66277777777778],[-88.46138888888889,39.66694444444444],[-88.34555555555555,39.67611111111111],[-88.2961111111111,39.68],[-88.19916666666667,39.6875],[-88.13444444444445,39.692499999999995],[-88.03527777777778,39.7],[-87.96916666666667,39.705000000000005],[-87.87166666666666,39.712500000000006],[-87.80555555555556,39.7175],[-87.7063888888889,39.724722222222226],[-87.64250000000001,39.72944444444445],[-87.54444444444444,39.73638888888889],[-87.38111111111111,39.74805555555556],[-87.20361111111112,39.76027777777778],[-87.12027777777777,39.76611111111111],[-87.0411111111111,39.77222222222222],[-86.96166666666667,39.78805555555555],[-86.87888888888888,39.8125],[-86.81277777777777,39.831944444444446],[-86.74194444444444,39.85277777777778],[-86.70916666666668,39.862500000000004],[-86.56055555555555,39.90555555555555],[-86.48527777777778,39.92722222222222],[-86.40777777777778,39.94944444444444],[-86.33111111111111,39.97166666666667],[-86.25694444444444,39.99277777777778],[-86.17888888888889,40.015],[-86.10749999999999,40.035555555555554],[-86.02888888888889,40.058055555555555],[-85.95694444444445,40.07833333333333],[-85.87805555555555,40.100833333333334],[-85.80749999999999,40.12083333333334],[-85.72694444444444,40.14333333333333],[-85.65722222222223,40.16277777777778],[-85.56694444444445,40.18805555555555],[-85.50527777777778,40.20527777777778],[-85.41222222222223,40.23111111111111],[-85.35972222222222,40.245555555555555],[-85.25833333333334,40.27361111111111],[-85.20722222222223,40.2875],[-85.11333333333333,40.31333333333333],[-85.05138888888888,40.330555555555556],[-84.94861111111112,40.358333333333334],[-84.88361111111112,40.376111111111115],[-84.80138888888888,40.39833333333333],[-84.79055555555556,40.40138888888889],[-84.72888888888889,40.41777777777777],[-84.64666666666668,40.44],[-84.63333333333334,40.44361111111111],[-84.56944444444444,40.46083333333333],[-84.51388888888889,40.475833333333334],[-84.47638888888889,40.48583333333333],[-84.41055555555556,40.50333333333333],[-84.32333333333332,40.526666666666664],[-84.31805555555555,40.528055555555554],[-84.2538888888889,40.54527777777778],[-84.16361111111112,40.56916666666667],[-84.15861111111111,40.57027777777778],[-84.09194444444444,40.58777777777778],[-83.99527777777777,40.613055555555555],[-83.96277777777777,40.62138888888889],[-83.83444444444444,40.655],[-83.74527777777777,40.67833333333333],[-83.66944444444445,40.698055555555555],[-83.63555555555556,40.706944444444446],[-83.50694444444444,40.73972222222222],[-83.44611111111111,40.755],[-83.3425,40.781666666666666],[-83.30888888888889,40.790277777777774],[-83.17777777777778,40.823888888888895],[-83.14472222222223,40.83222222222223],[-83.01638888888888,40.864444444444445],[-82.98166666666667,40.87305555555555],[-82.85083333333333,40.90611111111111],[-82.81833333333333,40.91416666666667],[-82.68555555555555,40.94694444444444],[-82.65305555555557,40.955000000000005],[-82.52277777777778,40.98722222222222],[-82.48805555555556,40.99583333333334],[-82.35694444444444,41.028055555555554],[-82.32333333333332,41.03611111111111],[-82.19083333333333,41.06805555555556],[-82.15666666666667,41.07666666666667],[-82.02472222222222,41.10861111111111],[-81.99083333333333,41.11666666666667],[-81.86083333333333,41.14805555555556],[-81.79416666666667,41.163888888888884],[-81.69250000000001,41.18805555555555],[-81.63138888888888,41.2025],[-81.53611111111111,41.223888888888894],[-81.46888888888888,41.240833333333335],[-81.33583333333333,41.27222222222222],[-81.30222222222221,41.280277777777776],[-81.20083333333334,41.301111111111105],[-81.13527777777779,41.31916666666667],[-81.03472222222221,41.34138888888889],[-80.86749999999999,41.37861111111111],[-80.83472222222221,41.38805555555555],[-80.70027777777779,41.41722222222222],[-80.66916666666667,41.42583333333333],[-80.53388888888888,41.45472222222222],[-80.50055555555555,41.46388888888889],[-80.36611111111111,41.49333333333333],[-80.19861111111112,41.5325],[-80.0275,41.562777777777775],[-79.85888888888888,41.593611111111116],[-79.6888888888889,41.62555555555556],[-79.51833333333333,41.65694444444444],[-79.51861111111111,41.656666666666666],[-79.34583333333333,41.6875],[-79.34638888888888,41.687777777777775],[-79.19250000000001,41.71527777777778],[-78.98583333333333,41.75222222222222],[-78.98444444444445,41.7525],[-78.81416666666667,41.7825],[-78.82666666666667,41.780277777777776],[-78.64111111111112,41.8125],[-78.65166666666667,41.81055555555555],[-78.46611111111112,41.84277777777778],[-78.47583333333334,41.84111111111111],[-78.29388888888889,41.8725],[-78.30111111111111,41.87111111111111],[-78.11888888888888,41.902499999999996],[-77.94611111111111,41.93111111111111],[-77.94416666666667,41.93138888888889],[-77.77194444444444,41.959722222222226],[-77.59972222222221,41.98777777777778],[-77.59972222222221,41.98777777777778],[-77.42555555555556,42.01638888888889],[-77.25555555555556,42.04388888888889],[-77.15055555555556,42.06055555555555],[-77.085,42.071111111111115],[-77.08166666666666,42.07166666666667],[-76.98,42.087500000000006],[-76.91222222222223,42.098333333333336],[-76.90944444444445,42.09861111111111],[-76.80749999999999,42.114444444444445],[-76.74027777777778,42.125],[-76.63583333333334,42.14111111111111],[-76.56861111111111,42.15138888888889],[-76.56611111111111,42.151944444444446],[-76.46166666666667,42.168055555555554],[-76.38027777777778,42.18055555555555],[-76.26333333333334,42.19833333333333],[-76.22305555555556,42.20444444444445],[-76.20527777777778,42.20722222222223],[-76.09083333333332,42.22416666666667],[-76.04861111111111,42.23027777777778],[-76.03083333333333,42.23277777777778],[-75.91444444444446,42.25],[-75.87083333333332,42.25611111111111],[-75.85166666666666,42.259166666666665],[-75.73694444444445,42.27611111111111],[-75.69416666666667,42.282222222222224],[-75.55944444444444,42.301944444444445],[-75.48972222222223,42.31194444444444],[-75.37972222222221,42.3275],[-75.31083333333333,42.337500000000006],[-75.20222222222222,42.35277777777778],[-75.15694444444445,42.35916666666667],[-74.9786111111111,42.384166666666665],[-74.79833333333333,42.40888888888889],[-74.77388888888889,42.41222222222222],[-74.61638888888888,42.433611111111105],[-74.59333333333333,42.43666666666666],[-74.43416666666667,42.458333333333336],[-74.39666666666668,42.46333333333334],[-74.25333333333333,42.48222222222223],[-74.25333333333333,42.48222222222223],[-74.07138888888889,42.50611111111111],[-74.03416666666666,42.51083333333333],[-73.88722222222223,42.53],[-73.705,42.55305555555555],[-73.52222222222223,42.57638888888889],[-73.33972222222222,42.598888888888894],[-73.15444444444445,42.62138888888889],[-72.96305555555556,42.64472222222222],[-72.78111111111112,42.66638888888889],[-72.60499999999999,42.67944444444444],[-72.4325,42.66],[-72.25666666666666,42.638888888888886],[-72.18333333333334,42.63333333333333],[-72.11666666666666,42.61666666666667],[-72.09916666666666,42.620555555555555],[-71.96666666666667,42.6],[-71.94861111111112,42.6025],[-71.80194444444444,42.58361111111111],[-71.66194444444444,42.56111111111111],[-71.53444444444445,42.538333333333334],[-71.4,42.516666666666666],[-71.28333333333333,42.483333333333334],[-71.18333333333334,42.46666666666667],[-71.08027777777778,42.45444444444445],[-71.06666666666666,42.45],[-70.99166666666667,42.42833333333333],[-70.96666666666667,42.416666666666664],[-70.92111111111112,42.38638888888889],[-70.9,42.38333333333333],[-70.85222222222221,42.345555555555556],[-70.83333333333333,42.333333333333336],[-70.80388888888889,42.311388888888885],[-70.78333333333333,42.28333333333333],[-70.79416666666667,42.26361111111111],[-70.83333333333333,42.25],[-70.86722222222221,42.26305555555555],[-70.88333333333334,42.28333333333333],[-70.91250000000001,42.29555555555555],[-70.93333333333334,42.31666666666667],[-70.95111111111112,42.32416666666667],[-70.98333333333333,42.35],[-70.98944444444444,42.35305555555556]]}
}
