{
  "id": 2048252659,
  "type": "Feature",
  "properties": {
    "geom:area": 0,
    "geom:bbox": "-122.562260,36.720740,-122.355190,37.668000",
    "geom:latitude": 37.231561591396506,
    "geom:longitude": -122.51078577600882,
    "src:alt_label": "swim-takeoff",
    "src:geom": "swim",
    "swim:elevations": [
      152,
      297,
      672,
      763,
      1209,
      1944,
      2438,
      2928,
      3058,
      3282,
      3472,
      3736,
      4121,
      4225,
      4378,
      4735,
      5132,
      5261,
      5653,
      6231,
      6426,
      6630,
      7080,
      7155,
      7576,
      7791
    ],
    "swim:geom": "takeoff",
    "swim:timestamps": [
      1788547738,
      1788547749,
      1788547798,
      1788547811,
      1788547853,
      1788547905,
      1788547941,
      1788547975,
      1788547985,
      1788548016,
      1788548051,
      1788548072,
      1788548106,
      1788548113,
      1788548124,
      1788548145,
      1788548178,
      1788548192,
      1788548228,
      1788548270,
      1788548289,
      1788548310,
      1788548360,
      1788548370,
      1788548419,
      1788548451
    ],
    "wof:geomhash": "1a08f271bd7c82f9278e508984096c87",
    "wof:id": 2048252659,
    "wof:repo": "sfomuseum-data-flights-2026-09"
  },
  "bbox": [
    -122.56226,
    36.72074,
    -122.35519,
    37.668
  ],
  "geometry": {"type":"LineString","coordinates":[[-122.38544,37.62553],[-122.39441,37.62947],[-122.43984,37.648],[-122.45433,37.65387],[-122.5082,37.668],[-122.54559,37.61721],[-122.54462,37.57146],[-122.5456,37.52572],[-122.54597,37.51347],[-122.54763,37.4697],[-122.54931,37.41438],[-122.55052,37.38003],[-122.55256,37.32272],[-122.5531,37.30968],[-122.55398,37.29059],[-122.55539,37.25596],[-122.55756,37.19937],[-122.55849,37.17322],[-122.56062,37.10839],[-122.56226,37.03347],[-122.55362,36.99898],[-122.53216,36.96297],[-122.47099,36.87963],[-122.45831,36.86245],[-122.39584,36.7774],[-122.35519,36.72074]]}
}
