{
  "id": 2048439713,
  "type": "Feature",
  "properties": {
    "date:cessation_lower": "2026-09-26",
    "date:cessation_upper": "2026-09-26",
    "date:inception_lower": "2026-09-26",
    "date:inception_upper": "2026-09-26",
    "edtf:cessation": "2026-09-26T08:40:56-07:00",
    "edtf:inception": "2026-09-26T18:18:00Z",
    "flysfo:actual_timestamp": -1,
    "flysfo:airline": "UA",
    "flysfo:base_airline": "",
    "flysfo:base_flight_number": "3551",
    "flysfo:date": "2026-09-26",
    "flysfo:estimated_timestamp": 1790464080,
    "flysfo:event": "A",
    "flysfo:flight_number": "UA1958",
    "flysfo:gate": "D6",
    "flysfo:journey": "OGG-SFO",
    "flysfo:scheduled_timestamp": 1790459940,
    "flysfo:timestamp": 1790464080,
    "geom:area": 0,
    "geom:bbox": "-156.437877,20.894952,-122.370943,37.617990",
    "geom:latitude": 29.256470999999998,
    "geom:longitude": -139.40440999999998,
    "iata:airline": "UA",
    "iata:base_airline": "",
    "icao:aircraft": "B38M",
    "icao:airline": "UAL",
    "icao:base_airline": "ACA",
    "lbl:latitude": 37.616838,
    "lbl:longitude": -122.380969,
    "sfomuseum:aircraft_id": 1528104575,
    "sfomuseum:airline_id": 1159285413,
    "sfomuseum:arrival_id": 102527513,
    "sfomuseum:base_flight_id": "20260926-A-ACA-3551",
    "sfomuseum:departure_id": 102532929,
    "sfomuseum:flight_id": "20260926-A-UAL-1958",
    "sfomuseum:flight_number": [
      "UAL1958",
      "UA1958"
    ],
    "sfomuseum:placetype": "flight",
    "src:geom": "flysfo",
    "src:geom_alt": [
      "swim-path",
      "swim-approach"
    ],
    "swim:tail_number": "N47340",
    "wof:belongsto": [
      1947304067,
      102527513,
      1947304595,
      102191575,
      85633793,
      102087579,
      85922583,
      554784711,
      85688637,
      1947304621,
      1947304591,
      102085387
    ],
    "wof:concordances": {
      "swim:flight_ref": "158286475"
    },
    "wof:country": "US",
    "wof:created": 1790525314,
    "wof:geomhash": "e4ae4c60ed0a76df38dbcfaaa5dd6a55",
    "wof:hierarchy": [
      {
        "building_id": 1947304067,
        "campus_id": 102527513,
        "concourse_id": 1947304595,
        "continent_id": 102191575,
        "country_id": 85633793,
        "county_id": 102087579,
        "custom_id": 2048439713,
        "flight_id": 2048439713,
        "locality_id": 85922583,
        "postalcode_id": 554784711,
        "region_id": 85688637,
        "venue_id": 1947304621,
        "wing_id": 1947304591
      },
      {
        "building_id": 1947304067,
        "campus_id": 102527513,
        "concourse_id": 1947304595,
        "continent_id": 102191575,
        "country_id": 85633793,
        "county_id": 102085387,
        "custom_id": 2048439713,
        "flight_id": 2048439713,
        "region_id": 85688637,
        "venue_id": 1947304621,
        "wing_id": 1947304591
      }
    ],
    "wof:id": 2048439713,
    "wof:involves": [
      102527513,
      102532929,
      1159285413,
      1947304621,
      1159283597,
      1528104575
    ],
    "wof:lastmodified": 1790525924,
    "wof:name": "UA1958 (OGG-SFO)",
    "wof:parent_id": 1947304621,
    "wof:placetype": "custom",
    "wof:placetype_alt": [
      "flight"
    ],
    "wof:repo": "sfomuseum-data-flights-2026-09",
    "wof:superseded_by": [],
    "wof:supersedes": []
  },
  "bbox": [
    -156.437877,
    20.894952,
    -122.370943,
    37.61799
  ],
  "geometry": {"type":"MultiPoint","coordinates":[[-156.437877,20.894952],[-122.370943,37.61799]]}
}
