{
  "id": 2048262371,
  "type": "Feature",
  "properties": {
    "geom:area": 0,
    "geom:bbox": "-123.498010,37.629220,-122.398940,37.731960",
    "geom:latitude": 37.698900192092204,
    "geom:longitude": -122.94433535002376,
    "src:alt_label": "swim-takeoff",
    "src:geom": "swim",
    "swim:elevations": [
      303,
      577,
      704,
      774,
      1129,
      1322,
      1541,
      2119,
      2309,
      2694,
      3118,
      3207,
      3473,
      3534,
      3542,
      3617,
      3894,
      4297,
      4536,
      4645,
      4955,
      5357,
      5550,
      5828,
      5901
    ],
    "swim:geom": "takeoff",
    "swim:timestamps": [
      1788647813,
      1788647837,
      1788647876,
      1788647897,
      1788647936,
      1788647951,
      1788647970,
      1788648024,
      1788648040,
      1788648075,
      1788648113,
      1788648122,
      1788648164,
      1788648182,
      1788648185,
      1788648197,
      1788648224,
      1788648265,
      1788648292,
      1788648304,
      1788648337,
      1788648385,
      1788648409,
      1788648443,
      1788648451
    ],
    "wof:geomhash": "b084186a7f4d448a225f5dc6dac1d8d5",
    "wof:id": 2048262371,
    "wof:repo": "sfomuseum-data-flights-2026-09"
  },
  "bbox": [
    -123.49801,
    37.62922,
    -122.39894,
    37.73196
  ],
  "geometry": {"type":"LineString","coordinates":[[-122.39894,37.62922],[-122.41769,37.63781],[-122.45411,37.65459],[-122.47842,37.66501],[-122.53203,37.67868],[-122.55447,37.68074],[-122.58334,37.68165],[-122.6671,37.68469],[-122.69418,37.68627],[-122.75128,37.68963],[-122.81345,37.69368],[-122.82852,37.6945],[-122.90326,37.6987],[-122.93756,37.70071],[-122.94341,37.70104],[-122.96728,37.70239],[-123.02157,37.70556],[-123.10524,37.71039],[-123.16083,37.71353],[-123.1858,37.71491],[-123.25466,37.71873],[-123.35568,37.72426],[-123.40689,37.72708],[-123.48088,37.73103],[-123.49801,37.73196]]}
}
