{
  "id": 2048330467,
  "type": "Feature",
  "properties": {
    "geom:area": 0,
    "geom:bbox": "-122.398480,37.624280,-121.256630,38.120310",
    "geom:latitude": 37.88356093349964,
    "geom:longitude": -121.84209462407247,
    "src:alt_label": "swim-takeoff",
    "src:geom": "swim",
    "swim:elevations": [
      122,
      403,
      732,
      1005,
      1195,
      1422,
      1753,
      1944,
      2513,
      2588,
      2854,
      3006,
      3298,
      3427,
      3642,
      4054,
      4253,
      4659,
      4896,
      5018,
      5234,
      5525,
      5816,
      5903,
      6299
    ],
    "swim:geom": "takeoff",
    "swim:timestamps": [
      1789292362,
      1789292388,
      1789292428,
      1789292458,
      1789292483,
      1789292507,
      1789292534,
      1789292551,
      1789292606,
      1789292614,
      1789292635,
      1789292653,
      1789292689,
      1789292708,
      1789292735,
      1789292779,
      1789292802,
      1789292848,
      1789292876,
      1789292890,
      1789292914,
      1789292952,
      1789292989,
      1789293001,
      1789293055
    ],
    "wof:geomhash": "c3b936d5a65b914b374150cb3162c7bb",
    "wof:id": 2048330467,
    "wof:repo": "sfomuseum-data-flights-2026-09"
  },
  "bbox": [
    -122.39848,
    37.62428,
    -121.25663,
    38.12031
  ],
  "geometry": {"type":"LineString","coordinates":[[-122.38281,37.62428],[-122.39848,37.63628],[-122.37368,37.66273],[-122.33787,37.67427],[-122.30396,37.68625],[-122.26995,37.69841],[-122.23085,37.71222],[-122.20532,37.72248],[-122.127,37.763],[-122.11484,37.76954],[-122.08476,37.78501],[-122.0561,37.79941],[-121.99948,37.82852],[-121.96634,37.84205],[-121.91705,37.86112],[-121.83448,37.8931],[-121.79089,37.91044],[-121.70271,37.94554],[-121.6452,37.96833],[-121.61579,37.97996],[-121.56659,37.99927],[-121.48535,38.03109],[-121.40473,38.06258],[-121.37833,38.07291],[-121.25663,38.12031]]}
}
