{
  "id": 2048442865,
  "type": "Feature",
  "properties": {
    "geom:area": 0,
    "geom:bbox": "-122.405020,37.626000,-121.511280,38.467930",
    "geom:latitude": 38.00561601643895,
    "geom:longitude": -121.93859245543506,
    "src:alt_label": "swim-takeoff",
    "src:geom": "swim",
    "swim:elevations": [
      183,
      602,
      725,
      861,
      1306,
      1692,
      2234,
      2293,
      2394,
      2871,
      3010,
      3199,
      3295,
      3558,
      3646,
      4075,
      4276,
      4560,
      4924,
      5108,
      5292,
      5444,
      5593,
      5761,
      6187
    ],
    "swim:geom": "takeoff",
    "swim:timestamps": [
      1790410781,
      1790410823,
      1790410855,
      1790410884,
      1790410925,
      1790410957,
      1790411005,
      1790411012,
      1790411024,
      1790411067,
      1790411082,
      1790411122,
      1790411154,
      1790411188,
      1790411197,
      1790411244,
      1790411267,
      1790411298,
      1790411338,
      1790411362,
      1790411385,
      1790411401,
      1790411417,
      1790411442,
      1790411508
    ],
    "wof:geomhash": "f8fa6538f9f4651f46c8aa5eaeaa7083",
    "wof:id": 2048442865,
    "wof:repo": "sfomuseum-data-flights-2026-09"
  },
  "bbox": [
    -122.40502,
    37.626,
    -121.51128,
    38.46793
  ],
  "geometry": {"type":"LineString","coordinates":[[-122.39219,37.626],[-122.40502,37.65333],[-122.37204,37.66625],[-122.33401,37.6781],[-122.27545,37.69697],[-122.22743,37.71334],[-122.15588,37.73993],[-122.14556,37.74407],[-122.12701,37.75156],[-122.08015,37.79703],[-122.06517,37.81572],[-122.02338,37.86614],[-121.98707,37.91147],[-121.94557,37.96287],[-121.93501,37.97615],[-121.87662,38.04859],[-121.84814,38.08286],[-121.80784,38.13145],[-121.75588,38.19462],[-121.72376,38.23382],[-121.69389,38.27031],[-121.67186,38.2971],[-121.64972,38.32398],[-121.61692,38.36382],[-121.51128,38.46793]]}
}
