{
  "id": 2048250263,
  "type": "Feature",
  "properties": {
    "geom:area": 0,
    "geom:bbox": "-122.360840,36.724950,-121.880490,37.613940",
    "geom:latitude": 37.214220541192866,
    "geom:longitude": -122.07135742566435,
    "src:alt_label": "swim-approach",
    "src:geom": "swim",
    "swim:elevations": [
      5311,
      4955,
      4834,
      4605,
      4460,
      4074,
      3757,
      3518,
      3260,
      3138,
      3046,
      2961,
      2875,
      2637,
      2436,
      2230,
      1981,
      1632,
      1485,
      1439,
      1279,
      1225,
      1105,
      974,
      850,
      712,
      514,
      453,
      333,
      244,
      97,
      4
    ],
    "swim:geom": "approach",
    "swim:timestamps": [
      1788553004,
      1788553039,
      1788553053,
      1788553077,
      1788553092,
      1788553134,
      1788553167,
      1788553195,
      1788553224,
      1788553257,
      1788553279,
      1788553303,
      1788553320,
      1788553356,
      1788553392,
      1788553432,
      1788553461,
      1788553498,
      1788553516,
      1788553531,
      1788553588,
      1788553596,
      1788553617,
      1788553641,
      1788553665,
      1788553694,
      1788553732,
      1788553746,
      1788553783,
      1788553809,
      1788553848,
      1788553877
    ],
    "wof:geomhash": "e3226c99597492bc001ee987cdd0e023",
    "wof:id": 2048250263,
    "wof:repo": "sfomuseum-data-flights-2026-09"
  },
  "bbox": [
    -122.36084,
    36.72495,
    -121.88049,
    37.61394
  ],
  "geometry": {"type":"LineString","coordinates":[[-121.88049,36.72495],[-121.90491,36.78069],[-121.9111,36.80317],[-121.92233,36.84264],[-121.92925,36.86744],[-121.94838,36.93483],[-121.96612,36.98517],[-121.9822,37.02706],[-121.99865,37.06876],[-122.01663,37.11507],[-122.02796,37.14392],[-122.04008,37.17489],[-122.04823,37.19566],[-122.06469,37.23792],[-122.07984,37.27673],[-122.0964,37.31779],[-122.10763,37.34644],[-122.12242,37.38513],[-122.12852,37.40311],[-122.13362,37.41838],[-122.15357,37.47589],[-122.15641,37.48388],[-122.16343,37.50489],[-122.17156,37.52779],[-122.19172,37.54159],[-122.21988,37.55357],[-122.25566,37.56861],[-122.26773,37.5737],[-122.2954,37.58532],[-122.31315,37.59281],[-122.34123,37.60451],[-122.36084,37.61394]]}
}
