{
  "id": 2048339743,
  "type": "Feature",
  "properties": {
    "geom:area": 0,
    "geom:bbox": "-122.547770,36.786380,-121.265280,37.661580",
    "geom:latitude": 37.21941738116787,
    "geom:longitude": -121.99201910136887,
    "src:alt_label": "swim-takeoff",
    "src:geom": "swim",
    "swim:elevations": [
      152,
      459,
      1038,
      1484,
      1849,
      2107,
      2260,
      2955,
      3221,
      3299,
      3362,
      3414,
      3613,
      3823,
      4187,
      4350,
      4443,
      4818,
      5022,
      5193,
      5425,
      5495,
      5691,
      5985,
      6170,
      6402,
      6536,
      6584,
      6883,
      7012,
      7122
    ],
    "swim:geom": "takeoff",
    "swim:timestamps": [
      1789388118,
      1789388146,
      1789388187,
      1789388244,
      1789388278,
      1789388305,
      1789388318,
      1789388367,
      1789388393,
      1789388407,
      1789388424,
      1789388433,
      1789388476,
      1789388504,
      1789388544,
      1789388568,
      1789388582,
      1789388635,
      1789388665,
      1789388693,
      1789388725,
      1789388735,
      1789388761,
      1789388799,
      1789388827,
      1789388874,
      1789388909,
      1789388919,
      1789388966,
      1789388986,
      1789389002
    ],
    "wof:geomhash": "c5db0323214f89b328aa18bdf3466183",
    "wof:id": 2048339743,
    "wof:repo": "sfomuseum-data-flights-2026-09"
  },
  "bbox": [
    -122.54777,
    36.78638,
    -121.26528,
    37.66158
  ],
  "geometry": {"type":"LineString","coordinates":[[-122.39583,37.62725],[-122.42264,37.63848],[-122.46141,37.65584],[-122.52967,37.66158],[-122.54777,37.6252],[-122.53009,37.59254],[-122.52067,37.57582],[-122.48816,37.51366],[-122.46534,37.48361],[-122.44697,37.46906],[-122.42276,37.45148],[-122.40997,37.44194],[-122.34306,37.39274],[-122.29637,37.35836],[-122.22991,37.30956],[-122.18883,37.27925],[-122.16482,37.26155],[-122.07081,37.19183],[-122.0149,37.15167],[-121.95038,37.12612],[-121.87404,37.10009],[-121.85129,37.09241],[-121.78763,37.07119],[-121.69643,37.04135],[-121.63003,37.0192],[-121.5141,36.97992],[-121.43899,36.93611],[-121.41901,36.91911],[-121.33253,36.84414],[-121.29622,36.81295],[-121.26528,36.78638]]}
}
