{
  "id": 2048372969,
  "type": "Feature",
  "properties": {
    "geom:area": 0,
    "geom:bbox": "-122.396140,37.630250,-121.257320,38.144870",
    "geom:latitude": 37.92752122812643,
    "geom:longitude": -121.8566550710701,
    "src:alt_label": "swim-takeoff",
    "src:geom": "swim",
    "swim:elevations": [
      244,
      573,
      943,
      1128,
      1631,
      1938,
      2508,
      2974,
      3093,
      3523,
      3970,
      4198,
      4572,
      4680,
      4768,
      4906,
      5161,
      5364,
      5544,
      5828,
      5997,
      6280,
      6605,
      6659,
      6867
    ],
    "swim:geom": "takeoff",
    "swim:timestamps": [
      1789733559,
      1789733597,
      1789733638,
      1789733650,
      1789733687,
      1789733710,
      1789733751,
      1789733785,
      1789733794,
      1789733830,
      1789733874,
      1789733895,
      1789733934,
      1789733951,
      1789733972,
      1789734007,
      1789734055,
      1789734078,
      1789734102,
      1789734130,
      1789734150,
      1789734186,
      1789734233,
      1789734241,
      1789734274
    ],
    "wof:geomhash": "7bd1eed33fb00b78dad19eb21d7e0225",
    "wof:id": 2048372969,
    "wof:repo": "sfomuseum-data-flights-2026-09"
  },
  "bbox": [
    -122.39614,
    37.63025,
    -121.25732,
    38.14487
  ],
  "geometry": {"type":"LineString","coordinates":[[-122.39614,37.63025],[-122.39573,37.66036],[-122.34274,37.6784],[-122.32539,37.68361],[-122.2724,37.69984],[-122.23901,37.71025],[-122.18215,37.73458],[-122.14326,37.76535],[-122.13557,37.77417],[-122.103,37.81155],[-122.05864,37.85915],[-122.03763,37.88182],[-121.99685,37.92621],[-121.97409,37.94288],[-121.93465,37.95558],[-121.86554,37.97463],[-121.76261,38.00366],[-121.71266,38.01775],[-121.65702,38.03335],[-121.59545,38.05053],[-121.55015,38.06323],[-121.46711,38.08653],[-121.35466,38.11783],[-121.33662,38.12285],[-121.25732,38.14487]]}
}
