{
  "id": 2048453367,
  "type": "Feature",
  "properties": {
    "geom:area": 0,
    "geom:bbox": "-122.529940,37.625750,-121.269660,38.145710",
    "geom:latitude": 37.93307569425981,
    "geom:longitude": -121.9956055672757,
    "src:alt_label": "swim-takeoff",
    "src:geom": "swim",
    "swim:elevations": [
      213,
      422,
      897,
      1116,
      1366,
      1632,
      2164,
      2463,
      2814,
      3169,
      3499,
      3738,
      4167,
      4576,
      4640,
      4921,
      5857,
      6406,
      6928,
      7216,
      7267,
      7616,
      7960,
      8139,
      8246,
      8377
    ],
    "swim:geom": "takeoff",
    "swim:timestamps": [
      1790546119,
      1790546134,
      1790546169,
      1790546198,
      1790546232,
      1790546254,
      1790546286,
      1790546307,
      1790546328,
      1790546362,
      1790546396,
      1790546420,
      1790546455,
      1790546486,
      1790546492,
      1790546520,
      1790546597,
      1790546658,
      1790546718,
      1790546753,
      1790546760,
      1790546799,
      1790546840,
      1790546865,
      1790546877,
      1790546897
    ],
    "wof:geomhash": "7139b6254bafb27520adf756184ed693",
    "wof:id": 2048453367,
    "wof:repo": "sfomuseum-data-flights-2026-09"
  },
  "bbox": [
    -122.52994,
    37.62575,
    -121.26966,
    38.14571
  ],
  "geometry": {"type":"LineString","coordinates":[[-122.39144,37.62575],[-122.40363,37.63128],[-122.43181,37.6431],[-122.45771,37.6544],[-122.49631,37.67084],[-122.52177,37.68774],[-122.52994,37.7251],[-122.52835,37.7518],[-122.52743,37.77901],[-122.49862,37.8175],[-122.43898,37.8385],[-122.39265,37.85071],[-122.3227,37.86899],[-122.25698,37.88609],[-122.24425,37.88929],[-122.1854,37.90452],[-122.01396,37.95089],[-121.87525,37.9874],[-121.73157,38.0252],[-121.64227,38.0487],[-121.62555,38.05307],[-121.52605,38.07911],[-121.41948,38.10686],[-121.35438,38.12375],[-121.32254,38.13193],[-121.26966,38.14571]]}
}
