{
  "id": 2048450009,
  "type": "Feature",
  "properties": {
    "geom:area": 0,
    "geom:bbox": "-122.526111,37.624722,-122.113611,48.375833",
    "geom:latitude": 42.90524182147773,
    "geom:longitude": -122.25475639234774,
    "src:alt_label": "swim-path",
    "src:geom": "swim",
    "swim:altitudes": [
      "007",
      "022",
      "038",
      "066",
      "091",
      "099",
      "111",
      "129",
      "136",
      "145",
      "151",
      "162",
      "168",
      "184",
      "192",
      "197",
      "206",
      "210",
      "219",
      "233",
      "236",
      "242",
      "245",
      "249",
      "253",
      "260",
      "262",
      "269",
      "279",
      "283",
      "290",
      "294",
      "301",
      "307",
      "317",
      "326",
      "327",
      "332",
      "333",
      "345",
      "350",
      "353",
      "354",
      "356",
      "358C",
      "360C",
      "360C",
      "360C",
      "360C",
      "360C",
      "360C",
      "360C",
      "360C",
      "360C",
      "360C",
      "360C",
      "360C",
      "360C",
      "360C",
      "360C",
      "360C",
      "360C",
      "360C",
      "360C",
      "360C",
      "359C",
      "360C",
      "360C",
      "360C",
      "360C",
      "360C",
      "360C",
      "360C",
      "360C",
      "360C",
      "360C",
      "360C",
      "360C",
      "360C",
      "360C",
      "360C",
      "360C",
      "360C",
      "360C",
      "360C",
      "360C",
      "360C",
      "360C",
      "360C",
      "360C",
      "360C",
      "360C",
      "360C",
      "360C",
      "360C",
      "360C",
      "360C",
      "360C",
      "360C",
      "360C",
      "360C",
      "360C",
      "360",
      "360",
      "360",
      "356",
      "337",
      "319",
      "298",
      "280",
      "260",
      "242",
      "225",
      "208",
      "192",
      "174"
    ],
    "swim:geom": "path",
    "swim:speeds": [
      138,
      174,
      247,
      268,
      288,
      287,
      343,
      352,
      362,
      369,
      384,
      384,
      397,
      411,
      427,
      420,
      424,
      430,
      435,
      438,
      440,
      443,
      453,
      455,
      463,
      462,
      467,
      467,
      478,
      480,
      483,
      489,
      490,
      490,
      490,
      484,
      485,
      486,
      487,
      484,
      474,
      469,
      469,
      470,
      471,
      476,
      477,
      477,
      475,
      474,
      474,
      474,
      476,
      476,
      474,
      474,
      471,
      469,
      467,
      467,
      468,
      468,
      468,
      465,
      465,
      464,
      464,
      465,
      465,
      463,
      463,
      463,
      462,
      460,
      460,
      460,
      459,
      458,
      459,
      459,
      458,
      457,
      455,
      455,
      454,
      453,
      449,
      449,
      452,
      454,
      453,
      451,
      450,
      448,
      446,
      444,
      443,
      443,
      442,
      442,
      442,
      441,
      441,
      441,
      441,
      440,
      434,
      431,
      431,
      428,
      420,
      407,
      399,
      380,
      378,
      365
    ],
    "swim:timestamps": [
      1790538412,
      1790538472,
      1790538532,
      1790538593,
      1790538653,
      1790538710,
      1790538785,
      1790538830,
      1790538845,
      1790538890,
      1790538905,
      1790538950,
      1790538965,
      1790539025,
      1790539070,
      1790539085,
      1790539130,
      1790539145,
      1790539190,
      1790539250,
      1790539265,
      1790539311,
      1790539326,
      1790539371,
      1790539386,
      1790539431,
      1790539446,
      1790539491,
      1790539551,
      1790539566,
      1790539611,
      1790539626,
      1790539671,
      1790539686,
      1790539746,
      1790539791,
      1790539806,
      1790539851,
      1790539866,
      1790539911,
      1790539926,
      1790539971,
      1790539987,
      1790540031,
      1790540047,
      1790540107,
      1790540152,
      1790540167,
      1790540212,
      1790540227,
      1790540272,
      1790540287,
      1790540332,
      1790540347,
      1790540392,
      1790540407,
      1790540452,
      1790540467,
      1790540527,
      1790540572,
      1790540587,
      1790540632,
      1790540648,
      1790540692,
      1790540708,
      1790540752,
      1790540768,
      1790540828,
      1790540873,
      1790540933,
      1790540993,
      1790541053,
      1790541113,
      1790541173,
      1790541233,
      1790541293,
      1790541353,
      1790541413,
      1790541473,
      1790541533,
      1790541593,
      1790541653,
      1790541714,
      1790541774,
      1790541834,
      1790541894,
      1790541954,
      1790542014,
      1790542074,
      1790542134,
      1790542194,
      1790542254,
      1790542314,
      1790542374,
      1790542434,
      1790542494,
      1790542615,
      1790542735,
      1790542795,
      1790542855,
      1790542915,
      1790542975,
      1790543035,
      1790543095,
      1790543155,
      1790543215,
      1790543275,
      1790543335,
      1790543396,
      1790543456,
      1790543516,
      1790543576,
      1790543636,
      1790543696,
      1790543756,
      1790543816
    ],
    "wof:geomhash": "88dcb10ff0948738150d71cc24c21719",
    "wof:id": 2048450009,
    "wof:repo": "sfomuseum-data-flights-2026-09"
  },
  "bbox": [
    -122.5261111111111,
    37.624722222222225,
    -122.11361111111111,
    48.37583333333333
  ],
  "geometry": {"type":"LineString","coordinates":[[-122.38833333333334,37.624722222222225],[-122.43694444444445,37.64555555555555],[-122.50527777777778,37.675555555555555],[-122.5261111111111,37.74611111111111],[-122.49527777777777,37.81583333333333],[-122.40916666666668,37.8675],[-122.36361111111111,37.94777777777777],[-122.31583333333333,38.022777777777776],[-122.29444444444444,38.05555555555555],[-122.25777777777778,38.11472222222223],[-122.23444444444445,38.14861111111111],[-122.19472222222223,38.21083333333333],[-122.17027777777778,38.2475],[-122.11527777777778,38.35277777777778],[-122.11361111111111,38.428888888888885],[-122.12166666666666,38.46416666666667],[-122.12416666666665,38.54611111111111],[-122.12972222222221,38.58444444444444],[-122.13333333333334,38.66861111111111],[-122.14250000000001,38.79083333333333],[-122.14694444444446,38.830555555555556],[-122.15166666666667,38.915277777777774],[-122.15555555555557,38.95805555555556],[-122.15972222222223,39.043055555555554],[-122.16472222222222,39.08833333333334],[-122.16944444444445,39.17305555555555],[-122.1738888888889,39.21888888888889],[-122.17888888888889,39.30416666666667],[-122.18777777777778,39.437777777777775],[-122.19250000000001,39.484722222222224],[-122.19694444444445,39.57222222222222],[-122.20277777777778,39.62694444444445],[-122.20805555555556,39.70861111111111],[-122.21222222222222,39.76305555555555],[-122.22194444444445,39.89833333333333],[-122.22972222222222,40.005833333333335],[-122.23166666666667,40.032777777777774],[-122.2363888888889,40.13722222222222],[-122.2363888888889,40.16138888888889],[-122.23666666666666,40.26694444444444],[-122.23694444444445,40.29388888888889],[-122.2375,40.395833333333336],[-122.23777777777778,40.42166666666667],[-122.23833333333333,40.52583333333333],[-122.23833333333333,40.55361111111111],[-122.23916666666666,40.68416666666666],[-122.23972222222223,40.79222222222222],[-122.23972222222223,40.816944444444445],[-122.24027777777778,40.92222222222222],[-122.24027777777778,40.94916666666666],[-122.24083333333333,41.05277777777778],[-122.24111111111111,41.080555555555556],[-122.24166666666667,41.18722222222222],[-122.24166666666667,41.21333333333334],[-122.24222222222222,41.318333333333335],[-122.2425,41.345555555555556],[-122.24277777777777,41.4525],[-122.24305555555556,41.4825],[-122.24361111111111,41.612500000000004],[-122.24416666666667,41.715833333333336],[-122.24444444444444,41.74444444444445],[-122.24472222222222,41.84666666666667],[-122.245,41.874722222222225],[-122.24555555555555,41.977222222222224],[-122.24555555555555,42.004444444444445],[-122.2461111111111,42.108333333333334],[-122.2461111111111,42.13583333333333],[-122.24694444444445,42.26833333333333],[-122.24722222222222,42.34388888888889],[-122.24805555555555,42.474444444444444],[-122.24861111111112,42.603611111111114],[-122.24944444444445,42.73305555555556],[-122.25,42.868611111111115],[-122.25055555555555,42.99611111111111],[-122.25138888888888,43.12361111111111],[-122.25194444444445,43.250277777777775],[-122.2525,43.37861111111111],[-122.25333333333333,43.504444444444445],[-122.2538888888889,43.63194444444444],[-122.25472222222223,43.76111111111111],[-122.25527777777778,43.88638888888889],[-122.25583333333333,44.01305555555555],[-122.25666666666666,44.1375],[-122.25722222222223,44.26444444444444],[-122.25805555555556,44.38972222222222],[-122.25861111111111,44.515],[-122.25916666666667,44.63916666666667],[-122.26,44.76361111111111],[-122.26055555555556,44.888333333333335],[-122.26138888888889,45.02166666666667],[-122.26222222222222,45.147777777777776],[-122.26277777777777,45.271388888888886],[-122.26361111111112,45.394444444444446],[-122.26416666666667,45.5175],[-122.265,45.640277777777776],[-122.26555555555555,45.76361111111111],[-122.26694444444445,46.007777777777775],[-122.26833333333333,46.257777777777775],[-122.26916666666666,46.38194444444444],[-122.27,46.504444444444445],[-122.27055555555556,46.62888888888889],[-122.2713888888889,46.74944444444444],[-122.27194444444444,46.871944444444445],[-122.27277777777778,46.99444444444445],[-122.27333333333333,47.11805555555556],[-122.27416666666666,47.23916666666667],[-122.275,47.35916666666667],[-122.27555555555556,47.477222222222224],[-122.27638888888889,47.6075],[-122.27694444444444,47.72277777777778],[-122.27777777777777,47.84861111111111],[-122.28999999999999,47.96055555555556],[-122.31972222222223,48.06361111111111],[-122.34972222222221,48.16777777777777],[-122.37944444444443,48.269444444444446],[-122.41027777777778,48.37583333333333]]}
}
