{
  "id": 2048412923,
  "type": "Feature",
  "properties": {
    "date:cessation_lower": "2026-09-24",
    "date:cessation_upper": "2026-09-24",
    "date:inception_lower": "1970-01-01",
    "date:inception_upper": "1970-01-01",
    "edtf:cessation": "2026-09-23T23:59:57-07:00",
    "edtf:inception": "1970-01-01T00:00:00Z",
    "flysfo:actual_timestamp": -1,
    "flysfo:airline": "UA",
    "flysfo:base_airline": "",
    "flysfo:base_flight_number": "4080",
    "flysfo:date": "2026-09-23",
    "flysfo:estimated_timestamp": 1790173740,
    "flysfo:event": "A",
    "flysfo:flight_number": "UA2363",
    "flysfo:gate": "D7",
    "flysfo:journey": "ONT-SFO",
    "flysfo:scheduled_timestamp": 1790174100,
    "flysfo:timestamp": 1790174100,
    "geom:area": 0,
    "geom:bbox": "-122.370943,34.059934,-117.587749,37.617990",
    "geom:latitude": 35.838961999999995,
    "geom:longitude": -119.97934599999999,
    "iata:airline": "UA",
    "iata:base_airline": "",
    "icao:aircraft": "B739",
    "icao:airline": "UAL",
    "icao:base_airline": "ACA",
    "lbl:latitude": 37.61705,
    "lbl:longitude": -122.380838,
    "sfomuseum:aircraft_id": 1377564285,
    "sfomuseum:airline_id": 1159285413,
    "sfomuseum:arrival_id": 102527513,
    "sfomuseum:base_flight_id": "20260923-A-ACA-4080",
    "sfomuseum:departure_id": 102533575,
    "sfomuseum:flight_id": "20260923-A-UAL-2363",
    "sfomuseum:flight_number": [
      "UAL2363",
      "UA2363"
    ],
    "sfomuseum:placetype": "flight",
    "src:geom": "flysfo",
    "src:geom_alt": [
      "swim-approach"
    ],
    "swim:tail_number": "N73445",
    "wof:belongsto": [
      1947304067,
      102527513,
      1947304595,
      102191575,
      85633793,
      102087579,
      85922583,
      554784711,
      85688637,
      1947304601,
      1947304591,
      102085387
    ],
    "wof:country": "US",
    "wof:created": 1790266121,
    "wof:geomhash": "094b2380067f0814bdd38962ab53e3d3",
    "wof:hierarchy": [
      {
        "building_id": 1947304067,
        "campus_id": 102527513,
        "concourse_id": 1947304595,
        "continent_id": 102191575,
        "country_id": 85633793,
        "county_id": 102087579,
        "custom_id": 2048412923,
        "flight_id": 2048412923,
        "locality_id": 85922583,
        "postalcode_id": 554784711,
        "region_id": 85688637,
        "venue_id": 1947304601,
        "wing_id": 1947304591
      },
      {
        "building_id": 1947304067,
        "campus_id": 102527513,
        "concourse_id": 1947304595,
        "continent_id": 102191575,
        "country_id": 85633793,
        "county_id": 102085387,
        "custom_id": 2048412923,
        "flight_id": 2048412923,
        "region_id": 85688637,
        "venue_id": 1947304601,
        "wing_id": 1947304591
      }
    ],
    "wof:id": 2048412923,
    "wof:involves": [
      1377564285,
      102527513,
      102533575,
      1159285413,
      1947304601,
      1159283597
    ],
    "wof:lastmodified": 1790266773,
    "wof:name": "UA2363 (ONT-SFO)",
    "wof:parent_id": 1947304601,
    "wof:placetype": "custom",
    "wof:placetype_alt": [
      "flight"
    ],
    "wof:repo": "sfomuseum-data-flights-2026-09",
    "wof:superseded_by": [],
    "wof:supersedes": []
  },
  "bbox": [
    -122.370943,
    34.059934,
    -117.587749,
    37.61799
  ],
  "geometry": {"type":"MultiPoint","coordinates":[[-117.587749,34.059934],[-122.370943,37.61799]]}
}
