{
  "id": 2048444777,
  "type": "Feature",
  "properties": {
    "geom:area": 0,
    "geom:bbox": "-122.350480,37.451880,-121.244580,37.610790",
    "geom:latitude": 37.53214270649866,
    "geom:longitude": -121.80530436265687,
    "src:alt_label": "swim-approach",
    "src:geom": "swim",
    "swim:elevations": [
      5351,
      5251,
      5088,
      4781,
      4621,
      4532,
      4286,
      4163,
      4061,
      4023,
      3819,
      3601,
      3397,
      3070,
      2956,
      2717,
      2470,
      2284,
      2152,
      2101,
      2048,
      1831,
      1829,
      1658,
      1562,
      1370,
      1175,
      1125,
      942,
      913,
      730,
      579,
      460,
      361,
      302,
      208,
      61
    ],
    "swim:geom": "approach",
    "swim:timestamps": [
      1790547049,
      1790547058,
      1790547077,
      1790547113,
      1790547131,
      1790547143,
      1790547175,
      1790547202,
      1790547229,
      1790547242,
      1790547276,
      1790547295,
      1790547314,
      1790547354,
      1790547371,
      1790547401,
      1790547440,
      1790547468,
      1790547495,
      1790547537,
      1790547545,
      1790547588,
      1790547603,
      1790547658,
      1790547673,
      1790547709,
      1790547748,
      1790547763,
      1790547805,
      1790547814,
      1790547862,
      1790547898,
      1790547926,
      1790547956,
      1790547965,
      1790547993,
      1790548034
    ],
    "wof:geomhash": "28b16d0cc081e3611090f48ef6d8425c",
    "wof:id": 2048444777,
    "wof:repo": "sfomuseum-data-flights-2026-09"
  },
  "bbox": [
    -122.35048,
    37.45188,
    -121.24458,
    37.61079
  ],
  "geometry": {"type":"LineString","coordinates":[[-121.24458,37.59536],[-121.26023,37.59328],[-121.29192,37.58914],[-121.35428,37.58235],[-121.38548,37.57873],[-121.40764,37.57618],[-121.46159,37.56996],[-121.50673,37.56465],[-121.54837,37.55972],[-121.56835,37.5574],[-121.6161,37.5518],[-121.64177,37.54678],[-121.66734,37.54056],[-121.7219,37.54341],[-121.74656,37.54191],[-121.77163,37.51736],[-121.78347,37.47518],[-121.80727,37.45381],[-121.84424,37.45188],[-121.89936,37.45391],[-121.9105,37.45429],[-121.96631,37.45546],[-121.9856,37.45856],[-122.04801,37.4831],[-122.06414,37.48997],[-122.10045,37.50536],[-122.13757,37.52103],[-122.15092,37.52667],[-122.18516,37.54118],[-122.19207,37.54407],[-122.22819,37.55934],[-122.2558,37.57096],[-122.27551,37.57922],[-122.29646,37.58802],[-122.30308,37.59085],[-122.32252,37.59902],[-122.35048,37.61079]]}
}
