{
  "id": 2048303797,
  "type": "Feature",
  "properties": {
    "geom:area": 0,
    "geom:bbox": "-122.406270,37.623500,-121.432580,38.516260",
    "geom:latitude": 38.11754408564216,
    "geom:longitude": -122.02014793218105,
    "src:alt_label": "swim-takeoff",
    "src:geom": "swim",
    "swim:elevations": [
      122,
      539,
      916,
      1142,
      1377,
      1550,
      2439,
      3476,
      4048,
      4761,
      5296,
      5618,
      5765,
      6051,
      6330,
      6414,
      6723,
      6973,
      7212,
      7423,
      7493
    ],
    "swim:geom": "takeoff",
    "swim:timestamps": [
      1789085096,
      1789085123,
      1789085155,
      1789085185,
      1789085218,
      1789085235,
      1789085304,
      1789085407,
      1789085476,
      1789085548,
      1789085605,
      1789085640,
      1789085661,
      1789085692,
      1789085727,
      1789085738,
      1789085777,
      1789085813,
      1789085846,
      1789085872,
      1789085882
    ],
    "wof:geomhash": "a26737566f550090745a69d9d77272f6",
    "wof:id": 2048303797,
    "wof:repo": "sfomuseum-data-flights-2026-09"
  },
  "bbox": [
    -122.40627,
    37.6235,
    -121.43258,
    38.51626
  ],
  "geometry": {"type":"LineString","coordinates":[[-122.38639,37.6235],[-122.40627,37.63672],[-122.39819,37.66195],[-122.37491,37.68487],[-122.3464,37.71503],[-122.33564,37.73391],[-122.37153,37.81547],[-122.36984,37.95532],[-122.24851,38.02242],[-122.11619,38.1038],[-122.00748,38.16973],[-121.93928,38.21125],[-121.89729,38.2365],[-121.83429,38.27416],[-121.76251,38.31739],[-121.74081,38.3305],[-121.65899,38.37974],[-121.58219,38.42573],[-121.51062,38.46838],[-121.45356,38.50332],[-121.43258,38.51626]]}
}
