{
  "id": 2048430979,
  "type": "Feature",
  "properties": {
    "geom:area": 0,
    "geom:bbox": "-122.750000,37.383333,-110.751667,43.580278",
    "geom:latitude": 40.689246613482645,
    "geom:longitude": -117.48943988981347,
    "src:alt_label": "swim-path",
    "src:geom": "swim",
    "swim:altitudes": [
      "079",
      "089",
      "106",
      "124",
      "152",
      "177",
      "200",
      "220",
      "237",
      "254",
      "270",
      "283",
      "297",
      "308",
      "324",
      "340",
      "352",
      "367",
      "374",
      "379C",
      "380C",
      "380C",
      "380C",
      "380C",
      "380C",
      "380C",
      "381C",
      "381C",
      "380C",
      "380C",
      "380C",
      "380C",
      "381C",
      "380C",
      "380C",
      "380C",
      "381C",
      "381C",
      "380C",
      "380C",
      "380C",
      "380C",
      "381C",
      "381C",
      "381C",
      "380C",
      "380C",
      "380C",
      "381C",
      "380C",
      "380C",
      "380C",
      "380C",
      "380C",
      "380C",
      "380C",
      "380C",
      "380C",
      "381C",
      "381C",
      "380C",
      "380C",
      "380C",
      "380C",
      "380C",
      "380C",
      "380C",
      "381C",
      "380C",
      "380C",
      "381C",
      "381C",
      "380C",
      "380C",
      "381C",
      "381C",
      "380C",
      "380C",
      "380C",
      "380C",
      "376",
      "366",
      "360C",
      "360C",
      "360C",
      "359",
      "349",
      "339",
      "330",
      "320",
      "310",
      "300",
      "283",
      "261",
      "239",
      "217",
      "201",
      "196",
      "186",
      "175",
      "167",
      "157",
      "153",
      "148",
      "140",
      "126",
      "116",
      "111C",
      "110",
      "110C",
      "110",
      "110C",
      "110",
      "105",
      "098",
      "091",
      "086",
      "078",
      "073",
      "066",
      "060",
      "054",
      "046",
      "042",
      "037",
      "034",
      "030",
      "026",
      "021",
      "015",
      "001"
    ],
    "swim:geom": "path",
    "swim:speeds": [
      151,
      180,
      237,
      341,
      350,
      367,
      364,
      377,
      387,
      393,
      402,
      414,
      421,
      428,
      429,
      419,
      421,
      411,
      405,
      407,
      415,
      413,
      413,
      413,
      414,
      414,
      415,
      413,
      411,
      410,
      408,
      408,
      409,
      409,
      407,
      406,
      410,
      409,
      409,
      409,
      409,
      410,
      414,
      414,
      414,
      413,
      409,
      409,
      410,
      409,
      410,
      411,
      412,
      414,
      414,
      413,
      412,
      412,
      413,
      414,
      414,
      414,
      414,
      412,
      410,
      409,
      409,
      410,
      410,
      411,
      412,
      414,
      415,
      416,
      416,
      416,
      415,
      415,
      414,
      413,
      413,
      413,
      419,
      421,
      422,
      422,
      432,
      440,
      441,
      439,
      430,
      419,
      418,
      416,
      409,
      398,
      396,
      394,
      388,
      383,
      372,
      369,
      345,
      334,
      321,
      323,
      313,
      308,
      301,
      305,
      310,
      280,
      257,
      257,
      248,
      242,
      228,
      229,
      236,
      242,
      248,
      245,
      219,
      190,
      191,
      188,
      188,
      165,
      159,
      132,
      119
    ],
    "swim:timestamps": [
      1790385565,
      1790385625,
      1790385685,
      1790385745,
      1790385805,
      1790385865,
      1790385925,
      1790385985,
      1790386045,
      1790386106,
      1790386166,
      1790386226,
      1790386286,
      1790386346,
      1790386406,
      1790386466,
      1790386646,
      1790386706,
      1790386766,
      1790386826,
      1790386887,
      1790386947,
      1790387007,
      1790387067,
      1790387127,
      1790387187,
      1790387247,
      1790387307,
      1790387367,
      1790387427,
      1790387487,
      1790387547,
      1790387608,
      1790387668,
      1790387727,
      1790387788,
      1790387848,
      1790387908,
      1790387968,
      1790388028,
      1790388088,
      1790388148,
      1790388208,
      1790388268,
      1790388328,
      1790388388,
      1790388448,
      1790388509,
      1790388569,
      1790388629,
      1790388689,
      1790388749,
      1790388809,
      1790388869,
      1790388929,
      1790388989,
      1790389049,
      1790389109,
      1790389170,
      1790389230,
      1790389290,
      1790389350,
      1790389410,
      1790389470,
      1790389530,
      1790389590,
      1790389650,
      1790389710,
      1790389770,
      1790389830,
      1790389890,
      1790389951,
      1790390011,
      1790390071,
      1790390131,
      1790390191,
      1790390251,
      1790390311,
      1790390371,
      1790390431,
      1790390491,
      1790390551,
      1790390611,
      1790390671,
      1790390732,
      1790390792,
      1790390852,
      1790390912,
      1790390972,
      1790391032,
      1790391092,
      1790391152,
      1790391212,
      1790391272,
      1790391332,
      1790391392,
      1790391434,
      1790391452,
      1790391470,
      1790391513,
      1790391530,
      1790391573,
      1790391590,
      1790391633,
      1790391650,
      1790391693,
      1790391710,
      1790391753,
      1790391770,
      1790391813,
      1790391831,
      1790391873,
      1790391891,
      1790391933,
      1790391950,
      1790391993,
      1790392010,
      1790392053,
      1790392070,
      1790392113,
      1790392131,
      1790392173,
      1790392233,
      1790392251,
      1790392293,
      1790392311,
      1790392354,
      1790392371,
      1790392414,
      1790392474,
      1790392594
    ],
    "wof:geomhash": "f9913aca7adfdcbfbc2262076490216b",
    "wof:id": 2048430979,
    "wof:repo": "sfomuseum-data-flights-2026-09"
  },
  "bbox": [
    -122.75,
    37.38333333333333,
    -110.75166666666667,
    43.58027777777778
  ],
  "geometry": {"type":"LineString","coordinates":[[-110.75166666666667,43.58027777777778],[-110.78472222222221,43.535],[-110.82666666666667,43.47],[-110.88083333333333,43.38583333333333],[-110.9375,43.29694444444444],[-111.00833333333334,43.212500000000006],[-111.13138888888888,43.165277777777774],[-111.26055555555556,43.11694444444444],[-111.3825,43.071111111111115],[-111.51583333333333,43.020833333333336],[-111.65083333333334,42.96944444444445],[-111.78999999999999,42.91638888888889],[-111.93305555555555,42.861666666666665],[-112.07722222222222,42.80611111111111],[-112.21888888888888,42.75138888888889],[-112.37416666666665,42.69083333333333],[-112.79333333333334,42.52638888888889],[-112.92750000000001,42.473055555555554],[-113.0611111111111,42.41972222222222],[-113.19666666666667,42.36555555555556],[-113.3325,42.31083333333333],[-113.46777777777778,42.256388888888885],[-113.60277777777777,42.20138888888889],[-113.73833333333333,42.14611111111111],[-113.87416666666665,42.09055555555556],[-114.00805555555556,42.03527777777778],[-114.14472222222223,41.97888888888889],[-114.2775,41.92361111111111],[-114.41000000000001,41.86833333333333],[-114.53361111111111,41.81666666666667],[-114.66472222222222,41.76138888888889],[-114.7975,41.705555555555556],[-114.92861111111111,41.64972222222222],[-115.06222222222222,41.596111111111114],[-115.19916666666667,41.54972222222222],[-115.34055555555555,41.50944444444445],[-115.48194444444445,41.466944444444444],[-115.62333333333332,41.42361111111111],[-115.76138888888889,41.380833333333335],[-115.89861111111112,41.33694444444445],[-116.0363888888889,41.29388888888889],[-116.17750000000001,41.24861111111111],[-116.32111111111111,41.20777777777778],[-116.46388888888889,41.1675],[-116.60583333333332,41.12722222222222],[-116.74638888888889,41.08777777777778],[-116.885,41.047777777777775],[-117.02527777777777,41.00805555555556],[-117.19361111111111,40.95888888888889],[-117.33027777777778,40.919444444444444],[-117.47361111111111,40.8775],[-117.61388888888888,40.83638888888889],[-117.75277777777778,40.794999999999995],[-117.88916666666667,40.74138888888889],[-118.0225,40.687777777777775],[-118.15111111111112,40.63583333333333],[-118.28611111111111,40.58083333333334],[-118.41944444444445,40.52638888888889],[-118.54916666666666,40.473333333333336],[-118.68277777777779,40.41833333333333],[-118.81611111111111,40.36333333333334],[-118.94611111111111,40.30916666666666],[-119.07944444444443,40.25361111111111],[-119.20777777777778,40.2],[-119.33833333333332,40.149166666666666],[-119.47027777777778,40.098333333333336],[-119.60249999999999,40.04722222222222],[-119.73416666666667,39.99583333333334],[-119.86527777777778,39.94472222222222],[-119.99944444444445,39.89222222222222],[-120.13055555555555,39.84055555555556],[-120.26527777777778,39.77722222222222],[-120.39083333333333,39.71138888888889],[-120.51416666666667,39.64611111111111],[-120.64805555555556,39.60055555555556],[-120.79583333333333,39.60888888888889],[-120.94416666666667,39.62166666666667],[-121.0925,39.63472222222222],[-121.24055555555556,39.646388888888886],[-121.38972222222223,39.63777777777778],[-121.53694444444444,39.62861111111111],[-121.68694444444445,39.61972222222222],[-121.82444444444444,39.58083333333334],[-121.94500000000001,39.507777777777775],[-122.05972222222222,39.43833333333333],[-122.17333333333333,39.36277777777778],[-122.2388888888889,39.25333333333333],[-122.29833333333333,39.13944444444444],[-122.35666666666665,39.02722222222222],[-122.415,38.91416666666667],[-122.4725,38.802499999999995],[-122.53166666666667,38.687777777777775],[-122.58611111111111,38.58083333333334],[-122.64083333333333,38.473888888888894],[-122.69305555555556,38.370555555555555],[-122.74555555555555,38.26722222222222],[-122.75,38.18333333333333],[-122.74861111111112,38.16138888888889],[-122.73333333333333,38.11666666666667],[-122.71916666666667,38.05916666666666],[-122.7,38.016666666666666],[-122.69055555555556,37.96055555555556],[-122.68333333333334,37.916666666666664],[-122.65,37.878055555555555],[-122.61666666666666,37.85],[-122.57833333333333,37.81027777777778],[-122.55,37.78333333333333],[-122.50888888888889,37.74472222222222],[-122.48333333333333,37.71666666666667],[-122.44083333333333,37.68083333333333],[-122.4,37.65],[-122.37305555555555,37.61694444444444],[-122.35,37.583333333333336],[-122.33444444444444,37.553888888888885],[-122.31666666666666,37.516666666666666],[-122.30055555555555,37.49055555555556],[-122.3,37.46666666666667],[-122.31083333333333,37.42861111111111],[-122.3,37.4],[-122.25638888888889,37.38333333333333],[-122.21666666666667,37.4],[-122.18416666666667,37.4175],[-122.11944444444444,37.45583333333334],[-122.11666666666666,37.483333333333334],[-122.1325,37.50277777777778],[-122.15,37.516666666666666],[-122.18083333333334,37.536944444444444],[-122.2,37.55],[-122.2325,37.558611111111105],[-122.27472222222222,37.57638888888889],[-122.35527777777777,37.61027777777778]]}
}
