{
  "id": 2048478929,
  "type": "Feature",
  "properties": {
    "geom:area": 0,
    "geom:bbox": "-122.385650,37.635280,-121.271200,38.160950",
    "geom:latitude": 37.98846209653856,
    "geom:longitude": -121.94648797071834,
    "src:alt_label": "swim-takeoff",
    "src:geom": "swim",
    "swim:elevations": [
      244,
      459,
      689,
      752,
      1015,
      1332,
      1837,
      1959,
      2415,
      2600,
      2800,
      3204,
      3356,
      3394,
      3450,
      3489,
      3629,
      3744,
      3823,
      4188,
      4400,
      4634,
      4809,
      5091,
      5200,
      5426,
      5502,
      5754
    ],
    "swim:geom": "takeoff",
    "swim:timestamps": [
      1790807422,
      1790807439,
      1790807485,
      1790807509,
      1790807538,
      1790807566,
      1790807608,
      1790807620,
      1790807664,
      1790807682,
      1790807707,
      1790807756,
      1790807786,
      1790807795,
      1790807809,
      1790807823,
      1790807864,
      1790807894,
      1790807910,
      1790807961,
      1790807997,
      1790808023,
      1790808048,
      1790808088,
      1790808106,
      1790808139,
      1790808155,
      1790808197
    ],
    "wof:geomhash": "194a27ec6e4c56d2a42b1fe04e22620b",
    "wof:id": 2048478929,
    "wof:repo": "sfomuseum-data-flights-2026-09"
  },
  "bbox": [
    -122.38565,
    37.63528,
    -121.2712,
    38.16095
  ],
  "geometry": {"type":"LineString","coordinates":[[-122.36131,37.63528],[-122.35046,37.64608],[-122.31384,37.67772],[-122.31171,37.70369],[-122.33011,37.73656],[-122.34833,37.76927],[-122.37327,37.81924],[-122.38033,37.83381],[-122.38565,37.89147],[-122.38376,37.91536],[-122.36175,37.94274],[-122.28029,37.96176],[-122.22645,37.97234],[-122.2095,37.97555],[-122.18351,37.98059],[-122.15489,37.98638],[-122.0712,38.00364],[-122.00368,38.01731],[-121.96669,38.0247],[-121.84725,38.04846],[-121.76274,38.06523],[-121.69877,38.07778],[-121.63988,38.08938],[-121.54223,38.10852],[-121.49886,38.11698],[-121.41739,38.13276],[-121.37743,38.1405],[-121.2712,38.16095]]}
}
