{
  "id": 2048434869,
  "type": "Feature",
  "properties": {
    "geom:area": 0,
    "geom:bbox": "-122.546111,33.276389,-111.829167,37.667778",
    "geom:latitude": 34.544907215488365,
    "geom:longitude": -117.62879379226804,
    "src:alt_label": "swim-path",
    "src:geom": "swim",
    "swim:altitudes": [
      "013",
      "047",
      "084",
      "118",
      "135",
      "167",
      "197",
      "223",
      "223",
      "249",
      "273",
      "296",
      "321",
      "321",
      "338",
      "341",
      "341",
      "350C",
      "350C",
      "350C",
      "350C",
      "350C",
      "350C",
      "350C",
      "350C",
      "350C",
      "350C",
      "350C",
      "350C",
      "350C",
      "350C",
      "350C",
      "350C",
      "350C",
      "350",
      "350",
      "350",
      "350",
      "350",
      "350",
      "350",
      "350",
      "350",
      "350",
      "345",
      "337",
      "295",
      "287",
      "252",
      "252",
      "242",
      "240",
      "226",
      "204",
      "182",
      "167",
      "161",
      "149",
      "141",
      "130",
      "127",
      "121",
      "115",
      "106",
      "100",
      "094",
      "088",
      "080",
      "077",
      "074",
      "068",
      "063",
      "056",
      "052",
      "048",
      "040",
      "035",
      "029",
      "025",
      "025",
      "025",
      "024",
      "019",
      "016",
      "012",
      "009",
      "005",
      "002",
      "012",
      "029",
      "051",
      "089",
      "117",
      "146",
      "177",
      "206",
      "231",
      "258",
      "272",
      "293",
      "310C",
      "310C",
      "310C",
      "310C",
      "310C",
      "310C",
      "310C",
      "310C",
      "310C",
      "310C",
      "310C",
      "310",
      "310",
      "310",
      "310",
      "310",
      "310",
      "310",
      "310",
      "310",
      "310",
      "310",
      "310",
      "304",
      "301",
      "295",
      "291",
      "279",
      "275",
      "259",
      "251",
      "250",
      "250",
      "250",
      "250",
      "250",
      "249",
      "232",
      "227",
      "220",
      "220",
      "209",
      "204",
      "191",
      "188",
      "188",
      "172",
      "171",
      "170",
      "160",
      "146",
      "130",
      "115",
      "101",
      "092",
      "086",
      "074",
      "063",
      "045",
      "031",
      "023",
      "024",
      "017",
      "011"
    ],
    "swim:geom": "path",
    "swim:speeds": [
      152,
      199,
      218,
      241,
      338,
      366,
      365,
      404,
      396,
      420,
      431,
      443,
      442,
      441,
      442,
      478,
      465,
      488,
      487,
      488,
      491,
      487,
      490,
      486,
      484,
      484,
      483,
      484,
      483,
      483,
      483,
      483,
      483,
      482,
      481,
      481,
      482,
      482,
      485,
      485,
      486,
      486,
      486,
      487,
      486,
      486,
      485,
      485,
      478,
      477,
      435,
      431,
      419,
      403,
      385,
      371,
      371,
      359,
      358,
      345,
      329,
      307,
      307,
      296,
      297,
      285,
      287,
      282,
      278,
      258,
      255,
      253,
      253,
      249,
      240,
      205,
      184,
      191,
      191,
      187,
      177,
      181,
      183,
      171,
      137,
      140,
      134,
      137,
      170,
      225,
      268,
      284,
      332,
      357,
      389,
      402,
      420,
      423,
      452,
      464,
      459,
      468,
      472,
      493,
      495,
      496,
      497,
      498,
      500,
      502,
      503,
      509,
      504,
      507,
      504,
      505,
      505,
      505,
      506,
      506,
      507,
      507,
      507,
      506,
      506,
      505,
      505,
      495,
      494,
      481,
      475,
      474,
      473,
      472,
      472,
      471,
      471,
      462,
      459,
      445,
      444,
      432,
      429,
      397,
      381,
      385,
      362,
      367,
      347,
      334,
      326,
      320,
      307,
      298,
      268,
      253,
      243,
      244,
      233,
      228,
      153,
      165,
      142,
      141
    ],
    "swim:timestamps": [
      1790385436,
      1790385505,
      1790385565,
      1790385625,
      1790385685,
      1790385752,
      1790385812,
      1790385865,
      1790385872,
      1790385925,
      1790385985,
      1790386045,
      1790386105,
      1790386112,
      1790386173,
      1790386225,
      1790386233,
      1790386286,
      1790386293,
      1790386346,
      1790386353,
      1790386406,
      1790386413,
      1790386466,
      1790386526,
      1790386593,
      1790386646,
      1790386653,
      1790386706,
      1790386713,
      1790386774,
      1790386834,
      1790386894,
      1790386946,
      1790387007,
      1790387014,
      1790387067,
      1790387074,
      1790387127,
      1790387134,
      1790387187,
      1790387194,
      1790387247,
      1790387254,
      1790387307,
      1790387314,
      1790387367,
      1790387374,
      1790387427,
      1790387435,
      1790387487,
      1790387495,
      1790387555,
      1790387615,
      1790387675,
      1790387704,
      1790387735,
      1790387758,
      1790387795,
      1790387818,
      1790387855,
      1790387878,
      1790387915,
      1790387938,
      1790387975,
      1790387998,
      1790388036,
      1790388058,
      1790388096,
      1790388113,
      1790388156,
      1790388173,
      1790388216,
      1790388232,
      1790388276,
      1790388336,
      1790388353,
      1790388396,
      1790388412,
      1790388456,
      1790388473,
      1790388516,
      1790388539,
      1790388577,
      1790388599,
      1790388637,
      1790388659,
      1790388697,
      1790392561,
      1790392625,
      1790392685,
      1790392745,
      1790392805,
      1790392865,
      1790392926,
      1790392986,
      1790393046,
      1790393106,
      1790393166,
      1790393226,
      1790393286,
      1790393346,
      1790393406,
      1790393466,
      1790393526,
      1790393587,
      1790393647,
      1790393707,
      1790393767,
      1790393827,
      1790393887,
      1790393931,
      1790393947,
      1790393991,
      1790394007,
      1790394051,
      1790394067,
      1790394111,
      1790394127,
      1790394171,
      1790394188,
      1790394231,
      1790394248,
      1790394291,
      1790394308,
      1790394351,
      1790394368,
      1790394411,
      1790394428,
      1790394471,
      1790394488,
      1790394532,
      1790394548,
      1790394592,
      1790394608,
      1790394652,
      1790394668,
      1790394712,
      1790394728,
      1790394772,
      1790394789,
      1790394832,
      1790394849,
      1790394885,
      1790394945,
      1790394952,
      1790395005,
      1790395012,
      1790395072,
      1790395132,
      1790395192,
      1790395253,
      1790395313,
      1790395373,
      1790395426,
      1790395493,
      1790395552,
      1790395613,
      1790395673,
      1790395733,
      1790395786,
      1790395793,
      1790395853,
      1790395913
    ],
    "wof:geomhash": "25eab8cb116eb86b5da176f7b16c3b41",
    "wof:id": 2048434869,
    "wof:repo": "sfomuseum-data-flights-2026-09"
  },
  "bbox": [
    -122.5461111111111,
    33.27638888888889,
    -111.82916666666667,
    37.66777777777777
  ],
  "geometry": {"type":"LineString","coordinates":[[-122.38333333333334,37.61666666666667],[-122.44388888888889,37.64861111111111],[-122.5125,37.66777777777777],[-122.5461111111111,37.619166666666665],[-122.50194444444445,37.53944444444444],[-122.44,37.45944444444445],[-122.34555555555555,37.38861111111111],[-122.23388888888888,37.31305555555555],[-122.24305555555556,37.31166666666666],[-122.12666666666667,37.23388888888889],[-122.01638888888888,37.151944444444446],[-121.90416666666667,37.06805555555556],[-121.79222222222222,36.98444444444444],[-121.79777777777778,36.985],[-121.68722222222223,36.90138888888889],[-121.57027777777778,36.80555555555555],[-121.57916666666667,36.805],[-121.45111111111112,36.705000000000005],[-121.4588888888889,36.70777777777778],[-121.335,36.60611111111111],[-121.34333333333333,36.60861111111111],[-121.22,36.507777777777775],[-121.22805555555556,36.51],[-121.12972222222221,36.43055555555555],[-120.99222222222222,36.312777777777775],[-120.88138888888888,36.2175],[-120.76611111111112,36.1175],[-120.76777777777778,36.119166666666665],[-120.65138888888889,36.018055555555556],[-120.655,36.021388888888886],[-120.54305555555555,35.92333333333333],[-120.42777777777778,35.82277777777778],[-120.315,35.723888888888894],[-120.20027777777779,35.62305555555555],[-120.08583333333333,35.52222222222222],[-120.095,35.530277777777776],[-119.97444444444444,35.42361111111111],[-119.97611111111111,35.425],[-119.85916666666667,35.32083333333334],[-119.86305555555555,35.32416666666667],[-119.77555555555556,35.23722222222222],[-119.75861111111111,35.219166666666666],[-119.67416666666666,35.12916666666667],[-119.6575,35.111111111111114],[-119.57555555555555,35.022777777777776],[-119.55722222222222,35.00277777777778],[-119.47611111111111,34.91222222222222],[-119.45916666666668,34.89361111111111],[-119.36361111111111,34.788333333333334],[-119.36194444444443,34.78638888888889],[-119.28888888888889,34.70583333333334],[-119.27388888888889,34.689166666666665],[-119.19833333333334,34.60055555555556],[-119.11944444444444,34.50944444444445],[-119.04166666666667,34.42222222222222],[-118.98333333333333,34.36666666666667],[-118.96888888888888,34.337500000000006],[-118.93333333333334,34.28333333333333],[-118.89694444444446,34.25833333333333],[-118.85,34.21666666666667],[-118.82805555555555,34.18388888888889],[-118.78333333333333,34.15],[-118.76055555555556,34.119166666666665],[-118.71666666666667,34.083333333333336],[-118.69416666666667,34.05777777777777],[-118.65,34.03333333333333],[-118.61222222222221,34.02472222222222],[-118.55,34.016666666666666],[-118.51722222222222,34.01555555555556],[-118.46666666666667,34.016666666666666],[-118.43194444444445,34.01444444444444],[-118.38333333333334,34.016666666666666],[-118.34916666666666,34.02861111111111],[-118.31666666666666,34.03333333333333],[-118.26694444444445,34.03638888888889],[-118.19722222222222,34.04361111111111],[-118.16666666666667,34.03333333333333],[-118.15833333333335,34.014722222222225],[-118.16666666666667,34],[-118.19222222222223,33.97555555555556],[-118.21666666666667,33.96666666666667],[-118.25055555555555,33.9675],[-118.28333333333333,33.96666666666667],[-118.30833333333334,33.961666666666666],[-118.33333333333333,33.96666666666667],[-118.35499999999999,33.95666666666667],[-118.38333333333334,33.95],[-118.39916666666667,33.9525],[-118.45,33.93333333333333],[-118.48583333333333,33.89694444444444],[-118.52027777777778,33.83527777777778],[-118.52055555555556,33.757222222222225],[-118.47527777777778,33.69194444444444],[-118.37138888888889,33.655],[-118.22222222222223,33.644444444444446],[-118.09055555555555,33.64472222222222],[-117.95194444444445,33.644444444444446],[-117.81138888888889,33.643055555555556],[-117.66777777777779,33.613055555555555],[-117.51805555555555,33.57611111111112],[-117.37166666666666,33.53972222222222],[-117.22083333333333,33.507222222222225],[-117.06888888888888,33.50277777777778],[-116.90694444444445,33.51444444444444],[-116.74027777777778,33.52833333333333],[-116.57555555555555,33.541666666666664],[-116.4088888888889,33.555],[-116.24222222222222,33.56805555555556],[-116.07555555555555,33.58111111111111],[-115.9075,33.594166666666666],[-115.74027777777778,33.60666666666667],[-115.62944444444443,33.614444444444445],[-115.57194444444444,33.6175],[-115.4625,33.61472222222223],[-115.40611111111112,33.61388888888889],[-115.2936111111111,33.611111111111114],[-115.23555555555555,33.609722222222224],[-115.1261111111111,33.60666666666667],[-115.06583333333333,33.605000000000004],[-114.95694444444445,33.602222222222224],[-114.89805555555556,33.60055555555556],[-114.78777777777778,33.596944444444446],[-114.73027777777779,33.59027777777778],[-114.62222222222222,33.56944444444445],[-114.56583333333333,33.55833333333333],[-114.46000000000001,33.53777777777778],[-114.40361111111112,33.526666666666664],[-114.29833333333333,33.505833333333335],[-114.24361111111111,33.495],[-114.14083333333333,33.474444444444444],[-114.08972222222222,33.46416666666667],[-113.98916666666666,33.443888888888885],[-113.9375,33.433611111111105],[-113.83777777777777,33.41361111111111],[-113.78527777777778,33.403055555555554],[-113.68555555555555,33.38305555555556],[-113.63166666666666,33.371944444444445],[-113.53416666666666,33.35194444444445],[-113.50916666666667,33.346944444444446],[-113.39083333333333,33.325],[-113.36166666666666,33.32],[-113.25,33.300555555555555],[-113.22194444444445,33.295833333333334],[-113.11666666666666,33.28333333333333],[-112.98333333333333,33.28333333333333],[-112.98416666666667,33.27638888888889],[-112.86666666666666,33.28333333333333],[-112.86277777777777,33.279444444444444],[-112.74805555555555,33.28722222222222],[-112.63777777777779,33.297777777777775],[-112.53694444444444,33.30694444444444],[-112.43305555555555,33.316944444444445],[-112.33055555555555,33.32611111111112],[-112.23361111111112,33.334722222222226],[-112.13333333333334,33.35],[-112.05805555555555,33.34722222222222],[-111.96666666666667,33.35],[-111.89694444444446,33.34444444444445],[-111.82916666666667,33.36194444444445],[-111.86999999999999,33.41166666666666],[-111.91666666666667,33.43333333333333],[-111.92083333333333,33.42861111111111],[-111.96805555555555,33.428888888888885],[-112.01444444444445,33.428888888888885]]}
}
