{
  "id": 2048355575,
  "type": "Feature",
  "properties": {
    "geom:area": 0,
    "geom:bbox": "-122.526800,37.631060,-121.273370,38.408630",
    "geom:latitude": 38.03879721705637,
    "geom:longitude": -121.98165707723939,
    "src:alt_label": "swim-takeoff",
    "src:geom": "swim",
    "swim:elevations": [
      374,
      612,
      788,
      970,
      1095,
      1739,
      1932,
      2296,
      2770,
      2952,
      3292,
      3333,
      3448,
      3820,
      3976,
      4254,
      4755,
      4859,
      5192,
      5426,
      5614,
      5808,
      5862,
      6182,
      6373,
      6616,
      6732,
      6858,
      6964
    ],
    "swim:geom": "takeoff",
    "swim:timestamps": [
      1789625936,
      1789625962,
      1789625995,
      1789626028,
      1789626038,
      1789626089,
      1789626106,
      1789626137,
      1789626176,
      1789626191,
      1789626238,
      1789626244,
      1789626270,
      1789626321,
      1789626336,
      1789626363,
      1789626418,
      1789626430,
      1789626467,
      1789626496,
      1789626527,
      1789626567,
      1789626574,
      1789626629,
      1789626650,
      1789626688,
      1789626709,
      1789626736,
      1789626750
    ],
    "wof:geomhash": "8fd9135a79bdbb250b6c04b2adb0797a",
    "wof:id": 2048355575,
    "wof:repo": "sfomuseum-data-flights-2026-09"
  },
  "bbox": [
    -122.5268,
    37.63106,
    -121.27337,
    38.40863
  ],
  "geometry": {"type":"LineString","coordinates":[[-122.40311,37.63106],[-122.42614,37.64073],[-122.4592,37.65468],[-122.49832,37.67132],[-122.51065,37.67817],[-122.52615,37.73694],[-122.5268,37.75983],[-122.51912,37.79937],[-122.46311,37.82744],[-122.43871,37.83551],[-122.36593,37.87044],[-122.35598,37.87539],[-122.31148,37.89728],[-122.21499,37.94405],[-122.18577,37.95814],[-122.13289,37.98362],[-122.02111,38.03729],[-121.99633,38.04914],[-121.9198,38.08558],[-121.85804,38.1151],[-121.78959,38.14756],[-121.70177,38.18901],[-121.6855,38.19679],[-121.55772,38.25712],[-121.50697,38.28099],[-121.41679,38.32355],[-121.36563,38.35067],[-121.30577,38.38812],[-121.27337,38.40863]]}
}
