{
  "id": 2048434907,
  "type": "Feature",
  "properties": {
    "geom:area": 0,
    "geom:bbox": "-122.397222,37.642500,-90.343056,39.387500",
    "geom:latitude": 38.90834334997131,
    "geom:longitude": -106.3782431839918,
    "src:alt_label": "swim-path",
    "src:geom": "swim",
    "swim:altitudes": [
      "015",
      "018",
      "035",
      "037",
      "057",
      "087",
      "113",
      "132",
      "158",
      "185",
      "190",
      "200",
      "223",
      "242",
      "260",
      "279",
      "294",
      "301",
      "309",
      "318",
      "327",
      "333",
      "341",
      "348",
      "356",
      "363",
      "370C",
      "370C",
      "370C",
      "370C",
      "370C",
      "370C",
      "370C",
      "370C",
      "370C",
      "370C",
      "370C",
      "370C",
      "370C",
      "370C",
      "370C",
      "370C",
      "370C",
      "370C",
      "370C",
      "370C",
      "370C",
      "370C",
      "370C",
      "370C",
      "370C",
      "370C",
      "370C",
      "370C",
      "370C",
      "370C",
      "370C",
      "370C",
      "370C",
      "370C",
      "370C",
      "370C",
      "370C",
      "370C",
      "370C",
      "370C",
      "370C",
      "370C",
      "370C",
      "370C",
      "370C",
      "370C",
      "370C",
      "370C",
      "370C",
      "370C",
      "370C",
      "370C",
      "370C",
      "370C",
      "370C",
      "370C",
      "370C",
      "370C",
      "370C",
      "370C",
      "370C",
      "370C",
      "370C",
      "370C",
      "370C",
      "370C",
      "370C",
      "370C",
      "370C",
      "370C",
      "370C",
      "370C",
      "370C",
      "370C",
      "370C",
      "370C",
      "370C",
      "370C",
      "370C",
      "370C",
      "370C",
      "370C",
      "370C",
      "370C",
      "370C",
      "370C",
      "370C",
      "370C",
      "370C",
      "370C",
      "370C",
      "370C",
      "370C",
      "370C",
      "370C",
      "370C",
      "370C",
      "370C",
      "370C",
      "370C",
      "370C",
      "370C",
      "370C",
      "370C",
      "370C",
      "370C",
      "370C",
      "370C",
      "370C",
      "370C",
      "370C",
      "370C",
      "370C",
      "370C",
      "370C",
      "370",
      "382",
      "389C",
      "390C",
      "390C",
      "390C",
      "390C",
      "390C",
      "390C",
      "390C",
      "390C",
      "390C",
      "390C",
      "390C",
      "390C",
      "390C",
      "390C",
      "390C",
      "390C",
      "390C",
      "390C",
      "390C",
      "390C",
      "390C",
      "390C",
      "390C",
      "390C",
      "390C",
      "390C",
      "390C",
      "390C",
      "390C",
      "390C",
      "390C",
      "390C",
      "390C",
      "390C",
      "390C",
      "390C",
      "390C",
      "390C",
      "390C",
      "390C",
      "390C",
      "390C",
      "390C",
      "390C",
      "390C",
      "390C",
      "390C",
      "390C",
      "390C",
      "390C",
      "390C",
      "390C",
      "390C",
      "390C",
      "390C",
      "390C",
      "390C",
      "390C",
      "390C",
      "390C",
      "390C",
      "390C",
      "390C",
      "390C",
      "390C",
      "390C",
      "390C",
      "390C",
      "390C",
      "390C",
      "390C",
      "390C",
      "390C",
      "390C",
      "390C",
      "390C",
      "390",
      "390",
      "390",
      "381",
      "371",
      "361",
      "351",
      "342",
      "326",
      "304",
      "298",
      "269",
      "243",
      "218",
      "195",
      "175",
      "161",
      "151",
      "145",
      "129",
      "123",
      "108C",
      "105",
      "100",
      "096",
      "086",
      "082",
      "068",
      "053",
      "045",
      "041",
      "035",
      "035",
      "034",
      "031",
      "024",
      "022",
      "015",
      "014",
      "008",
      "004"
    ],
    "swim:geom": "path",
    "swim:speeds": [
      167,
      191,
      215,
      240,
      283,
      308,
      313,
      375,
      399,
      409,
      415,
      417,
      432,
      446,
      464,
      472,
      480,
      482,
      488,
      489,
      488,
      489,
      489,
      489,
      488,
      489,
      482,
      481,
      481,
      480,
      481,
      481,
      484,
      484,
      485,
      486,
      487,
      487,
      487,
      487,
      488,
      488,
      487,
      487,
      484,
      481,
      480,
      479,
      478,
      477,
      476,
      476,
      475,
      475,
      474,
      474,
      473,
      473,
      473,
      473,
      473,
      473,
      473,
      474,
      475,
      476,
      476,
      477,
      476,
      477,
      477,
      477,
      478,
      479,
      479,
      479,
      479,
      479,
      479,
      479,
      479,
      478,
      478,
      477,
      476,
      475,
      475,
      474,
      472,
      472,
      472,
      473,
      474,
      475,
      476,
      476,
      476,
      473,
      476,
      471,
      471,
      469,
      469,
      468,
      467,
      467,
      467,
      467,
      467,
      467,
      467,
      467,
      467,
      467,
      467,
      467,
      468,
      469,
      469,
      470,
      471,
      471,
      472,
      472,
      473,
      473,
      473,
      473,
      473,
      472,
      471,
      471,
      470,
      469,
      468,
      466,
      465,
      465,
      468,
      471,
      471,
      472,
      472,
      471,
      474,
      477,
      478,
      477,
      476,
      476,
      477,
      477,
      477,
      477,
      476,
      475,
      474,
      472,
      469,
      469,
      467,
      466,
      466,
      464,
      466,
      465,
      467,
      467,
      467,
      464,
      455,
      452,
      452,
      452,
      450,
      440,
      440,
      437,
      439,
      441,
      442,
      443,
      445,
      447,
      461,
      463,
      463,
      464,
      464,
      465,
      466,
      465,
      463,
      461,
      460,
      461,
      463,
      465,
      466,
      467,
      467,
      467,
      466,
      468,
      469,
      471,
      473,
      475,
      477,
      479,
      480,
      479,
      478,
      477,
      476,
      475,
      474,
      474,
      475,
      478,
      482,
      484,
      486,
      484,
      481,
      481,
      485,
      490,
      492,
      481,
      460,
      470,
      458,
      445,
      430,
      410,
      403,
      401,
      391,
      384,
      375,
      367,
      349,
      315,
      303,
      298,
      292,
      287,
      273,
      268,
      259,
      256,
      234,
      197,
      191,
      175,
      168,
      162,
      144,
      142,
      142
    ],
    "swim:timestamps": [
      1790367622,
      1790367634,
      1790367682,
      1790367693,
      1790367754,
      1790367814,
      1790367862,
      1790367922,
      1790367982,
      1790368043,
      1790368103,
      1790368163,
      1790368223,
      1790368283,
      1790368343,
      1790368403,
      1790368463,
      1790368490,
      1790368523,
      1790368550,
      1790368583,
      1790368610,
      1790368643,
      1790368670,
      1790368704,
      1790368731,
      1790368764,
      1790368791,
      1790368824,
      1790368851,
      1790368884,
      1790368911,
      1790368944,
      1790368971,
      1790369004,
      1790369031,
      1790369064,
      1790369091,
      1790369124,
      1790369151,
      1790369184,
      1790369211,
      1790369244,
      1790369271,
      1790369304,
      1790369331,
      1790369365,
      1790369391,
      1790369425,
      1790369451,
      1790369485,
      1790369512,
      1790369545,
      1790369572,
      1790369605,
      1790369632,
      1790369665,
      1790369692,
      1790369725,
      1790369752,
      1790369785,
      1790369812,
      1790369845,
      1790369872,
      1790369905,
      1790369932,
      1790369965,
      1790369992,
      1790370026,
      1790370052,
      1790370086,
      1790370112,
      1790370172,
      1790370233,
      1790370293,
      1790370353,
      1790370413,
      1790370473,
      1790370533,
      1790370593,
      1790370653,
      1790370713,
      1790370773,
      1790370833,
      1790370893,
      1790370953,
      1790371014,
      1790371074,
      1790371134,
      1790371194,
      1790371254,
      1790371314,
      1790371374,
      1790371434,
      1790371494,
      1790371554,
      1790371614,
      1790371674,
      1790371692,
      1790371734,
      1790371752,
      1790371795,
      1790371812,
      1790371855,
      1790371872,
      1790371932,
      1790371975,
      1790371992,
      1790372035,
      1790372052,
      1790372095,
      1790372112,
      1790372155,
      1790372172,
      1790372215,
      1790372233,
      1790372275,
      1790372335,
      1790372353,
      1790372395,
      1790372413,
      1790372455,
      1790372473,
      1790372516,
      1790372533,
      1790372576,
      1790372593,
      1790372636,
      1790372653,
      1790372696,
      1790372713,
      1790372756,
      1790372773,
      1790372816,
      1790372833,
      1790372893,
      1790372954,
      1790373014,
      1790373074,
      1790373134,
      1790373194,
      1790373254,
      1790373314,
      1790373374,
      1790373434,
      1790373494,
      1790373554,
      1790373614,
      1790373674,
      1790373735,
      1790373795,
      1790373855,
      1790373915,
      1790373975,
      1790374035,
      1790374095,
      1790374155,
      1790374215,
      1790374270,
      1790374330,
      1790374390,
      1790374450,
      1790374510,
      1790374516,
      1790374570,
      1790374576,
      1790374811,
      1790374871,
      1790374931,
      1790374991,
      1790375051,
      1790375111,
      1790375171,
      1790375231,
      1790375237,
      1790375291,
      1790375297,
      1790375352,
      1790375472,
      1790375532,
      1790375592,
      1790375652,
      1790375712,
      1790375772,
      1790375892,
      1790375952,
      1790375958,
      1790376013,
      1790376073,
      1790376133,
      1790376193,
      1790376253,
      1790376313,
      1790376373,
      1790376433,
      1790376494,
      1790376554,
      1790376614,
      1790376674,
      1790376734,
      1790376794,
      1790376854,
      1790376914,
      1790376974,
      1790377034,
      1790377094,
      1790377155,
      1790377215,
      1790377275,
      1790377335,
      1790377395,
      1790377455,
      1790377515,
      1790377575,
      1790377635,
      1790377695,
      1790377755,
      1790377816,
      1790377876,
      1790377936,
      1790377996,
      1790378056,
      1790378116,
      1790378176,
      1790378236,
      1790378296,
      1790378356,
      1790378416,
      1790378477,
      1790378537,
      1790378597,
      1790378657,
      1790378717,
      1790378777,
      1790378837,
      1790378897,
      1790378928,
      1790378957,
      1790378968,
      1790379017,
      1790379030,
      1790379078,
      1790379090,
      1790379138,
      1790379150,
      1790379198,
      1790379211,
      1790379269,
      1790379329,
      1790379378,
      1790379389,
      1790379438,
      1790379452,
      1790379498,
      1790379512,
      1790379558,
      1790379572,
      1790379618,
      1790379630,
      1790379678,
      1790379739
    ],
    "wof:geomhash": "ce32c3c9f6460f3164f4e69b381071c5",
    "wof:id": 2048434907,
    "wof:repo": "sfomuseum-data-flights-2026-09"
  },
  "bbox": [
    -122.39722222222223,
    37.6425,
    -90.34305555555555,
    39.3875
  ],
  "geometry": {"type":"LineString","coordinates":[[-122.39722222222223,37.6425],[-122.38333333333334,37.65],[-122.33749999999999,37.67222222222222],[-122.31666666666666,37.68333333333333],[-122.23333333333333,37.71666666666667],[-122.15,37.75],[-122.07472222222222,37.79],[-121.96472222222222,37.83361111111111],[-121.83083333333333,37.858333333333334],[-121.69222222222223,37.884166666666665],[-121.55333333333333,37.90972222222222],[-121.41055555555556,37.93583333333333],[-121.2625,37.962500000000006],[-121.11,37.98972222222222],[-120.95138888888889,38.014722222222225],[-120.78916666666666,38.03944444444444],[-120.62416666666665,38.06472222222222],[-120.54472222222222,38.073888888888895],[-120.45555555555556,38.09027777777778],[-120.37527777777777,38.10166666666667],[-120.28694444444444,38.11555555555556],[-120.2063888888889,38.126666666666665],[-120.11722222222221,38.14083333333333],[-120.0375,38.152499999999996],[-119.94888888888889,38.16555555555556],[-119.86749999999999,38.174166666666665],[-119.78388888888888,38.189166666666665],[-119.7038888888889,38.198611111111106],[-119.61472222222221,38.21333333333334],[-119.53777777777778,38.223333333333336],[-119.44944444444445,38.23694444444445],[-119.37055555555555,38.246944444444445],[-119.26888888888888,38.26222222222222],[-119.20222222222222,38.270833333333336],[-119.10055555555554,38.285555555555554],[-119.03333333333333,38.29361111111111],[-118.93083333333334,38.30888888888889],[-118.86361111111111,38.31722222222223],[-118.76305555555555,38.331944444444446],[-118.69500000000001,38.34055555555556],[-118.59222222222222,38.355000000000004],[-118.52666666666667,38.36361111111111],[-118.42555555555556,38.37694444444445],[-118.3411111111111,38.38777777777778],[-118.25555555555556,38.397777777777776],[-118.17222222222223,38.40833333333333],[-118.09083333333332,38.41888888888889],[-118.00333333333333,38.430277777777775],[-117.93527777777778,38.439166666666665],[-117.8386111111111,38.45166666666667],[-117.77055555555556,38.46027777777778],[-117.67305555555556,38.47277777777778],[-117.60194444444444,38.48166666666667],[-117.50555555555556,38.493611111111115],[-117.435,38.5025],[-117.36999999999999,38.510555555555555],[-117.27083333333333,38.5225],[-117.20361111111112,38.52972222222222],[-117.10249999999999,38.53861111111111],[-117.03555555555555,38.544444444444444],[-116.93305555555555,38.55416666666667],[-116.86861111111111,38.56027777777778],[-116.76722222222222,38.57],[-116.69833333333334,38.57638888888889],[-116.59722222222221,38.58555555555556],[-116.52944444444444,38.59166666666667],[-116.42722222222223,38.600833333333334],[-116.36027777777777,38.606944444444444],[-116.2575,38.61611111111111],[-116.19277777777778,38.621944444444445],[-116.09027777777777,38.630833333333335],[-116.02527777777777,38.63666666666666],[-115.85499999999999,38.651111111111106],[-115.68555555555555,38.66555555555556],[-115.51416666666667,38.67944444444444],[-115.34444444444443,38.69361111111111],[-115.17416666666666,38.70722222222223],[-115.00361111111111,38.72027777777778],[-114.83694444444444,38.73305555555556],[-114.66638888888889,38.74583333333334],[-114.4961111111111,38.75861111111111],[-114.32527777777777,38.77111111111111],[-114.1588888888889,38.783055555555556],[-113.99111111111111,38.794444444444444],[-113.82222222222222,38.80583333333333],[-113.6538888888889,38.81722222222223],[-113.48388888888888,38.82833333333333],[-113.3175,38.83888888888889],[-113.14972222222222,38.84916666666667],[-112.98083333333334,38.85944444444445],[-112.81333333333333,38.86944444444445],[-112.64416666666668,38.87916666666667],[-112.4738888888889,38.888888888888886],[-112.30722222222222,38.89805555555556],[-112.13583333333334,38.90694444444444],[-111.96638888888889,38.91583333333333],[-111.79666666666667,38.92444444444444],[-111.62972222222221,38.93277777777777],[-111.59305555555555,38.93388888888889],[-111.46277777777777,38.94083333333333],[-111.42750000000001,38.941111111111105],[-111.29777777777778,38.94833333333333],[-111.25916666666667,38.95],[-111.13222222222221,38.955555555555556],[-111.09416666666667,38.95722222222223],[-110.92777777777778,38.96472222222223],[-110.79888888888888,38.97],[-110.7625,38.97138888888889],[-110.6325,38.97638888888889],[-110.59583333333333,38.97777777777778],[-110.45333333333333,38.98361111111111],[-110.43083333333334,38.98444444444444],[-110.28583333333333,38.99],[-110.26166666666667,38.990833333333335],[-110.12166666666666,38.99583333333334],[-110.09666666666666,38.99666666666667],[-109.95361111111112,39.00194444444445],[-109.7911111111111,39.01111111111111],[-109.76277777777777,39.01277777777778],[-109.62222222222222,39.019999999999996],[-109.59444444444443,39.021388888888886],[-109.45361111111112,39.02861111111111],[-109.40694444444445,39.030833333333334],[-109.2875,39.03666666666666],[-109.23583333333333,39.03916666666667],[-109.11999999999999,39.04472222222222],[-109.06722222222221,39.04694444444444],[-108.95583333333333,39.051944444444445],[-108.89972222222222,39.05444444444444],[-108.78361111111111,39.05972222222222],[-108.73416666666667,39.06222222222222],[-108.61777777777777,39.07],[-108.56583333333333,39.07333333333334],[-108.45166666666667,39.080555555555556],[-108.39805555555556,39.08361111111111],[-108.23055555555555,39.09305555555556],[-108.06444444444445,39.102222222222224],[-107.89972222222222,39.11138888888889],[-107.7325,39.12027777777778],[-107.56305555555555,39.12916666666667],[-107.39750000000001,39.13777777777778],[-107.26333333333334,39.14416666666666],[-107.0611111111111,39.15361111111111],[-106.8963888888889,39.16166666666666],[-106.73083333333334,39.16888888888889],[-106.55944444444444,39.17611111111111],[-106.3913888888889,39.18333333333333],[-106.22083333333333,39.19027777777777],[-106.03527777777778,39.197222222222216],[-105.86472222222221,39.203611111111115],[-105.69361111111111,39.21194444444445],[-105.52388888888889,39.223055555555554],[-105.35416666666666,39.23305555555556],[-105.18583333333333,39.24277777777778],[-105.01777777777778,39.25194444444445],[-104.85,39.26083333333333],[-104.68305555555555,39.269999999999996],[-104.51666666666667,39.27861111111111],[-104.36,39.28666666666666],[-104.19416666666667,39.29416666666666],[-104.03,39.30222222222222],[-103.86388888888888,39.309444444444445],[-103.69916666666667,39.316944444444445],[-103.69277777777778,39.3175],[-103.53194444444445,39.323888888888895],[-103.52527777777777,39.32472222222223],[-102.86055555555555,39.35055555555556],[-102.69416666666667,39.35638888888889],[-102.52722222222222,39.36277777777778],[-102.36416666666666,39.36805555555556],[-102.20305555555557,39.37388888888889],[-102.04194444444444,39.37722222222222],[-101.87916666666666,39.3825],[-101.72,39.3875],[-101.70666666666666,39.3875],[-101.56444444444445,39.3775],[-101.54916666666666,39.376111111111115],[-101.40777777777778,39.364444444444445],[-101.09388888888888,39.337500000000006],[-100.93583333333333,39.32361111111111],[-100.77777777777777,39.309444444444445],[-100.62138888888889,39.29527777777778],[-100.45861111111111,39.28055555555555],[-100.29694444444445,39.265277777777776],[-99.96888888888888,39.25833333333333],[-99.80472222222222,39.2575],[-99.79222222222222,39.2575],[-99.63416666666667,39.25694444444444],[-99.46805555555555,39.255833333333335],[-99.29916666666666,39.254444444444445],[-99.13166666666666,39.25277777777778],[-98.96666666666667,39.25111111111111],[-98.81583333333333,39.24944444444444],[-98.65055555555556,39.24722222222222],[-98.465,39.24444444444445],[-98.29888888888888,39.24138888888889],[-98.16111111111111,39.23916666666667],[-97.98944444444444,39.23583333333333],[-97.79861111111111,39.231944444444444],[-97.65361111111112,39.22888888888889],[-97.48722222222223,39.225],[-97.31916666666666,39.22083333333334],[-97.15416666666667,39.21638888888889],[-96.98555555555555,39.211666666666666],[-96.81833333333333,39.20666666666667],[-96.65,39.20166666666667],[-96.47888888888889,39.19611111111111],[-96.3086111111111,39.190555555555555],[-96.1375,39.18444444444444],[-95.96583333333334,39.17833333333333],[-95.79416666666667,39.17166666666667],[-95.625,39.165277777777774],[-95.4325,39.157222222222224],[-95.25166666666667,39.14944444444444],[-95.09388888888888,39.1425],[-94.92583333333334,39.135],[-94.75833333333334,39.12722222222222],[-94.58999999999999,39.114444444444445],[-94.42277777777778,39.09583333333334],[-94.25194444444445,39.07694444444445],[-94.08138888888888,39.05777777777777],[-93.91000000000001,39.03805555555555],[-93.73833333333333,39.01833333333333],[-93.565,38.99777777777778],[-93.39694444444446,38.97805555555556],[-93.22500000000001,38.9575],[-93.05333333333333,38.93611111111111],[-92.87916666666666,38.91444444444444],[-92.70333333333333,38.8925],[-92.535,38.87166666666667],[-92.37194444444444,38.850833333333334],[-92.20527777777778,38.82888888888889],[-92.04388888888889,38.80777777777777],[-91.885,38.786944444444444],[-91.73555555555555,38.766666666666666],[-91.59472222222222,38.74777777777778],[-91.51666666666667,38.733333333333334],[-91.45527777777778,38.728611111111114],[-91.41666666666667,38.71666666666667],[-91.31944444444444,38.71],[-91.28333333333333,38.7],[-91.19,38.69472222222222],[-91.15,38.7],[-91.07333333333332,38.70861111111111],[-91.05,38.71666666666667],[-90.98166666666667,38.75],[-90.95,38.766666666666666],[-90.86666666666666,38.8],[-90.76666666666667,38.8],[-90.69694444444445,38.812777777777775],[-90.66666666666667,38.81666666666667],[-90.60555555555555,38.82277777777778],[-90.58333333333333,38.81666666666667],[-90.52972222222222,38.83027777777778],[-90.51666666666667,38.81666666666667],[-90.47361111111111,38.80444444444444],[-90.46666666666667,38.8],[-90.4238888888889,38.780277777777776],[-90.41666666666667,38.78333333333333],[-90.38138888888888,38.759166666666665],[-90.34305555555555,38.73972222222222]]}
}
