{
  "id": 2048364803,
  "type": "Feature",
  "properties": {
    "geom:area": 0,
    "geom:bbox": "-122.100150,36.718890,-121.292860,37.247960",
    "geom:latitude": 36.98386736030741,
    "geom:longitude": -121.69621473647432,
    "src:alt_label": "swim-takeoff",
    "src:geom": "swim",
    "swim:elevations": [
      5324,
      5410,
      5732,
      6032,
      6242,
      6599,
      6670,
      6832,
      7134,
      7220,
      7452,
      7583,
      7730,
      7893,
      8033
    ],
    "swim:geom": "takeoff",
    "swim:timestamps": [
      1789664264,
      1789664280,
      1789664322,
      1789664358,
      1789664383,
      1789664424,
      1789664438,
      1789664470,
      1789664518,
      1789664530,
      1789664566,
      1789664587,
      1789664624,
      1789664664,
      1789664684
    ],
    "wof:geomhash": "bd8a636bf83cb9ab3a13db17ecaf773d",
    "wof:id": 2048364803,
    "wof:repo": "sfomuseum-data-flights-2026-09"
  },
  "bbox": [
    -122.10015,
    36.71889,
    -121.29286,
    37.24796
  ],
  "geometry": {"type":"LineString","coordinates":[[-122.10015,37.24796],[-122.0725,37.23],[-121.99406,37.17896],[-121.9281,37.13605],[-121.88111,37.10534],[-121.80233,37.05385],[-121.77641,37.03687],[-121.71417,36.996],[-121.62298,36.9361],[-121.59956,36.92065],[-121.52916,36.87423],[-121.48788,36.84694],[-121.41356,36.79833],[-121.33416,36.74639],[-121.29286,36.71889]]}
}
