{
  "id": 2048362681,
  "type": "Feature",
  "properties": {
    "geom:area": 0,
    "geom:bbox": "-122.403710,37.632780,-121.255330,37.964370",
    "geom:latitude": 37.834560463955455,
    "geom:longitude": -121.8475118021416,
    "src:alt_label": "swim-takeoff",
    "src:geom": "swim",
    "swim:elevations": [
      341,
      602,
      889,
      972,
      1161,
      1274,
      1592,
      1903,
      2090,
      2399,
      2783,
      2940,
      3217,
      3257,
      3446,
      3566,
      3694,
      3875,
      4078,
      4216,
      4287,
      4517,
      4677,
      4936,
      5136
    ],
    "swim:geom": "takeoff",
    "swim:timestamps": [
      1789654308,
      1789654333,
      1789654358,
      1789654382,
      1789654435,
      1789654457,
      1789654496,
      1789654527,
      1789654544,
      1789654575,
      1789654615,
      1789654633,
      1789654678,
      1789654688,
      1789654737,
      1789654765,
      1789654782,
      1789654808,
      1789654837,
      1789654856,
      1789654867,
      1789654907,
      1789654934,
      1789654959,
      1789654986
    ],
    "wof:geomhash": "d3d5eda94179e67bca2374dae21da383",
    "wof:id": 2048362681,
    "wof:repo": "sfomuseum-data-flights-2026-09"
  },
  "bbox": [
    -122.40371,
    37.63278,
    -121.25533,
    37.96437
  ],
  "geometry": {"type":"LineString","coordinates":[[-122.40238,37.63278],[-122.40371,37.65158],[-122.38156,37.66286],[-122.35838,37.67026],[-122.29738,37.68967],[-122.26771,37.69938],[-122.21292,37.71808],[-122.1703,37.73977],[-122.14735,37.75232],[-122.10705,37.77522],[-122.05114,37.80677],[-122.02614,37.82033],[-121.95002,37.84073],[-121.93167,37.84386],[-121.83469,37.86095],[-121.77603,37.87162],[-121.73685,37.87878],[-121.68024,37.88904],[-121.61474,37.90067],[-121.57,37.90862],[-121.54392,37.91323],[-121.44788,37.93038],[-121.38231,37.94191],[-121.32106,37.95275],[-121.25533,37.96437]]}
}
