{
  "id": 2048241287,
  "type": "Feature",
  "properties": {
    "geom:area": 0,
    "geom:bbox": "-122.355350,37.440160,-121.264990,37.612740",
    "geom:latitude": 37.54279638889943,
    "geom:longitude": -121.82266810403303,
    "src:alt_label": "swim-approach",
    "src:geom": "swim",
    "swim:elevations": [
      4686,
      4491,
      4240,
      4144,
      3954,
      3893,
      3699,
      3353,
      3353,
      3238,
      3058,
      3048,
      3017,
      2880,
      2743,
      2744,
      2743,
      2746,
      2743,
      2743,
      2653,
      2572,
      2411,
      2261,
      2189,
      2062,
      1951,
      1725,
      1671,
      1373,
      1341,
      1047,
      1036,
      797,
      682,
      572,
      433,
      339,
      212,
      138,
      16
    ],
    "swim:geom": "approach",
    "swim:timestamps": [
      1788466245,
      1788466269,
      1788466308,
      1788466322,
      1788466348,
      1788466357,
      1788466384,
      1788466429,
      1788466458,
      1788466498,
      1788466525,
      1788466556,
      1788466574,
      1788466607,
      1788466647,
      1788466651,
      1788466678,
      1788466681,
      1788466703,
      1788466735,
      1788466767,
      1788466785,
      1788466818,
      1788466851,
      1788466869,
      1788466899,
      1788466923,
      1788466976,
      1788466985,
      1788467036,
      1788467042,
      1788467097,
      1788467100,
      1788467153,
      1788467178,
      1788467207,
      1788467240,
      1788467264,
      1788467300,
      1788467319,
      1788467347
    ],
    "wof:geomhash": "82d3a42819169b078cb1386839f6c14b",
    "wof:id": 2048241287,
    "wof:repo": "sfomuseum-data-flights-2026-09"
  },
  "bbox": [
    -122.35535,
    37.44016,
    -121.26499,
    37.61274
  ],
  "geometry": {"type":"LineString","coordinates":[[-121.26499,37.5924],[-121.30547,37.58752],[-121.37022,37.5805],[-121.39323,37.57787],[-121.43496,37.57303],[-121.44927,37.57135],[-121.49191,37.56636],[-121.56377,37.5579],[-121.6092,37.55262],[-121.66007,37.54465],[-121.69411,37.55576],[-121.73162,37.572],[-121.754,37.58136],[-121.79399,37.59826],[-121.84403,37.60978],[-121.84902,37.6082],[-121.86763,37.58696],[-121.8678,37.58379],[-121.85725,37.56176],[-121.83106,37.5308],[-121.83258,37.49786],[-121.84067,37.48027],[-121.8576,37.44949],[-121.89715,37.44016],[-121.92044,37.44249],[-121.95985,37.44717],[-121.98746,37.45693],[-122.04135,37.48027],[-122.0505,37.48416],[-122.10203,37.50598],[-122.10817,37.50861],[-122.16092,37.53087],[-122.1635,37.53197],[-122.20843,37.55099],[-122.22897,37.55963],[-122.25272,37.56965],[-122.2785,37.58045],[-122.29655,37.58811],[-122.32279,37.59913],[-122.33579,37.60459],[-122.35535,37.61274]]}
}
