{
  "id": 2048292635,
  "type": "Feature",
  "properties": {
    "geom:area": 0,
    "geom:bbox": "-122.357130,37.446010,-121.246800,37.613420",
    "geom:latitude": 37.53919429258161,
    "geom:longitude": -121.80713794701101,
    "src:alt_label": "swim-approach",
    "src:geom": "swim",
    "swim:elevations": [
      4934,
      4881,
      4620,
      4288,
      4249,
      3928,
      3793,
      3740,
      3651,
      3552,
      3136,
      3014,
      2814,
      2535,
      2337,
      2256,
      2105,
      1972,
      1847,
      1822,
      1565,
      1403,
      1338,
      1079,
      945,
      910,
      698,
      549,
      392,
      287,
      234,
      88,
      71
    ],
    "swim:geom": "approach",
    "swim:timestamps": [
      1788982318,
      1788982326,
      1788982361,
      1788982404,
      1788982410,
      1788982455,
      1788982472,
      1788982487,
      1788982509,
      1788982532,
      1788982588,
      1788982602,
      1788982628,
      1788982662,
      1788982698,
      1788982711,
      1788982766,
      1788982789,
      1788982824,
      1788982831,
      1788982885,
      1788982916,
      1788982928,
      1788982971,
      1788983007,
      1788983021,
      1788983064,
      1788983095,
      1788983128,
      1788983152,
      1788983168,
      1788983213,
      1788983228
    ],
    "wof:geomhash": "20ba66f4cc4ae574bfa96c6dcd0d9c2b",
    "wof:id": 2048292635,
    "wof:repo": "sfomuseum-data-flights-2026-09"
  },
  "bbox": [
    -122.35713,
    37.44601,
    -121.2468,
    37.61342
  ],
  "geometry": {"type":"LineString","coordinates":[[-121.2468,37.59484],[-121.26305,37.59259],[-121.32808,37.58482],[-121.40614,37.57612],[-121.41716,37.57486],[-121.49742,37.56554],[-121.5268,37.56208],[-121.55302,37.55901],[-121.59053,37.55464],[-121.62555,37.55016],[-121.70536,37.53128],[-121.72444,37.52675],[-121.75884,37.51564],[-121.78787,37.48437],[-121.8175,37.45189],[-121.83297,37.44601],[-121.90454,37.46454],[-121.93324,37.4749],[-121.97415,37.48983],[-121.98186,37.49259],[-122.03996,37.51164],[-122.07366,37.52251],[-122.08617,37.52653],[-122.13059,37.54084],[-122.16676,37.5525],[-122.18063,37.55702],[-122.22287,37.5707],[-122.25313,37.58047],[-122.28303,37.58942],[-122.30201,37.59501],[-122.31379,37.59851],[-122.34678,37.60922],[-122.35713,37.61342]]}
}
