{
  "id": 2048373309,
  "type": "Feature",
  "properties": {
    "geom:area": 0,
    "geom:bbox": "-122.595480,36.719810,-122.354360,37.673720",
    "geom:latitude": 37.25160553738063,
    "geom:longitude": -122.52749221880708,
    "src:alt_label": "swim-takeoff",
    "src:geom": "swim",
    "swim:elevations": [
      183,
      497,
      843,
      1271,
      1657,
      2266,
      2533,
      3158,
      3374,
      3641,
      4193,
      4818,
      5241,
      5352,
      5658,
      6300,
      6627,
      6724,
      7202,
      7294,
      7779,
      8003,
      8229,
      8515,
      8741
    ],
    "swim:geom": "takeoff",
    "swim:timestamps": [
      1789754523,
      1789754555,
      1789754599,
      1789754631,
      1789754657,
      1789754697,
      1789754713,
      1789754749,
      1789754775,
      1789754795,
      1789754831,
      1789754875,
      1789754905,
      1789754917,
      1789754947,
      1789754997,
      1789755029,
      1789755038,
      1789755083,
      1789755091,
      1789755139,
      1789755166,
      1789755193,
      1789755220,
      1789755249
    ],
    "wof:geomhash": "38bc7782df3485765a1fde143a0027a6",
    "wof:id": 2048373309,
    "wof:repo": "sfomuseum-data-flights-2026-09"
  },
  "bbox": [
    -122.59548,
    36.71981,
    -122.35436,
    37.67372
  ],
  "geometry": {"type":"LineString","coordinates":[[-122.38164,37.62383],[-122.40343,37.63297],[-122.44762,37.65104],[-122.48599,37.66635],[-122.52314,37.67372],[-122.58342,37.64999],[-122.59548,37.63028],[-122.59544,37.57962],[-122.5921,37.53995],[-122.58984,37.50936],[-122.5865,37.45013],[-122.58298,37.37753],[-122.58036,37.32605],[-122.57932,37.30546],[-122.57669,37.25334],[-122.57204,37.16413],[-122.56916,37.10767],[-122.56829,37.09113],[-122.55981,37.00587],[-122.55293,36.99104],[-122.49478,36.91234],[-122.4604,36.86522],[-122.42557,36.81766],[-122.39213,36.77126],[-122.35436,36.71981]]}
}
