{
  "id": 2048479645,
  "type": "Feature",
  "properties": {
    "geom:area": 0,
    "geom:bbox": "-122.620833,32.623611,-104.660278,39.858056",
    "geom:latitude": 35.798675665980596,
    "geom:longitude": -114.23615944427321,
    "src:alt_label": "swim-path",
    "src:geom": "swim",
    "swim:altitudes": [
      "005",
      "024",
      "035",
      "046",
      "053",
      "075",
      "090",
      "106",
      "112",
      "147",
      "177",
      "203",
      "227",
      "253",
      "274",
      "304",
      "327",
      "343",
      "344",
      "352",
      "364",
      "377",
      "389",
      "400",
      "407",
      "410C",
      "410C",
      "410C",
      "410C",
      "410C",
      "410C",
      "410C",
      "410C",
      "410C",
      "410C",
      "410C",
      "410C",
      "410C",
      "410C",
      "410C",
      "410C",
      "410C",
      "410C",
      "410C",
      "410C",
      "410C",
      "410C",
      "405",
      "394",
      "371",
      "359",
      "334",
      "297",
      "272",
      "235",
      "205",
      "178",
      "178",
      "152",
      "127",
      "106",
      "105",
      "100",
      "099",
      "088",
      "077",
      "063",
      "063",
      "060",
      "027",
      "016",
      "007",
      "005",
      "010",
      "018",
      "030",
      "041",
      "051",
      "076",
      "103",
      "113",
      "134",
      "151",
      "170",
      "195",
      "214",
      "230",
      "243",
      "252",
      "263",
      "276",
      "289",
      "305",
      "316",
      "325",
      "336",
      "349",
      "350",
      "350",
      "351",
      "364",
      "370C",
      "370C",
      "370C",
      "370C",
      "370C",
      "370C",
      "370C",
      "370C",
      "370C",
      "370C",
      "370C",
      "370C",
      "370C",
      "370C",
      "370C",
      "370C",
      "370C",
      "370C",
      "370C",
      "370C",
      "370C",
      "370C",
      "370C",
      "370C",
      "370C",
      "370C",
      "370C",
      "370C",
      "370C",
      "370C",
      "370C",
      "370C",
      "370C",
      "370C",
      "370C",
      "370C",
      "370C",
      "370C",
      "370C",
      "370C",
      "370C",
      "370C",
      "370C",
      "370C",
      "370C",
      "370C",
      "370C",
      "370C",
      "370C",
      "370C",
      "370C",
      "370C",
      "370C",
      "370C",
      "370C",
      "370C",
      "370C",
      "370C",
      "370C",
      "370C",
      "370C",
      "370C",
      "370C",
      "370C",
      "370C",
      "370C",
      "370C",
      "370C",
      "370C",
      "370C",
      "370",
      "361",
      "352",
      "342",
      "331",
      "323",
      "312",
      "293",
      "273",
      "254",
      "239",
      "236",
      "222",
      "221",
      "205",
      "191",
      "180",
      "177",
      "167",
      "163",
      "153",
      "150",
      "147",
      "136",
      "130",
      "122",
      "120",
      "120",
      "120",
      "120",
      "114",
      "106",
      "097",
      "095",
      "087",
      "086",
      "078",
      "076",
      "068",
      "060",
      "059",
      "053",
      "054"
    ],
    "swim:geom": "path",
    "swim:speeds": [
      160,
      201,
      211,
      248,
      269,
      287,
      286,
      322,
      359,
      364,
      364,
      397,
      409,
      417,
      431,
      421,
      413,
      406,
      441,
      467,
      473,
      474,
      475,
      474,
      477,
      484,
      488,
      491,
      494,
      495,
      494,
      493,
      493,
      492,
      490,
      489,
      489,
      489,
      490,
      491,
      493,
      494,
      494,
      492,
      492,
      495,
      497,
      498,
      499,
      492,
      479,
      479,
      479,
      462,
      455,
      449,
      431,
      435,
      420,
      407,
      384,
      378,
      324,
      326,
      301,
      286,
      276,
      280,
      245,
      199,
      164,
      148,
      168,
      167,
      216,
      227,
      267,
      276,
      294,
      299,
      352,
      366,
      395,
      413,
      384,
      388,
      396,
      406,
      430,
      444,
      453,
      464,
      464,
      462,
      464,
      465,
      465,
      462,
      457,
      447,
      462,
      463,
      463,
      463,
      465,
      464,
      462,
      459,
      454,
      451,
      448,
      446,
      447,
      446,
      445,
      449,
      448,
      446,
      447,
      445,
      446,
      445,
      446,
      446,
      447,
      446,
      446,
      445,
      445,
      443,
      441,
      441,
      441,
      442,
      442,
      442,
      441,
      441,
      440,
      440,
      439,
      438,
      437,
      436,
      435,
      434,
      432,
      431,
      430,
      429,
      429,
      431,
      437,
      440,
      442,
      443,
      442,
      442,
      441,
      442,
      443,
      444,
      445,
      444,
      444,
      444,
      447,
      449,
      450,
      452,
      451,
      450,
      444,
      438,
      435,
      436,
      436,
      436,
      427,
      406,
      385,
      368,
      371,
      354,
      358,
      347,
      341,
      327,
      330,
      308,
      303,
      276,
      277,
      251,
      251,
      245,
      204,
      186,
      187,
      190,
      188,
      184,
      176,
      166,
      171,
      169,
      170,
      170,
      170,
      171,
      161,
      165,
      132,
      60
    ],
    "swim:timestamps": [
      1790792864,
      1790792919,
      1790792954,
      1790792979,
      1790793014,
      1790793038,
      1790793074,
      1790793099,
      1790793134,
      1790793194,
      1790793250,
      1790793310,
      1790793375,
      1790793431,
      1790793495,
      1790793551,
      1790793611,
      1790793675,
      1790793731,
      1790793791,
      1790793851,
      1790793911,
      1790793971,
      1790794035,
      1790794096,
      1790794152,
      1790794212,
      1790794276,
      1790794332,
      1790794396,
      1790794452,
      1790794512,
      1790794572,
      1790794632,
      1790794693,
      1790794753,
      1790794817,
      1790794873,
      1790794937,
      1790794993,
      1790795053,
      1790795113,
      1790795173,
      1790795233,
      1790795293,
      1790795354,
      1790795414,
      1790795474,
      1790795534,
      1790795594,
      1790795654,
      1790795714,
      1790795774,
      1790795834,
      1790795894,
      1790795954,
      1790795999,
      1790796015,
      1790796075,
      1790796135,
      1790796179,
      1790796195,
      1790796244,
      1790796255,
      1790796315,
      1790796359,
      1790796425,
      1790796435,
      1790796479,
      1790796665,
      1790796725,
      1790796796,
      1790801805,
      1790801820,
      1790801848,
      1790801880,
      1790801913,
      1790801940,
      1790802000,
      1790802060,
      1790802120,
      1790802180,
      1790802241,
      1790802301,
      1790802361,
      1790802421,
      1790802480,
      1790802540,
      1790802600,
      1790802660,
      1790802720,
      1790802780,
      1790802840,
      1790802901,
      1790802961,
      1790803021,
      1790803081,
      1790803141,
      1790803261,
      1790803321,
      1790803441,
      1790803502,
      1790803562,
      1790803622,
      1790803682,
      1790803742,
      1790803862,
      1790803922,
      1790803982,
      1790804043,
      1790804103,
      1790804163,
      1790804223,
      1790804283,
      1790804343,
      1790804363,
      1790804423,
      1790804463,
      1790804483,
      1790804523,
      1790804543,
      1790804583,
      1790804603,
      1790804644,
      1790804664,
      1790804704,
      1790804724,
      1790804764,
      1790804784,
      1790804844,
      1790804944,
      1790804964,
      1790805024,
      1790805064,
      1790805084,
      1790805144,
      1790805184,
      1790805204,
      1790805245,
      1790805264,
      1790805324,
      1790805385,
      1790805445,
      1790805505,
      1790805565,
      1790805625,
      1790805685,
      1790805745,
      1790805805,
      1790805865,
      1790805925,
      1790805985,
      1790806045,
      1790806106,
      1790806166,
      1790806226,
      1790806286,
      1790806346,
      1790806406,
      1790806466,
      1790806526,
      1790806586,
      1790806646,
      1790806706,
      1790806766,
      1790806827,
      1790806887,
      1790806947,
      1790807007,
      1790807067,
      1790807127,
      1790807187,
      1790807247,
      1790807307,
      1790807367,
      1790807427,
      1790807487,
      1790807548,
      1790807608,
      1790807668,
      1790807728,
      1790807772,
      1790807788,
      1790807838,
      1790807848,
      1790807908,
      1790807968,
      1790808012,
      1790808028,
      1790808072,
      1790808088,
      1790808138,
      1790808148,
      1790808208,
      1790808269,
      1790808318,
      1790808389,
      1790808438,
      1790808449,
      1790808501,
      1790808509,
      1790808564,
      1790808624,
      1790808678,
      1790808689,
      1790808737,
      1790808749,
      1790808798,
      1790808809,
      1790808861,
      1790808918,
      1790808929,
      1790808990,
      1790809050
    ],
    "wof:geomhash": "bd54bfd8e3406015e35dabe45162063c",
    "wof:id": 2048479645,
    "wof:repo": "sfomuseum-data-flights-2026-09"
  },
  "bbox": [
    -122.62083333333332,
    32.62361111111111,
    -104.66027777777778,
    39.85805555555556
  ],
  "geometry": {"type":"LineString","coordinates":[[-122.36666666666666,37.63333333333333],[-122.36666666666666,37.666666666666664],[-122.36777777777777,37.69972222222222],[-122.4,37.71666666666667],[-122.44694444444445,37.71472222222223],[-122.5,37.71666666666667],[-122.54777777777778,37.7175],[-122.6,37.7],[-122.62083333333332,37.66361111111111],[-122.61055555555555,37.56222222222222],[-122.60388888888889,37.46027777777778],[-122.59333333333333,37.350833333333334],[-122.58388888888888,37.237500000000004],[-122.57388888888889,37.121944444444445],[-122.55361111111111,37.003055555555555],[-122.48555555555555,36.9],[-122.41333333333334,36.801111111111105],[-122.34277777777777,36.70472222222222],[-122.27027777777778,36.605000000000004],[-122.18694444444445,36.49111111111111],[-122.10472222222222,36.3775],[-122.02083333333333,36.26111111111111],[-121.93944444444445,36.14805555555556],[-121.85499999999999,36.03138888888889],[-121.73666666666666,35.94],[-121.60388888888889,35.86333333333334],[-121.46722222222222,35.78361111111111],[-121.32638888888889,35.70138888888889],[-121.19472222222223,35.62416666666667],[-121.05444444444444,35.541666666666664],[-120.90972222222223,35.45583333333334],[-120.77361111111111,35.37444444444444],[-120.6388888888889,35.29416666666666],[-120.50333333333333,35.213055555555556],[-120.36888888888888,35.13138888888889],[-120.23555555555555,35.051111111111105],[-120.09722222222221,34.967777777777776],[-119.99416666666667,34.90555555555555],[-119.83083333333333,34.80583333333333],[-119.70027777777779,34.725833333333334],[-119.5675,34.64388888888889],[-119.44305555555556,34.566944444444445],[-119.32416666666666,34.473333333333336],[-119.22777777777777,34.36083333333333],[-119.12472222222222,34.255833333333335],[-118.98111111111112,34.18333333333333],[-118.83444444444444,34.11666666666667],[-118.68972222222223,34.05083333333333],[-118.54166666666667,33.98277777777778],[-118.40194444444445,33.90888888888889],[-118.28,33.81527777777777],[-118.15861111111111,33.722500000000004],[-118.04027777777777,33.63194444444444],[-117.94916666666667,33.56222222222222],[-117.8436111111111,33.47277777777778],[-117.74055555555556,33.38],[-117.65,33.3],[-117.64555555555556,33.29055555555556],[-117.55305555555556,33.20333333333333],[-117.46638888888889,33.11638888888889],[-117.4,33.03333333333333],[-117.38138888888888,33.014722222222225],[-117.31666666666666,32.95],[-117.31694444444445,32.937777777777775],[-117.26027777777777,32.87],[-117.21666666666667,32.81666666666667],[-117.11666666666666,32.78333333333333],[-117.1111111111111,32.78916666666667],[-117.03333333333333,32.766666666666666],[-117.05,32.7],[-117.1,32.71666666666667],[-117.14916666666667,32.72361111111111],[-117.2,32.733333333333334],[-117.21361111111112,32.73972222222222],[-117.25,32.75],[-117.28388888888888,32.75472222222222],[-117.33333333333333,32.766666666666666],[-117.3625,32.754444444444445],[-117.35055555555554,32.68555555555555],[-117.26472222222222,32.64194444444444],[-117.15805555555556,32.62361111111111],[-117.03916666666666,32.64],[-116.91916666666667,32.66722222222222],[-116.78527777777778,32.67777777777778],[-116.70944444444444,32.76027777777778],[-116.65944444444445,32.862500000000004],[-116.60916666666667,32.96527777777778],[-116.56611111111111,33.05138888888889],[-116.50888888888889,33.159444444444446],[-116.44916666666667,33.27305555555555],[-116.38388888888889,33.38666666666666],[-116.26416666666667,33.47027777777778],[-116.13861111111112,33.54611111111111],[-116.01666666666667,33.62305555555555],[-115.90194444444445,33.71],[-115.78583333333333,33.79722222222222],[-115.67111111111112,33.88361111111111],[-115.55638888888889,33.96944444444445],[-115.32833333333333,34.13916666666667],[-115.21694444444445,34.221944444444446],[-114.98416666666667,34.39333333333333],[-114.86805555555554,34.47916666666667],[-114.75111111111111,34.56388888888888],[-114.63444444444445,34.649166666666666],[-114.51694444444445,34.73388888888889],[-114.38861111111112,34.80361111111111],[-114.08638888888889,34.93694444444444],[-113.95166666666667,34.99611111111111],[-113.82722222222222,35.05027777777777],[-113.69305555555556,35.10861111111111],[-113.55972222222222,35.16611111111111],[-113.42611111111111,35.223888888888894],[-113.29194444444444,35.28138888888889],[-113.14750000000001,35.34305555555556],[-113.01444444444445,35.39972222222222],[-112.985,35.41222222222222],[-112.84777777777778,35.47],[-112.76611111111112,35.504444444444445],[-112.71583333333334,35.52583333333333],[-112.6325,35.56111111111111],[-112.57972222222222,35.583333333333336],[-112.47361111111111,35.6275],[-112.44388888888889,35.64],[-112.33722222222222,35.68388888888889],[-112.30972222222222,35.695277777777775],[-112.20027777777779,35.740833333333335],[-112.17416666666666,35.751666666666665],[-112.06555555555555,35.79694444444444],[-112.03888888888889,35.80777777777777],[-111.90527777777778,35.86277777777778],[-111.66277777777778,35.96222222222222],[-111.63444444444445,35.97361111111111],[-111.49944444444445,36.02833333333333],[-111.39277777777778,36.07138888888889],[-111.36333333333333,36.083333333333336],[-111.23055555555555,36.13916666666667],[-111.12638888888888,36.186388888888885],[-111.09805555555555,36.19944444444444],[-110.99583333333334,36.245555555555555],[-110.96694444444445,36.25861111111111],[-110.835,36.31805555555556],[-110.70361111111112,36.376666666666665],[-110.54694444444445,36.44694444444444],[-110.415,36.50555555555555],[-110.28444444444445,36.56305555555555],[-110.15416666666667,36.62083333333334],[-110.0261111111111,36.676944444444445],[-109.8938888888889,36.734722222222224],[-109.76305555555555,36.79194444444444],[-109.63166666666666,36.848888888888894],[-109.50111111111111,36.905277777777776],[-109.36861111111111,36.962500000000006],[-109.23305555555555,37.02055555555555],[-109.09722222222221,37.078611111111115],[-108.96055555555556,37.13638888888889],[-108.82416666666666,37.19416666666666],[-108.6863888888889,37.2525],[-108.5775,37.29833333333333],[-108.44277777777778,37.35444444444445],[-108.30416666666666,37.4125],[-108.16722222222222,37.469166666666666],[-108.02916666666667,37.52638888888889],[-107.90111111111112,37.597500000000004],[-107.78194444444445,37.67583333333333],[-107.66166666666668,37.754444444444445],[-107.54194444444444,37.83222222222223],[-107.39555555555556,37.926944444444445],[-107.2713888888889,38.00694444444444],[-107.15111111111112,38.08444444444444],[-107.04722222222222,38.151111111111106],[-106.92305555555556,38.230555555555554],[-106.78055555555555,38.321111111111115],[-106.67777777777778,38.38611111111111],[-106.55777777777777,38.46194444444445],[-106.43916666666667,38.536944444444444],[-106.29333333333334,38.628055555555555],[-106.19638888888889,38.68861111111111],[-106.06277777777777,38.77166666666667],[-105.94388888888889,38.84527777777778],[-105.82888888888888,38.916666666666664],[-105.72722222222222,38.98305555555556],[-105.65,39.03333333333333],[-105.6261111111111,39.0475],[-105.53333333333333,39.1],[-105.52666666666667,39.11194444444445],[-105.42444444444445,39.177499999999995],[-105.33,39.236111111111114],[-105.26666666666667,39.28333333333333],[-105.23361111111112,39.28638888888889],[-105.15,39.3],[-105.11444444444444,39.300555555555555],[-105.03333333333333,39.31666666666667],[-105.01611111111112,39.312777777777775],[-104.92888888888889,39.328611111111115],[-104.83916666666666,39.335],[-104.76666666666667,39.333333333333336],[-104.70194444444445,39.36666666666667],[-104.68333333333334,39.4],[-104.68027777777779,39.41722222222222],[-104.66666666666667,39.46666666666667],[-104.66416666666667,39.468611111111116],[-104.66666666666667,39.516666666666666],[-104.66666666666667,39.56666666666667],[-104.66666666666667,39.61666666666667],[-104.66305555555556,39.6175],[-104.66666666666667,39.65],[-104.66250000000001,39.664722222222224],[-104.66666666666667,39.7],[-104.66194444444444,39.711666666666666],[-104.66666666666667,39.75],[-104.66666666666667,39.8],[-104.66083333333334,39.80444444444444],[-104.66027777777778,39.847500000000004],[-104.66222222222223,39.85805555555556]]}
}
