{
  "id": 2048408455,
  "type": "Feature",
  "properties": {
    "geom:area": 0,
    "geom:bbox": "-122.397930,37.625420,-121.601970,38.194450",
    "geom:latitude": 37.90509736529711,
    "geom:longitude": -122.0102656825603,
    "src:alt_label": "swim-takeoff",
    "src:geom": "swim",
    "swim:elevations": [
      152,
      810,
      998,
      1292,
      1603,
      2057,
      2282,
      2794,
      3115,
      3260,
      3629,
      3804,
      4041,
      4658,
      5183,
      5443,
      5951,
      6316,
      6724,
      6903
    ],
    "swim:geom": "takeoff",
    "swim:timestamps": [
      1790091226,
      1790091268,
      1790091283,
      1790091323,
      1790091352,
      1790091382,
      1790091401,
      1790091439,
      1790091464,
      1790091484,
      1790091538,
      1790091553,
      1790091573,
      1790091619,
      1790091644,
      1790091662,
      1790091702,
      1790091732,
      1790091775,
      1790091796
    ],
    "wof:geomhash": "c670958033e38fc59e9349968308cf53",
    "wof:id": 2048408455,
    "wof:repo": "sfomuseum-data-flights-2026-09"
  },
  "bbox": [
    -122.39793,
    37.62542,
    -121.60197,
    38.19445
  ],
  "geometry": {"type":"LineString","coordinates":[[-122.38511,37.62542],[-122.39793,37.65628],[-122.38293,37.66448],[-122.3297,37.6763],[-122.28808,37.69059],[-122.24242,37.70725],[-122.21604,37.71993],[-122.17569,37.7608],[-122.15023,37.78872],[-122.12852,37.81267],[-122.06161,37.88257],[-122.03772,37.90028],[-122.00519,37.92234],[-121.92562,37.9767],[-121.88277,38.00538],[-121.85034,38.0272],[-121.77878,38.07554],[-121.72304,38.11305],[-121.64241,38.16724],[-121.60197,38.19445]]}
}
