{
  "id": 2048444159,
  "type": "Feature",
  "properties": {
    "geom:area": 0,
    "geom:bbox": "-123.495190,37.628470,-122.392830,38.454220",
    "geom:latitude": 38.02841602807995,
    "geom:longitude": -122.95011771120672,
    "src:alt_label": "swim-takeoff",
    "src:geom": "swim",
    "swim:elevations": [
      122,
      340,
      704,
      1145,
      1342,
      1681,
      1956,
      2157,
      2488,
      2583,
      2945,
      3319,
      3349,
      3599,
      3728,
      4031,
      4148,
      4292,
      4553,
      4944,
      5173,
      5401,
      5605,
      5875,
      6114,
      6309,
      6736,
      6858,
      7010
    ],
    "swim:geom": "takeoff",
    "swim:timestamps": [
      1790420724,
      1790420738,
      1790420766,
      1790420816,
      1790420848,
      1790420878,
      1790420898,
      1790420913,
      1790420938,
      1790420945,
      1790420973,
      1790421022,
      1790421033,
      1790421072,
      1790421093,
      1790421139,
      1790421150,
      1790421166,
      1790421195,
      1790421238,
      1790421262,
      1790421289,
      1790421309,
      1790421339,
      1790421365,
      1790421397,
      1790421446,
      1790421469,
      1790421482
    ],
    "wof:geomhash": "180004aa8d297e76b74848e79ba79586",
    "wof:id": 2048444159,
    "wof:repo": "sfomuseum-data-flights-2026-09"
  },
  "bbox": [
    -123.49519,
    37.62847,
    -122.39283,
    38.45422
  ],
  "geometry": {"type":"LineString","coordinates":[[-122.39283,37.62847],[-122.40748,37.63414],[-122.43507,37.64566],[-122.48807,37.66796],[-122.52632,37.68773],[-122.56478,37.71056],[-122.59102,37.7259],[-122.61064,37.73757],[-122.64291,37.7567],[-122.65247,37.76239],[-122.69073,37.78476],[-122.75796,37.82703],[-122.77067,37.83968],[-122.81318,37.89352],[-122.83814,37.92273],[-122.89529,37.99055],[-122.90983,38.00792],[-122.93048,38.03258],[-122.97016,38.07705],[-123.04487,38.13041],[-123.08825,38.16062],[-123.13769,38.19504],[-123.17514,38.22161],[-123.22892,38.26013],[-123.27784,38.29519],[-123.33503,38.33672],[-123.42664,38.40417],[-123.46939,38.43594],[-123.49519,38.45422]]}
}
