{
  "id": 2048232739,
  "type": "Feature",
  "properties": {
    "geom:area": 0,
    "geom:bbox": "-122.361240,37.492470,-121.269860,37.615220",
    "geom:latitude": 37.57083378733501,
    "geom:longitude": -121.8146138743243,
    "src:alt_label": "swim-approach",
    "src:geom": "swim",
    "swim:elevations": [
      3011,
      2807,
      2641,
      2411,
      2194,
      2195,
      2032,
      1974,
      1884,
      1798,
      1584,
      1508,
      1271,
      1247,
      992,
      898,
      759,
      617,
      439,
      263,
      180,
      103,
      0,
      5077,
      4928,
      4497,
      4175,
      3773,
      3387,
      3292,
      3110,
      2959,
      2619,
      2559
    ],
    "swim:geom": "approach",
    "swim:timestamps": [
      1788332423,
      1788332448,
      1788332467,
      1788332517,
      1788332548,
      1788332551,
      1788332593,
      1788332605,
      1788332622,
      1788332640,
      1788332686,
      1788332701,
      1788332758,
      1788332767,
      1788332815,
      1788332834,
      1788332859,
      1788332887,
      1788332925,
      1788332967,
      1788332985,
      1788333009,
      1788333034,
      1788418496,
      1788418508,
      1788418546,
      1788418575,
      1788418609,
      1788418646,
      1788418668,
      1788418703,
      1788418724,
      1788418765,
      1788418775
    ],
    "wof:geomhash": "0b5720f81deb4ffe399c9c6ae2dccf10",
    "wof:id": 2048232739,
    "wof:repo": "sfomuseum-data-flights-2026-09"
  },
  "bbox": [
    -122.36124,
    37.49247,
    -121.26986,
    37.61522
  ],
  "geometry": {"type":"LineString","coordinates":[[-121.66329,37.54167],[-121.70114,37.53263],[-121.72896,37.52586],[-121.802,37.50833],[-121.84442,37.49828],[-121.8485,37.49728],[-121.90454,37.49247],[-121.92046,37.49342],[-121.94332,37.49459],[-121.96669,37.49587],[-122.02428,37.49938],[-122.04272,37.50051],[-122.11118,37.50977],[-122.12121,37.51392],[-122.17208,37.53586],[-122.1906,37.54355],[-122.21635,37.55438],[-122.24446,37.56619],[-122.27822,37.58034],[-122.30995,37.59374],[-122.32415,37.59976],[-122.34206,37.60722],[-122.36124,37.61522],[-121.26986,37.59178],[-121.29391,37.58885],[-121.36455,37.5812],[-121.4207,37.57473],[-121.48347,37.56728],[-121.55061,37.55957],[-121.59067,37.55484],[-121.64604,37.54568],[-121.67726,37.53827],[-121.73918,37.52349],[-121.75408,37.5199]]}
}
