{
  "id": 2048326743,
  "type": "Feature",
  "properties": {
    "geom:area": 0,
    "geom:bbox": "-122.743180,37.427830,-122.102490,38.140810",
    "geom:latitude": 37.68579607974593,
    "geom:longitude": -122.41276697309756,
    "src:alt_label": "swim-approach",
    "src:geom": "swim",
    "swim:elevations": [
      5407,
      5135,
      4940,
      4881,
      4537,
      4209,
      3925,
      3664,
      3457,
      3406,
      3353,
      3353,
      3353,
      3265,
      3054,
      2946,
      2761,
      2565,
      2509,
      2460,
      2294,
      2126,
      1772,
      1643,
      1465,
      1243,
      1226,
      918,
      698,
      636,
      464,
      365,
      294,
      183,
      123,
      201
    ],
    "swim:geom": "approach",
    "swim:timestamps": [
      1789328517,
      1789328548,
      1789328576,
      1789328583,
      1789328622,
      1789328664,
      1789328691,
      1789328716,
      1789328746,
      1789328765,
      1789328810,
      1789328840,
      1789328854,
      1789328894,
      1789328932,
      1789328958,
      1789328992,
      1789329024,
      1789329033,
      1789329045,
      1789329072,
      1789329100,
      1789329145,
      1789329175,
      1789329203,
      1789329238,
      1789329241,
      1789329291,
      1789329326,
      1789329342,
      1789329383,
      1789329408,
      1789329432,
      1789329471,
      1789329489,
      1789329524
    ],
    "wof:geomhash": "0c0eda529b9bd5a325b63ea83890f74a",
    "wof:id": 2048326743,
    "wof:repo": "sfomuseum-data-flights-2026-09"
  },
  "bbox": [
    -122.74318,
    37.42783,
    -122.10249,
    38.14081
  ],
  "geometry": {"type":"LineString","coordinates":[[-122.74318,38.14081],[-122.72756,38.08752],[-122.71394,38.04045],[-122.71055,38.02853],[-122.69131,37.96296],[-122.6637,37.89433],[-122.62751,37.85613],[-122.59278,37.82322],[-122.55074,37.78385],[-122.52557,37.76021],[-122.47103,37.7088],[-122.43963,37.67924],[-122.42396,37.66448],[-122.38189,37.62483],[-122.34931,37.58185],[-122.33453,37.55198],[-122.31119,37.51245],[-122.27868,37.48401],[-122.26895,37.47622],[-122.25616,37.46584],[-122.22735,37.44231],[-122.19252,37.42783],[-122.13389,37.44319],[-122.10393,37.46397],[-122.10249,37.49088],[-122.13362,37.51626],[-122.13682,37.51784],[-122.18691,37.53967],[-122.21845,37.55249],[-122.23331,37.55875],[-122.26782,37.57353],[-122.28563,37.58109],[-122.3017,37.58801],[-122.32647,37.5983],[-122.33786,37.60312],[-122.36105,37.61271]]}
}
