{
  "id": 2048321991,
  "type": "Feature",
  "properties": {
    "geom:area": 0,
    "geom:bbox": "-122.408670,37.625000,-121.428450,38.516310",
    "geom:latitude": 38.080303786461236,
    "geom:longitude": -121.95687225105418,
    "src:alt_label": "swim-takeoff",
    "src:geom": "swim",
    "swim:elevations": [
      183,
      876,
      1042,
      1281,
      1848,
      2604,
      3070,
      3416,
      3624,
      4049,
      4395,
      4912,
      5025,
      5527,
      5814,
      6120,
      6332,
      6526,
      6953,
      7237,
      7445,
      7840,
      7955,
      8202,
      8422
    ],
    "swim:geom": "takeoff",
    "swim:timestamps": [
      1789218198,
      1789218230,
      1789218242,
      1789218271,
      1789218310,
      1789218357,
      1789218386,
      1789218410,
      1789218437,
      1789218469,
      1789218497,
      1789218538,
      1789218549,
      1789218592,
      1789218624,
      1789218657,
      1789218676,
      1789218694,
      1789218733,
      1789218765,
      1789218790,
      1789218833,
      1789218845,
      1789218874,
      1789218904
    ],
    "wof:geomhash": "641180965dc479c0655827dffe94aea7",
    "wof:id": 2048321991,
    "wof:repo": "sfomuseum-data-flights-2026-09"
  },
  "bbox": [
    -122.40867,
    37.625,
    -121.42845,
    38.51631
  ],
  "geometry": {"type":"LineString","coordinates":[[-122.39003,37.625],[-122.40867,37.6471],[-122.40235,37.65782],[-122.36549,37.67002],[-122.30418,37.68502],[-122.23405,37.71735],[-122.21818,37.75508],[-122.21317,37.7899],[-122.20647,37.83236],[-122.19717,37.88464],[-122.18351,37.93041],[-122.1233,37.98636],[-122.10565,37.99976],[-122.03276,38.05736],[-121.97954,38.10042],[-121.92019,38.14852],[-121.88505,38.1768],[-121.85168,38.20365],[-121.77978,38.26137],[-121.71994,38.30938],[-121.67233,38.34749],[-121.58649,38.4162],[-121.5635,38.43413],[-121.49758,38.47537],[-121.42845,38.51631]]}
}
