{
  "id": 2048372525,
  "type": "Feature",
  "properties": {
    "geom:area": 0,
    "geom:bbox": "-122.550460,36.729330,-121.451190,37.668530",
    "geom:latitude": 37.215905170428634,
    "geom:longitude": -122.07447496362967,
    "src:alt_label": "swim-takeoff",
    "src:geom": "swim",
    "swim:elevations": [
      152,
      297,
      499,
      704,
      1096,
      1481,
      1595,
      2205,
      2433,
      2976,
      3195,
      3583,
      3985,
      4168,
      4507,
      4764,
      5099,
      5230,
      5427,
      5798,
      6266,
      6563,
      6696,
      7043,
      7195,
      7540,
      7683,
      7791,
      7866,
      8221,
      8436,
      8483
    ],
    "swim:geom": "takeoff",
    "swim:timestamps": [
      1789758985,
      1789758994,
      1789759023,
      1789759053,
      1789759088,
      1789759138,
      1789759150,
      1789759197,
      1789759218,
      1789759258,
      1789759277,
      1789759309,
      1789759342,
      1789759358,
      1789759396,
      1789759429,
      1789759463,
      1789759477,
      1789759500,
      1789759537,
      1789759579,
      1789759611,
      1789759628,
      1789759673,
      1789759689,
      1789759732,
      1789759752,
      1789759766,
      1789759775,
      1789759827,
      1789759855,
      1789759861
    ],
    "wof:geomhash": "42dbbc540c572045b741dbcb93a05a2f",
    "wof:id": 2048372525,
    "wof:repo": "sfomuseum-data-flights-2026-09"
  },
  "bbox": [
    -122.55046,
    36.72933,
    -121.45119,
    37.66853
  ],
  "geometry": {"type":"LineString","coordinates":[[-122.39003,37.62508],[-122.39797,37.6285],[-122.42257,37.6392],[-122.4548,37.6533],[-122.49529,37.66853],[-122.55046,37.63595],[-122.54876,37.62],[-122.51617,37.56214],[-122.50082,37.53652],[-122.46759,37.48644],[-122.44405,37.46724],[-122.40249,37.43669],[-122.35832,37.40435],[-122.33571,37.38775],[-122.28172,37.34813],[-122.23129,37.31066],[-122.17541,37.26934],[-122.15326,37.25301],[-122.11353,37.22364],[-122.05032,37.17665],[-121.97901,37.12373],[-121.9237,37.0826],[-121.89325,37.05986],[-121.81325,37.00007],[-121.78249,36.9771],[-121.70394,36.91817],[-121.66315,36.88904],[-121.63626,36.86968],[-121.61858,36.85585],[-121.51888,36.78069],[-121.46324,36.73845],[-121.45119,36.72933]]}
}
