{
  "id": 2048292499,
  "type": "Feature",
  "properties": {
    "geom:area": 0,
    "geom:bbox": "-122.659540,37.503570,-121.804290,38.504350",
    "geom:latitude": 37.97131616458226,
    "geom:longitude": -122.32171433753312,
    "src:alt_label": "swim-approach",
    "src:geom": "swim",
    "swim:elevations": [
      9649,
      9137,
      8798,
      8449,
      8237,
      7669,
      7545,
      7142,
      6806,
      6372,
      6039,
      5545,
      5375,
      4971,
      4703,
      4360,
      4298,
      4238,
      4029,
      3729,
      3473,
      3432,
      3353,
      3353,
      3353,
      3138,
      2929,
      1219,
      1137,
      844,
      830,
      809,
      429,
      0
    ],
    "swim:geom": "approach",
    "swim:timestamps": [
      1788998177,
      1788998216,
      1788998243,
      1788998273,
      1788998288,
      1788998335,
      1788998347,
      1788998380,
      1788998407,
      1788998443,
      1788998472,
      1788998513,
      1788998528,
      1788998564,
      1788998589,
      1788998627,
      1788998647,
      1788998667,
      1788998688,
      1788998721,
      1788998754,
      1788998766,
      1788998811,
      1788998831,
      1788998857,
      1788998905,
      1788998929,
      1788999254,
      1788999272,
      1788999317,
      1788999320,
      1788999323,
      1788999404,
      1788999524
    ],
    "wof:geomhash": "e002ce7b01f63f69dc3a6e1bfa51dd00",
    "wof:id": 2048292499,
    "wof:repo": "sfomuseum-data-flights-2026-09"
  },
  "bbox": [
    -122.65954,
    37.50357,
    -121.80429,
    38.50435
  ],
  "geometry": {"type":"LineString","coordinates":[[-121.80429,38.50435],[-121.89494,38.45996],[-121.95629,38.42917],[-122.02472,38.39412],[-122.05796,38.37738],[-122.16105,38.32546],[-122.18632,38.31193],[-122.25684,38.27637],[-122.31356,38.24761],[-122.38821,38.20978],[-122.44602,38.18035],[-122.52945,38.13794],[-122.5581,38.12234],[-122.60686,38.06901],[-122.62389,38.0274],[-122.64892,37.96276],[-122.65954,37.9289],[-122.65726,37.89717],[-122.63914,37.86719],[-122.59704,37.82639],[-122.55429,37.78706],[-122.53895,37.77288],[-122.48507,37.72224],[-122.46311,37.70156],[-122.4344,37.67454],[-122.38166,37.62462],[-122.3569,37.59833],[-122.13442,37.50357],[-122.14822,37.51868],[-122.19472,37.54495],[-122.19769,37.54623],[-122.20069,37.54752],[-122.27305,37.5782],[-122.36172,37.61525]]}
}
