{
  "id": 2048453147,
  "type": "Feature",
  "properties": {
    "geom:area": 0,
    "geom:bbox": "-120.233333,35.995000,-74.162778,41.950833",
    "geom:latitude": 39.80372189286112,
    "geom:longitude": -97.75467120404122,
    "src:alt_label": "swim-path",
    "src:geom": "swim",
    "swim:altitudes": [
      "310C",
      "310C",
      "310C",
      "310C",
      "310C",
      "310C",
      "310C",
      "310C",
      "310C",
      "310C",
      "310C",
      "310C",
      "310C",
      "310C",
      "310C",
      "310C",
      "310C",
      "310C",
      "310C",
      "310C",
      "310",
      "303",
      "293",
      "283",
      "273",
      "263",
      "252",
      "243",
      "232",
      "224",
      "222",
      "216",
      "212",
      "205",
      "202",
      "193",
      "190",
      "190",
      "189",
      "178",
      "172",
      "163",
      "158",
      "150",
      "147",
      "141",
      "136",
      "124",
      "119",
      "111",
      "106",
      "100",
      "098",
      "094",
      "092",
      "084",
      "081",
      "075",
      "070",
      "059",
      "053",
      "049",
      "044",
      "035",
      "033",
      "027",
      "025",
      "020",
      "042",
      "049",
      "067",
      "073",
      "088",
      "095",
      "111",
      "112",
      "128",
      "131",
      "155",
      "154",
      "173",
      "182",
      "195",
      "211",
      "220",
      "229",
      "241",
      "255",
      "266",
      "270",
      "272",
      "278",
      "280",
      "292",
      "293",
      "300",
      "310",
      "310",
      "323",
      "323",
      "330",
      "347",
      "350C",
      "350C",
      "350C",
      "350C",
      "350C",
      "350",
      "353",
      "360C",
      "360C",
      "360C",
      "360C",
      "360C",
      "360C",
      "360C",
      "360C",
      "360C",
      "360C",
      "360C",
      "360C",
      "360C",
      "360C",
      "360C",
      "360C",
      "360C",
      "360C",
      "360C",
      "360C",
      "360C",
      "360C",
      "360C",
      "360C",
      "360C",
      "360C",
      "360C",
      "360C",
      "360C",
      "360C",
      "360C",
      "360C",
      "360C",
      "360C",
      "360C",
      "360C",
      "360C",
      "360C",
      "360C",
      "360C",
      "360C",
      "360C",
      "360C",
      "360C",
      "360C",
      "360C",
      "360C",
      "360C",
      "360C",
      "360C",
      "360C",
      "360C",
      "360C",
      "360C",
      "360C",
      "360C",
      "360C",
      "360C",
      "361",
      "363",
      "368C",
      "370C",
      "370C",
      "370C",
      "370C",
      "370C",
      "370C",
      "370C",
      "370C",
      "370C",
      "370C",
      "370C",
      "370C",
      "370C",
      "370C",
      "370C",
      "370C",
      "370C",
      "370C",
      "370C",
      "370C",
      "370C",
      "370C",
      "370C",
      "370C",
      "370C",
      "370C",
      "370C",
      "370C",
      "370C",
      "370C",
      "370C",
      "370C",
      "370C",
      "370C",
      "370C",
      "370C",
      "370C",
      "370C",
      "370C",
      "370C",
      "370C",
      "370C",
      "370C",
      "370C",
      "370C",
      "370C",
      "370C",
      "370C",
      "370C",
      "370C",
      "370C",
      "370C",
      "370C",
      "370C",
      "370C",
      "370C",
      "370C",
      "370C",
      "370C",
      "370C",
      "370C",
      "370C",
      "370C",
      "370C",
      "370C",
      "370C",
      "370C",
      "370C",
      "370C",
      "370C",
      "370C",
      "370C",
      "370C",
      "370C",
      "370C",
      "370C",
      "370C",
      "370C",
      "370C",
      "370C",
      "370C",
      "370C",
      "370C",
      "370C",
      "370C",
      "370C",
      "370C",
      "370C",
      "370C",
      "370C",
      "370C",
      "370C",
      "370C",
      "370C",
      "370C",
      "370C",
      "370C",
      "370C",
      "370C",
      "370C",
      "370C",
      "370C",
      "370C",
      "370C",
      "370C",
      "370C",
      "370C",
      "370C",
      "370C",
      "370C",
      "370C",
      "370C",
      "370C",
      "370C",
      "370C",
      "370C",
      "370C",
      "370C",
      "370C",
      "370C",
      "370C",
      "370C",
      "370C",
      "370C",
      "370C",
      "370C",
      "370C",
      "370C",
      "370C",
      "370C",
      "370C",
      "370C",
      "370C",
      "370C",
      "370C",
      "370C",
      "370C",
      "370C",
      "370C",
      "370C",
      "370C",
      "370C",
      "370C",
      "370C",
      "370C",
      "370C",
      "370C",
      "370C",
      "370C",
      "370C",
      "370C",
      "370C",
      "370C",
      "370C",
      "370C",
      "370C",
      "370C",
      "370C",
      "370C",
      "370C",
      "370C",
      "370C",
      "370C",
      "370C",
      "370C",
      "370C",
      "370C",
      "370C",
      "370C",
      "370C",
      "370C",
      "370",
      "370",
      "370",
      "370",
      "370",
      "370",
      "370",
      "370",
      "364",
      "360",
      "339",
      "333",
      "330C",
      "330C",
      "330",
      "330",
      "330",
      "330",
      "324",
      "314",
      "312",
      "305",
      "301",
      "295",
      "291",
      "284",
      "276",
      "263",
      "256",
      "234",
      "219",
      "211",
      "190",
      "184",
      "161",
      "139",
      "130C",
      "130",
      "109",
      "101",
      "087",
      "081",
      "071C",
      "066",
      "058",
      "054",
      "051",
      "050",
      "050",
      "050",
      "050",
      "050",
      "050",
      "050",
      "050",
      "050",
      "050",
      "049",
      "041",
      "036",
      "030",
      "030",
      "030",
      "030",
      "030",
      "030",
      "030",
      "026",
      "021",
      "018",
      "013",
      "011",
      "005",
      "004",
      "70"
    ],
    "swim:geom": "path",
    "swim:speeds": [
      487,
      494,
      523,
      523,
      523,
      522,
      522,
      522,
      504,
      494,
      476,
      418,
      418,
      421,
      421,
      425,
      425,
      410,
      400,
      397,
      395,
      374,
      372,
      373,
      367,
      365,
      361,
      366,
      366,
      356,
      360,
      356,
      357,
      344,
      348,
      341,
      343,
      335,
      338,
      333,
      336,
      332,
      331,
      309,
      299,
      272,
      261,
      251,
      254,
      268,
      264,
      258,
      262,
      254,
      256,
      242,
      237,
      220,
      224,
      219,
      223,
      190,
      187,
      173,
      175,
      157,
      159,
      141,
      237,
      232,
      267,
      272,
      298,
      298,
      317,
      324,
      358,
      357,
      368,
      365,
      376,
      419,
      440,
      452,
      475,
      497,
      508,
      510,
      508,
      511,
      515,
      528,
      532,
      532,
      528,
      530,
      534,
      533,
      534,
      533,
      532,
      543,
      548,
      549,
      550,
      550,
      550,
      538,
      538,
      540,
      540,
      541,
      540,
      539,
      539,
      537,
      536,
      535,
      536,
      537,
      538,
      538,
      538,
      538,
      538,
      536,
      534,
      532,
      530,
      528,
      526,
      525,
      523,
      520,
      514,
      511,
      512,
      512,
      511,
      510,
      509,
      507,
      507,
      507,
      507,
      507,
      505,
      503,
      501,
      498,
      497,
      498,
      499,
      500,
      501,
      502,
      504,
      505,
      507,
      507,
      507,
      507,
      506,
      506,
      509,
      510,
      510,
      512,
      512,
      515,
      516,
      513,
      509,
      509,
      508,
      508,
      507,
      506,
      506,
      504,
      503,
      501,
      500,
      500,
      499,
      500,
      499,
      499,
      499,
      498,
      497,
      496,
      495,
      494,
      494,
      494,
      493,
      493,
      493,
      493,
      492,
      491,
      489,
      485,
      479,
      475,
      477,
      475,
      475,
      473,
      473,
      472,
      472,
      471,
      472,
      471,
      472,
      472,
      472,
      473,
      473,
      473,
      474,
      474,
      475,
      475,
      475,
      475,
      474,
      474,
      472,
      472,
      471,
      471,
      470,
      470,
      468,
      468,
      468,
      467,
      468,
      466,
      467,
      465,
      467,
      465,
      466,
      465,
      466,
      465,
      466,
      465,
      466,
      465,
      465,
      465,
      466,
      467,
      468,
      468,
      468,
      468,
      467,
      466,
      465,
      464,
      464,
      464,
      464,
      464,
      465,
      465,
      466,
      466,
      466,
      458,
      464,
      462,
      461,
      460,
      459,
      459,
      458,
      457,
      457,
      457,
      457,
      458,
      458,
      457,
      456,
      455,
      453,
      451,
      450,
      449,
      448,
      447,
      448,
      449,
      451,
      451,
      452,
      452,
      453,
      454,
      453,
      453,
      453,
      453,
      453,
      453,
      453,
      454,
      454,
      454,
      454,
      455,
      454,
      455,
      454,
      456,
      455,
      456,
      455,
      455,
      455,
      455,
      455,
      454,
      454,
      454,
      455,
      454,
      453,
      453,
      453,
      452,
      452,
      452,
      452,
      452,
      452,
      453,
      453,
      454,
      455,
      456,
      457,
      457,
      456,
      454,
      454,
      456,
      457,
      459,
      460,
      461,
      461,
      462,
      464,
      465,
      466,
      466,
      466,
      466,
      466,
      464,
      451,
      445,
      428,
      420,
      416,
      407,
      401,
      392,
      385,
      365,
      362,
      361,
      323,
      300,
      290,
      291,
      277,
      274,
      277,
      269,
      272,
      270,
      271,
      274,
      272,
      236,
      239,
      236,
      238,
      240,
      238,
      233,
      216,
      202,
      198,
      197,
      199,
      209,
      205,
      177,
      178,
      162,
      157,
      130,
      133,
      131,
      133,
      134
    ],
    "swim:timestamps": [
      1790570999,
      1790571120,
      1790571180,
      1790571300,
      1790571360,
      1790571420,
      1790571480,
      1790571540,
      1790571600,
      1790571780,
      1790571840,
      1790571900,
      1790571960,
      1790572020,
      1790572080,
      1790572141,
      1790572201,
      1790572261,
      1790572321,
      1790572381,
      1790572441,
      1790572501,
      1790572561,
      1790572621,
      1790572681,
      1790572742,
      1790572801,
      1790572861,
      1790572922,
      1790572973,
      1790572982,
      1790573021,
      1790573042,
      1790573081,
      1790573102,
      1790573141,
      1790573162,
      1790573201,
      1790573222,
      1790573261,
      1790573282,
      1790573321,
      1790573342,
      1790573382,
      1790573403,
      1790573442,
      1790573463,
      1790573502,
      1790573523,
      1790573562,
      1790573583,
      1790573622,
      1790573643,
      1790573682,
      1790573703,
      1790573742,
      1790573763,
      1790573802,
      1790573823,
      1790573862,
      1790573883,
      1790573922,
      1790573944,
      1790573983,
      1790574004,
      1790574049,
      1790574064,
      1790574124,
      1790579691,
      1790579709,
      1790579751,
      1790579770,
      1790579812,
      1790579831,
      1790579870,
      1790579891,
      1790579939,
      1790579951,
      1790580002,
      1790580011,
      1790580071,
      1790580129,
      1790580189,
      1790580249,
      1790580310,
      1790580371,
      1790580431,
      1790580490,
      1790580551,
      1790580603,
      1790580611,
      1790580663,
      1790580671,
      1790580723,
      1790580731,
      1790580791,
      1790580843,
      1790580849,
      1790580903,
      1790580911,
      1790580971,
      1790581151,
      1790581332,
      1790581384,
      1790581444,
      1790581504,
      1790581564,
      1790581624,
      1790581684,
      1790581744,
      1790581804,
      1790581864,
      1790581924,
      1790581984,
      1790582044,
      1790582104,
      1790582164,
      1790582224,
      1790582284,
      1790582344,
      1790582404,
      1790582464,
      1790582524,
      1790582585,
      1790582645,
      1790582705,
      1790582765,
      1790582825,
      1790582885,
      1790582945,
      1790583005,
      1790583065,
      1790583125,
      1790583185,
      1790583245,
      1790583305,
      1790583365,
      1790583425,
      1790583485,
      1790583545,
      1790583605,
      1790583665,
      1790583725,
      1790583785,
      1790583845,
      1790583905,
      1790583965,
      1790584025,
      1790584085,
      1790584145,
      1790584206,
      1790584266,
      1790584326,
      1790584386,
      1790584446,
      1790584506,
      1790584566,
      1790584626,
      1790584686,
      1790584746,
      1790584806,
      1790584866,
      1790584926,
      1790584986,
      1790585046,
      1790585054,
      1790585106,
      1790585166,
      1790585174,
      1790585226,
      1790585234,
      1790585286,
      1790585346,
      1790585354,
      1790585406,
      1790585414,
      1790585466,
      1790585526,
      1790585534,
      1790585586,
      1790585594,
      1790585654,
      1790585706,
      1790585714,
      1790585766,
      1790585774,
      1790585834,
      1790585895,
      1790585955,
      1790586015,
      1790586075,
      1790586135,
      1790586195,
      1790586255,
      1790586315,
      1790586375,
      1790586435,
      1790586495,
      1790586555,
      1790586615,
      1790586675,
      1790586735,
      1790586795,
      1790586855,
      1790586975,
      1790586990,
      1790587035,
      1790587050,
      1790587095,
      1790587110,
      1790587155,
      1790587173,
      1790587215,
      1790587230,
      1790587275,
      1790587291,
      1790587335,
      1790587353,
      1790587395,
      1790587411,
      1790587455,
      1790587473,
      1790587515,
      1790587530,
      1790587575,
      1790587591,
      1790587635,
      1790587652,
      1790587695,
      1790587712,
      1790587755,
      1790587772,
      1790587816,
      1790587832,
      1790587876,
      1790587893,
      1790587936,
      1790587950,
      1790587996,
      1790588013,
      1790588056,
      1790588070,
      1790588116,
      1790588133,
      1790588176,
      1790588190,
      1790588236,
      1790588250,
      1790588296,
      1790588313,
      1790588356,
      1790588370,
      1790588416,
      1790588433,
      1790588493,
      1790588552,
      1790588613,
      1790588673,
      1790588731,
      1790588791,
      1790588851,
      1790588913,
      1790588974,
      1790589031,
      1790589092,
      1790589152,
      1790589211,
      1790589271,
      1790589334,
      1790589393,
      1790589451,
      1790589511,
      1790589572,
      1790589632,
      1790589693,
      1790589751,
      1790589812,
      1790589872,
      1790589931,
      1790589991,
      1790590054,
      1790590114,
      1790590174,
      1790590234,
      1790590292,
      1790590352,
      1790590412,
      1790590474,
      1790590534,
      1790590594,
      1790590654,
      1790590714,
      1790590774,
      1790590832,
      1790590892,
      1790590952,
      1790591012,
      1790591072,
      1790591132,
      1790591192,
      1790591252,
      1790591312,
      1790591372,
      1790591432,
      1790591493,
      1790591553,
      1790591573,
      1790591613,
      1790591633,
      1790591673,
      1790591693,
      1790591733,
      1790591753,
      1790591793,
      1790591814,
      1790591853,
      1790591874,
      1790591913,
      1790591934,
      1790591973,
      1790591994,
      1790592033,
      1790592054,
      1790592093,
      1790592114,
      1790592154,
      1790592174,
      1790592214,
      1790592234,
      1790592274,
      1790592294,
      1790592334,
      1790592354,
      1790592394,
      1790592414,
      1790592454,
      1790592474,
      1790592514,
      1790592534,
      1790592574,
      1790592595,
      1790592634,
      1790592655,
      1790592694,
      1790592715,
      1790592754,
      1790592775,
      1790592814,
      1790592835,
      1790592875,
      1790592895,
      1790592935,
      1790592955,
      1790592995,
      1790593015,
      1790593055,
      1790593075,
      1790593115,
      1790593135,
      1790593175,
      1790593235,
      1790593255,
      1790593295,
      1790593315,
      1790593355,
      1790593376,
      1790593415,
      1790593436,
      1790593475,
      1790593496,
      1790593556,
      1790593596,
      1790593616,
      1790593676,
      1790593736,
      1790593796,
      1790593856,
      1790593916,
      1790593976,
      1790594036,
      1790594097,
      1790594157,
      1790594181,
      1790594217,
      1790594247,
      1790594307,
      1790594337,
      1790594368,
      1790594397,
      1790594427,
      1790594457,
      1790594487,
      1790594517,
      1790594553,
      1790594577,
      1790594607,
      1790594637,
      1790594667,
      1790594697,
      1790594727,
      1790594757,
      1790594788,
      1790594818,
      1790594848,
      1790594878,
      1790594913,
      1790594938,
      1790594973,
      1790594998,
      1790595033,
      1790595058,
      1790595093,
      1790595118,
      1790595159,
      1790595178,
      1790595238
    ],
    "wof:geomhash": "856e4723f9f2f49ad167aaea9a91e4b3",
    "wof:id": 2048453147,
    "wof:repo": "sfomuseum-data-flights-2026-09"
  },
  "bbox": [
    -120.23333333333333,
    35.995,
    -74.16277777777778,
    41.950833333333335
  ],
  "geometry": {"type":"LineString","coordinates":[[-120.23333333333333,36.974722222222226],[-119.92083333333333,36.910555555555554],[-119.74805555555555,36.94638888888888],[-119.41083333333334,37.05555555555555],[-119.24305555555556,37.109722222222224],[-119.07472222222222,37.163888888888884],[-118.90444444444445,37.21805555555556],[-118.73388888888888,37.26888888888889],[-118.58638888888889,37.34027777777778],[-118.28777777777778,37.67666666666666],[-118.14861111111112,37.74861111111111],[-118.00694444444444,37.713055555555556],[-117.87972222222221,37.657222222222224],[-117.75,37.599444444444444],[-117.6236111111111,37.54277777777778],[-117.49444444444444,37.485],[-117.36388888888888,37.42583333333333],[-117.24333333333334,37.36527777777778],[-117.13944444444445,37.29111111111111],[-117.03722222222223,37.217222222222226],[-116.9363888888889,37.14472222222222],[-116.84666666666666,37.06722222222223],[-116.77388888888889,36.98222222222223],[-116.70055555555555,36.89694444444444],[-116.62916666666666,36.81361111111111],[-116.55805555555555,36.730000000000004],[-116.48361111111112,36.6475],[-116.39111111111112,36.58027777777778],[-116.28083333333333,36.50222222222222],[-116.20583333333333,36.44888888888889],[-116.19444444444444,36.44083333333333],[-116.13138888888888,36.39555555555555],[-116.10194444444444,36.375],[-116.0411111111111,36.33111111111111],[-116.0125,36.31111111111111],[-115.95361111111112,36.26722222222222],[-115.92527777777778,36.24861111111111],[-115.86222222222221,36.20888888888889],[-115.8275,36.18722222222222],[-115.77361111111111,36.15083333333333],[-115.73361111111112,36.13388888888889],[-115.66722222222222,36.11333333333334],[-115.6286111111111,36.100833333333334],[-115.56472222222222,36.080555555555556],[-115.52972222222222,36.07083333333334],[-115.47416666666666,36.053888888888885],[-115.44305555555556,36.04361111111111],[-115.3913888888889,36.02833333333333],[-115.36194444444443,36.019444444444446],[-115.30361111111111,36.0125],[-115.2725,36.01222222222222],[-115.21555555555555,36.009166666666665],[-115.18416666666667,36.007777777777775],[-115.12777777777777,36.00388888888889],[-115.09833333333333,36.00361111111111],[-115.04222222222222,36.00083333333333],[-115.01555555555555,35.99888888888889],[-114.965,35.995],[-114.93972222222223,35.99638888888889],[-114.91944444444445,36.0325],[-114.92361111111111,36.051111111111105],[-114.96555555555555,36.06944444444445],[-114.9825,36.07194444444445],[-115.025,36.072500000000005],[-115.0411111111111,36.07333333333334],[-115.085,36.07361111111111],[-115.09722222222221,36.07361111111111],[-115.14166666666668,36.07361111111111],[-115.23611111111111,36.07611111111112],[-115.25555555555556,36.077222222222225],[-115.295,36.11527777777778],[-115.295,36.13777777777778],[-115.24861111111112,36.17805555555555],[-115.22,36.18583333333333],[-115.14722222222223,36.19611111111111],[-115.12166666666666,36.19583333333333],[-115.01638888888888,36.19444444444444],[-114.99916666666667,36.19611111111111],[-114.87972222222221,36.19611111111111],[-114.88083333333333,36.19583333333333],[-114.75083333333333,36.19611111111111],[-114.6125,36.19555555555555],[-114.46333333333334,36.195277777777775],[-114.30583333333333,36.19444444444444],[-114.14666666666668,36.205555555555556],[-113.98055555555555,36.22527777777778],[-113.80555555555556,36.24583333333334],[-113.63138888888888,36.26611111111111],[-113.46027777777778,36.285555555555554],[-113.31444444444445,36.30333333333333],[-113.28388888888888,36.30583333333333],[-113.14,36.34388888888889],[-113.10222222222221,36.35583333333334],[-112.97222222222223,36.401666666666664],[-112.9363888888889,36.413888888888884],[-112.77055555555556,36.47166666666667],[-112.60083333333333,36.53055555555555],[-112.60222222222221,36.53],[-112.43222222222222,36.58888888888889],[-112.43111111111112,36.58916666666667],[-112.26472222222222,36.64666666666667],[-111.7525,36.82083333333334],[-111.23166666666667,37.00833333333333],[-111.05416666666666,37.07166666666667],[-110.88111111111111,37.13361111111111],[-110.70555555555556,37.19611111111111],[-110.53166666666667,37.25805555555556],[-110.35916666666667,37.31888888888889],[-110.18083333333334,37.36027777777778],[-109.99555555555555,37.38861111111111],[-109.81138888888889,37.41638888888889],[-109.62916666666666,37.46083333333333],[-109.45222222222222,37.51],[-109.27305555555556,37.559444444444445],[-109.09472222222222,37.60805555555556],[-108.92111111111112,37.663888888888884],[-108.75472222222223,37.73111111111111],[-108.58666666666666,37.79722222222222],[-108.41527777777779,37.86388888888889],[-108.24722222222222,37.92916666666667],[-108.07638888888889,37.99583333333334],[-107.90666666666667,38.06111111111111],[-107.7363888888889,38.126666666666665],[-107.56611111111111,38.19166666666666],[-107.39555555555556,38.256388888888885],[-107.22694444444444,38.32],[-107.07638888888889,38.376666666666665],[-106.91083333333334,38.43861111111111],[-106.74083333333333,38.50138888888889],[-106.57277777777777,38.56388888888888],[-106.40527777777778,38.62555555555556],[-106.23694444444445,38.68694444444444],[-106.05361111111111,38.75333333333333],[-105.8863888888889,38.81388888888888],[-105.72083333333333,38.873333333333335],[-105.5586111111111,38.93138888888889],[-105.39083333333333,38.990833333333335],[-105.22638888888889,39.049166666666665],[-105.06027777777777,39.106944444444444],[-104.89583333333334,39.16444444444444],[-104.73194444444445,39.22138888888889],[-104.56944444444444,39.277499999999996],[-104.4038888888889,39.33444444444444],[-104.24111111111111,39.38972222222222],[-104.07333333333332,39.446666666666665],[-103.91000000000001,39.501666666666665],[-103.74472222222222,39.55722222222222],[-103.57888888888888,39.612500000000004],[-103.41527777777779,39.666666666666664],[-103.25083333333333,39.721111111111114],[-103.08611111111111,39.775],[-102.92083333333333,39.828611111111115],[-102.755,39.882222222222225],[-102.58027777777778,39.93861111111111],[-102.41166666666668,39.9925],[-102.24277777777777,40.046388888888885],[-102.07305555555556,40.099722222222226],[-101.90472222222223,40.15277777777778],[-101.73333333333333,40.20611111111111],[-101.56388888888888,40.25861111111111],[-101.39361111111111,40.31111111111111],[-101.22222222222223,40.36361111111111],[-101.05277777777778,40.415],[-100.87944444444443,40.461111111111116],[-100.69861111111112,40.49],[-100.66944444444445,40.49861111111111],[-100.52055555555556,40.51833333333333],[-100.33833333333332,40.54694444444444],[-100.2961111111111,40.55361111111111],[-100.15666666666667,40.57527777777778],[-100.11444444444444,40.58166666666667],[-99.97361111111111,40.60305555555556],[-99.78861111111111,40.63166666666667],[-99.74944444444445,40.6375],[-99.60555555555555,40.65888888888889],[-99.56694444444445,40.664722222222224],[-99.42555555555556,40.68555555555555],[-99.24444444444444,40.71194444444445],[-99.20583333333333,40.7175],[-99.06416666666667,40.73833333333334],[-99.02833333333334,40.743611111111115],[-98.84861111111111,40.76916666666666],[-98.67500000000001,40.79388888888889],[-98.66916666666667,40.79472222222222],[-98.49583333333334,40.81888888888889],[-98.48972222222223,40.819722222222225],[-98.31583333333333,40.843611111111116],[-98.13722222222223,40.867777777777775],[-97.95972222222223,40.891666666666666],[-97.78111111111112,40.91583333333333],[-97.60138888888888,40.93944444444444],[-97.4225,40.962500000000006],[-97.23611111111111,40.986666666666665],[-97.05527777777777,41.00944444444445],[-96.88,41.03138888888889],[-96.7,41.05333333333333],[-96.52083333333333,41.075],[-96.34416666666667,41.09638888888889],[-96.16861111111112,41.11694444444444],[-95.99166666666667,41.13777777777778],[-95.8125,41.15861111111111],[-95.63555555555556,41.180277777777775],[-95.46722222222222,41.20444444444445],[-95.25583333333333,41.233333333333334],[-94.91194444444444,41.278888888888886],[-94.87166666666666,41.284166666666664],[-94.74,41.301111111111105],[-94.69944444444445,41.30638888888888],[-94.56805555555555,41.32333333333334],[-94.52638888888889,41.328611111111115],[-94.39805555555556,41.34527777777778],[-94.35722222222222,41.35055555555556],[-94.22666666666667,41.36666666666667],[-94.18416666666667,41.371944444444445],[-94.08027777777778,41.385],[-94.0125,41.39333333333333],[-93.90833333333335,41.40611111111111],[-93.83805555555556,41.414722222222224],[-93.73416666666667,41.42722222222222],[-93.66638888888889,41.43555555555555],[-93.55972222222222,41.44694444444444],[-93.49083333333333,41.45305555555556],[-93.38472222222222,41.463055555555556],[-93.35222222222221,41.46611111111111],[-93.21138888888889,41.47944444444445],[-93.1763888888889,41.48277777777778],[-93.03694444444444,41.49583333333334],[-93.00305555555556,41.49916666666667],[-92.86361111111111,41.51166666666666],[-92.82777777777777,41.515],[-92.68861111111111,41.52777777777778],[-92.63444444444445,41.5325],[-92.51694444444445,41.54333333333333],[-92.46166666666667,41.54805555555556],[-92.34444444444443,41.55833333333333],[-92.29194444444444,41.562777777777775],[-92.17055555555557,41.573055555555555],[-92.11972222222222,41.5775],[-91.99916666666667,41.58694444444445],[-91.94861111111112,41.59166666666667],[-91.82666666666667,41.600833333333334],[-91.77888888888889,41.60583333333334],[-91.64166666666668,41.61611111111111],[-91.60888888888888,41.61944444444445],[-91.47111111111111,41.62972222222222],[-91.43972222222223,41.63305555555556],[-91.30055555555555,41.64416666666666],[-91.26833333333333,41.646388888888886],[-91.12944444444443,41.65611111111111],[-91.09555555555555,41.659444444444446],[-90.9588888888889,41.66916666666666],[-90.92583333333334,41.67194444444444],[-90.7875,41.68194444444444],[-90.7538888888889,41.684999999999995],[-90.57472222222222,41.69777777777777],[-90.40138888888889,41.709722222222226],[-90.23027777777779,41.72166666666667],[-90.05638888888889,41.733333333333334],[-89.88138888888888,41.74472222222222],[-89.70805555555556,41.755833333333335],[-89.53305555555555,41.76694444444444],[-89.3611111111111,41.77722222222222],[-89.18805555555556,41.7875],[-89.01444444444445,41.7975],[-88.8436111111111,41.80694444444444],[-88.67111111111112,41.81638888888889],[-88.49888888888889,41.825833333333335],[-88.32305555555556,41.83527777777778],[-88.15027777777779,41.843611111111116],[-87.9775,41.852222222222224],[-87.83749999999999,41.85861111111111],[-87.66222222222223,41.86666666666667],[-87.48916666666666,41.87444444444444],[-87.31444444444445,41.88194444444444],[-87.14250000000001,41.88916666666667],[-86.96000000000001,41.89527777777778],[-86.79805555555555,41.902499999999996],[-86.62944444444443,41.90888888888889],[-86.45777777777778,41.915],[-86.28944444444444,41.92055555555555],[-86.11972222222222,41.92611111111111],[-85.94666666666667,41.93138888888889],[-85.77666666666667,41.93666666666666],[-85.60222222222221,41.94166666666666],[-85.4325,41.94583333333333],[-85.26,41.95027777777778],[-85.08777777777777,41.950833333333335],[-84.91777777777779,41.94972222222222],[-84.74722222222222,41.94888888888889],[-84.57472222222222,41.948055555555555],[-84.40722222222223,41.946666666666665],[-84.24416666666667,41.94499999999999],[-84.06666666666666,41.94305555555555],[-83.90944444444445,41.941111111111105],[-83.7461111111111,41.93888888888888],[-83.58083333333333,41.936388888888885],[-83.41250000000001,41.93416666666666],[-83.24555555555555,41.93388888888889],[-83.05,41.93277777777777],[-82.8825,41.93138888888889],[-82.71666666666667,41.92972222222222],[-82.54777777777778,41.92805555555555],[-82.3775,41.92583333333333],[-82.21000000000001,41.92361111111111],[-82.06972222222223,41.92166666666667],[-81.89500000000001,41.91861111111111],[-81.81472222222222,41.914722222222224],[-81.72694444444444,41.90833333333333],[-81.64722222222223,41.90083333333333],[-81.55805555555555,41.89333333333333],[-81.47944444444444,41.88472222222222],[-81.38777777777779,41.878055555555555],[-81.31222222222222,41.86944444444445],[-81.22055555555556,41.862500000000004],[-81.14361111111111,41.85527777777778],[-81.05305555555556,41.84666666666667],[-80.97722222222222,41.837500000000006],[-80.88305555555554,41.830555555555556],[-80.8086111111111,41.821111111111115],[-80.71388888888889,41.814166666666665],[-80.64083333333333,41.80583333333333],[-80.54472222222222,41.797777777777775],[-80.47277777777778,41.78944444444444],[-80.37916666666666,41.78111111111111],[-80.30472222222222,41.772777777777776],[-80.20944444444444,41.763888888888886],[-80.13833333333334,41.754444444444445],[-80.0425,41.746944444444445],[-79.97027777777778,41.738055555555555],[-79.8761111111111,41.72944444444445],[-79.80388888888889,41.72027777777778],[-79.70944444444444,41.711666666666666],[-79.63666666666667,41.70305555555556],[-79.53555555555555,41.69305555555555],[-79.47055555555556,41.68444444444444],[-79.36888888888888,41.675],[-79.30361111111111,41.66694444444444],[-79.22055555555556,41.65861111111111],[-79.15527777777778,41.65],[-79.03944444444444,41.638333333333335],[-78.9925,41.63305555555556],[-78.87305555555555,41.61944444444445],[-78.82722222222222,41.61416666666667],[-78.7038888888889,41.6],[-78.66055555555556,41.595],[-78.53555555555555,41.580555555555556],[-78.49472222222222,41.575833333333335],[-78.36722222222221,41.56055555555555],[-78.32694444444444,41.55583333333333],[-78.19861111111112,41.54055555555556],[-78.16027777777778,41.53583333333333],[-78.03277777777778,41.52027777777778],[-77.99555555555555,41.51555555555556],[-77.86416666666666,41.498333333333335],[-77.82972222222222,41.49333333333333],[-77.69666666666667,41.473888888888894],[-77.66277777777778,41.46888888888889],[-77.52833333333334,41.44972222222222],[-77.46166666666667,41.44],[-77.35972222222222,41.42527777777777],[-77.19027777777778,41.400555555555556],[-77.15472222222223,41.39527777777778],[-77.02027777777778,41.375277777777775],[-76.95416666666667,41.36527777777778],[-76.85111111111111,41.35],[-76.78416666666666,41.33972222222222],[-76.685,41.31472222222222],[-76.62277777777777,41.29805555555556],[-76.52805555555555,41.27222222222222],[-76.47222222222223,41.257222222222225],[-76.32694444444444,41.21805555555556],[-76.23055555555555,41.19194444444444],[-76.17833333333334,41.17777777777778],[-76.0325,41.13805555555555],[-75.90055555555556,41.10166666666667],[-75.76055555555556,41.06305555555555],[-75.63416666666667,41.028055555555554],[-75.50611111111111,40.992222222222225],[-75.38722222222223,40.95888888888889],[-75.25694444444444,40.9225],[-75.14472222222223,40.89055555555556],[-75.03611111111111,40.859722222222224],[-75,40.85],[-74.9413888888889,40.83305555555556],[-74.88333333333334,40.81666666666667],[-74.8,40.78333333333333],[-74.74888888888889,40.77611111111111],[-74.7,40.766666666666666],[-74.65555555555557,40.75],[-74.61666666666666,40.733333333333334],[-74.60083333333333,40.692499999999995],[-74.58333333333333,40.65],[-74.565,40.62138888888889],[-74.55,40.583333333333336],[-74.53444444444445,40.55972222222222],[-74.51666666666667,40.53333333333333],[-74.50361111111111,40.49777777777778],[-74.48333333333333,40.46666666666667],[-74.47305555555556,40.43666666666666],[-74.45,40.4],[-74.42305555555556,40.39388888888889],[-74.38333333333334,40.416666666666664],[-74.36222222222221,40.42361111111111],[-74.33333333333333,40.43333333333333],[-74.31083333333333,40.461666666666666],[-74.28333333333333,40.5],[-74.27777777777777,40.51361111111111],[-74.26666666666667,40.55],[-74.24972222222222,40.558055555555555],[-74.23333333333333,40.583333333333336],[-74.22444444444444,40.59805555555556],[-74.21666666666667,40.61666666666667],[-74.20305555555557,40.63194444444444],[-74.18333333333334,40.65],[-74.18194444444445,40.66555555555556],[-74.16277777777778,40.69555555555555]]}
}
