{
  "id": 2048280065,
  "type": "Feature",
  "properties": {
    "geom:area": 0,
    "geom:bbox": "-122.393330,37.624670,-122.104860,38.518420",
    "geom:latitude": 38.02624770935309,
    "geom:longitude": -122.18513115879477,
    "src:alt_label": "swim-takeoff",
    "src:geom": "swim",
    "swim:elevations": [
      152,
      545,
      660,
      931,
      1065,
      1486,
      1760,
      2359,
      2665,
      3097,
      3585,
      3748,
      4030,
      4636,
      4785,
      5351,
      5496,
      5751,
      5981,
      6262,
      6578,
      6802,
      7041,
      7283,
      7383
    ],
    "swim:geom": "takeoff",
    "swim:timestamps": [
      1788778913,
      1788778947,
      1788778962,
      1788778990,
      1788779010,
      1788779065,
      1788779091,
      1788779122,
      1788779141,
      1788779170,
      1788779217,
      1788779237,
      1788779262,
      1788779307,
      1788779317,
      1788779368,
      1788779383,
      1788779411,
      1788779432,
      1788779462,
      1788779491,
      1788779517,
      1788779543,
      1788779572,
      1788779586
    ],
    "wof:geomhash": "fadb8b0e373d6fc61e6c3f7d8bb44dce",
    "wof:id": 2048280065,
    "wof:repo": "sfomuseum-data-flights-2026-09"
  },
  "bbox": [
    -122.39333,
    37.62467,
    -122.10486,
    38.51842
  ],
  "geometry": {"type":"LineString","coordinates":[[-122.38347,37.62467],[-122.39333,37.64366],[-122.38399,37.64979],[-122.36212,37.65856],[-122.34515,37.66507],[-122.28502,37.68924],[-122.24925,37.70384],[-122.21152,37.73188],[-122.20501,37.75642],[-122.20077,37.79556],[-122.19104,37.86266],[-122.18548,37.89484],[-122.17831,37.93651],[-122.16578,38.0125],[-122.16314,38.02864],[-122.14994,38.11551],[-122.14615,38.14105],[-122.13692,38.19129],[-122.13012,38.22974],[-122.12122,38.2838],[-122.11313,38.33813],[-122.11068,38.38587],[-122.10847,38.43553],[-122.10609,38.4909],[-122.10486,38.51842]]}
}
