{
  "id": 2048415531,
  "type": "Feature",
  "properties": {
    "geom:area": 0,
    "geom:bbox": "-122.402610,37.622810,-121.261570,38.415880",
    "geom:latitude": 38.01968648829049,
    "geom:longitude": -121.84476765983402,
    "src:alt_label": "swim-takeoff",
    "src:geom": "swim",
    "swim:elevations": [
      122,
      479,
      969,
      1122,
      1158,
      1335,
      1980,
      2414,
      2941,
      3148,
      3270,
      3412,
      3588,
      4112,
      4475,
      4552,
      5322,
      5700,
      5997,
      6144,
      6597,
      6775,
      6890,
      7134
    ],
    "swim:geom": "takeoff",
    "swim:timestamps": [
      1790186094,
      1790186124,
      1790186175,
      1790186207,
      1790186222,
      1790186252,
      1790186297,
      1790186331,
      1790186367,
      1790186382,
      1790186400,
      1790186439,
      1790186469,
      1790186515,
      1790186548,
      1790186554,
      1790186631,
      1790186676,
      1790186714,
      1790186732,
      1790186788,
      1790186811,
      1790186827,
      1790186860
    ],
    "wof:geomhash": "12102afd5d58981d95c46ae8557077a9",
    "wof:id": 2048415531,
    "wof:repo": "sfomuseum-data-flights-2026-09"
  },
  "bbox": [
    -122.40261,
    37.62281,
    -121.26157,
    38.41588
  ],
  "geometry": {"type":"LineString","coordinates":[[-122.38464,37.62281],[-122.40261,37.63778],[-122.36769,37.66134],[-122.33603,37.67307],[-122.3186,37.67951],[-122.27716,37.69474],[-122.21234,37.72189],[-122.17743,37.75854],[-122.14025,37.80035],[-122.12482,37.81716],[-122.10625,37.83757],[-122.05722,37.88667],[-122.00785,37.92029],[-121.92732,37.97534],[-121.86962,38.01434],[-121.8581,38.02218],[-121.71832,38.11626],[-121.63401,38.17301],[-121.56096,38.22166],[-121.52475,38.24593],[-121.41244,38.32115],[-121.36608,38.35181],[-121.33177,38.37293],[-121.26157,38.41588]]}
}
