{
  "id": 2048435279,
  "type": "Feature",
  "properties": {
    "geom:area": 0,
    "geom:bbox": "-122.620710,36.723080,-121.778910,37.667310",
    "geom:latitude": 37.259671825848734,
    "geom:longitude": -122.23242007764232,
    "src:alt_label": "swim-takeoff",
    "src:geom": "swim",
    "swim:elevations": [
      274,
      647,
      983,
      1249,
      1384,
      1956,
      2373,
      3087,
      3323,
      3519,
      3815,
      4065,
      4296,
      4653,
      4983,
      5408,
      5715,
      6049,
      6309,
      6493,
      6700,
      6857,
      7120,
      7363,
      7606,
      7730,
      8072,
      8230
    ],
    "swim:geom": "takeoff",
    "swim:timestamps": [
      1790350029,
      1790350059,
      1790350089,
      1790350127,
      1790350147,
      1790350187,
      1790350208,
      1790350251,
      1790350271,
      1790350307,
      1790350342,
      1790350362,
      1790350382,
      1790350415,
      1790350447,
      1790350489,
      1790350524,
      1790350557,
      1790350586,
      1790350615,
      1790350639,
      1790350657,
      1790350693,
      1790350731,
      1790350762,
      1790350778,
      1790350809,
      1790350842
    ],
    "wof:geomhash": "6fba7dee7b8517b4b4b7113855ce2312",
    "wof:id": 2048435279,
    "wof:repo": "sfomuseum-data-flights-2026-09"
  },
  "bbox": [
    -122.62071,
    36.72308,
    -121.77891,
    37.66731
  ],
  "geometry": {"type":"LineString","coordinates":[[-122.39025,37.62761],[-122.41406,37.63701],[-122.4396,37.64596],[-122.47669,37.65899],[-122.50206,37.66731],[-122.56042,37.6586],[-122.59292,37.65],[-122.62071,37.60488],[-122.61542,37.5782],[-122.59938,37.52475],[-122.5484,37.48009],[-122.51599,37.45532],[-122.4834,37.43019],[-122.42823,37.38735],[-122.37479,37.34575],[-122.30166,37.2886],[-122.24002,37.24041],[-122.18175,37.19477],[-122.12931,37.15367],[-122.07665,37.11231],[-122.03272,37.07768],[-121.99971,37.05175],[-121.93045,36.99718],[-121.86044,36.9388],[-121.81543,36.8838],[-121.79349,36.85298],[-121.77891,36.78997],[-121.78653,36.72308]]}
}
