{
  "id": 2048305459,
  "type": "Feature",
  "properties": {
    "geom:area": 0,
    "geom:bbox": "-122.549370,36.729850,-121.309280,37.668940",
    "geom:latitude": 37.2089298421547,
    "geom:longitude": -122.00958827038126,
    "src:alt_label": "swim-takeoff",
    "src:geom": "swim",
    "swim:elevations": [
      277,
      470,
      816,
      1140,
      1354,
      1767,
      2049,
      2520,
      3126,
      3373,
      3442,
      3948,
      4239,
      4342,
      4722,
      5178,
      5378,
      5514,
      5976,
      6150,
      6459,
      6692,
      6958,
      7212,
      7281,
      7635,
      7770,
      8062,
      8220,
      8282,
      8498
    ],
    "swim:geom": "takeoff",
    "swim:timestamps": [
      1789060914,
      1789060928,
      1789060957,
      1789060996,
      1789061030,
      1789061063,
      1789061083,
      1789061117,
      1789061154,
      1789061182,
      1789061198,
      1789061247,
      1789061271,
      1789061281,
      1789061316,
      1789061361,
      1789061385,
      1789061404,
      1789061454,
      1789061478,
      1789061512,
      1789061541,
      1789061574,
      1789061607,
      1789061617,
      1789061668,
      1789061690,
      1789061727,
      1789061754,
      1789061762,
      1789061798
    ],
    "wof:geomhash": "7188d5ce513fb67be47bdbeb68f704b1",
    "wof:id": 2048305459,
    "wof:repo": "sfomuseum-data-flights-2026-09"
  },
  "bbox": [
    -122.54937,
    36.72985,
    -121.30928,
    37.66894
  ],
  "geometry": {"type":"LineString","coordinates":[[-122.39541,37.62759],[-122.40679,37.63234],[-122.43139,37.6431],[-122.46499,37.65761],[-122.50677,37.66894],[-122.54626,37.64675],[-122.54937,37.62245],[-122.52641,37.57911],[-122.49976,37.53295],[-122.47696,37.4977],[-122.45786,37.47978],[-122.37687,37.42686],[-122.33549,37.4003],[-122.31845,37.38937],[-122.25765,37.3502],[-122.17953,37.29969],[-122.13611,37.27154],[-122.09925,37.24771],[-122.00521,37.18662],[-121.95981,37.15689],[-121.89368,37.11389],[-121.83738,37.07705],[-121.77271,37.03472],[-121.70622,36.99114],[-121.68569,36.97767],[-121.58136,36.90906],[-121.53434,36.87958],[-121.45693,36.82829],[-121.4013,36.79169],[-121.38423,36.78017],[-121.30928,36.72985]]}
}
