{
  "id": 2048232507,
  "type": "Feature",
  "properties": {
    "geom:area": 0,
    "geom:bbox": "-122.359250,37.491640,-121.260890,37.614800",
    "geom:latitude": 37.54636678039588,
    "geom:longitude": -121.81504442799842,
    "src:alt_label": "swim-approach",
    "src:geom": "swim",
    "swim:elevations": [
      5112,
      4735,
      4550,
      4166,
      3994,
      3730,
      3315,
      3262,
      3076,
      2943,
      2723,
      2477,
      2199,
      2140,
      2111,
      1985,
      1758,
      1625,
      1513,
      1387,
      1188,
      945,
      853,
      628,
      499,
      454,
      275,
      205,
      79,
      170
    ],
    "swim:geom": "approach",
    "swim:timestamps": [
      1788380458,
      1788380488,
      1788380504,
      1788380543,
      1788380558,
      1788380582,
      1788380635,
      1788380651,
      1788380682,
      1788380703,
      1788380733,
      1788380774,
      1788380814,
      1788380825,
      1788380864,
      1788380882,
      1788380910,
      1788380930,
      1788380949,
      1788380971,
      1788381009,
      1788381055,
      1788381071,
      1788381115,
      1788381147,
      1788381156,
      1788381206,
      1788381227,
      1788381261,
      1788381275
    ],
    "wof:geomhash": "939459d72361e121969ef2e90cb8379b",
    "wof:id": 2048232507,
    "wof:repo": "sfomuseum-data-flights-2026-09"
  },
  "bbox": [
    -122.35925,
    37.49164,
    -121.26089,
    37.6148
  ],
  "geometry": {"type":"LineString","coordinates":[[-121.26089,37.59303],[-121.31945,37.58625],[-121.34992,37.58304],[-121.42322,37.57431],[-121.4498,37.57119],[-121.49455,37.56603],[-121.58982,37.55496],[-121.61693,37.55166],[-121.66668,37.54074],[-121.6986,37.53314],[-121.74404,37.52217],[-121.80532,37.50762],[-121.86257,37.49398],[-121.87981,37.49164],[-121.93596,37.49241],[-121.96206,37.49318],[-122.00144,37.49897],[-122.02694,37.50723],[-122.05055,37.51498],[-122.07827,37.52388],[-122.124,37.53875],[-122.17683,37.55589],[-122.19381,37.56134],[-122.23638,37.57524],[-122.26265,37.58356],[-122.26977,37.58558],[-122.30788,37.59661],[-122.32414,37.60141],[-122.34907,37.61018],[-122.35925,37.6148]]}
}
