{
  "id": 2048373083,
  "type": "Feature",
  "properties": {
    "geom:area": 0,
    "geom:bbox": "-122.527420,37.629250,-121.434140,38.515160",
    "geom:latitude": 38.078651728835894,
    "geom:longitude": -122.05995459547836,
    "src:alt_label": "swim-takeoff",
    "src:geom": "swim",
    "swim:elevations": [
      122,
      368,
      586,
      717,
      947,
      1063,
      1111,
      1229,
      1388,
      1585,
      1901,
      2131,
      2445,
      2670,
      3003,
      3170,
      3265,
      3332,
      3434,
      3649,
      3765,
      4286,
      4497,
      4697,
      4879,
      5083,
      5198,
      5447,
      5611,
      5636,
      5823,
      6001,
      6099,
      6159
    ],
    "swim:geom": "takeoff",
    "swim:timestamps": [
      1789770106,
      1789770140,
      1789770173,
      1789770194,
      1789770233,
      1789770267,
      1789770278,
      1789770322,
      1789770339,
      1789770357,
      1789770383,
      1789770404,
      1789770435,
      1789770467,
      1789770501,
      1789770536,
      1789770566,
      1789770584,
      1789770617,
      1789770647,
      1789770662,
      1789770718,
      1789770747,
      1789770776,
      1789770803,
      1789770833,
      1789770851,
      1789770891,
      1789770924,
      1789770930,
      1789770956,
      1789770983,
      1789771011,
      1789771033
    ],
    "wof:geomhash": "443e82d328874cb339dc473d8d2c1576",
    "wof:id": 2048373083,
    "wof:repo": "sfomuseum-data-flights-2026-09"
  },
  "bbox": [
    -122.52742,
    37.62925,
    -121.43414,
    38.51516
  ],
  "geometry": {"type":"LineString","coordinates":[[-122.39375,37.62925],[-122.42082,37.64054],[-122.44686,37.65107],[-122.4642,37.65832],[-122.49692,37.67227],[-122.52443,37.68923],[-122.52664,37.69956],[-122.52742,37.74532],[-122.52695,37.76574],[-122.52587,37.78743],[-122.50426,37.81271],[-122.47485,37.82296],[-122.43065,37.83967],[-122.39234,37.86677],[-122.35029,37.89595],[-122.30601,37.92658],[-122.26375,37.95595],[-122.23668,37.97473],[-122.18433,38.01076],[-122.1345,38.04517],[-122.10931,38.06248],[-122.0146,38.12758],[-121.96471,38.16186],[-121.91486,38.19598],[-121.86733,38.22864],[-121.81324,38.26554],[-121.78081,38.28764],[-121.70746,38.33762],[-121.64613,38.37932],[-121.63573,38.38637],[-121.58626,38.41991],[-121.53439,38.45409],[-121.47936,38.48726],[-121.43414,38.51516]]}
}
