{
  "id": 2048308811,
  "type": "Feature",
  "properties": {
    "geom:area": 0,
    "geom:bbox": "-122.353720,37.491860,-121.297070,37.612070",
    "geom:latitude": 37.54418988833222,
    "geom:longitude": -121.83002981231955,
    "src:alt_label": "swim-approach",
    "src:geom": "swim",
    "swim:elevations": [
      4428,
      4144,
      4046,
      3722,
      3418,
      3109,
      3098,
      2657,
      2473,
      2437,
      2408,
      2289,
      2198,
      1979,
      1827,
      1820,
      1582,
      1509,
      1256,
      1187,
      1093,
      1040,
      909,
      873,
      643,
      630,
      468,
      356,
      243,
      118,
      29
    ],
    "swim:geom": "approach",
    "swim:timestamps": [
      1789160427,
      1789160457,
      1789160466,
      1789160499,
      1789160529,
      1789160578,
      1789160584,
      1789160637,
      1789160659,
      1789160672,
      1789160712,
      1789160740,
      1789160762,
      1789160802,
      1789160842,
      1789160865,
      1789160903,
      1789160913,
      1789160948,
      1789160966,
      1789160992,
      1789161006,
      1789161046,
      1789161065,
      1789161116,
      1789161120,
      1789161153,
      1789161190,
      1789161216,
      1789161252,
      1789161273
    ],
    "wof:geomhash": "a3bc8860e91521050bab8528f57d0eb4",
    "wof:id": 2048308811,
    "wof:repo": "sfomuseum-data-flights-2026-09"
  },
  "bbox": [
    -122.35372,
    37.49186,
    -121.29707,
    37.61207
  ],
  "geometry": {"type":"LineString","coordinates":[[-121.29707,37.58786],[-121.35478,37.5814],[-121.37241,37.57949],[-121.43512,37.5725],[-121.49141,37.56596],[-121.58462,37.55491],[-121.59548,37.55364],[-121.6874,37.53555],[-121.72316,37.52692],[-121.74347,37.52206],[-121.79909,37.50901],[-121.83621,37.50016],[-121.86226,37.49386],[-121.91185,37.49186],[-121.9574,37.49307],[-121.98409,37.49403],[-122.02467,37.50667],[-122.03496,37.51006],[-122.07255,37.52223],[-122.09037,37.52806],[-122.11638,37.53646],[-122.13047,37.54098],[-122.16895,37.55346],[-122.18746,37.55947],[-122.23403,37.57445],[-122.23787,37.57569],[-122.26582,37.58453],[-122.29335,37.59257],[-122.31176,37.59805],[-122.3383,37.60644],[-122.35372,37.61207]]}
}
