{
  "id": 2048292299,
  "type": "Feature",
  "properties": {
    "geom:area": 0,
    "geom:bbox": "-123.488830,36.808790,-122.157070,37.614210",
    "geom:latitude": 37.24250751516847,
    "geom:longitude": -122.75205712155383,
    "src:alt_label": "swim-approach",
    "src:geom": "swim",
    "swim:elevations": [
      6123,
      5808,
      5556,
      5404,
      4952,
      4601,
      4142,
      3879,
      3502,
      3151,
      3050,
      3048,
      3048,
      3048,
      3048,
      3048,
      3048,
      2999,
      2953,
      2839,
      2732,
      2523,
      2145,
      1795,
      1517,
      1373,
      1104,
      887,
      759,
      733,
      543,
      370,
      309,
      200,
      60,
      104
    ],
    "swim:geom": "approach",
    "swim:timestamps": [
      1788938096,
      1788938124,
      1788938146,
      1788938161,
      1788938204,
      1788938238,
      1788938276,
      1788938298,
      1788938331,
      1788938365,
      1788938395,
      1788938427,
      1788938432,
      1788938483,
      1788938493,
      1788938540,
      1788938574,
      1788938602,
      1788938613,
      1788938638,
      1788938662,
      1788938696,
      1788938728,
      1788938754,
      1788938777,
      1788938806,
      1788938834,
      1788938869,
      1788938897,
      1788938910,
      1788938959,
      1788938995,
      1788939013,
      1788939043,
      1788939076,
      1788939096
    ],
    "wof:geomhash": "e9720f6f9bf759fdc75b42a5f25f7cfe",
    "wof:id": 2048292299,
    "wof:repo": "sfomuseum-data-flights-2026-09"
  },
  "bbox": [
    -123.48883,
    36.80879,
    -122.15707,
    37.61421
  ],
  "geometry": {"type":"LineString","coordinates":[[-123.48883,36.80879],[-123.431,36.85176],[-123.38685,36.88419],[-123.35642,36.90593],[-123.27582,36.96403],[-123.20811,37.0124],[-123.13582,37.06391],[-123.094,37.09377],[-123.03366,37.13636],[-122.97162,37.18054],[-122.91799,37.21873],[-122.85888,37.25709],[-122.84975,37.26032],[-122.73282,37.28825],[-122.7095,37.29368],[-122.60371,37.31818],[-122.53669,37.33368],[-122.48944,37.34454],[-122.47063,37.34878],[-122.42893,37.3584],[-122.38966,37.36743],[-122.33585,37.37986],[-122.28496,37.39152],[-122.24361,37.40108],[-122.20786,37.41204],[-122.17141,37.43441],[-122.15707,37.46623],[-122.16818,37.50582],[-122.1875,37.53252],[-122.19774,37.54285],[-122.24883,37.56568],[-122.28246,37.57977],[-122.29755,37.58616],[-122.32156,37.59627],[-122.34832,37.60747],[-122.3632,37.61421]]}
}
