{
  "id": 2048356857,
  "type": "Feature",
  "properties": {
    "geom:area": 0,
    "geom:bbox": "-122.402840,37.630610,-121.248440,38.424280",
    "geom:latitude": 38.0277599916297,
    "geom:longitude": -121.83339121145303,
    "src:alt_label": "swim-takeoff",
    "src:geom": "swim",
    "swim:elevations": [
      351,
      541,
      1302,
      1545,
      1617,
      2003,
      2503,
      2893,
      3373,
      3657,
      3952,
      4226,
      4729,
      4938,
      5354,
      5792,
      5934,
      6430,
      6580,
      6786,
      7384,
      7894,
      7925,
      8251
    ],
    "swim:geom": "takeoff",
    "swim:timestamps": [
      1789551408,
      1789551424,
      1789551477,
      1789551500,
      1789551506,
      1789551531,
      1789551558,
      1789551583,
      1789551616,
      1789551632,
      1789551667,
      1789551699,
      1789551734,
      1789551754,
      1789551798,
      1789551836,
      1789551850,
      1789551894,
      1789551908,
      1789551930,
      1789551988,
      1789552047,
      1789552052,
      1789552100
    ],
    "wof:geomhash": "5cf9f769b168144f29583bb351c429cc",
    "wof:id": 2048356857,
    "wof:repo": "sfomuseum-data-flights-2026-09"
  },
  "bbox": [
    -122.40284,
    37.63061,
    -121.24844,
    38.42428
  ],
  "geometry": {"type":"LineString","coordinates":[[-122.39951,37.63061],[-122.40284,37.64355],[-122.34962,37.66888],[-122.31908,37.67885],[-122.31052,37.68191],[-122.27286,37.69607],[-122.23181,37.7116],[-122.19919,37.73437],[-122.16461,37.77292],[-122.147,37.7925],[-122.1069,37.83622],[-122.06302,37.88155],[-122.00269,37.92467],[-121.96789,37.94827],[-121.8841,38.00443],[-121.81129,38.05355],[-121.78398,38.07212],[-121.69503,38.13225],[-121.66591,38.15184],[-121.62187,38.18145],[-121.49901,38.26347],[-121.37061,38.34881],[-121.36036,38.35528],[-121.24844,38.42428]]}
}
