{
  "id": 2048476211,
  "type": "Feature",
  "properties": {
    "geom:area": 0,
    "geom:bbox": "-123.464230,36.884580,-122.129460,37.615510",
    "geom:latitude": 37.2711754011339,
    "geom:longitude": -122.71540329150939,
    "src:alt_label": "swim-approach",
    "src:geom": "swim",
    "swim:elevations": [
      6996,
      6858,
      6370,
      5852,
      5347,
      4850,
      4709,
      4269,
      3697,
      3315,
      3043,
      3048,
      3048,
      3048,
      2849,
      2813,
      2617,
      2437,
      2363,
      2190,
      2014,
      1978,
      1887,
      1829,
      1705,
      1618,
      1451,
      1273,
      1166,
      1053,
      959,
      921,
      831,
      677,
      547,
      470,
      309,
      304,
      157,
      87,
      0
    ],
    "swim:geom": "approach",
    "swim:timestamps": [
      1790754470,
      1790754481,
      1790754517,
      1790754546,
      1790754578,
      1790754620,
      1790754631,
      1790754667,
      1790754716,
      1790754743,
      1790754777,
      1790754806,
      1790754837,
      1790754855,
      1790754898,
      1790754904,
      1790754942,
      1790754979,
      1790755009,
      1790755043,
      1790755076,
      1790755095,
      1790755117,
      1790755146,
      1790755184,
      1790755194,
      1790755220,
      1790755258,
      1790755281,
      1790755310,
      1790755344,
      1790755359,
      1790755397,
      1790755428,
      1790755456,
      1790755472,
      1790755513,
      1790755516,
      1790755549,
      1790755567,
      1790755591
    ],
    "wof:geomhash": "5c1cfc9e33e976356c78b2eda84df6a4",
    "wof:id": 2048476211,
    "wof:repo": "sfomuseum-data-flights-2026-09"
  },
  "bbox": [
    -123.46423,
    36.88458,
    -122.12946,
    37.61551
  ],
  "geometry": {"type":"LineString","coordinates":[[-123.46423,36.88458],[-123.44128,36.89881],[-123.36647,36.94469],[-123.3065,36.98317],[-123.24048,37.02433],[-123.1551,37.07736],[-123.13251,37.0913],[-123.06153,37.13528],[-122.96874,37.19259],[-122.91843,37.22389],[-122.85012,37.25884],[-122.7916,37.27417],[-122.73316,37.28794],[-122.70171,37.29534],[-122.62917,37.31228],[-122.61931,37.31463],[-122.55766,37.32883],[-122.49763,37.34272],[-122.45263,37.35319],[-122.40409,37.36433],[-122.35722,37.37516],[-122.33113,37.38102],[-122.30259,37.38756],[-122.2652,37.39616],[-122.21584,37.40742],[-122.20312,37.41039],[-122.17134,37.42058],[-122.14808,37.45435],[-122.1372,37.475],[-122.12946,37.5006],[-122.15083,37.52479],[-122.16363,37.53185],[-122.19828,37.54671],[-122.22727,37.55889],[-122.2538,37.57021],[-122.2678,37.576],[-122.30103,37.58992],[-122.30345,37.59095],[-122.32962,37.60194],[-122.34351,37.60776],[-122.36226,37.61551]]}
}
