{
  "id": 2048479987,
  "type": "Feature",
  "properties": {
    "geom:area": 0,
    "geom:bbox": "-122.552220,36.748090,-122.268460,37.700880",
    "geom:latitude": 37.25000118308207,
    "geom:longitude": -122.46044590190729,
    "src:alt_label": "swim-takeoff",
    "src:geom": "swim",
    "swim:elevations": [
      183,
      430,
      730,
      763,
      967,
      1087,
      1499,
      1770,
      1949,
      2276,
      2683,
      3105,
      3342,
      3538,
      3839,
      4079,
      4573,
      4741,
      5191,
      5255,
      5653,
      5890,
      6001,
      6299,
      6571,
      6830,
      7047,
      7156,
      7326,
      7498
    ],
    "swim:geom": "takeoff",
    "swim:timestamps": [
      1790757291,
      1790757311,
      1790757331,
      1790757334,
      1790757355,
      1790757378,
      1790757440,
      1790757458,
      1790757470,
      1790757492,
      1790757525,
      1790757553,
      1790757591,
      1790757625,
      1790757655,
      1790757676,
      1790757718,
      1790757734,
      1790757775,
      1790757782,
      1790757822,
      1790757849,
      1790757862,
      1790757891,
      1790757921,
      1790757950,
      1790757972,
      1790757983,
      1790758002,
      1790758030
    ],
    "wof:geomhash": "48c1caa1d69fc13436369238efd9d8df",
    "wof:id": 2048479987,
    "wof:repo": "sfomuseum-data-flights-2026-09"
  },
  "bbox": [
    -122.55222,
    36.74809,
    -122.26846,
    37.70088
  ],
  "geometry": {"type":"LineString","coordinates":[[-122.36592,37.63311],[-122.36158,37.64897],[-122.36173,37.66485],[-122.36172,37.66722],[-122.36186,37.68338],[-122.37009,37.70088],[-122.44584,37.70084],[-122.45665,37.67864],[-122.46025,37.66254],[-122.46532,37.63335],[-122.47247,37.58685],[-122.47862,37.54884],[-122.48754,37.4935],[-122.49648,37.43821],[-122.50519,37.38638],[-122.51103,37.34871],[-122.52253,37.27309],[-122.52682,37.245],[-122.5384,37.17095],[-122.54042,37.15805],[-122.55222,37.08284],[-122.54492,37.03119],[-122.53066,37.01022],[-122.48593,36.96641],[-122.43978,36.92003],[-122.39445,36.87441],[-122.35953,36.83935],[-122.34212,36.82188],[-122.31171,36.79145],[-122.26846,36.74809]]}
}
