{
  "id": 2048466445,
  "type": "Feature",
  "properties": {
    "geom:area": 0,
    "geom:bbox": "-122.347500,37.491390,-121.248270,37.609640",
    "geom:latitude": 37.54620657476969,
    "geom:longitude": -121.80258335609524,
    "src:alt_label": "swim-approach",
    "src:geom": "swim",
    "swim:elevations": [
      4753,
      4383,
      4122,
      3807,
      3619,
      3336,
      3117,
      3079,
      2832,
      2741,
      2464,
      2437,
      2252,
      2132,
      2115,
      1962,
      1782,
      1696,
      1553,
      1476,
      1250,
      1088,
      1015,
      846,
      720,
      539,
      391,
      271,
      127,
      72
    ],
    "swim:geom": "approach",
    "swim:timestamps": [
      1790687711,
      1790687743,
      1790687766,
      1790687796,
      1790687814,
      1790687843,
      1790687873,
      1790687891,
      1790687935,
      1790687946,
      1790687994,
      1790688002,
      1790688035,
      1790688065,
      1790688075,
      1790688113,
      1790688143,
      1790688158,
      1790688180,
      1790688197,
      1790688235,
      1790688262,
      1790688276,
      1790688315,
      1790688344,
      1790688374,
      1790688413,
      1790688439,
      1790688477,
      1790688494
    ],
    "wof:geomhash": "e1e67d6ad6c11636b45a811780c7fae5",
    "wof:id": 2048466445,
    "wof:repo": "sfomuseum-data-flights-2026-09"
  },
  "bbox": [
    -122.3475,
    37.49139,
    -121.24827,
    37.60964
  ],
  "geometry": {"type":"LineString","coordinates":[[-121.24827,37.5946],[-121.31623,37.58626],[-121.36556,37.58096],[-121.42805,37.57403],[-121.46341,37.56989],[-121.52202,37.56297],[-121.58338,37.55577],[-121.61581,37.55178],[-121.69127,37.53489],[-121.71089,37.53022],[-121.78896,37.51154],[-121.80021,37.50888],[-121.85016,37.49702],[-121.89543,37.49139],[-121.90837,37.4918],[-121.96101,37.49329],[-121.99874,37.49832],[-122.0176,37.5044],[-122.04367,37.51279],[-122.06388,37.51933],[-122.10873,37.53374],[-122.13969,37.54378],[-122.15504,37.54873],[-122.19425,37.56159],[-122.22268,37.57099],[-122.25146,37.58022],[-122.28647,37.59031],[-122.30661,37.59621],[-122.33586,37.60495],[-122.3475,37.60964]]}
}
