{
  "id": 2048452995,
  "type": "Feature",
  "properties": {
    "geom:area": 0,
    "geom:bbox": "-122.406111,37.633333,-76.101389,43.108889",
    "geom:latitude": 41.21634372529712,
    "geom:longitude": -99.20337060183768,
    "src:alt_label": "swim-path",
    "src:geom": "swim",
    "swim:altitudes": [
      "009",
      "016",
      "039",
      "050",
      "076",
      "102",
      "118",
      "134",
      "156",
      "174",
      "192",
      "207",
      "216",
      "221",
      "228",
      "237",
      "261",
      "282",
      "283",
      "290",
      "292",
      "300",
      "307",
      "315",
      "317",
      "318",
      "322",
      "325",
      "330C",
      "330C",
      "332",
      "338",
      "343",
      "346",
      "349C",
      "349C",
      "350C",
      "350C",
      "350C",
      "350C",
      "350C",
      "350C",
      "351C",
      "351C",
      "350C",
      "350C",
      "350C",
      "350C",
      "350C",
      "350C",
      "351C",
      "351C",
      "351C",
      "350C",
      "350C",
      "350C",
      "350C",
      "350C",
      "350C",
      "350C",
      "350C",
      "350C",
      "350C",
      "350C",
      "351C",
      "351C",
      "350C",
      "350C",
      "350C",
      "350C",
      "350C",
      "350C",
      "350C",
      "350C",
      "350C",
      "350C",
      "350C",
      "350C",
      "350C",
      "350C",
      "350C",
      "350C",
      "350C",
      "350C",
      "350C",
      "350C",
      "350C",
      "350C",
      "350C",
      "350C",
      "350C",
      "350C",
      "350C",
      "350C",
      "350C",
      "351C",
      "350C",
      "350C",
      "351C",
      "350C",
      "350C",
      "350C",
      "350C",
      "350C",
      "350C",
      "350C",
      "350C",
      "350C",
      "350C",
      "350C",
      "350C",
      "350C",
      "350C",
      "350C",
      "350C",
      "350C",
      "350C",
      "350C",
      "350C",
      "350C",
      "350C",
      "350C",
      "350C",
      "350C",
      "350C",
      "350C",
      "350C",
      "350C",
      "350C",
      "350C",
      "350C",
      "350C",
      "350C",
      "350C",
      "350C",
      "350C",
      "350C",
      "350C",
      "351C",
      "350C",
      "350C",
      "350C",
      "350C",
      "350C",
      "350C",
      "349C",
      "349C",
      "350C",
      "350C",
      "351C",
      "350C",
      "350C",
      "350C",
      "350C",
      "350C",
      "350C",
      "350C",
      "350C",
      "350C",
      "350C",
      "350C",
      "350C",
      "351C",
      "350C",
      "350C",
      "350C",
      "350C",
      "351C",
      "350C",
      "350C",
      "350C",
      "350C",
      "350C",
      "350C",
      "350C",
      "350C",
      "350C",
      "350C",
      "350C",
      "350C",
      "350C",
      "350C",
      "350C",
      "350C",
      "350C",
      "350C",
      "350C",
      "350C",
      "350C",
      "350C",
      "350C",
      "350C",
      "351C",
      "350C",
      "350C",
      "350C",
      "350C",
      "350C",
      "350C",
      "350C",
      "350C",
      "350C",
      "351",
      "346",
      "336",
      "332",
      "326",
      "323",
      "317",
      "311C",
      "310C",
      "310C",
      "310C",
      "310C",
      "310C",
      "310C",
      "311C",
      "310C",
      "310C",
      "310C",
      "310C",
      "310",
      "310",
      "310",
      "310",
      "309",
      "307",
      "297",
      "287",
      "253",
      "240",
      "240",
      "220",
      "202",
      "184",
      "169",
      "152",
      "136",
      "131",
      "122",
      "120",
      "110",
      "100",
      "100",
      "100",
      "100",
      "100",
      "100",
      "090",
      "075",
      "071",
      "070",
      "070",
      "068",
      "062",
      "049",
      "044",
      "040",
      "040",
      "040",
      "040",
      "040",
      "040",
      "040",
      "040",
      "040",
      "038",
      "028",
      "020",
      "019",
      "013",
      "007",
      "013",
      "045",
      "051",
      "078",
      "106",
      "119",
      "139",
      "164",
      "173",
      "192",
      "212",
      "227",
      "229",
      "244",
      "246",
      "257",
      "260",
      "270",
      "274",
      "283",
      "285",
      "298",
      "307",
      "310",
      "320",
      "322",
      "333",
      "334",
      "346",
      "348C",
      "351C",
      "351C",
      "351C",
      "351C",
      "351C",
      "351C",
      "351C",
      "350C",
      "350C",
      "351C",
      "351C",
      "351C",
      "350C",
      "350C",
      "351C",
      "351C",
      "351C",
      "351C",
      "351C",
      "350C",
      "350C",
      "351C",
      "351C",
      "350C",
      "351C",
      "351C",
      "351C",
      "351C",
      "351C",
      "350C",
      "350",
      "346",
      "339",
      "332",
      "325",
      "318",
      "310",
      "300",
      "287",
      "272",
      "257",
      "246",
      "242",
      "232",
      "230",
      "222",
      "220",
      "212",
      "210",
      "200",
      "192",
      "190",
      "179",
      "175",
      "159",
      "155",
      "145",
      "143",
      "129",
      "124",
      "112C",
      "108C",
      "090",
      "085",
      "068",
      "055",
      "053",
      "043",
      "036",
      "034",
      "032",
      "032",
      "032",
      "032",
      "025",
      "024",
      "016",
      "011",
      "009",
      "004",
      "004"
    ],
    "swim:geom": "path",
    "swim:speeds": [
      170,
      171,
      184,
      265,
      284,
      295,
      339,
      374,
      386,
      403,
      417,
      430,
      453,
      481,
      502,
      511,
      490,
      477,
      464,
      470,
      469,
      473,
      477,
      472,
      481,
      491,
      499,
      503,
      502,
      504,
      501,
      504,
      502,
      504,
      505,
      514,
      514,
      516,
      518,
      516,
      518,
      518,
      522,
      523,
      524,
      522,
      518,
      518,
      519,
      520,
      522,
      523,
      523,
      523,
      524,
      524,
      523,
      521,
      517,
      517,
      515,
      514,
      514,
      515,
      517,
      518,
      518,
      517,
      517,
      516,
      516,
      517,
      519,
      520,
      521,
      522,
      521,
      522,
      522,
      522,
      523,
      523,
      521,
      519,
      517,
      516,
      515,
      515,
      515,
      514,
      514,
      515,
      515,
      516,
      517,
      516,
      512,
      511,
      508,
      505,
      503,
      502,
      503,
      504,
      505,
      507,
      508,
      509,
      509,
      509,
      510,
      512,
      514,
      516,
      518,
      520,
      522,
      522,
      522,
      521,
      520,
      518,
      517,
      517,
      517,
      517,
      517,
      511,
      499,
      497,
      492,
      488,
      487,
      488,
      488,
      487,
      488,
      490,
      491,
      491,
      491,
      488,
      490,
      482,
      478,
      475,
      475,
      477,
      478,
      479,
      480,
      481,
      482,
      482,
      481,
      479,
      477,
      475,
      473,
      473,
      474,
      475,
      477,
      465,
      472,
      466,
      466,
      469,
      472,
      473,
      473,
      473,
      471,
      469,
      467,
      467,
      466,
      466,
      465,
      465,
      464,
      466,
      465,
      466,
      466,
      467,
      467,
      467,
      467,
      468,
      469,
      469,
      469,
      469,
      468,
      468,
      468,
      468,
      468,
      469,
      470,
      470,
      471,
      471,
      470,
      471,
      474,
      475,
      476,
      477,
      478,
      478,
      478,
      478,
      478,
      478,
      478,
      477,
      476,
      474,
      473,
      471,
      471,
      469,
      469,
      468,
      468,
      474,
      473,
      475,
      446,
      437,
      431,
      417,
      404,
      390,
      381,
      371,
      369,
      360,
      363,
      354,
      350,
      353,
      350,
      352,
      345,
      340,
      293,
      287,
      284,
      275,
      278,
      271,
      274,
      269,
      269,
      265,
      266,
      225,
      229,
      231,
      230,
      229,
      230,
      218,
      212,
      187,
      150,
      146,
      141,
      140,
      154,
      190,
      256,
      278,
      282,
      350,
      364,
      381,
      391,
      400,
      408,
      418,
      418,
      426,
      425,
      435,
      438,
      446,
      448,
      451,
      457,
      464,
      463,
      464,
      464,
      465,
      464,
      465,
      463,
      461,
      456,
      455,
      453,
      452,
      450,
      451,
      448,
      446,
      443,
      444,
      444,
      444,
      443,
      443,
      446,
      449,
      450,
      450,
      450,
      449,
      450,
      450,
      449,
      449,
      450,
      452,
      453,
      454,
      453,
      451,
      449,
      450,
      455,
      457,
      456,
      456,
      455,
      433,
      429,
      416,
      410,
      403,
      396,
      384,
      384,
      384,
      384,
      382,
      381,
      375,
      365,
      364,
      356,
      356,
      355,
      355,
      323,
      309,
      295,
      294,
      271,
      270,
      266,
      266,
      248,
      237,
      235,
      202,
      179,
      176,
      169,
      169,
      168,
      168,
      162,
      162,
      132,
      131,
      131,
      133,
      133
    ],
    "swim:timestamps": [
      1790512020,
      1790512041,
      1790512101,
      1790512161,
      1790512221,
      1790512281,
      1790512341,
      1790512401,
      1790512461,
      1790512521,
      1790512581,
      1790512641,
      1790512701,
      1790512761,
      1790512821,
      1790512881,
      1790512941,
      1790512987,
      1790513001,
      1790513047,
      1790513062,
      1790513107,
      1790513122,
      1790513182,
      1790513227,
      1790513242,
      1790513287,
      1790513302,
      1790513347,
      1790513362,
      1790513407,
      1790513422,
      1790513467,
      1790513482,
      1790513527,
      1790513542,
      1790513587,
      1790513602,
      1790513647,
      1790513662,
      1790513707,
      1790513722,
      1790513767,
      1790513782,
      1790513827,
      1790513842,
      1790513887,
      1790513902,
      1790513947,
      1790513962,
      1790514022,
      1790514067,
      1790514082,
      1790514127,
      1790514202,
      1790514248,
      1790514262,
      1790514322,
      1790514368,
      1790514382,
      1790514428,
      1790514442,
      1790514502,
      1790514548,
      1790514608,
      1790514668,
      1790514728,
      1790514788,
      1790514848,
      1790514908,
      1790514968,
      1790515028,
      1790515088,
      1790515148,
      1790515208,
      1790515268,
      1790515329,
      1790515389,
      1790515449,
      1790515509,
      1790515569,
      1790515629,
      1790515689,
      1790515749,
      1790515809,
      1790515869,
      1790515929,
      1790515986,
      1790516046,
      1790516109,
      1790516166,
      1790516226,
      1790516290,
      1790516346,
      1790516407,
      1790516470,
      1790516587,
      1790516650,
      1790516710,
      1790516767,
      1790516830,
      1790516890,
      1790516947,
      1790517010,
      1790517071,
      1790517128,
      1790517191,
      1790517248,
      1790517308,
      1790517371,
      1790517431,
      1790517488,
      1790517548,
      1790517608,
      1790517668,
      1790517728,
      1790517921,
      1790517981,
      1790518041,
      1790518101,
      1790518161,
      1790518221,
      1790518281,
      1790518341,
      1790518401,
      1790518461,
      1790518522,
      1790518582,
      1790518642,
      1790518702,
      1790518762,
      1790518822,
      1790518882,
      1790518942,
      1790519002,
      1790519062,
      1790519122,
      1790519182,
      1790519243,
      1790519303,
      1790519363,
      1790519423,
      1790519483,
      1790519543,
      1790519603,
      1790519664,
      1790519724,
      1790519783,
      1790519844,
      1790519904,
      1790519964,
      1790520024,
      1790520084,
      1790520144,
      1790520204,
      1790520265,
      1790520325,
      1790520385,
      1790520445,
      1790520505,
      1790520565,
      1790520625,
      1790520685,
      1790520745,
      1790520805,
      1790520865,
      1790520926,
      1790520986,
      1790521046,
      1790521106,
      1790521166,
      1790521226,
      1790521286,
      1790521346,
      1790521406,
      1790521466,
      1790521526,
      1790521586,
      1790521647,
      1790521707,
      1790521735,
      1790521767,
      1790521795,
      1790521827,
      1790521855,
      1790521887,
      1790521915,
      1790521947,
      1790521975,
      1790522007,
      1790522035,
      1790522067,
      1790522095,
      1790522127,
      1790522155,
      1790522187,
      1790522216,
      1790522247,
      1790522276,
      1790522307,
      1790522336,
      1790522368,
      1790522396,
      1790522428,
      1790522456,
      1790522488,
      1790522516,
      1790522548,
      1790522576,
      1790522608,
      1790522636,
      1790522668,
      1790522696,
      1790522728,
      1790522756,
      1790522788,
      1790522817,
      1790522848,
      1790522877,
      1790522920,
      1790522937,
      1790522980,
      1790522997,
      1790523040,
      1790523057,
      1790523101,
      1790523117,
      1790523177,
      1790523237,
      1790523297,
      1790523357,
      1790523418,
      1790523478,
      1790523538,
      1790523598,
      1790523658,
      1790523718,
      1790523778,
      1790523790,
      1790523826,
      1790523838,
      1790523898,
      1790523945,
      1790524019,
      1790524066,
      1790524079,
      1790524126,
      1790524139,
      1790524199,
      1790524240,
      1790524259,
      1790524300,
      1790524319,
      1790524360,
      1790524379,
      1790524420,
      1790524439,
      1790524480,
      1790524499,
      1790524546,
      1790524559,
      1790524600,
      1790524620,
      1790524660,
      1790524680,
      1790524720,
      1790524740,
      1790524800,
      1790524846,
      1790524860,
      1790524906,
      1790524980,
      1790545122,
      1790545224,
      1790545276,
      1790545336,
      1790545396,
      1790545456,
      1790545517,
      1790545577,
      1790545637,
      1790545697,
      1790545757,
      1790545807,
      1790545817,
      1790545867,
      1790545877,
      1790545927,
      1790545937,
      1790545987,
      1790545997,
      1790546047,
      1790546058,
      1790546118,
      1790546167,
      1790546178,
      1790546227,
      1790546238,
      1790546287,
      1790546298,
      1790546348,
      1790546358,
      1790546418,
      1790546478,
      1790546538,
      1790546599,
      1790546648,
      1790546659,
      1790546719,
      1790546779,
      1790546888,
      1790546949,
      1790547009,
      1790547069,
      1790547129,
      1790547189,
      1790547249,
      1790547309,
      1790547369,
      1790547429,
      1790547489,
      1790547550,
      1790547610,
      1790547670,
      1790547730,
      1790547790,
      1790547850,
      1790547910,
      1790547970,
      1790548030,
      1790548090,
      1790548151,
      1790548211,
      1790548271,
      1790548331,
      1790548391,
      1790548451,
      1790548511,
      1790548571,
      1790548631,
      1790548691,
      1790548752,
      1790548812,
      1790548853,
      1790548872,
      1790548913,
      1790548932,
      1790548973,
      1790548992,
      1790549033,
      1790549052,
      1790549112,
      1790549153,
      1790549172,
      1790549213,
      1790549232,
      1790549273,
      1790549292,
      1790549333,
      1790549353,
      1790549393,
      1790549413,
      1790549453,
      1790549473,
      1790549514,
      1790549533,
      1790549593,
      1790549634,
      1790549653,
      1790549714,
      1790549754,
      1790549774,
      1790549814,
      1790549834,
      1790549874,
      1790549894,
      1790549934,
      1790549954,
      1790550014,
      1790550054,
      1790550074,
      1790550115,
      1790550134
    ],
    "wof:geomhash": "899f65ab46cf1760cfed0de2e8358fe5",
    "wof:id": 2048452995,
    "wof:repo": "sfomuseum-data-flights-2026-09"
  },
  "bbox": [
    -122.40611111111112,
    37.63333333333333,
    -76.10138888888888,
    43.10888888888889
  ],
  "geometry": {"type":"LineString","coordinates":[[-122.4,37.63333333333333],[-122.40611111111112,37.63638888888889],[-122.3775,37.678888888888885],[-122.33722222222222,37.73388888888889],[-122.36833333333333,37.80777777777777],[-122.38555555555556,37.886944444444445],[-122.32222222222222,37.95388888888889],[-122.1975,37.97833333333333],[-122.06666666666666,38.00416666666667],[-121.92805555555556,38.03194444444444],[-121.78277777777778,38.06083333333333],[-121.63611111111112,38.08972222222222],[-121.485,38.119166666666665],[-121.32249999999999,38.150555555555556],[-121.15277777777779,38.183611111111105],[-120.97694444444444,38.21416666666667],[-120.80749999999999,38.23833333333334],[-120.68444444444445,38.25555555555555],[-120.64861111111112,38.260555555555555],[-120.52277777777778,38.277499999999996],[-120.48277777777778,38.28388888888889],[-120.3561111111111,38.3],[-120.31694444444445,38.306666666666665],[-120.15555555555557,38.32833333333333],[-120.025,38.345],[-119.98527777777778,38.35138888888889],[-119.84972222222221,38.3675],[-119.80638888888889,38.375277777777775],[-119.6738888888889,38.39083333333333],[-119.63222222222221,38.39805555555556],[-119.50055555555555,38.41444444444444],[-119.43083333333334,38.424166666666665],[-119.32444444444444,38.43694444444444],[-119.25583333333333,38.44638888888888],[-119.14777777777779,38.45916666666667],[-119.07583333333334,38.469166666666666],[-118.96722222222222,38.48222222222223],[-118.89527777777778,38.49194444444444],[-118.78611111111111,38.504444444444445],[-118.71555555555555,38.51416666666667],[-118.57388888888889,38.53138888888889],[-118.53444444444445,38.53611111111111],[-118.39083333333333,38.55333333333333],[-118.35111111111111,38.55833333333333],[-118.19916666666667,38.57611111111112],[-118.16916666666667,38.57972222222222],[-118.05444444444444,38.593333333333334],[-117.97972222222222,38.60194444444445],[-117.87166666666666,38.614444444444445],[-117.7975,38.62277777777778],[-117.61083333333333,38.64416666666666],[-117.49972222222222,38.656666666666666],[-117.42527777777778,38.665],[-117.315,38.67722222222222],[-117.09305555555555,38.71416666666667],[-116.9475,38.73888888888889],[-116.90805555555556,38.745555555555555],[-116.7286111111111,38.775555555555556],[-116.58722222222222,38.799166666666665],[-116.54833333333333,38.80555555555555],[-116.40722222222223,38.828611111111115],[-116.36861111111111,38.835],[-116.16333333333334,38.86833333333333],[-116.04444444444444,38.8875],[-115.86388888888888,38.91638888888889],[-115.68,38.94555555555555],[-115.50027777777778,38.97361111111111],[-115.3,39.004444444444445],[-115.11972222222222,39.03194444444444],[-114.93805555555556,39.059444444444445],[-114.75805555555556,39.08638888888889],[-114.5761111111111,39.113055555555555],[-114.39333333333335,39.13972222222222],[-114.20833333333334,39.16638888888889],[-114.06055555555555,39.187777777777775],[-113.87777777777777,39.21361111111111],[-113.69555555555556,39.23916666666667],[-113.51,39.264722222222225],[-113.32638888888889,39.28944444444444],[-113.1413888888889,39.318333333333335],[-112.95833333333334,39.34861111111111],[-112.77222222222223,39.379444444444445],[-112.56777777777778,39.41305555555555],[-112.38694444444445,39.44194444444444],[-112.20694444444445,39.47166666666667],[-112.02972222222222,39.514722222222225],[-111.85416666666666,39.55833333333333],[-111.70583333333333,39.594722222222224],[-111.53055555555555,39.63777777777778],[-111.3286111111111,39.68694444444444],[-111.1763888888889,39.72361111111111],[-111,39.76611111111111],[-110.78555555555555,39.81722222222223],[-110.64305555555556,39.850833333333334],[-110.46583333333334,39.89222222222222],[-110.24916666666667,39.942499999999995],[-109.93027777777779,40.01833333333333],[-109.72083333333333,40.07222222222222],[-109.54527777777777,40.117222222222225],[-109.40777777777778,40.15222222222222],[-109.2,40.205000000000005],[-109.05944444444444,40.24027777777778],[-108.88694444444445,40.28333333333333],[-108.70361111111112,40.32888888888889],[-108.52944444444444,40.37166666666667],[-108.35666666666665,40.413888888888884],[-108.17750000000001,40.45722222222223],[-107.98194444444445,40.50416666666667],[-107.80805555555555,40.544999999999995],[-107.64555555555556,40.58305555555556],[-107.46805555555555,40.62444444444444],[-107.2786111111111,40.668055555555554],[-107.09805555555555,40.70916666666667],[-106.91583333333334,40.75055555555556],[-106.74527777777777,40.788888888888884],[-106.56166666666667,40.82972222222222],[-106.00638888888889,40.95166666666667],[-105.7875,40.99861111111111],[-105.59888888888888,41.038888888888884],[-105.41611111111112,41.0775],[-105.23166666666667,41.11611111111111],[-105.05055555555555,41.153888888888886],[-104.86749999999999,41.19166666666666],[-104.68472222222222,41.2275],[-104.5,41.26027777777778],[-104.31527777777778,41.29361111111111],[-104.13055555555555,41.32638888888889],[-103.94833333333334,41.358333333333334],[-103.76777777777778,41.38972222222222],[-103.59027777777777,41.42027777777778],[-103.41444444444446,41.45027777777778],[-103.24083333333333,41.47944444444445],[-103.06694444444445,41.50861111111111],[-102.88916666666667,41.53805555555555],[-102.71361111111112,41.566944444444445],[-102.5325,41.59638888888889],[-102.35083333333333,41.62555555555556],[-102.17305555555556,41.65361111111111],[-101.99194444444444,41.68222222222222],[-101.815,41.709722222222226],[-101.61027777777777,41.74527777777778],[-101.45944444444444,41.763888888888886],[-101.25611111111111,41.79972222222222],[-101.10888888888888,41.81638888888889],[-100.93277777777779,41.842222222222226],[-100.73805555555556,41.87111111111111],[-100.56444444444445,41.895833333333336],[-100.41111111111111,41.91722222222222],[-100.2425,41.941111111111105],[-100.0675,41.96555555555556],[-99.88916666666667,41.99],[-99.71055555555556,42.01416666666667],[-99.53555555555555,42.03777777777778],[-99.35666666666665,42.061388888888885],[-99.18194444444445,42.08416666666667],[-99.00222222222222,42.1075],[-98.82777777777777,42.12972222222222],[-98.65277777777779,42.151666666666664],[-98.47666666666667,42.17361111111111],[-98.30277777777778,42.19499999999999],[-98.12583333333333,42.21638888888889],[-97.95055555555555,42.237500000000004],[-97.75611111111111,42.26027777777778],[-97.58277777777778,42.28055555555555],[-97.40805555555556,42.300555555555555],[-97.23666666666666,42.319722222222225],[-97.06194444444444,42.33916666666667],[-96.88555555555556,42.35861111111111],[-96.71000000000001,42.37777777777778],[-96.53472222222221,42.396388888888886],[-96.35694444444444,42.415],[-96.18277777777779,42.433055555555555],[-96.00694444444444,42.45111111111111],[-95.83111111111111,42.468611111111116],[-95.65833333333335,42.48583333333333],[-95.48583333333333,42.5025],[-95.31027777777777,42.519444444444446],[-95.13583333333334,42.53583333333333],[-94.96305555555556,42.55166666666666],[-94.79027777777777,42.5675],[-94.74472222222222,42.57],[-94.61472222222221,42.57027777777778],[-94.56861111111111,42.57083333333334],[-94.46416666666667,42.56916666666667],[-94.35972222222222,42.568333333333335],[-94.28972222222222,42.5675],[-94.18277777777779,42.56638888888889],[-94.1125,42.565555555555555],[-94.00722222222223,42.56444444444444],[-93.93666666666667,42.56361111111111],[-93.83111111111111,42.56222222222222],[-93.7611111111111,42.56111111111111],[-93.655,42.559444444444445],[-93.58305555555555,42.55833333333333],[-93.4786111111111,42.55638888888888],[-93.40833333333335,42.555277777777775],[-93.30277777777778,42.55361111111111],[-93.23305555555555,42.55222222222222],[-93.12972222222221,42.55027777777777],[-93.05472222222222,42.54861111111111],[-92.95111111111112,42.546388888888885],[-92.8786111111111,42.544999999999995],[-92.77444444444444,42.5425],[-92.70138888888889,42.54083333333333],[-92.59722222222221,42.538333333333334],[-92.525,42.53638888888889],[-92.41861111111112,42.53388888888889],[-92.34833333333333,42.531666666666666],[-92.23972222222223,42.528888888888886],[-92.13111111111111,42.52583333333333],[-92.06083333333333,42.52388888888889],[-91.95361111111112,42.52472222222222],[-91.88166666666666,42.525],[-91.77444444444444,42.525555555555556],[-91.70611111111111,42.52583333333333],[-91.63416666666667,42.52638888888889],[-91.52805555555555,42.526666666666664],[-91.42416666666666,42.526944444444446],[-91.35388888888889,42.52722222222222],[-91.24777777777778,42.526944444444446],[-91.17777777777778,42.526944444444446],[-91.0375,42.526944444444446],[-91.00277777777778,42.526944444444446],[-90.86361111111111,42.52638888888889],[-90.83055555555555,42.52638888888889],[-90.68916666666667,42.525555555555556],[-90.65305555555557,42.525277777777774],[-90.47694444444444,42.524166666666666],[-90.2975,42.5225],[-90.11972222222222,42.521388888888886],[-89.94888888888889,42.519999999999996],[-89.76722222222222,42.516666666666666],[-89.60722222222222,42.4975],[-89.45416666666667,42.47888888888889],[-89.30611111111111,42.46055555555556],[-89.16166666666668,42.44277777777778],[-89.02194444444444,42.425],[-88.88361111111112,42.407777777777774],[-88.85,42.4],[-88.76666666666667,42.4],[-88.75166666666667,42.39083333333333],[-88.62138888888889,42.37388888888889],[-88.5,42.36666666666667],[-88.36527777777778,42.330555555555556],[-88.26666666666667,42.266666666666666],[-88.25861111111111,42.26583333333333],[-88.16666666666667,42.21666666666667],[-88.15944444444445,42.203611111111115],[-88.08555555555554,42.14222222222222],[-88.03333333333333,42.1],[-88.00666666666666,42.092222222222226],[-87.93333333333334,42.1],[-87.90277777777779,42.091944444444444],[-87.83333333333333,42.1],[-87.8,42.091944444444444],[-87.71666666666667,42.1],[-87.7,42.09166666666667],[-87.63333333333334,42.083333333333336],[-87.60249999999999,42.09138888888889],[-87.53333333333333,42.083333333333336],[-87.52055555555556,42.07805555555556],[-87.51666666666667,42.03333333333333],[-87.52027777777778,42.016666666666666],[-87.58333333333333,42],[-87.60055555555554,42.00222222222222],[-87.66666666666667,42],[-87.68305555555555,42.0025],[-87.75361111111111,42.00277777777778],[-87.8,42],[-87.81416666666667,42.00277777777778],[-87.85,42],[-87.91888888888889,42.00277777777778],[-87.88333333333334,41.983333333333334],[-87.78333333333333,42],[-87.72944444444444,42.026666666666664],[-87.6363888888889,42.062777777777775],[-87.54472222222222,42.09722222222222],[-87.43416666666667,42.13916666666667],[-87.33194444444445,42.17833333333333],[-87.18416666666667,42.23388888888889],[-87.05083333333333,42.27861111111111],[-86.90805555555556,42.285555555555554],[-86.75416666666666,42.291666666666664],[-86.61888888888888,42.29722222222222],[-86.59638888888888,42.297777777777775],[-86.46000000000001,42.30277777777778],[-86.42694444444444,42.30416666666667],[-86.29722222222222,42.30888888888889],[-86.26305555555555,42.309999999999995],[-86.13277777777778,42.31444444444444],[-86.09638888888888,42.315555555555555],[-85.97083333333333,42.31444444444444],[-85.92694444444444,42.31388888888888],[-85.75333333333333,42.31194444444444],[-85.62472222222222,42.309999999999995],[-85.58166666666666,42.309444444444445],[-85.44805555555556,42.3075],[-85.40805555555556,42.30694444444444],[-85.27027777777778,42.30444444444444],[-85.23305555555555,42.303888888888885],[-85.09777777777778,42.30138888888889],[-85.06305555555555,42.300555555555555],[-84.89500000000001,42.29694444444444],[-84.72555555555556,42.303888888888885],[-84.56361111111111,42.32166666666667],[-84.39444444444445,42.34],[-84.25583333333333,42.355000000000004],[-84.22583333333334,42.35805555555556],[-84.06472222222222,42.375277777777775],[-83.89972222222222,42.3925],[-83.59166666666667,42.42388888888889],[-83.42472222222223,42.44027777777777],[-83.25444444444445,42.45722222222223],[-83.08777777777777,42.473333333333336],[-82.92416666666666,42.48888888888889],[-82.75722222222223,42.50472222222222],[-82.59083333333332,42.519999999999996],[-82.42083333333333,42.53527777777778],[-82.2538888888889,42.55027777777777],[-82.08333333333333,42.56527777777777],[-81.91666666666667,42.57972222222222],[-81.76388888888889,42.59277777777778],[-81.59527777777777,42.60666666666667],[-81.42583333333334,42.620555555555555],[-81.25861111111111,42.634166666666665],[-81.08944444444444,42.6475],[-80.9213888888889,42.660555555555554],[-80.75194444444445,42.67333333333333],[-80.57805555555555,42.686388888888885],[-80.40833333333335,42.698611111111106],[-80.23972222222223,42.71083333333333],[-80.07083333333333,42.722500000000004],[-79.90527777777778,42.73416666666667],[-79.73611111111111,42.74527777777778],[-79.565,42.75666666666667],[-79.39194444444445,42.7675],[-79.22,42.77833333333333],[-79.04972222222221,42.788888888888884],[-78.8786111111111,42.79888888888889],[-78.71444444444445,42.808611111111105],[-78.55305555555556,42.81777777777778],[-78.39583333333334,42.82638888888889],[-78.24138888888889,42.834722222222226],[-78.12277777777777,42.840833333333336],[-78.09222222222222,42.8425],[-77.97472222222223,42.84861111111111],[-77.94777777777779,42.85],[-77.83027777777778,42.85583333333334],[-77.79944444444445,42.8575],[-77.68444444444445,42.86277777777778],[-77.65583333333333,42.86416666666667],[-77.51277777777777,42.87083333333334],[-77.4038888888889,42.876111111111115],[-77.37555555555555,42.87722222222222],[-77.27027777777778,42.882222222222225],[-77.24083333333333,42.88333333333333],[-77.13472222222222,42.88777777777778],[-77.10749999999999,42.88916666666667],[-77.00916666666667,42.905277777777776],[-76.98833333333333,42.9125],[-76.92083333333333,42.95527777777778],[-76.90555555555557,42.96638888888889],[-76.84666666666666,43.00972222222222],[-76.83222222222221,43.02055555555555],[-76.7775,43.061388888888885],[-76.76277777777777,43.07194444444445],[-76.67861111111111,43.08916666666667],[-76.60916666666667,43.091944444444444],[-76.59083333333332,43.091944444444444],[-76.51194444444444,43.094722222222224],[-76.45861111111111,43.09638888888889],[-76.44416666666667,43.096944444444446],[-76.3938888888889,43.098888888888894],[-76.38083333333333,43.099444444444444],[-76.33138888888888,43.10111111111111],[-76.3175,43.10138888888889],[-76.27055555555556,43.10333333333333],[-76.2575,43.103611111111114],[-76.20472222222223,43.105555555555554],[-76.16583333333334,43.106944444444444],[-76.15583333333333,43.10722222222223],[-76.11555555555555,43.10861111111111],[-76.10138888888888,43.10888888888889]]}
}
