{
  "id": 2048457523,
  "type": "Feature",
  "properties": {
    "geom:area": 0,
    "geom:bbox": "-122.359680,36.724290,-121.880210,37.612800",
    "geom:latitude": 37.22252565303924,
    "geom:longitude": -122.06743926350892,
    "src:alt_label": "swim-approach",
    "src:geom": "swim",
    "swim:elevations": [
      5886,
      5675,
      5323,
      5106,
      4995,
      4633,
      4338,
      4215,
      3849,
      3649,
      3565,
      3536,
      3186,
      3139,
      3033,
      2757,
      2650,
      2612,
      2595,
      2165,
      1920,
      1830,
      1700,
      1494,
      1439,
      1328,
      1268,
      994,
      976,
      769,
      683,
      576,
      445,
      349,
      213,
      153,
      92,
      152
    ],
    "swim:geom": "approach",
    "swim:timestamps": [
      1790627017,
      1790627059,
      1790627098,
      1790627124,
      1790627138,
      1790627182,
      1790627217,
      1790627235,
      1790627276,
      1790627301,
      1790627324,
      1790627340,
      1790627394,
      1790627401,
      1790627417,
      1790627451,
      1790627463,
      1790627469,
      1790627472,
      1790627531,
      1790627569,
      1790627598,
      1790627633,
      1790627663,
      1790627673,
      1790627690,
      1790627705,
      1790627757,
      1790627779,
      1790627816,
      1790627838,
      1790627862,
      1790627893,
      1790627920,
      1790627959,
      1790627976,
      1790627992,
      1790628021
    ],
    "wof:geomhash": "c479498463ab65d70067bdbc6919d473",
    "wof:id": 2048457523,
    "wof:repo": "sfomuseum-data-flights-2026-09"
  },
  "bbox": [
    -122.35968,
    36.72429,
    -121.88021,
    37.6128
  ],
  "geometry": {"type":"LineString","coordinates":[[-121.88021,36.72429],[-121.90369,36.77614],[-121.9175,36.82458],[-121.92666,36.85785],[-121.93123,36.87428],[-121.94631,36.92961],[-121.96163,36.97361],[-121.96963,36.99442],[-121.98946,37.04491],[-122.0009,37.07421],[-122.01166,37.10214],[-122.01829,37.11884],[-122.04091,37.17652],[-122.04375,37.18367],[-122.05023,37.20073],[-122.06426,37.23621],[-122.06907,37.24871],[-122.0714,37.25486],[-122.0726,37.25807],[-122.09724,37.32063],[-122.11288,37.36001],[-122.10509,37.38837],[-122.09375,37.41975],[-122.09042,37.44854],[-122.09017,37.4577],[-122.09954,37.47172],[-122.11078,37.4828],[-122.14682,37.52064],[-122.16573,37.53111],[-122.20213,37.54598],[-122.22283,37.55475],[-122.24393,37.56368],[-122.2713,37.57512],[-122.29171,37.5836],[-122.31901,37.59515],[-122.33077,37.60025],[-122.34132,37.60459],[-122.35968,37.6128]]}
}
