{
  "id": 2048446651,
  "type": "Feature",
  "properties": {
    "geom:area": 0,
    "geom:bbox": "-122.356930,36.721260,-121.878120,37.608360",
    "geom:latitude": 37.21857233505752,
    "geom:longitude": -122.07956390109403,
    "src:alt_label": "swim-approach",
    "src:geom": "swim",
    "swim:elevations": [
      5518,
      5293,
      5195,
      4774,
      4652,
      4455,
      4292,
      4099,
      4027,
      3867,
      3773,
      3475,
      3289,
      3138,
      2980,
      2691,
      2596,
      2324,
      2163,
      2007,
      1856,
      1677,
      1581,
      1557,
      1508,
      1227,
      1189,
      1021,
      913,
      914,
      852,
      821,
      732,
      604,
      542,
      393,
      273,
      175,
      112,
      435
    ],
    "swim:geom": "approach",
    "swim:timestamps": [
      1790550445,
      1790550472,
      1790550482,
      1790550535,
      1790550551,
      1790550574,
      1790550596,
      1790550621,
      1790550630,
      1790550651,
      1790550663,
      1790550702,
      1790550732,
      1790550755,
      1790550792,
      1790550837,
      1790550852,
      1790550898,
      1790550925,
      1790550955,
      1790550979,
      1790551009,
      1790551037,
      1790551043,
      1790551057,
      1790551107,
      1790551117,
      1790551150,
      1790551175,
      1790551206,
      1790551225,
      1790551234,
      1790551256,
      1790551286,
      1790551301,
      1790551339,
      1790551372,
      1790551402,
      1790551416,
      1790551453
    ],
    "wof:geomhash": "93abb6d6a16b472fe9d46953f2675fba",
    "wof:id": 2048446651,
    "wof:repo": "sfomuseum-data-flights-2026-09"
  },
  "bbox": [
    -122.35693,
    36.72126,
    -121.87812,
    37.60836
  ],
  "geometry": {"type":"LineString","coordinates":[[-121.87812,36.72126],[-121.89922,36.75949],[-121.9036,36.77446],[-121.925,36.85199],[-121.9318,36.87619],[-121.94115,36.90939],[-121.95002,36.94147],[-121.96202,36.97503],[-121.96687,36.98746],[-121.97809,37.01604],[-121.98444,37.03238],[-122.00519,37.0855],[-122.02026,37.12395],[-122.03151,37.15243],[-122.06081,37.18856],[-122.09675,37.22912],[-122.10865,37.24222],[-122.14578,37.28169],[-122.16778,37.30539],[-122.1674,37.33583],[-122.15846,37.36011],[-122.14817,37.39022],[-122.13861,37.41755],[-122.13668,37.42302],[-122.13196,37.43563],[-122.11571,37.4774],[-122.11432,37.48596],[-122.13122,37.50956],[-122.15004,37.52363],[-122.17682,37.53547],[-122.19208,37.54187],[-122.19942,37.54494],[-122.21674,37.55225],[-122.2408,37.56223],[-122.25286,37.56735],[-122.28186,37.57957],[-122.30731,37.59033],[-122.32872,37.5993],[-122.33931,37.60374],[-122.35693,37.60836]]}
}
