{
  "id": 2048466777,
  "type": "Feature",
  "properties": {
    "geom:area": 0,
    "geom:bbox": "-122.354520,37.491150,-121.254520,37.612450",
    "geom:latitude": 37.546198649582,
    "geom:longitude": -121.80935683760462,
    "src:alt_label": "swim-approach",
    "src:geom": "swim",
    "swim:elevations": [
      4866,
      4647,
      4216,
      3895,
      3862,
      3677,
      3119,
      2985,
      2894,
      2570,
      2409,
      2335,
      2138,
      2114,
      2041,
      1867,
      1794,
      1501,
      1279,
      1184,
      1112,
      908,
      699,
      503,
      411,
      352,
      231,
      201,
      63,
      43
    ],
    "swim:geom": "approach",
    "swim:timestamps": [
      1790701369,
      1790701384,
      1790701422,
      1790701468,
      1790701472,
      1790701491,
      1790701543,
      1790701598,
      1790701620,
      1790701667,
      1790701704,
      1790701722,
      1790701760,
      1790701764,
      1790701777,
      1790701820,
      1790701837,
      1790701885,
      1790701923,
      1790701938,
      1790701952,
      1790701986,
      1790702027,
      1790702067,
      1790702089,
      1790702103,
      1790702139,
      1790702148,
      1790702188,
      1790702191
    ],
    "wof:geomhash": "fa146df6ff24b9e72ebf010ef62cf309",
    "wof:id": 2048466777,
    "wof:repo": "sfomuseum-data-flights-2026-09"
  },
  "bbox": [
    -122.35452,
    37.49115,
    -121.25452,
    37.61245
  ],
  "geometry": {"type":"LineString","coordinates":[[-121.25452,37.59387],[-121.28166,37.59034],[-121.35375,37.58231],[-121.43796,37.57248],[-121.44561,37.57166],[-121.47986,37.56782],[-121.57272,37.55685],[-121.66415,37.54141],[-121.6964,37.53375],[-121.76399,37.51744],[-121.81495,37.5052],[-121.84033,37.49907],[-121.89211,37.49115],[-121.89648,37.49129],[-121.91464,37.49191],[-121.97328,37.49341],[-121.99634,37.49732],[-122.05567,37.51659],[-122.10315,37.53195],[-122.12245,37.53825],[-122.14014,37.54403],[-122.18012,37.55708],[-122.22463,37.57118],[-122.26285,37.58366],[-122.28219,37.58908],[-122.29258,37.59214],[-122.31769,37.5996],[-122.32392,37.6016],[-122.35247,37.61158],[-122.35452,37.61245]]}
}
