{
  "id": 2048471333,
  "type": "Feature",
  "properties": {
    "geom:area": 0,
    "geom:bbox": "-127.043056,37.633333,-122.400000,38.141944",
    "geom:latitude": 37.90672743992599,
    "geom:longitude": -124.7108784332994,
    "src:alt_label": "swim-path",
    "src:geom": "swim",
    "swim:altitudes": [
      "007",
      "013",
      "022",
      "030",
      "035C",
      "045",
      "061C",
      "069",
      "083C",
      "092",
      "104C",
      "107",
      "114C",
      "117",
      "125C",
      "131",
      "138C",
      "149",
      "156C",
      "166",
      "172C",
      "182",
      "186C",
      "196",
      "211",
      "225",
      "237",
      "249",
      "260",
      "272",
      "282",
      "289",
      "299",
      "307",
      "319C",
      "320C",
      "320C",
      "320C",
      "320C",
      "320C",
      "320C",
      "320C",
      "320C",
      "320C"
    ],
    "swim:geom": "path",
    "swim:speeds": [
      187,
      188,
      186,
      202,
      230,
      263,
      270,
      274,
      280,
      292,
      300,
      316,
      330,
      361,
      370,
      388,
      400,
      397,
      400,
      402,
      410,
      412,
      420,
      423,
      427,
      434,
      441,
      452,
      460,
      465,
      472,
      483,
      488,
      495,
      496,
      495,
      494,
      493,
      493,
      493,
      492,
      491,
      491,
      489
    ],
    "swim:timestamps": [
      1790705677,
      1790705702,
      1790705714,
      1790705763,
      1790705789,
      1790705823,
      1790705849,
      1790705883,
      1790705909,
      1790705943,
      1790705969,
      1790706003,
      1790706029,
      1790706063,
      1790706090,
      1790706123,
      1790706150,
      1790706183,
      1790706210,
      1790706243,
      1790706270,
      1790706303,
      1790706330,
      1790706363,
      1790706423,
      1790706484,
      1790706544,
      1790706604,
      1790706664,
      1790706724,
      1790706784,
      1790706844,
      1790706904,
      1790706964,
      1790707024,
      1790707084,
      1790707145,
      1790707205,
      1790707265,
      1790707325,
      1790707385,
      1790707445,
      1790707505,
      1790707565
    ],
    "wof:geomhash": "98ee68f488453d3747629facade0658c",
    "wof:id": 2048471333,
    "wof:repo": "sfomuseum-data-flights-2026-09"
  },
  "bbox": [
    -127.04305555555555,
    37.63333333333333,
    -122.4,
    38.14194444444444
  ],
  "geometry": {"type":"LineString","coordinates":[[-122.4,37.63333333333333],[-122.41166666666668,37.63444444444444],[-122.43333333333334,37.65],[-122.47083333333333,37.660555555555554],[-122.5,37.666666666666664],[-122.55611111111111,37.67833333333333],[-122.6,37.666666666666664],[-122.65166666666667,37.68388888888889],[-122.7,37.68333333333333],[-122.75333333333333,37.69499999999999],[-122.8,37.7],[-122.85805555555555,37.70805555555556],[-122.91666666666667,37.7],[-122.98111111111112,37.722500000000004],[-123.05,37.71666666666667],[-123.11555555555555,37.73861111111111],[-123.15,37.733333333333334],[-123.25527777777778,37.755],[-123.3,37.75],[-123.39527777777778,37.771388888888886],[-123.43333333333334,37.766666666666666],[-123.53944444444444,37.78777777777778],[-123.58333333333333,37.78333333333333],[-123.68555555555555,37.80444444444444],[-123.83527777777778,37.82138888888889],[-123.98583333333333,37.838055555555556],[-124.13944444444445,37.85472222222222],[-124.2975,37.871944444444445],[-124.45777777777778,37.88916666666667],[-124.62083333333332,37.906388888888884],[-124.78555555555555,37.92361111111111],[-124.95194444444445,37.940555555555555],[-125.12222222222222,37.95777777777778],[-125.29777777777778,37.97527777777778],[-125.47111111111111,37.992222222222225],[-125.64305555555556,38.00888888888889],[-125.81277777777777,38.025],[-125.98722222222223,38.04138888888889],[-126.16027777777778,38.05722222222222],[-126.35944444444443,38.07527777777778],[-126.4975,38.087500000000006],[-126.70222222222222,38.10527777777778],[-126.84027777777777,38.117222222222225],[-127.04305555555555,38.14194444444444]]}
}
