{
  "id": 2048444087,
  "type": "Feature",
  "properties": {
    "geom:area": 0,
    "geom:bbox": "-122.408333,33.648889,-84.151111,38.359167",
    "geom:latitude": 36.58911508657336,
    "geom:longitude": -103.04702001590027,
    "src:alt_label": "swim-path",
    "src:geom": "swim",
    "swim:altitudes": [
      "013",
      "036",
      "057",
      "079",
      "104",
      "126",
      "149",
      "170",
      "190",
      "206",
      "222",
      "238",
      "253",
      "268",
      "276",
      "282",
      "289",
      "293",
      "299",
      "304",
      "309",
      "313",
      "318",
      "322",
      "326",
      "331",
      "337",
      "341",
      "348C",
      "350C",
      "350C",
      "350C",
      "350C",
      "350C",
      "350C",
      "350C",
      "350C",
      "350C",
      "350C",
      "350C",
      "350C",
      "350C",
      "350C",
      "350C",
      "350C",
      "350C",
      "350C",
      "350C",
      "350C",
      "350C",
      "350C",
      "350C",
      "350C",
      "350C",
      "350C",
      "350C",
      "350C",
      "350C",
      "350C",
      "350C",
      "350C",
      "350C",
      "350C",
      "350C",
      "350C",
      "350C",
      "350C",
      "350C",
      "350C",
      "350C",
      "350C",
      "350C",
      "350C",
      "350C",
      "350C",
      "350C",
      "350C",
      "350C",
      "350C",
      "350C",
      "350C",
      "350C",
      "350C",
      "350C",
      "350",
      "351",
      "363",
      "370C",
      "370C",
      "370C",
      "370C",
      "370C",
      "370C",
      "370C",
      "370C",
      "370C",
      "370C",
      "370C",
      "370C",
      "370C",
      "370C",
      "370C",
      "370C",
      "370C",
      "370C",
      "370C",
      "370C",
      "370C",
      "370C",
      "370C",
      "370C",
      "370C",
      "370C",
      "370C",
      "370C",
      "370C",
      "370C",
      "370C",
      "370C",
      "370C",
      "370C",
      "370C",
      "370C",
      "370C",
      "370C",
      "370C",
      "370C",
      "370C",
      "370C",
      "370C",
      "370C",
      "370C",
      "370C",
      "370C",
      "370C",
      "370C",
      "370C",
      "370C",
      "370C",
      "370C",
      "370C",
      "370C",
      "370C",
      "370C",
      "370C",
      "370C",
      "370C",
      "370C",
      "370C",
      "370C",
      "370C",
      "370C",
      "370C",
      "370C",
      "370C",
      "370C",
      "370C",
      "370C",
      "370C",
      "370C",
      "370C",
      "370C",
      "370C",
      "370C",
      "370C",
      "370C",
      "370C",
      "370C",
      "370C",
      "370C",
      "370C",
      "370C",
      "370C",
      "370C",
      "370C",
      "370C",
      "370C",
      "370C",
      "370C",
      "370C",
      "370C",
      "370C",
      "370C",
      "370C",
      "370C",
      "370C",
      "370C",
      "370C",
      "370C",
      "370C",
      "370C",
      "370C",
      "370C",
      "370C",
      "370C",
      "370C",
      "370C",
      "370C",
      "370C",
      "370C",
      "370C",
      "370C",
      "370C",
      "370C",
      "370C",
      "370C",
      "370C",
      "370C",
      "370C",
      "370C",
      "370C",
      "370C",
      "370C",
      "370C",
      "370C",
      "370C",
      "370C",
      "370C",
      "370C",
      "370C",
      "370C",
      "370C",
      "370C",
      "370C",
      "370C",
      "370C",
      "370C",
      "370C",
      "370C",
      "370C",
      "370C",
      "370C",
      "370C",
      "370C",
      "370C",
      "370C",
      "370C",
      "370C",
      "370C",
      "370C",
      "370C",
      "370C",
      "370C",
      "370C",
      "370C",
      "370C",
      "370C",
      "370C",
      "370C",
      "370C",
      "370C",
      "370C",
      "370C",
      "370C",
      "370C",
      "370C",
      "370C",
      "370C",
      "370C",
      "370C",
      "370C",
      "370C",
      "370C",
      "370C",
      "370C",
      "370C",
      "370C",
      "370C",
      "370C",
      "370C",
      "370C",
      "370C",
      "370C",
      "370C",
      "370C",
      "370C",
      "370C",
      "370C",
      "370C",
      "370C",
      "370C",
      "370C",
      "370C",
      "370C",
      "370C",
      "370C",
      "370C",
      "370C",
      "370C",
      "370C",
      "370C",
      "370C",
      "370C",
      "370C",
      "370C",
      "370C",
      "370C",
      "370C",
      "370C",
      "370C",
      "370C",
      "370C",
      "370C",
      "370C",
      "370C",
      "370C",
      "370C",
      "370C",
      "370C",
      "370",
      "367",
      "362",
      "357",
      "353",
      "349",
      "343",
      "339",
      "334",
      "330C",
      "330C",
      "330C",
      "330C",
      "330C",
      "330C",
      "330C",
      "330C",
      "330C",
      "330C",
      "330C",
      "330C",
      "330C",
      "330C",
      "330C",
      "330C",
      "330C",
      "330C",
      "330C",
      "330C",
      "330C",
      "330",
      "326",
      "322",
      "316",
      "312",
      "306",
      "302",
      "295",
      "291",
      "285",
      "281",
      "275",
      "271",
      "265",
      "261",
      "255",
      "251",
      "241",
      "231",
      "221",
      "201",
      "190",
      "181",
      "160",
      "153",
      "140",
      "139",
      "132",
      "128",
      "121",
      "119",
      "120",
      "120",
      "120",
      "120",
      "120",
      "120",
      "112",
      "111",
      "104",
      "093",
      "081",
      "065",
      "053",
      "040",
      "040",
      "032",
      "024",
      "022",
      "017",
      "012"
    ],
    "swim:geom": "path",
    "swim:speeds": [
      182,
      194,
      247,
      284,
      305,
      335,
      347,
      360,
      378,
      397,
      415,
      427,
      439,
      448,
      450,
      453,
      454,
      461,
      461,
      470,
      471,
      479,
      482,
      489,
      487,
      498,
      500,
      500,
      501,
      499,
      499,
      499,
      499,
      498,
      497,
      497,
      497,
      498,
      498,
      498,
      498,
      498,
      498,
      497,
      497,
      497,
      497,
      496,
      497,
      497,
      497,
      498,
      498,
      499,
      499,
      499,
      499,
      499,
      499,
      499,
      499,
      499,
      498,
      498,
      498,
      498,
      498,
      498,
      498,
      498,
      499,
      499,
      499,
      499,
      498,
      497,
      497,
      497,
      498,
      499,
      500,
      500,
      500,
      500,
      500,
      500,
      497,
      493,
      491,
      491,
      491,
      491,
      490,
      489,
      490,
      490,
      490,
      491,
      491,
      491,
      491,
      491,
      491,
      491,
      489,
      489,
      489,
      489,
      489,
      489,
      489,
      489,
      489,
      490,
      490,
      490,
      491,
      491,
      492,
      493,
      494,
      495,
      496,
      496,
      497,
      497,
      497,
      497,
      497,
      497,
      498,
      499,
      500,
      501,
      501,
      500,
      499,
      499,
      498,
      499,
      499,
      500,
      500,
      500,
      499,
      500,
      499,
      500,
      500,
      500,
      500,
      500,
      499,
      499,
      498,
      498,
      498,
      497,
      497,
      496,
      496,
      497,
      495,
      495,
      495,
      496,
      495,
      497,
      497,
      498,
      497,
      498,
      498,
      498,
      498,
      499,
      499,
      499,
      500,
      500,
      501,
      501,
      501,
      502,
      502,
      502,
      502,
      503,
      503,
      505,
      504,
      505,
      504,
      505,
      506,
      505,
      507,
      507,
      508,
      507,
      508,
      508,
      508,
      509,
      508,
      508,
      509,
      508,
      508,
      508,
      508,
      507,
      507,
      507,
      506,
      506,
      505,
      505,
      505,
      504,
      504,
      504,
      503,
      503,
      502,
      500,
      501,
      499,
      499,
      498,
      499,
      497,
      498,
      497,
      497,
      497,
      496,
      497,
      497,
      497,
      496,
      496,
      494,
      493,
      491,
      488,
      487,
      485,
      484,
      480,
      481,
      478,
      479,
      475,
      475,
      473,
      471,
      474,
      479,
      479,
      482,
      482,
      482,
      481,
      480,
      479,
      479,
      479,
      479,
      481,
      482,
      482,
      484,
      484,
      484,
      483,
      484,
      484,
      484,
      484,
      483,
      483,
      483,
      483,
      485,
      486,
      488,
      490,
      492,
      493,
      499,
      493,
      496,
      494,
      496,
      494,
      495,
      495,
      498,
      497,
      498,
      499,
      501,
      502,
      501,
      502,
      501,
      502,
      501,
      502,
      501,
      501,
      501,
      500,
      501,
      502,
      502,
      502,
      502,
      503,
      509,
      503,
      505,
      503,
      505,
      504,
      506,
      506,
      507,
      507,
      507,
      507,
      507,
      507,
      507,
      506,
      506,
      506,
      505,
      505,
      505,
      505,
      505,
      503,
      496,
      496,
      490,
      489,
      483,
      481,
      475,
      472,
      462,
      459,
      457,
      452,
      444,
      438,
      432,
      421,
      412,
      412,
      403,
      397,
      394,
      387,
      386,
      377,
      374,
      364,
      314,
      288,
      278,
      272,
      273,
      269,
      271,
      261,
      257,
      254,
      248,
      240,
      210,
      205,
      190,
      171,
      158,
      149,
      151,
      151
    ],
    "swim:timestamps": [
      1790446118,
      1790446178,
      1790446239,
      1790446299,
      1790446359,
      1790446419,
      1790446479,
      1790446539,
      1790446599,
      1790446659,
      1790446719,
      1790446779,
      1790446839,
      1790446900,
      1790446940,
      1790446960,
      1790447000,
      1790447020,
      1790447060,
      1790447080,
      1790447120,
      1790447140,
      1790447180,
      1790447200,
      1790447240,
      1790447260,
      1790447300,
      1790447320,
      1790447360,
      1790447380,
      1790447420,
      1790447440,
      1790447480,
      1790447500,
      1790447541,
      1790447561,
      1790447601,
      1790447621,
      1790447661,
      1790447681,
      1790447721,
      1790447741,
      1790447781,
      1790447801,
      1790447841,
      1790447861,
      1790447901,
      1790447921,
      1790447961,
      1790447981,
      1790448021,
      1790448041,
      1790448081,
      1790448101,
      1790448141,
      1790448161,
      1790448201,
      1790448221,
      1790448262,
      1790448282,
      1790448322,
      1790448342,
      1790448402,
      1790448442,
      1790448462,
      1790448502,
      1790448522,
      1790448562,
      1790448582,
      1790448622,
      1790448682,
      1790448742,
      1790448802,
      1790448862,
      1790448922,
      1790448982,
      1790449043,
      1790449103,
      1790449163,
      1790449223,
      1790449283,
      1790449343,
      1790449403,
      1790449463,
      1790449523,
      1790449583,
      1790449643,
      1790449703,
      1790449764,
      1790449824,
      1790449944,
      1790449976,
      1790450004,
      1790450036,
      1790450064,
      1790450124,
      1790450157,
      1790450184,
      1790450217,
      1790450244,
      1790450277,
      1790450304,
      1790450337,
      1790450364,
      1790450457,
      1790450484,
      1790450517,
      1790450545,
      1790450577,
      1790450605,
      1790450637,
      1790450665,
      1790450697,
      1790450725,
      1790450757,
      1790450785,
      1790450818,
      1790450845,
      1790450878,
      1790450905,
      1790450938,
      1790450965,
      1790451025,
      1790451058,
      1790451085,
      1790451118,
      1790451178,
      1790451238,
      1790451298,
      1790451358,
      1790451418,
      1790451478,
      1790451538,
      1790451599,
      1790451659,
      1790451719,
      1790451779,
      1790451839,
      1790451899,
      1790451959,
      1790452019,
      1790452072,
      1790452079,
      1790452132,
      1790452139,
      1790452192,
      1790452199,
      1790452252,
      1790452259,
      1790452313,
      1790452320,
      1790452373,
      1790452380,
      1790452433,
      1790452440,
      1790452500,
      1790452553,
      1790452560,
      1790452613,
      1790452620,
      1790452673,
      1790452681,
      1790452740,
      1790452800,
      1790452862,
      1790452920,
      1790452982,
      1790453041,
      1790453101,
      1790453154,
      1790453162,
      1790453214,
      1790453222,
      1790453274,
      1790453282,
      1790453334,
      1790453342,
      1790453402,
      1790453454,
      1790453462,
      1790453514,
      1790453522,
      1790453582,
      1790453634,
      1790453643,
      1790453695,
      1790453703,
      1790453755,
      1790453763,
      1790453800,
      1790453823,
      1790453860,
      1790453875,
      1790453883,
      1790453920,
      1790453935,
      1790453980,
      1790454003,
      1790454041,
      1790454055,
      1790454063,
      1790454101,
      1790454115,
      1790454123,
      1790454161,
      1790454175,
      1790454183,
      1790454221,
      1790454235,
      1790454243,
      1790454281,
      1790454303,
      1790454341,
      1790454356,
      1790454364,
      1790454401,
      1790454424,
      1790454461,
      1790454476,
      1790454484,
      1790454521,
      1790454536,
      1790454544,
      1790454581,
      1790454641,
      1790454664,
      1790454701,
      1790454724,
      1790454762,
      1790454784,
      1790454822,
      1790454844,
      1790454882,
      1790454904,
      1790454942,
      1790454978,
      1790454988,
      1790455038,
      1790455048,
      1790455098,
      1790455109,
      1790455158,
      1790455169,
      1790455218,
      1790455229,
      1790455278,
      1790455289,
      1790455338,
      1790455349,
      1790455398,
      1790455409,
      1790455459,
      1790455469,
      1790455519,
      1790455529,
      1790455579,
      1790455637,
      1790455650,
      1790455699,
      1790455710,
      1790455759,
      1790455817,
      1790455879,
      1790455939,
      1790455999,
      1790456059,
      1790456119,
      1790456178,
      1790456240,
      1790456298,
      1790456358,
      1790456420,
      1790456478,
      1790456538,
      1790456598,
      1790456659,
      1790456719,
      1790456779,
      1790456839,
      1790456899,
      1790456959,
      1790457019,
      1790457079,
      1790457139,
      1790457199,
      1790457259,
      1790457319,
      1790457380,
      1790457440,
      1790457500,
      1790457535,
      1790457560,
      1790457595,
      1790457620,
      1790457655,
      1790457680,
      1790457715,
      1790457740,
      1790457775,
      1790457800,
      1790457836,
      1790457860,
      1790457896,
      1790457920,
      1790457956,
      1790457980,
      1790458016,
      1790458040,
      1790458076,
      1790458100,
      1790458136,
      1790458161,
      1790458196,
      1790458221,
      1790458256,
      1790458281,
      1790458316,
      1790458341,
      1790458376,
      1790458401,
      1790458436,
      1790458461,
      1790458496,
      1790458521,
      1790458557,
      1790458581,
      1790458617,
      1790458641,
      1790458677,
      1790458701,
      1790458737,
      1790458761,
      1790458797,
      1790458821,
      1790458857,
      1790458881,
      1790458917,
      1790458942,
      1790458977,
      1790459002,
      1790459037,
      1790459062,
      1790459097,
      1790459122,
      1790459157,
      1790459182,
      1790459217,
      1790459242,
      1790459278,
      1790459302,
      1790459338,
      1790459362,
      1790459398,
      1790459422,
      1790459458,
      1790459482,
      1790459518,
      1790459542,
      1790459578,
      1790459638,
      1790459660,
      1790459698,
      1790459758,
      1790459768,
      1790459818,
      1790459828,
      1790459878,
      1790459888,
      1790459938,
      1790459948,
      1790459999,
      1790460015,
      1790460059,
      1790460074,
      1790460119,
      1790460135,
      1790460179,
      1790460189,
      1790460239,
      1790460299,
      1790460359,
      1790460419,
      1790460479,
      1790460539,
      1790460599,
      1790460659,
      1790460720,
      1790460729,
      1790460780,
      1790460840
    ],
    "wof:geomhash": "f82e1e4a0c54a2d64551be914785a7af",
    "wof:id": 2048444087,
    "wof:repo": "sfomuseum-data-flights-2026-09"
  },
  "bbox": [
    -122.40833333333335,
    33.64888888888889,
    -84.15111111111112,
    38.35916666666667
  ],
  "geometry": {"type":"LineString","coordinates":[[-122.40833333333335,37.6375],[-122.36916666666666,37.66916666666666],[-122.29277777777777,37.69305555555555],[-122.205,37.722500000000004],[-122.11638888888888,37.76861111111111],[-122.01833333333333,37.81861111111112],[-121.90194444444445,37.845555555555556],[-121.7775,37.86833333333333],[-121.64583333333334,37.8925],[-121.51333333333334,37.91694444444444],[-121.37138888888889,37.94277777777778],[-121.22638888888889,37.96611111111111],[-121.07277777777777,37.978611111111114],[-120.91527777777779,37.99138888888889],[-120.825,37.99777777777778],[-120.7575,38.00388888888889],[-120.665,38.00972222222222],[-120.59694444444445,38.016666666666666],[-120.50222222222222,38.02388888888889],[-120.43,38.029444444444444],[-120.335,38.035],[-120.26333333333334,38.04222222222222],[-120.16388888888889,38.04805555555556],[-120.09027777777777,38.055],[-119.99166666666667,38.06083333333333],[-119.91611111111112,38.06916666666667],[-119.81694444444445,38.080555555555556],[-119.74333333333334,38.094722222222224],[-119.64500000000001,38.10611111111111],[-119.57055555555556,38.11083333333333],[-119.47027777777778,38.11555555555556],[-119.39444444444445,38.121944444444445],[-119.2961111111111,38.1275],[-119.21916666666667,38.13333333333333],[-119.12305555555555,38.13777777777778],[-119.05361111111111,38.14361111111111],[-118.94805555555556,38.149166666666666],[-118.87833333333333,38.15416666666667],[-118.77388888888889,38.16027777777778],[-118.70527777777778,38.16444444444444],[-118.56555555555555,38.17222222222222],[-118.53055555555555,38.17472222222222],[-118.39583333333334,38.18222222222222],[-118.35499999999999,38.18444444444444],[-118.23138888888889,38.19138888888889],[-118.18333333333334,38.19416666666666],[-118.05833333333334,38.200833333333335],[-117.985,38.20472222222222],[-117.88,38.21],[-117.81027777777777,38.21361111111111],[-117.70694444444445,38.21888888888889],[-117.63388888888889,38.222500000000004],[-117.52916666666667,38.2275],[-117.45416666666667,38.23111111111111],[-117.35249999999999,38.236111111111114],[-117.30749999999999,38.23833333333334],[-117.16777777777779,38.24472222222222],[-117.09694444444445,38.24805555555556],[-116.98611111111111,38.25277777777778],[-116.94888888888889,38.254444444444445],[-116.8086111111111,38.260555555555555],[-116.77166666666666,38.261944444444445],[-116.595,38.269444444444446],[-116.4588888888889,38.27472222222222],[-116.42111111111112,38.27638888888889],[-116.28083333333333,38.28194444444444],[-116.24277777777777,38.28333333333333],[-116.10583333333332,38.288333333333334],[-116.06861111111111,38.28972222222222],[-115.92861111111111,38.29472222222222],[-115.7525,38.300555555555555],[-115.57694444444444,38.30638888888888],[-115.40166666666667,38.31194444444444],[-115.23,38.316944444444445],[-115.05222222222221,38.32194444444445],[-114.8775,38.32694444444445],[-114.70222222222222,38.33111111111111],[-114.52694444444444,38.33527777777778],[-114.35138888888888,38.33916666666667],[-114.1725,38.34305555555556],[-113.99722222222222,38.346111111111114],[-113.81944444444444,38.349444444444444],[-113.64305555555556,38.352222222222224],[-113.46555555555555,38.35472222222222],[-113.2875,38.35722222222223],[-113.11138888888888,38.35916666666667],[-112.93527777777778,38.35111111111111],[-112.76361111111112,38.33083333333334],[-112.59027777777777,38.309999999999995],[-112.41861111111112,38.288888888888884],[-112.0761111111111,38.246944444444445],[-112.00527777777778,38.238055555555555],[-111.90527777777778,38.22555555555556],[-111.83722222222222,38.216944444444444],[-111.73138888888889,38.20333333333333],[-111.59583333333333,38.18583333333333],[-111.49555555555555,38.172777777777775],[-111.42583333333334,38.16361111111111],[-111.3236111111111,38.15],[-111.25277777777778,38.14083333333333],[-111.15222222222222,38.1275],[-111.08194444444445,38.11833333333333],[-110.98138888888889,38.10472222222222],[-110.89194444444445,38.0925],[-110.62388888888889,38.05583333333333],[-110.55472222222222,38.04611111111111],[-110.4563888888889,38.032222222222224],[-110.38722222222223,38.0225],[-110.2961111111111,38.00972222222222],[-110.21722222222222,37.99861111111111],[-110.12694444444443,37.98583333333333],[-110.04777777777778,37.974722222222226],[-109.95583333333333,37.96138888888889],[-109.87805555555555,37.95],[-109.78666666666666,37.93666666666666],[-109.70861111111111,37.92527777777777],[-109.61611111111111,37.91166666666666],[-109.53999999999999,37.900555555555556],[-109.44361111111111,37.88611111111111],[-109.36861111111111,37.875],[-109.27472222222222,37.86083333333333],[-109.19777777777779,37.84916666666667],[-109.02777777777777,37.82361111111111],[-108.92833333333334,37.808611111111105],[-108.85666666666665,37.801944444444445],[-108.75694444444444,37.7925],[-108.58111111111111,37.77583333333333],[-108.40972222222223,37.759166666666665],[-108.23694444444445,37.742222222222225],[-108.06166666666667,37.725],[-107.89027777777778,37.70777777777778],[-107.71472222222222,37.689722222222215],[-107.5411111111111,37.67166666666667],[-107.36444444444444,37.653055555555554],[-107.19277777777778,37.63444444444444],[-107.01916666666666,37.615833333333335],[-106.84444444444443,37.59666666666667],[-106.6738888888889,37.5775],[-106.50055555555555,37.558055555555555],[-106.3286111111111,37.53805555555555],[-106.15555555555557,37.51833333333333],[-106.0125,37.50138888888889],[-105.98166666666667,37.495555555555555],[-105.84194444444444,37.46361111111111],[-105.81361111111111,37.45722222222223],[-105.67583333333334,37.425],[-105.64694444444446,37.41833333333333],[-105.50777777777778,37.385555555555555],[-105.48055555555555,37.37916666666667],[-105.34194444444444,37.34666666666667],[-105.31166666666667,37.339444444444446],[-105.17472222222223,37.30694444444444],[-105.14527777777778,37.29972222222222],[-105.00861111111111,37.26694444444444],[-104.97833333333334,37.25972222222222],[-104.81166666666667,37.219722222222224],[-104.68138888888889,37.18833333333333],[-104.64694444444446,37.17972222222222],[-104.51638888888888,37.14805555555556],[-104.48361111111112,37.14],[-104.35249999999999,37.10777777777778],[-104.31388888888888,37.09805555555556],[-104.15777777777778,37.059444444444445],[-103.99527777777777,37.01916666666666],[-103.81888888888888,36.975],[-103.67055555555557,36.9375],[-103.5,36.89416666666666],[-103.34194444444444,36.85388888888889],[-103.17861111111111,36.81194444444444],[-103.01638888888888,36.76972222222222],[-103.00166666666667,36.76583333333333],[-102.85083333333333,36.72666666666667],[-102.83694444444444,36.72277777777778],[-102.68666666666667,36.683611111111105],[-102.68111111111112,36.68194444444444],[-102.52388888888889,36.64055555555556],[-102.51861111111111,36.63916666666667],[-102.34972222222221,36.59388888888889],[-102.20972222222223,36.55638888888888],[-102.17972222222222,36.54833333333333],[-102.04305555555555,36.51166666666666],[-102.015,36.50472222222222],[-101.8411111111111,36.481944444444444],[-101.70277777777778,36.46611111111111],[-101.68555555555555,36.46388888888889],[-101.51555555555555,36.44416666666666],[-101.51694444444445,36.44444444444444],[-101.34416666666667,36.42388888888889],[-101.34583333333333,36.424166666666665],[-101.22055555555556,36.409166666666664],[-101.15333333333334,36.401111111111106],[-101.05555555555556,36.38944444444444],[-101.0025,36.38305555555556],[-100.97888888888889,36.38],[-100.88388888888889,36.368611111111115],[-100.84861111111111,36.36416666666667],[-100.71111111111111,36.34722222222222],[-100.64416666666668,36.33888888888889],[-100.53972222222222,36.325833333333335],[-100.5025,36.321111111111115],[-100.46833333333333,36.316944444444445],[-100.36166666666666,36.30333333333333],[-100.32638888888889,36.29888888888889],[-100.2961111111111,36.294999999999995],[-100.19166666666668,36.28138888888889],[-100.15333333333334,36.276666666666664],[-100.12277777777777,36.2725],[-100.01555555555555,36.25861111111111],[-99.98194444444445,36.25416666666667],[-99.94944444444445,36.25],[-99.8475,36.236666666666665],[-99.77722222222222,36.227222222222224],[-99.67222222222223,36.21333333333334],[-99.6363888888889,36.20861111111111],[-99.60499999999999,36.20444444444445],[-99.49916666666667,36.189166666666665],[-99.43444444444445,36.17722222222222],[-99.34777777777778,36.16166666666666],[-99.2936111111111,36.151666666666664],[-99.27888888888889,36.14888888888889],[-99.17916666666667,36.130833333333335],[-99.12277777777777,36.12027777777778],[-99.11222222222221,36.11833333333333],[-98.98361111111112,36.09444444444445],[-98.81944444444444,36.06388888888888],[-98.77888888888889,36.05638888888888],[-98.64944444444446,36.03194444444444],[-98.61777777777777,36.02611111111111],[-98.4825,36.00055555555556],[-98.44888888888889,35.994166666666665],[-98.31611111111111,35.968611111111116],[-98.28361111111111,35.962500000000006],[-98.15277777777779,35.9375],[-98.11916666666666,35.93083333333333],[-98.01722222222222,35.91111111111111],[-97.91638888888889,35.89138888888889],[-97.88666666666667,35.885555555555555],[-97.75111111111111,35.85888888888889],[-97.71861111111112,35.8525],[-97.58916666666666,35.81888888888889],[-97.55611111111111,35.80972222222222],[-97.43166666666667,35.768055555555556],[-97.39888888888889,35.75555555555555],[-97.27583333333334,35.70805555555556],[-97.24694444444445,35.695277777777775],[-97.13055555555555,35.643055555555556],[-97.10138888888888,35.62916666666667],[-96.98833333333333,35.575],[-96.9575,35.56027777777778],[-96.85138888888888,35.499722222222225],[-96.82472222222222,35.48361111111111],[-96.71916666666667,35.419999999999995],[-96.69555555555556,35.405833333333334],[-96.59055555555555,35.34277777777778],[-96.56416666666667,35.32694444444445],[-96.46111111111111,35.266666666666666],[-96.30055555555555,35.23444444444444],[-96.27583333333334,35.23555555555556],[-96.1438888888889,35.23416666666667],[-96.11333333333333,35.23388888888889],[-95.97805555555556,35.23222222222223],[-95.82305555555556,35.230555555555554],[-95.65138888888889,35.22805555555556],[-95.49055555555556,35.22555555555556],[-95.32694444444444,35.223055555555554],[-95.16638888888889,35.22027777777778],[-95.00222222222222,35.217222222222226],[-94.85,35.21416666666667],[-94.66861111111112,35.21027777777778],[-94.52444444444444,35.206944444444446],[-94.36027777777777,35.20305555555556],[-94.19555555555556,35.19888888888889],[-94.01083333333334,35.193888888888885],[-93.8475,35.189166666666665],[-93.68333333333334,35.18444444444444],[-93.54222222222222,35.18],[-93.37833333333333,35.17472222222222],[-93.18361111111112,35.168055555555554],[-93.02277777777778,35.1625],[-92.86305555555555,35.156666666666666],[-92.70194444444445,35.150555555555556],[-92.53722222222223,35.14416666666666],[-92.3761111111111,35.1375],[-92.2125,35.13055555555555],[-92.04833333333333,35.12361111111111],[-91.88111111111111,35.11611111111111],[-91.71722222222222,35.10861111111111],[-91.55166666666666,35.100833333333334],[-91.38222222222221,35.0925],[-91.22055555555556,35.08416666666667],[-91.12583333333333,35.08277777777778],[-91.05277777777778,35.075833333333335],[-90.96055555555556,35.071111111111115],[-90.88416666666667,35.06666666666667],[-90.7936111111111,35.065],[-90.71888888888888,35.05777777777777],[-90.62694444444443,35.05583333333333],[-90.54972222222221,35.04833333333333],[-90.4575,35.04472222222222],[-90.38083333333333,35.038888888888884],[-90.28861111111111,35.034166666666664],[-90.21000000000001,35.028888888888886],[-90.11833333333333,35.02472222222222],[-90.03972222222222,35.01861111111111],[-89.94888888888889,35.01222222222222],[-89.87027777777777,34.99944444444444],[-89.78194444444445,34.98861111111111],[-89.69583333333334,34.974722222222226],[-89.61388888888888,34.96527777777778],[-89.52638888888889,34.950833333333335],[-89.44666666666667,34.94027777777777],[-89.35722222222222,34.92638888888889],[-89.28083333333333,34.91638888888889],[-89.19222222222223,34.90277777777778],[-89.11444444444444,34.89222222222222],[-89.0225,34.87777777777778],[-88.94666666666667,34.8675],[-88.85666666666665,34.85333333333333],[-88.77916666666667,34.84305555555556],[-88.68972222222223,34.82805555555556],[-88.61166666666666,34.81638888888889],[-88.52194444444444,34.80277777777778],[-88.44416666666667,34.79083333333333],[-88.37583333333333,34.78055555555555],[-88.2775,34.76555555555556],[-88.20861111111111,34.755],[-88.10916666666667,34.73972222222222],[-88.03916666666666,34.72888888888889],[-87.9388888888889,34.713055555555556],[-87.8711111111111,34.7025],[-87.77,34.686388888888885],[-87.70055555555555,34.67527777777777],[-87.60083333333333,34.659444444444446],[-87.53083333333333,34.64833333333333],[-87.42888888888889,34.63194444444444],[-87.3611111111111,34.620555555555555],[-87.25944444444444,34.60138888888889],[-87.19194444444445,34.58861111111111],[-87.09472222222222,34.57027777777778],[-87.0275,34.55833333333333],[-86.92611111111111,34.540277777777774],[-86.86055555555555,34.52333333333333],[-86.765,34.49888888888889],[-86.69888888888889,34.481944444444444],[-86.60583333333332,34.4575],[-86.54222222222222,34.440555555555555],[-86.44694444444445,34.41555555555556],[-86.38472222222222,34.399166666666666],[-86.29388888888889,34.375277777777775],[-86.23305555555555,34.35916666666667],[-86.1413888888889,34.334722222222226],[-86.08222222222221,34.31916666666667],[-85.9925,34.29611111111111],[-85.93361111111112,34.280833333333334],[-85.84833333333333,34.25888888888889],[-85.78999999999999,34.243611111111115],[-85.71944444444445,34.225],[-85.65083333333334,34.206944444444446],[-85.5825,34.18888888888888],[-85.4475,34.153055555555554],[-85.38333333333334,34.13333333333333],[-85.31638888888888,34.11888888888889],[-85.18722222222223,34.08527777777778],[-85.15,34.06666666666667],[-85.06333333333333,34.05],[-85.03333333333333,34.03333333333333],[-84.9738888888889,33.97555555555556],[-84.95,33.95],[-84.89194444444445,33.89694444444444],[-84.86666666666666,33.86666666666667],[-84.80444444444444,33.81194444444444],[-84.78333333333333,33.8],[-84.7213888888889,33.77861111111111],[-84.7,33.766666666666666],[-84.63861111111112,33.75138888888889],[-84.61666666666666,33.75],[-84.55361111111111,33.73305555555556],[-84.53333333333333,33.733333333333334],[-84.47055555555556,33.73305555555556],[-84.38833333333334,33.73277777777778],[-84.30555555555556,33.73305555555556],[-84.22611111111111,33.73305555555556],[-84.15777777777778,33.72527777777778],[-84.15111111111112,33.66972222222222],[-84.2075,33.64888888888889],[-84.26666666666667,33.64944444444444],[-84.31861111111111,33.64944444444444],[-84.33333333333333,33.65],[-84.36805555555554,33.64944444444444],[-84.41277777777778,33.64944444444444]]}
}
