{
  "id": 2048442859,
  "type": "Feature",
  "properties": {
    "geom:area": 0,
    "geom:bbox": "-120.342500,39.171111,-70.933333,43.647778",
    "geom:latitude": 42.77624030911211,
    "geom:longitude": -95.65524212268767,
    "src:alt_label": "swim-path",
    "src:geom": "swim",
    "swim:altitudes": [
      "277",
      "281",
      "283",
      "289",
      "290",
      "297",
      "299",
      "303",
      "312",
      "315",
      "320",
      "323",
      "327",
      "330C",
      "330C",
      "330C",
      "330C",
      "330C",
      "330C",
      "330C",
      "330C",
      "331C",
      "331C",
      "330C",
      "330C",
      "330C",
      "330C",
      "330C",
      "330C",
      "330C",
      "330C",
      "330C",
      "330C",
      "330C",
      "330C",
      "330C",
      "330C",
      "330C",
      "330C",
      "330C",
      "330C",
      "330C",
      "330C",
      "330C",
      "330C",
      "330C",
      "330C",
      "330C",
      "330C",
      "330C",
      "330C",
      "330C",
      "330C",
      "330C",
      "330C",
      "330C",
      "330C",
      "330C",
      "330C",
      "330C",
      "330C",
      "330C",
      "330C",
      "330C",
      "330C",
      "331C",
      "330C",
      "330C",
      "330C",
      "330C",
      "330C",
      "330C",
      "330C",
      "330C",
      "330C",
      "330C",
      "330C",
      "330C",
      "330C",
      "330C",
      "330C",
      "330C",
      "330C",
      "330C",
      "331C",
      "330C",
      "330C",
      "331C",
      "330C",
      "330C",
      "330C",
      "330C",
      "330C",
      "330C",
      "330C",
      "331C",
      "331C",
      "331C",
      "330C",
      "330C",
      "330C",
      "330C",
      "330C",
      "330C",
      "330C",
      "330C",
      "330C",
      "330C",
      "330C",
      "330C",
      "330C",
      "330C",
      "330C",
      "330C",
      "330C",
      "330C",
      "330C",
      "330C",
      "330C",
      "330C",
      "330C",
      "330C",
      "330C",
      "330C",
      "330C",
      "330C",
      "330C",
      "330C",
      "330C",
      "330C",
      "330C",
      "330C",
      "330C",
      "330C",
      "330C",
      "330C",
      "330C",
      "330C",
      "330C",
      "330C",
      "330C",
      "330C",
      "330C",
      "330C",
      "330C",
      "330C",
      "330C",
      "330C",
      "330C",
      "330C",
      "330C",
      "330C",
      "330C",
      "330C",
      "330C",
      "330C",
      "330C",
      "330C",
      "330C",
      "330C",
      "330C",
      "330C",
      "330C",
      "330C",
      "330C",
      "330C",
      "330C",
      "331C",
      "330C",
      "330C",
      "330C",
      "330C",
      "330C",
      "330C",
      "330C",
      "330C",
      "330C",
      "330C",
      "330C",
      "330C",
      "330C",
      "330C",
      "331C",
      "330C",
      "330C",
      "330C",
      "330C",
      "330C",
      "330C",
      "330C",
      "330C",
      "330C",
      "330C",
      "330C",
      "330C",
      "330C",
      "330C",
      "330C",
      "330C",
      "330C",
      "330C",
      "330C",
      "330C",
      "330C",
      "330C",
      "330C",
      "330C",
      "330C",
      "330C",
      "330C",
      "330C",
      "330C",
      "330C",
      "330C",
      "330C",
      "330C",
      "330C",
      "330C",
      "330C",
      "330C",
      "330C",
      "330C",
      "330C",
      "330C",
      "330C",
      "330C",
      "330C",
      "330C",
      "330C",
      "330C",
      "330C",
      "330C",
      "330C",
      "330C",
      "330C",
      "330C",
      "330C",
      "330C",
      "331C",
      "331C",
      "330C",
      "330C",
      "330C",
      "330C",
      "330C",
      "330C",
      "330C",
      "330C",
      "330C",
      "330C",
      "330C",
      "330C",
      "330C",
      "330C",
      "331C",
      "331C",
      "330C",
      "330C",
      "330C",
      "330C",
      "330C",
      "330C",
      "330C",
      "331C",
      "331C",
      "330C",
      "330C",
      "330C",
      "330C",
      "330C",
      "330C",
      "330C",
      "330C",
      "330C",
      "330C",
      "330C",
      "330C",
      "330C",
      "330C",
      "330C",
      "330C",
      "330C",
      "330C",
      "330C",
      "330C",
      "330C",
      "330C",
      "330C",
      "330C",
      "330C",
      "330C",
      "330C",
      "330C",
      "330C",
      "330C",
      "330",
      "331",
      "335",
      "337",
      "342",
      "346",
      "350C",
      "350C",
      "350C",
      "350C",
      "350C",
      "350C",
      "350C",
      "350C",
      "350C",
      "350C",
      "350C",
      "350C",
      "350C",
      "350C",
      "351C",
      "350C",
      "350C",
      "351C",
      "350C",
      "350C",
      "350C",
      "350C",
      "350C",
      "350C",
      "350C",
      "350C",
      "350C",
      "350C",
      "350C",
      "351C",
      "350C",
      "350C",
      "350C",
      "350C",
      "350C",
      "350C",
      "350C",
      "350C",
      "350C",
      "350C",
      "351C",
      "351C",
      "351C",
      "351C",
      "350C",
      "350C",
      "350C",
      "350C",
      "350C",
      "350C",
      "350C",
      "350C",
      "350C",
      "350C",
      "350C",
      "350C",
      "350C",
      "350C",
      "350C",
      "350",
      "342",
      "322",
      "294",
      "269",
      "246",
      "226",
      "209",
      "190",
      "171",
      "155",
      "152",
      "135",
      "120",
      "109C",
      "102",
      "099",
      "093",
      "090",
      "081",
      "075",
      "073",
      "070",
      "070",
      "068",
      "066",
      "064",
      "062",
      "050",
      "047",
      "039",
      "037",
      "030",
      "029",
      "027",
      "020",
      "016",
      "010",
      "003"
    ],
    "swim:geom": "path",
    "swim:speeds": [
      506,
      505,
      512,
      512,
      513,
      513,
      514,
      513,
      515,
      515,
      514,
      513,
      513,
      511,
      512,
      510,
      510,
      510,
      510,
      511,
      511,
      512,
      511,
      511,
      510,
      510,
      509,
      508,
      507,
      506,
      505,
      505,
      504,
      505,
      505,
      505,
      506,
      506,
      506,
      507,
      507,
      508,
      508,
      508,
      508,
      508,
      507,
      506,
      504,
      503,
      502,
      502,
      503,
      504,
      505,
      506,
      506,
      506,
      506,
      507,
      507,
      507,
      507,
      508,
      510,
      511,
      511,
      511,
      510,
      509,
      509,
      509,
      509,
      509,
      510,
      510,
      510,
      510,
      509,
      508,
      507,
      507,
      507,
      508,
      510,
      510,
      510,
      508,
      504,
      502,
      502,
      503,
      506,
      507,
      507,
      509,
      510,
      512,
      513,
      513,
      513,
      513,
      513,
      512,
      511,
      510,
      509,
      508,
      508,
      507,
      507,
      507,
      506,
      506,
      505,
      505,
      505,
      504,
      504,
      503,
      502,
      501,
      501,
      500,
      500,
      499,
      498,
      497,
      496,
      496,
      496,
      495,
      494,
      492,
      492,
      490,
      493,
      491,
      494,
      493,
      494,
      494,
      494,
      494,
      494,
      494,
      493,
      494,
      492,
      492,
      491,
      491,
      489,
      489,
      486,
      484,
      484,
      482,
      482,
      481,
      480,
      480,
      480,
      481,
      482,
      483,
      484,
      485,
      485,
      485,
      484,
      483,
      481,
      480,
      479,
      478,
      478,
      477,
      475,
      474,
      474,
      474,
      474,
      474,
      473,
      473,
      472,
      472,
      471,
      471,
      471,
      471,
      471,
      471,
      471,
      470,
      470,
      470,
      471,
      471,
      471,
      471,
      471,
      470,
      470,
      470,
      470,
      469,
      469,
      469,
      469,
      469,
      469,
      469,
      469,
      469,
      469,
      469,
      468,
      468,
      468,
      467,
      467,
      467,
      466,
      466,
      465,
      465,
      465,
      465,
      465,
      465,
      466,
      466,
      467,
      467,
      468,
      469,
      470,
      470,
      471,
      470,
      470,
      469,
      468,
      467,
      467,
      466,
      465,
      465,
      465,
      465,
      466,
      466,
      466,
      466,
      465,
      465,
      463,
      463,
      462,
      462,
      463,
      463,
      462,
      460,
      458,
      458,
      458,
      458,
      458,
      459,
      459,
      459,
      459,
      458,
      458,
      456,
      456,
      454,
      454,
      453,
      452,
      451,
      450,
      450,
      449,
      449,
      449,
      448,
      448,
      448,
      448,
      447,
      446,
      445,
      445,
      444,
      444,
      445,
      446,
      446,
      444,
      444,
      446,
      447,
      448,
      449,
      444,
      442,
      439,
      438,
      439,
      441,
      443,
      444,
      444,
      444,
      443,
      441,
      439,
      442,
      445,
      443,
      445,
      444,
      445,
      445,
      447,
      449,
      450,
      450,
      449,
      449,
      448,
      448,
      448,
      448,
      450,
      450,
      452,
      453,
      453,
      453,
      452,
      451,
      449,
      449,
      452,
      452,
      452,
      452,
      451,
      451,
      448,
      446,
      445,
      444,
      442,
      442,
      442,
      448,
      451,
      453,
      452,
      440,
      417,
      382,
      369,
      355,
      343,
      347,
      323,
      306,
      298,
      271,
      267,
      250,
      254,
      254,
      243,
      246,
      214,
      218,
      222,
      220,
      217,
      220,
      243,
      240,
      228,
      231,
      258,
      256,
      185,
      149,
      132,
      107,
      109
    ],
    "swim:timestamps": [
      1790487988,
      1790488029,
      1790488048,
      1790488089,
      1790488108,
      1790488149,
      1790488168,
      1790488209,
      1790488269,
      1790488288,
      1790488329,
      1790488348,
      1790488389,
      1790488408,
      1790488449,
      1790488468,
      1790488528,
      1790488569,
      1790488588,
      1790488629,
      1790488648,
      1790488689,
      1790488708,
      1790488749,
      1790488768,
      1790488809,
      1790488828,
      1790488869,
      1790488888,
      1790488929,
      1790488948,
      1790488989,
      1790489008,
      1790489049,
      1790489068,
      1790489109,
      1790489128,
      1790489169,
      1790489188,
      1790489229,
      1790489248,
      1790489289,
      1790489308,
      1790489349,
      1790489368,
      1790489409,
      1790489469,
      1790489529,
      1790489589,
      1790489649,
      1790489709,
      1790489770,
      1790489830,
      1790489890,
      1790489950,
      1790490010,
      1790490070,
      1790490130,
      1790490190,
      1790490250,
      1790490310,
      1790490370,
      1790490430,
      1790490490,
      1790490550,
      1790490610,
      1790490670,
      1790490730,
      1790490790,
      1790490850,
      1790490910,
      1790490970,
      1790491030,
      1790491090,
      1790491150,
      1790491210,
      1790491270,
      1790491330,
      1790491390,
      1790491450,
      1790491511,
      1790491571,
      1790491631,
      1790491691,
      1790491751,
      1790491811,
      1790491871,
      1790491931,
      1790491991,
      1790492051,
      1790492111,
      1790492154,
      1790492171,
      1790492214,
      1790492231,
      1790492274,
      1790492291,
      1790492334,
      1790492351,
      1790492394,
      1790492411,
      1790492454,
      1790492471,
      1790492514,
      1790492531,
      1790492574,
      1790492591,
      1790492634,
      1790492651,
      1790492694,
      1790492711,
      1790492754,
      1790492771,
      1790492814,
      1790492831,
      1790492874,
      1790492891,
      1790492934,
      1790492951,
      1790492994,
      1790493054,
      1790493114,
      1790493174,
      1790493234,
      1790493294,
      1790493354,
      1790493414,
      1790493474,
      1790493534,
      1790493594,
      1790493654,
      1790493714,
      1790493774,
      1790493834,
      1790493894,
      1790493964,
      1790494015,
      1790494024,
      1790494075,
      1790494084,
      1790494135,
      1790494144,
      1790494195,
      1790494204,
      1790494255,
      1790494264,
      1790494315,
      1790494324,
      1790494375,
      1790494384,
      1790494435,
      1790494444,
      1790494495,
      1790494504,
      1790494564,
      1790494615,
      1790494624,
      1790494675,
      1790494684,
      1790494744,
      1790494795,
      1790494804,
      1790494855,
      1790494864,
      1790494924,
      1790494975,
      1790494984,
      1790495045,
      1790495105,
      1790495165,
      1790495225,
      1790495285,
      1790495345,
      1790495405,
      1790495465,
      1790495525,
      1790495585,
      1790495645,
      1790495705,
      1790495765,
      1790495825,
      1790495885,
      1790495945,
      1790496005,
      1790496065,
      1790496125,
      1790496185,
      1790496245,
      1790496305,
      1790496365,
      1790496425,
      1790496485,
      1790496545,
      1790496605,
      1790496665,
      1790496725,
      1790496785,
      1790496845,
      1790496882,
      1790496905,
      1790496942,
      1790496965,
      1790497004,
      1790497026,
      1790497062,
      1790497086,
      1790497122,
      1790497146,
      1790497184,
      1790497206,
      1790497243,
      1790497266,
      1790497302,
      1790497326,
      1790497362,
      1790497386,
      1790497422,
      1790497446,
      1790497482,
      1790497506,
      1790497542,
      1790497566,
      1790497603,
      1790497626,
      1790497665,
      1790497686,
      1790497722,
      1790497746,
      1790497783,
      1790497806,
      1790497843,
      1790497866,
      1790497902,
      1790497926,
      1790497964,
      1790497986,
      1790498022,
      1790498046,
      1790498082,
      1790498106,
      1790498144,
      1790498166,
      1790498205,
      1790498226,
      1790498263,
      1790498286,
      1790498322,
      1790498346,
      1790498382,
      1790498406,
      1790498443,
      1790498466,
      1790498503,
      1790498526,
      1790498563,
      1790498586,
      1790498624,
      1790498646,
      1790498684,
      1790498707,
      1790498742,
      1790498804,
      1790498863,
      1790498924,
      1790498985,
      1790499045,
      1790499102,
      1790499165,
      1790499223,
      1790499282,
      1790499307,
      1790499345,
      1790499367,
      1790499402,
      1790499428,
      1790499462,
      1790499487,
      1790499524,
      1790499547,
      1790499586,
      1790499608,
      1790499643,
      1790499668,
      1790499706,
      1790499728,
      1790499764,
      1790499787,
      1790499825,
      1790499850,
      1790499883,
      1790499907,
      1790499944,
      1790499970,
      1790500004,
      1790500027,
      1790500066,
      1790500089,
      1790500126,
      1790500147,
      1790500183,
      1790500207,
      1790500244,
      1790500268,
      1790500328,
      1790500388,
      1790500449,
      1790500509,
      1790501156,
      1790501216,
      1790501277,
      1790501338,
      1790501396,
      1790501457,
      1790501518,
      1790501576,
      1790501636,
      1790501698,
      1790501758,
      1790501936,
      1790501997,
      1790502058,
      1790502299,
      1790502346,
      1790502356,
      1790502405,
      1790502417,
      1790502465,
      1790502477,
      1790502528,
      1790502599,
      1790502648,
      1790502717,
      1790502766,
      1790502778,
      1790502826,
      1790502839,
      1790502887,
      1790502899,
      1790502946,
      1790502959,
      1790503006,
      1790503067,
      1790503080,
      1790503126,
      1790503137,
      1790503187,
      1790503249,
      1790503257,
      1790503306,
      1790503317,
      1790503367,
      1790503377,
      1790503426,
      1790503438,
      1790503486,
      1790503546,
      1790503606,
      1790503668,
      1790503726,
      1790503786,
      1790503847,
      1790504088,
      1790504149,
      1790504208,
      1790504266,
      1790504326,
      1790504387,
      1790504447,
      1790504508,
      1790504569,
      1790504617,
      1790504629,
      1790504683,
      1790504743,
      1790504807,
      1790504851,
      1790504868,
      1790504911,
      1790504928,
      1790504988,
      1790505031,
      1790505050,
      1790505091,
      1790505108,
      1790505151,
      1790505167,
      1790505211,
      1790505228,
      1790505271,
      1790505288,
      1790505337,
      1790505349,
      1790505397,
      1790505409,
      1790505457,
      1790505530,
      1790505583,
      1790505643,
      1790505707
    ],
    "wof:geomhash": "dfb202e063d94e0498c08a33fe2304a9",
    "wof:id": 2048442859,
    "wof:repo": "sfomuseum-data-flights-2026-09"
  },
  "bbox": [
    -120.3425,
    39.17111111111111,
    -70.93333333333334,
    43.647777777777776
  ],
  "geometry": {"type":"LineString","coordinates":[[-120.3425,39.17111111111111],[-120.26777777777778,39.21194444444445],[-120.19416666666667,39.25833333333333],[-120.1211111111111,39.29888888888889],[-120.06277777777777,39.33527777777778],[-119.97361111111111,39.38611111111111],[-119.91305555555556,39.422777777777775],[-119.82527777777777,39.47222222222222],[-119.6763888888889,39.559444444444445],[-119.61583333333333,39.595],[-119.52833333333334,39.64416666666666],[-119.46888888888888,39.67972222222222],[-119.38055555555555,39.730555555555554],[-119.31916666666666,39.76555555555556],[-119.23361111111112,39.81444444444444],[-119.17055555555557,39.85055555555556],[-119.02027777777778,39.93111111111111],[-118.92750000000001,39.9775],[-118.86194444444443,40.00694444444444],[-118.76416666666667,40.04805555555556],[-118.69833333333334,40.07638888888889],[-118.6036111111111,40.11666666666667],[-118.53472222222221,40.145833333333336],[-118.44250000000001,40.184999999999995],[-118.3736111111111,40.21388888888889],[-118.28138888888888,40.25277777777778],[-118.21055555555556,40.2825],[-118.11749999999999,40.32055555555556],[-118.0475,40.34388888888889],[-117.95138888888889,40.375277777777775],[-117.88,40.39888888888889],[-117.78083333333333,40.431666666666665],[-117.7125,40.45388888888889],[-117.61166666666666,40.48694444444445],[-117.54166666666667,40.50972222222222],[-117.44027777777778,40.54222222222222],[-117.36944444444444,40.565],[-117.26888888888888,40.59722222222222],[-117.19916666666667,40.61972222222222],[-117.09583333333333,40.65277777777778],[-117.02555555555556,40.675],[-116.9225,40.70777777777778],[-116.85027777777778,40.730555555555554],[-116.74916666666667,40.7625],[-116.71305555555556,40.77388888888889],[-116.57555555555555,40.81722222222223],[-116.40583333333333,40.87027777777778],[-116.23222222222222,40.92388888888889],[-116.0625,40.976111111111116],[-115.89,41.02916666666667],[-115.72055555555556,41.080555555555556],[-115.54777777777778,41.132777777777775],[-115.37833333333333,41.18944444444444],[-115.21055555555556,41.24944444444444],[-115.04138888888889,41.309444444444445],[-114.87444444444444,41.36833333333333],[-114.69388888888889,41.43138888888889],[-114.52305555555556,41.49111111111111],[-114.35416666666666,41.54972222222222],[-114.18111111111112,41.60916666666667],[-114.01138888888889,41.6675],[-113.8411111111111,41.72555555555556],[-113.66722222222222,41.78444444444444],[-113.49305555555556,41.8425],[-113.31222222222222,41.88444444444444],[-113.12972222222221,41.92388888888889],[-112.94416666666667,41.96361111111111],[-112.79944444444445,41.99444444444445],[-112.61722222222221,42.032777777777774],[-112.43166666666667,42.07138888888889],[-112.24722222222222,42.10944444444445],[-112.06527777777778,42.146388888888886],[-111.87916666666666,42.18416666666666],[-111.69666666666667,42.22083333333334],[-111.51027777777777,42.25805555555556],[-111.32666666666667,42.294444444444444],[-111.14055555555557,42.33111111111111],[-110.95611111111111,42.36666666666667],[-110.75166666666667,42.405833333333334],[-110.56472222222222,42.44138888888889],[-110.38222222222221,42.475833333333334],[-110.19777777777779,42.51],[-110.01,42.54472222222222],[-109.82472222222222,42.578611111111115],[-109.63611111111112,42.61277777777778],[-109.44944444444445,42.645833333333336],[-109.26333333333334,42.678888888888885],[-109.07638888888889,42.711666666666666],[-108.89111111111112,42.743611111111115],[-108.70861111111111,42.775],[-108.5213888888889,42.80694444444444],[-108.41055555555556,42.82555555555556],[-108.33305555555555,42.83861111111111],[-108.22111111111111,42.85722222222223],[-108.14500000000001,42.87],[-108.03388888888888,42.886944444444445],[-107.95472222222223,42.896388888888886],[-107.84194444444444,42.91],[-107.76305555555555,42.91972222222222],[-107.64944444444446,42.933611111111105],[-107.595,42.94],[-107.44166666666668,42.95861111111111],[-107.405,42.96277777777778],[-107.25138888888888,42.98111111111111],[-107.21472222222222,42.98527777777778],[-107.05388888888889,43.00388888888889],[-107.02555555555556,43.007222222222225],[-106.86527777777778,43.025555555555556],[-106.82888888888888,43.02972222222222],[-106.67694444444444,43.04694444444444],[-106.6363888888889,43.05138888888889],[-106.48555555555555,43.06777777777778],[-106.44694444444445,43.07222222222222],[-106.29638888888888,43.08833333333334],[-106.25777777777778,43.0925],[-106.10722222222222,43.10638888888889],[-106.06972222222223,43.109722222222224],[-105.91888888888889,43.12305555555555],[-105.8775,43.12694444444445],[-105.72777777777777,43.140277777777776],[-105.53972222222222,43.15694444444444],[-105.34888888888888,43.17333333333333],[-105.16194444444444,43.189166666666665],[-104.97111111111111,43.20472222222222],[-104.77972222222222,43.22],[-104.62972222222221,43.231944444444444],[-104.43944444444445,43.246944444444445],[-104.25027777777778,43.26111111111111],[-104.06416666666667,43.275],[-103.87472222222222,43.28861111111111],[-103.68777777777778,43.301944444444445],[-103.49861111111112,43.315],[-103.31333333333333,43.327222222222225],[-103.125,43.33972222222222],[-102.9388888888889,43.35166666666667],[-102.72666666666667,43.36472222222223],[-102.56333333333333,43.375],[-102.53333333333333,43.376666666666665],[-102.37583333333333,43.38611111111111],[-102.34722222222221,43.38777777777778],[-102.18777777777778,43.39694444444444],[-102.15972222222223,43.39861111111111],[-101.97055555555556,43.409166666666664],[-101.97194444444445,43.40888888888889],[-101.78305555555555,43.41916666666666],[-101.78166666666667,43.41916666666666],[-101.59833333333333,43.428888888888885],[-101.59666666666666,43.428888888888885],[-101.40861111111111,43.43833333333333],[-101.41027777777778,43.43833333333333],[-101.22583333333334,43.4475],[-101.22416666666666,43.4475],[-101.03888888888889,43.45638888888889],[-101.04083333333332,43.45638888888889],[-100.85472222222222,43.46472222222223],[-100.67416666666666,43.472500000000004],[-100.6725,43.472500000000004],[-100.4925,43.48027777777778],[-100.49111111111111,43.48027777777778],[-100.30944444444444,43.487500000000004],[-100.1261111111111,43.49472222222222],[-100.12777777777777,43.49472222222222],[-99.94416666666667,43.50194444444445],[-99.90611111111112,43.50416666666667],[-99.72222222222223,43.51611111111111],[-99.57722222222222,43.52472222222222],[-99.53916666666666,43.526944444444446],[-99.35416666666666,43.53722222222222],[-99.17027777777778,43.54722222222222],[-98.98666666666666,43.556666666666665],[-98.80388888888889,43.566111111111105],[-98.61888888888888,43.57527777777778],[-98.44916666666667,43.583333333333336],[-98.26722222222222,43.59166666666667],[-98.08472222222221,43.6],[-97.90361111111112,43.60777777777778],[-97.72305555555556,43.615],[-97.53972222222222,43.621944444444445],[-97.35944444444443,43.62888888888889],[-97.17972222222222,43.635555555555555],[-97.00027777777778,43.641666666666666],[-96.82,43.647777777777776],[-96.63944444444445,43.644999999999996],[-96.45972222222223,43.63972222222222],[-96.27972222222222,43.634166666666665],[-96.09972222222221,43.628055555555555],[-95.92,43.62166666666667],[-95.7425,43.615],[-95.56222222222222,43.608333333333334],[-95.38277777777778,43.60111111111111],[-95.20166666666667,43.593611111111116],[-95.0225,43.58583333333333],[-94.8411111111111,43.57777777777778],[-94.66194444444444,43.56944444444445],[-94.48361111111112,43.56083333333333],[-94.30333333333333,43.551944444444445],[-94.11361111111111,43.54222222222222],[-93.9525,43.53388888888889],[-93.84722222222221,43.52833333333333],[-93.77388888888889,43.52444444444444],[-93.66638888888889,43.51833333333333],[-93.59333333333333,43.51444444444444],[-93.48555555555555,43.50805555555556],[-93.41416666666667,43.50416666666667],[-93.30805555555555,43.49777777777778],[-93.23611111111111,43.493611111111115],[-93.13027777777778,43.488055555555555],[-93.05722222222222,43.48416666666667],[-92.94944444444445,43.47805555555556],[-92.87833333333333,43.473888888888894],[-92.7725,43.467777777777776],[-92.70027777777779,43.46361111111111],[-92.59194444444444,43.45722222222223],[-92.52027777777778,43.45305555555556],[-92.41388888888889,43.446666666666665],[-92.34277777777777,43.44222222222222],[-92.23444444444445,43.43527777777778],[-92.16333333333334,43.43083333333333],[-92.05722222222222,43.424166666666665],[-91.98666666666666,43.419444444444444],[-91.8775,43.41222222222222],[-91.80749999999999,43.4075],[-91.70111111111112,43.400277777777774],[-91.62888888888888,43.39527777777778],[-91.52388888888889,43.38777777777778],[-91.45111111111112,43.382777777777775],[-91.345,43.375277777777775],[-91.275,43.37027777777778],[-91.16861111111112,43.36277777777778],[-91.09722222222221,43.3575],[-90.99055555555556,43.35],[-90.91833333333334,43.34444444444445],[-90.81555555555555,43.336666666666666],[-90.74222222222222,43.33111111111111],[-90.6363888888889,43.323055555555555],[-90.56305555555555,43.3175],[-90.45916666666668,43.31027777777778],[-90.38527777777779,43.312777777777775],[-90.2786111111111,43.31722222222223],[-90.20611111111111,43.319722222222225],[-90.10277777777777,43.32333333333334],[-90.0275,43.325833333333335],[-89.92611111111111,43.32944444444445],[-89.84805555555555,43.33222222222223],[-89.74972222222222,43.33555555555556],[-89.67305555555556,43.33777777777778],[-89.57055555555556,43.34111111111111],[-89.49722222222222,43.343611111111116],[-89.39500000000001,43.34666666666667],[-89.32138888888889,43.348888888888894],[-89.21916666666667,43.35194444444445],[-89.14305555555556,43.35416666666667],[-89.0425,43.35666666666667],[-88.96583333333334,43.35861111111111],[-88.86277777777777,43.361111111111114],[-88.79027777777777,43.363055555555555],[-88.68972222222223,43.36555555555556],[-88.61472222222221,43.367222222222225],[-88.48305555555555,43.37],[-88.41416666666667,43.37166666666667],[-88.31416666666667,43.37361111111111],[-88.1413888888889,43.37722222222222],[-87.96611111111112,43.38055555555555],[-87.78833333333333,43.38361111111111],[-87.61361111111111,43.38638888888889],[-87.44083333333333,43.38861111111111],[-87.2625,43.39083333333333],[-87.0886111111111,43.3925],[-86.91250000000001,43.39416666666666],[-86.735,43.39555555555555],[-86.6675,43.395833333333336],[-86.56055555555555,43.39666666666667],[-86.49166666666667,43.39722222222222],[-86.38361111111112,43.3975],[-86.31666666666666,43.3975],[-86.20805555555556,43.3975],[-86.14194444444445,43.397777777777776],[-86.03611111111111,43.397777777777776],[-85.96666666666667,43.397777777777776],[-85.8611111111111,43.397777777777776],[-85.79333333333334,43.397777777777776],[-85.7213888888889,43.3975],[-85.61999999999999,43.39722222222222],[-85.55111111111111,43.39694444444444],[-85.44694444444445,43.396388888888886],[-85.3786111111111,43.39611111111111],[-85.27694444444444,43.39555555555555],[-85.20611111111111,43.394999999999996],[-85.14111111111112,43.39472222222222],[-85.03694444444444,43.39388888888889],[-84.96833333333333,43.39333333333333],[-84.86416666666666,43.3925],[-84.79777777777778,43.39194444444444],[-84.69555555555556,43.39083333333333],[-84.6275,43.39],[-84.5275,43.388888888888886],[-84.45972222222223,43.38805555555555],[-84.35638888888889,43.38666666666666],[-84.29166666666667,43.385555555555555],[-84.18694444444445,43.38388888888889],[-84.11888888888888,43.382777777777775],[-84.01555555555555,43.38111111111111],[-83.93388888888889,43.379444444444445],[-83.76555555555555,43.37694444444445],[-83.59305555555555,43.373333333333335],[-83.42333333333333,43.36944444444445],[-83.25138888888888,43.36527777777778],[-81.3938888888889,43.30583333333333],[-81.22722222222222,43.299166666666665],[-81.05944444444444,43.29222222222222],[-80.89416666666668,43.285],[-80.7286111111111,43.277499999999996],[-80.56222222222222,43.26972222222222],[-80.39194444444445,43.26138888888889],[-80.2238888888889,43.253055555555555],[-80.05583333333333,43.24444444444445],[-79.8963888888889,43.23583333333333],[-79.72805555555556,43.22694444444445],[-79.22527777777778,43.198055555555555],[-79.05749999999999,43.18805555555555],[-78.89305555555556,43.17777777777778],[-78.22305555555556,43.134166666666665],[-78.09138888888889,43.125277777777775],[-78.05583333333333,43.12277777777778],[-77.91972222222223,43.11333333333334],[-77.88555555555556,43.11083333333333],[-77.75138888888888,43.10111111111111],[-77.71527777777779,43.09861111111111],[-77.58166666666666,43.08861111111111],[-77.3736111111111,43.073055555555555],[-77.23833333333333,43.062777777777775],[-77.0325,43.04694444444444],[-76.89611111111111,43.03611111111111],[-76.86194444444443,43.03333333333333],[-76.7286111111111,43.0225],[-76.69222222222223,43.019444444444446],[-76.54388888888889,43.00694444444444],[-76.5411111111111,43.00694444444444],[-76.37472222222222,42.99305555555556],[-76.37166666666666,42.99277777777778],[-76.205,42.978611111111114],[-76.035,42.96388888888889],[-76.03222222222222,42.96361111111111],[-75.86333333333333,42.948611111111106],[-75.86333333333333,42.948611111111106],[-75.69638888888889,42.93333333333333],[-75.5325,42.91833333333333],[-75.49555555555555,42.915],[-75.3625,42.90277777777778],[-75.3261111111111,42.899166666666666],[-75.19305555555556,42.88666666666666],[-75.16027777777778,42.88361111111111],[-75.02722222222222,42.87083333333334],[-74.99222222222222,42.8675],[-74.85972222222222,42.85444444444445],[-74.69722222222222,42.83833333333334],[-74.52944444444444,42.82138888888889],[-74.365,42.80472222222222],[-74.20194444444445,42.78777777777778],[-74.03472222222221,42.77027777777778],[-73.8711111111111,42.75277777777778],[-73.19916666666667,42.74138888888889],[-73.02694444444444,42.730555555555554],[-72.86944444444444,42.71222222222222],[-72.70166666666667,42.692499999999995],[-72.54277777777777,42.67361111111111],[-72.39527777777778,42.655277777777776],[-72.23277777777778,42.63583333333333],[-72.09694444444445,42.62],[-71.96333333333334,42.60416666666667],[-71.85,42.583333333333336],[-71.82555555555555,42.58694444444445],[-71.71666666666667,42.56666666666667],[-71.6,42.55],[-71.48527777777778,42.528055555555554],[-71.41666666666667,42.516666666666666],[-71.38388888888889,42.507222222222225],[-71.31666666666666,42.5],[-71.29277777777777,42.48833333333334],[-71.20083333333334,42.47027777777778],[-71.13333333333334,42.46666666666667],[-71.1111111111111,42.456944444444446],[-71.05,42.45],[-71.02944444444444,42.44694444444444],[-71,42.4],[-70.98944444444444,42.393055555555556],[-70.96666666666667,42.35],[-70.95305555555557,42.33861111111111],[-70.93333333333334,42.3],[-70.94638888888889,42.28111111111111],[-70.96666666666667,42.233333333333334],[-70.97472222222223,42.220555555555556],[-71.01666666666667,42.166666666666664],[-71.025,42.169444444444444],[-71.08333333333333,42.2],[-71.06361111111111,42.24388888888889],[-71.05,42.28333333333333],[-71.03333333333333,42.31666666666667],[-71.01694444444445,42.34027777777778]]}
}
