{
  "id": 2048415595,
  "type": "Feature",
  "properties": {
    "date:inception_lower": "2026-09-23",
    "date:inception_upper": "2026-09-23",
    "edtf:cessation": "",
    "edtf:inception": "2026-09-23",
    "flysfo:actual_timestamp": -1,
    "flysfo:airline": "DL",
    "flysfo:base_airline": "",
    "flysfo:base_flight_number": "4175",
    "flysfo:date": "2026-09-23",
    "flysfo:estimated_timestamp": 1790175300,
    "flysfo:event": "D",
    "flysfo:flight_number": "DL640",
    "flysfo:gate": "C5",
    "flysfo:journey": "SFO-DEN",
    "flysfo:scheduled_timestamp": 1790175600,
    "flysfo:timestamp": 1790175600,
    "geom:area": 0,
    "geom:bbox": "-122.370943,37.617990,-104.672219,39.864939",
    "geom:latitude": 38.7414645,
    "geom:longitude": -113.521581,
    "iata:airline": "DL",
    "iata:base_airline": "",
    "icao:airline": "DAL",
    "icao:base_airline": "AMX",
    "lbl:latitude": 37.615184,
    "lbl:longitude": -122.382965,
    "sfomuseum:airline_id": 1159284261,
    "sfomuseum:arrival_id": 102531189,
    "sfomuseum:base_flight_id": "20260923-D-AMX-4175",
    "sfomuseum:departure_id": 102527513,
    "sfomuseum:flight_id": "20260923-D-DAL-640",
    "sfomuseum:flight_number": [
      "DAL640",
      "DL640"
    ],
    "sfomuseum:placetype": "flight",
    "src:geom": "flysfo",
    "wof:belongsto": [
      1947304067,
      102527513,
      1947304663,
      102191575,
      85633793,
      102087579,
      85922583,
      554784711,
      85688637,
      1947304675,
      1947304591,
      102085387
    ],
    "wof:country": "US",
    "wof:created": 1790266429,
    "wof:geomhash": "976937653dbac6c9c27dd23670ba89bf",
    "wof:hierarchy": [
      {
        "building_id": 1947304067,
        "campus_id": 102527513,
        "concourse_id": 1947304663,
        "continent_id": 102191575,
        "country_id": 85633793,
        "county_id": 102087579,
        "custom_id": 2048415595,
        "flight_id": 2048415595,
        "locality_id": 85922583,
        "postalcode_id": 554784711,
        "region_id": 85688637,
        "venue_id": 1947304675,
        "wing_id": 1947304591
      },
      {
        "building_id": 1947304067,
        "campus_id": 102527513,
        "concourse_id": 1947304663,
        "continent_id": 102191575,
        "country_id": 85633793,
        "county_id": 102085387,
        "custom_id": 2048415595,
        "flight_id": 2048415595,
        "region_id": 85688637,
        "venue_id": 1947304675,
        "wing_id": 1947304591
      }
    ],
    "wof:id": 2048415595,
    "wof:involves": [
      102531189,
      102527513,
      1159284261,
      1947304675,
      1159283539
    ],
    "wof:lastmodified": 1790266429,
    "wof:name": "DL640 (SFO-DEN)",
    "wof:parent_id": 1947304675,
    "wof:placetype": "custom",
    "wof:placetype_alt": [
      "flight"
    ],
    "wof:repo": "sfomuseum-data-flights-2026-09",
    "wof:superseded_by": [],
    "wof:supersedes": []
  },
  "bbox": [
    -122.370943,
    37.61799,
    -104.672219,
    39.864939
  ],
  "geometry": {"type":"MultiPoint","coordinates":[[-122.370943,37.61799],[-104.672219,39.864939]]}
}
