{
  "id": 2048239577,
  "type": "Feature",
  "properties": {
    "geom:area": 0,
    "geom:bbox": "-122.845230,37.422110,-122.141530,38.489430",
    "geom:latitude": 37.8309166800753,
    "geom:longitude": -122.5092203199739,
    "src:alt_label": "swim-approach",
    "src:geom": "swim",
    "swim:elevations": [
      7788,
      7562,
      7213,
      7037,
      6853,
      6678,
      6329,
      6188,
      5761,
      5548,
      5202,
      5036,
      4878,
      4826,
      4338,
      4042,
      3837,
      3565,
      3388,
      3353,
      3353,
      3353,
      3261,
      3081,
      3028,
      2666,
      2534,
      2258,
      2023,
      1901,
      1620,
      1367,
      1053,
      926,
      914,
      864,
      813,
      608,
      549,
      408,
      390,
      247,
      123,
      65
    ],
    "swim:geom": "approach",
    "swim:timestamps": [
      1788481586,
      1788481609,
      1788481642,
      1788481660,
      1788481678,
      1788481696,
      1788481731,
      1788481746,
      1788481791,
      1788481812,
      1788481849,
      1788481867,
      1788481885,
      1788481891,
      1788481945,
      1788481978,
      1788481999,
      1788482035,
      1788482059,
      1788482080,
      1788482128,
      1788482148,
      1788482184,
      1788482217,
      1788482223,
      1788482274,
      1788482292,
      1788482331,
      1788482361,
      1788482377,
      1788482420,
      1788482448,
      1788482484,
      1788482502,
      1788482544,
      1788482568,
      1788482583,
      1788482624,
      1788482652,
      1788482696,
      1788482702,
      1788482743,
      1788482779,
      1788482798
    ],
    "wof:geomhash": "0b152a1a9cdd068b350ac7f542ef6dd4",
    "wof:id": 2048239577,
    "wof:repo": "sfomuseum-data-flights-2026-09"
  },
  "bbox": [
    -122.84523,
    37.42211,
    -122.14153,
    38.48943
  ],
  "geometry": {"type":"LineString","coordinates":[[-122.84523,38.48943],[-122.83225,38.4454],[-122.81475,38.38554],[-122.8052,38.35306],[-122.79574,38.32068],[-122.78633,38.28854],[-122.76834,38.2271],[-122.76079,38.20128],[-122.73848,38.12426],[-122.72796,38.08791],[-122.71005,38.02653],[-122.70114,37.99593],[-122.69277,37.96692],[-122.69,37.95728],[-122.64775,37.87555],[-122.60309,37.83307],[-122.57524,37.80684],[-122.5305,37.76454],[-122.50235,37.73791],[-122.47781,37.7147],[-122.42135,37.66174],[-122.39954,37.64128],[-122.36384,37.60601],[-122.34365,37.57158],[-122.34015,37.56547],[-122.31021,37.51443],[-122.29969,37.49694],[-122.27726,37.45999],[-122.25371,37.43593],[-122.23286,37.4294],[-122.18062,37.42211],[-122.16177,37.44436],[-122.14314,37.47532],[-122.14153,37.49085],[-122.16522,37.52027],[-122.18101,37.53624],[-122.19406,37.54354],[-122.23126,37.56095],[-122.25358,37.57008],[-122.28365,37.58266],[-122.2875,37.58423],[-122.31325,37.59512],[-122.33654,37.60488],[-122.34913,37.61019]]}
}
