{
  "id": 2048329329,
  "type": "Feature",
  "properties": {
    "geom:area": 0,
    "geom:bbox": "-123.328310,37.628780,-122.393720,38.507360",
    "geom:latitude": 38.02537688864794,
    "geom:longitude": -122.89513834795508,
    "src:alt_label": "swim-takeoff",
    "src:geom": "swim",
    "swim:elevations": [
      152,
      426,
      954,
      1182,
      1249,
      1710,
      2140,
      2497,
      2771,
      3047,
      3238,
      3412,
      3536,
      3949,
      4167,
      4441,
      4795,
      5140,
      5323,
      5576,
      5847,
      6122,
      6512,
      6648,
      6828,
      6949
    ],
    "swim:geom": "takeoff",
    "swim:timestamps": [
      1789349485,
      1789349503,
      1789349545,
      1789349575,
      1789349587,
      1789349635,
      1789349665,
      1789349696,
      1789349720,
      1789349745,
      1789349784,
      1789349813,
      1789349831,
      1789349873,
      1789349896,
      1789349926,
      1789349956,
      1789349995,
      1789350016,
      1789350044,
      1789350074,
      1789350102,
      1789350147,
      1789350165,
      1789350186,
      1789350210
    ],
    "wof:geomhash": "a97115c7ececa8fb5686fb32e25db263",
    "wof:id": 2048329329,
    "wof:repo": "sfomuseum-data-flights-2026-09"
  },
  "bbox": [
    -123.32831,
    37.62878,
    -122.39372,
    38.50736
  ],
  "geometry": {"type":"LineString","coordinates":[[-122.39372,37.62878],[-122.41211,37.63633],[-122.45759,37.65551],[-122.49509,37.6714],[-122.51041,37.67897],[-122.57218,37.71555],[-122.61391,37.74005],[-122.65751,37.76535],[-122.69184,37.78537],[-122.72785,37.80685],[-122.77791,37.84919],[-122.81087,37.88886],[-122.83181,37.91433],[-122.88276,37.97598],[-122.9111,38.00978],[-122.94923,38.05544],[-122.98749,38.1013],[-123.03805,38.16163],[-123.06562,38.19454],[-123.10229,38.23832],[-123.14348,38.28731],[-123.18113,38.33217],[-123.24228,38.40433],[-123.26699,38.43325],[-123.29561,38.46725],[-123.32831,38.50736]]}
}
