{
  "id": 2048392699,
  "type": "Feature",
  "properties": {
    "geom:area": 0,
    "geom:bbox": "-122.360570,37.491290,-121.251230,37.614890",
    "geom:latitude": 37.54689417883967,
    "geom:longitude": -121.81078725439971,
    "src:alt_label": "swim-approach",
    "src:geom": "swim",
    "swim:elevations": [
      4596,
      4314,
      4080,
      3952,
      3587,
      3522,
      3256,
      3067,
      2847,
      2741,
      2662,
      2538,
      2344,
      2163,
      2046,
      1861,
      1829,
      1575,
      1553,
      1474,
      1274,
      1169,
      917,
      914,
      689,
      552,
      549,
      371,
      245,
      182,
      88,
      0
    ],
    "swim:geom": "approach",
    "swim:timestamps": [
      1790020017,
      1790020048,
      1790020078,
      1790020094,
      1790020134,
      1790020143,
      1790020180,
      1790020223,
      1790020254,
      1790020280,
      1790020297,
      1790020317,
      1790020348,
      1790020378,
      1790020391,
      1790020417,
      1790020451,
      1790020498,
      1790020503,
      1790020515,
      1790020544,
      1790020562,
      1790020614,
      1790020631,
      1790020662,
      1790020682,
      1790020701,
      1790020737,
      1790020763,
      1790020782,
      1790020817,
      1790020836
    ],
    "wof:geomhash": "63f4beff159a46db06a23909c8146664",
    "wof:id": 2048392699,
    "wof:repo": "sfomuseum-data-flights-2026-09"
  },
  "bbox": [
    -122.36057,
    37.49129,
    -121.25123,
    37.61489
  ],
  "geometry": {"type":"LineString","coordinates":[[-121.25123,37.59463],[-121.31459,37.58631],[-121.3746,37.57988],[-121.40425,37.57641],[-121.48245,37.56748],[-121.49871,37.56564],[-121.56816,37.55758],[-121.64336,37.54647],[-121.6927,37.5345],[-121.73497,37.52456],[-121.75887,37.51883],[-121.78808,37.51176],[-121.82986,37.5017],[-121.87052,37.49221],[-121.88751,37.49129],[-121.92508,37.49239],[-121.97186,37.49363],[-122.0335,37.50977],[-122.03982,37.5118],[-122.05501,37.51665],[-122.09025,37.52805],[-122.10985,37.53441],[-122.1622,37.55128],[-122.17978,37.55698],[-122.21191,37.56735],[-122.23254,37.57383],[-122.2514,37.57995],[-122.28658,37.59071],[-122.30812,37.59699],[-122.32233,37.60112],[-122.34777,37.60959],[-122.36057,37.61489]]}
}
