{
  "id": 2048415073,
  "type": "Feature",
  "properties": {
    "geom:area": 0,
    "geom:bbox": "-122.546950,37.171850,-121.317390,37.668790",
    "geom:latitude": 37.37291391739612,
    "geom:longitude": -122.03069575611723,
    "src:alt_label": "swim-takeoff",
    "src:geom": "swim",
    "swim:elevations": [
      274,
      497,
      701,
      909,
      1134,
      1614,
      2082,
      2408,
      2916,
      3396,
      3709,
      3920,
      4274,
      4691,
      5133,
      5558,
      5894,
      6291,
      6668,
      7194,
      7341,
      7770,
      8115,
      8223,
      8711,
      9105,
      9317,
      9668
    ],
    "swim:geom": "takeoff",
    "swim:timestamps": [
      1790162305,
      1790162332,
      1790162361,
      1790162384,
      1790162401,
      1790162439,
      1790162475,
      1790162499,
      1790162535,
      1790162577,
      1790162602,
      1790162619,
      1790162641,
      1790162675,
      1790162710,
      1790162742,
      1790162766,
      1790162796,
      1790162824,
      1790162872,
      1790162886,
      1790162928,
      1790162965,
      1790162976,
      1790163015,
      1790163046,
      1790163064,
      1790163101
    ],
    "wof:geomhash": "872ca2ce27d34d180a913f88fbebd154",
    "wof:id": 2048415073,
    "wof:repo": "sfomuseum-data-flights-2026-09"
  },
  "bbox": [
    -122.54695,
    37.17185,
    -121.31739,
    37.66879
  ],
  "geometry": {"type":"LineString","coordinates":[[-122.39767,37.62825],[-122.4223,37.63915],[-122.45321,37.65292],[-122.48182,37.66507],[-122.50587,37.66879],[-122.54695,37.63954],[-122.53265,37.59579],[-122.51727,37.56727],[-122.49296,37.52358],[-122.45137,37.47647],[-122.41338,37.45459],[-122.38677,37.43939],[-122.34878,37.41918],[-122.28377,37.40087],[-122.21096,37.38637],[-122.14213,37.37277],[-122.08984,37.36212],[-122.02622,37.34374],[-121.9683,37.32389],[-121.86472,37.28896],[-121.83474,37.27911],[-121.738,37.24845],[-121.6474,37.23319],[-121.62072,37.22866],[-121.52483,37.21062],[-121.44816,37.1964],[-121.40455,37.1885],[-121.31739,37.17185]]}
}
