{
  "id": 2048470979,
  "type": "Feature",
  "properties": {
    "geom:area": 0,
    "geom:bbox": "-122.367222,37.627222,-104.660556,39.849167",
    "geom:latitude": 38.446978893515066,
    "geom:longitude": -113.34610857044927,
    "src:alt_label": "swim-path",
    "src:geom": "swim",
    "swim:altitudes": [
      "005",
      "032",
      "047",
      "069",
      "099",
      "117",
      "140",
      "162",
      "185",
      "202",
      "221",
      "237",
      "252",
      "262",
      "270C",
      "270C",
      "270C",
      "270C",
      "270C",
      "270C",
      "271C",
      "271C",
      "270C",
      "270C",
      "270C",
      "270C",
      "270C",
      "270C",
      "270C",
      "270C",
      "270C",
      "270C",
      "270C",
      "270C",
      "271C",
      "270C",
      "270C",
      "270C",
      "270C",
      "270C",
      "270C",
      "270C",
      "270C",
      "270C",
      "270C",
      "270C",
      "270C",
      "270C",
      "270C",
      "270C",
      "270C",
      "270C",
      "270C",
      "270C",
      "270C",
      "270C",
      "270C",
      "270C",
      "270C",
      "270C",
      "270C",
      "270C",
      "270C",
      "270C",
      "270C",
      "270C",
      "270C",
      "270C",
      "270C",
      "270C",
      "270C",
      "270C",
      "270C",
      "270C",
      "270C",
      "270C",
      "270C",
      "270C",
      "270C",
      "270C",
      "270C",
      "270C",
      "270C",
      "270C",
      "270C",
      "270C",
      "270C",
      "270C",
      "270C",
      "270C",
      "270C",
      "270C",
      "270C",
      "270C",
      "270C",
      "270C",
      "270C",
      "270C",
      "270C",
      "270C",
      "270C",
      "271C",
      "271C",
      "271",
      "278",
      "292",
      "311",
      "326",
      "342",
      "350C",
      "350C",
      "350C",
      "350C",
      "350C",
      "350C",
      "350C",
      "350C",
      "350C",
      "350C",
      "350C",
      "350C",
      "350C",
      "350C",
      "350C",
      "350C",
      "350C",
      "350C",
      "345",
      "336",
      "327",
      "318",
      "309",
      "298",
      "288",
      "278",
      "268",
      "258",
      "249",
      "239",
      "230",
      "225",
      "218",
      "196",
      "187",
      "180",
      "178",
      "173",
      "169",
      "160",
      "153",
      "144",
      "138",
      "132",
      "130",
      "130",
      "130",
      "130",
      "127",
      "120",
      "114",
      "110",
      "110",
      "110",
      "110",
      "110",
      "110",
      "110",
      "110",
      "107",
      "103",
      "096",
      "092",
      "086",
      "082",
      "076",
      "073",
      "068",
      "064",
      "060",
      "057",
      "053",
      "053"
    ],
    "swim:geom": "path",
    "swim:speeds": [
      154,
      148,
      205,
      261,
      275,
      307,
      351,
      371,
      376,
      393,
      401,
      409,
      413,
      432,
      446,
      451,
      452,
      454,
      451,
      454,
      454,
      454,
      448,
      455,
      447,
      450,
      445,
      449,
      442,
      442,
      443,
      444,
      445,
      445,
      446,
      448,
      446,
      448,
      447,
      444,
      443,
      443,
      443,
      441,
      441,
      440,
      439,
      438,
      437,
      436,
      436,
      433,
      434,
      432,
      432,
      431,
      431,
      431,
      431,
      429,
      429,
      428,
      432,
      434,
      435,
      436,
      436,
      437,
      438,
      438,
      438,
      439,
      440,
      440,
      441,
      442,
      443,
      445,
      445,
      446,
      446,
      443,
      442,
      441,
      443,
      415,
      384,
      385,
      397,
      396,
      396,
      395,
      393,
      393,
      399,
      405,
      410,
      412,
      444,
      460,
      471,
      479,
      489,
      489,
      488,
      493,
      487,
      487,
      480,
      480,
      484,
      484,
      486,
      491,
      493,
      494,
      494,
      495,
      495,
      501,
      507,
      508,
      507,
      506,
      505,
      508,
      509,
      509,
      515,
      519,
      515,
      508,
      488,
      485,
      477,
      466,
      433,
      425,
      420,
      412,
      412,
      392,
      367,
      353,
      350,
      325,
      306,
      291,
      290,
      279,
      278,
      271,
      271,
      265,
      267,
      265,
      266,
      260,
      261,
      249,
      240,
      197,
      200,
      197,
      198,
      196,
      198,
      199,
      198,
      196,
      194,
      186,
      189,
      186,
      187,
      179,
      176,
      141,
      136,
      141,
      138,
      76
    ],
    "swim:timestamps": [
      1790692388,
      1790692448,
      1790692508,
      1790692568,
      1790692628,
      1790692688,
      1790692748,
      1790692808,
      1790692869,
      1790692929,
      1790692989,
      1790693049,
      1790693109,
      1790693169,
      1790693229,
      1790693289,
      1790693349,
      1790693367,
      1790693409,
      1790693427,
      1790693469,
      1790693487,
      1790693530,
      1790693547,
      1790693590,
      1790693607,
      1790693650,
      1790693668,
      1790693710,
      1790693728,
      1790693770,
      1790693788,
      1790693830,
      1790693848,
      1790693890,
      1790693908,
      1790693950,
      1790693968,
      1790694028,
      1790694070,
      1790694088,
      1790694130,
      1790694148,
      1790694190,
      1790694208,
      1790694250,
      1790694268,
      1790694310,
      1790694328,
      1790694371,
      1790694389,
      1790694431,
      1790694449,
      1790694491,
      1790694509,
      1790694551,
      1790694569,
      1790694611,
      1790694629,
      1790694671,
      1790694689,
      1790694731,
      1790694749,
      1790694791,
      1790694809,
      1790694851,
      1790694869,
      1790694911,
      1790694929,
      1790694971,
      1790694989,
      1790695031,
      1790695049,
      1790695091,
      1790695109,
      1790695152,
      1790695170,
      1790695212,
      1790695230,
      1790695290,
      1790695410,
      1790695590,
      1790695650,
      1790695710,
      1790695770,
      1790695830,
      1790695891,
      1790695951,
      1790696011,
      1790696071,
      1790696131,
      1790696191,
      1790696251,
      1790696311,
      1790696371,
      1790696431,
      1790696491,
      1790696551,
      1790696612,
      1790696684,
      1790696744,
      1790696804,
      1790696869,
      1790696929,
      1790696989,
      1790697049,
      1790697109,
      1790697169,
      1790697229,
      1790697289,
      1790697349,
      1790697409,
      1790697469,
      1790697529,
      1790697590,
      1790697650,
      1790697710,
      1790697770,
      1790697825,
      1790697890,
      1790697950,
      1790698010,
      1790698070,
      1790698130,
      1790698190,
      1790698250,
      1790698310,
      1790698371,
      1790698431,
      1790698491,
      1790698551,
      1790698611,
      1790698671,
      1790698731,
      1790698791,
      1790698851,
      1790698911,
      1790698971,
      1790699031,
      1790699060,
      1790699092,
      1790699117,
      1790699212,
      1790699243,
      1790699272,
      1790699300,
      1790699332,
      1790699357,
      1790699392,
      1790699417,
      1790699452,
      1790699480,
      1790699512,
      1790699540,
      1790699572,
      1790699600,
      1790699632,
      1790699660,
      1790699692,
      1790699727,
      1790699752,
      1790699781,
      1790699813,
      1790699843,
      1790699873,
      1790699903,
      1790699933,
      1790699963,
      1790699993,
      1790700023,
      1790700053,
      1790700084,
      1790700113,
      1790700138,
      1790700173,
      1790700198,
      1790700233,
      1790700258,
      1790700293,
      1790700318,
      1790700353,
      1790700413
    ],
    "wof:geomhash": "286ea9b42718cb51e5cab0228a739c1c",
    "wof:id": 2048470979,
    "wof:repo": "sfomuseum-data-flights-2026-09"
  },
  "bbox": [
    -122.36722222222221,
    37.62722222222222,
    -104.66055555555556,
    39.84916666666667
  ],
  "geometry": {"type":"LineString","coordinates":[[-122.36722222222221,37.62722222222222],[-122.3286111111111,37.65416666666667],[-122.28,37.684999999999995],[-122.30027777777778,37.750277777777775],[-122.34555555555555,37.816944444444445],[-122.32944444444443,37.895833333333336],[-122.23611111111111,37.94222222222222],[-122.10583333333332,37.94694444444444],[-121.97444444444444,37.95333333333333],[-121.83638888888889,37.96],[-121.70194444444445,37.96611111111111],[-121.55944444444444,37.97222222222222],[-121.41416666666667,37.978611111111114],[-121.26472222222222,37.984722222222224],[-121.11055555555555,37.99194444444444],[-120.955,38.01444444444444],[-120.80027777777778,38.038333333333334],[-120.74361111111111,38.046388888888885],[-120.61305555555555,38.06666666666667],[-120.58777777777777,38.07027777777778],[-120.45444444444445,38.090833333333336],[-120.42805555555556,38.092222222222226],[-120.29916666666666,38.11388888888889],[-120.27166666666666,38.115833333333335],[-120.14611111111111,38.13638888888889],[-120.12055555555555,38.13972222222222],[-119.99138888888889,38.159166666666664],[-119.96611111111112,38.16083333333333],[-119.84027777777777,38.18111111111111],[-119.81583333333333,38.18333333333333],[-119.6863888888889,38.20333333333333],[-119.66083333333334,38.205000000000005],[-119.53277777777778,38.225],[-119.50722222222223,38.22805555555556],[-119.38277777777778,38.24611111111111],[-119.35083333333333,38.249722222222225],[-119.22888888888889,38.26777777777777],[-119.19638888888889,38.271388888888886],[-119.04333333333334,38.29222222222222],[-118.92194444444445,38.309999999999995],[-118.89083333333333,38.31388888888888],[-118.76888888888888,38.330555555555556],[-118.73805555555556,38.33388888888889],[-118.61472222222221,38.35138888888889],[-118.56,38.35861111111111],[-118.46527777777779,38.37111111111111],[-118.4063888888889,38.37888888888889],[-118.31333333333333,38.39111111111111],[-118.27277777777778,38.396388888888886],[-118.16111111111111,38.41083333333333],[-118.12222222222222,38.41583333333333],[-117.99888888888889,38.431666666666665],[-117.9713888888889,38.43527777777778],[-117.84777777777778,38.45111111111111],[-117.85027777777778,38.450833333333335],[-117.69861111111112,38.47],[-117.66777777777779,38.473888888888894],[-117.57416666666666,38.48527777777778],[-117.51722222222222,38.4925],[-117.42555555555556,38.50388888888889],[-117.36722222222221,38.51083333333333],[-117.27361111111111,38.51916666666666],[-117.21166666666667,38.51888888888889],[-117.11694444444444,38.516666666666666],[-117.08611111111111,38.51583333333333],[-116.95805555555556,38.5125],[-116.89888888888889,38.51111111111111],[-116.80333333333333,38.50861111111111],[-116.74138888888889,38.50694444444444],[-116.64555555555556,38.50416666666667],[-116.58416666666666,38.5025],[-116.49027777777778,38.499722222222225],[-116.42888888888889,38.49777777777778],[-116.33305555555555,38.495],[-116.27055555555556,38.49277777777778],[-116.17583333333334,38.48972222222222],[-116.11305555555555,38.48777777777778],[-116.015,38.48444444444444],[-115.95361111111112,38.48222222222223],[-115.7961111111111,38.47666666666667],[-115.47833333333334,38.465],[-115.02833333333334,38.446666666666665],[-114.8736111111111,38.44],[-114.71888888888888,38.43333333333333],[-114.5611111111111,38.42611111111111],[-114.4063888888889,38.41861111111111],[-114.27194444444444,38.41222222222222],[-114.13472222222222,38.40555555555555],[-113.99527777777777,38.39833333333333],[-113.85666666666665,38.39111111111111],[-113.71583333333334,38.38361111111111],[-113.57694444444444,38.376111111111115],[-113.4388888888889,38.368611111111115],[-113.29972222222221,38.36055555555556],[-113.15805555555556,38.3525],[-113.01666666666667,38.344166666666666],[-112.85499999999999,38.33444444444444],[-112.7075,38.32527777777778],[-112.55694444444444,38.31583333333333],[-112.39555555555556,38.30555555555555],[-112.19694444444445,38.29222222222222],[-112.0261111111111,38.280833333333334],[-111.84972222222221,38.26888888888889],[-111.67861111111111,38.25666666666667],[-111.50833333333334,38.24444444444445],[-111.33361111111111,38.23166666666667],[-111.16388888888889,38.21888888888889],[-110.99083333333333,38.205555555555556],[-110.82388888888889,38.19277777777778],[-110.65666666666667,38.17944444444444],[-110.48666666666666,38.16555555555556],[-110.32027777777778,38.151944444444446],[-110.1463888888889,38.1375],[-109.97222222222223,38.1325],[-109.79805555555555,38.12777777777778],[-109.62666666666667,38.12277777777778],[-109.45111111111112,38.1175],[-109.27805555555555,38.11194444444445],[-109.13666666666667,38.10722222222223],[-108.92777777777778,38.12083333333334],[-108.76222222222222,38.17027777777778],[-108.60249999999999,38.2325],[-108.44305555555556,38.294444444444444],[-108.28416666666666,38.35611111111111],[-108.12249999999999,38.418055555555554],[-107.96111111111111,38.480000000000004],[-107.76694444444445,38.55333333333333],[-107.60472222222222,38.61416666666667],[-107.44,38.675555555555555],[-107.27416666666666,38.73861111111111],[-107.12805555555555,38.79361111111111],[-106.9675,38.85388888888889],[-106.79277777777777,38.91861111111111],[-106.63722222222223,38.976111111111116],[-106.48222222222222,39.033055555555556],[-106.33111111111111,39.08833333333334],[-106.1913888888889,39.13916666666667],[-106.06944444444444,39.183055555555555],[-105.93444444444445,39.231388888888894],[-105.85,39.266666666666666],[-105.79972222222221,39.28],[-105.73333333333333,39.3],[-105.55222222222221,39.36972222222222],[-105.48333333333333,39.4],[-105.42194444444445,39.415277777777774],[-105.36666666666666,39.416666666666664],[-105.30666666666666,39.4175],[-105.26666666666667,39.416666666666664],[-105.20361111111112,39.41777777777777],[-105.16666666666667,39.4],[-105.13527777777779,39.36527777777778],[-105.1,39.333333333333336],[-105.07694444444444,39.30555555555555],[-105.03333333333333,39.3],[-104.98444444444445,39.31166666666666],[-104.93333333333334,39.31666666666667],[-104.89250000000001,39.325833333333335],[-104.85,39.333333333333336],[-104.80166666666666,39.33888888888889],[-104.75,39.35],[-104.71416666666667,39.35111111111111],[-104.68333333333334,39.36666666666667],[-104.66805555555555,39.38944444444444],[-104.66666666666667,39.416666666666664],[-104.66527777777779,39.44333333333333],[-104.66666666666667,39.46666666666667],[-104.66444444444446,39.49805555555556],[-104.66666666666667,39.53333333333333],[-104.66388888888889,39.55277777777778],[-104.66666666666667,39.583333333333336],[-104.66305555555556,39.6075],[-104.66666666666667,39.63333333333333],[-104.66250000000001,39.659166666666664],[-104.66666666666667,39.68333333333333],[-104.66194444444444,39.71027777777778],[-104.66666666666667,39.733333333333334],[-104.6613888888889,39.75944444444445],[-104.66666666666667,39.78333333333333],[-104.66111111111111,39.7975],[-104.66666666666667,39.81666666666667],[-104.66055555555556,39.83583333333333],[-104.66166666666668,39.84916666666667]]}
}
