{
  "id": 2048239915,
  "type": "Feature",
  "properties": {
    "geom:area": 0,
    "geom:bbox": "-122.360460,37.491890,-121.261890,37.615410",
    "geom:latitude": 37.54256006054283,
    "geom:longitude": -121.8183064432245,
    "src:alt_label": "swim-approach",
    "src:geom": "swim",
    "swim:elevations": [
      4489,
      4339,
      3928,
      3861,
      3590,
      3229,
      3133,
      3033,
      2862,
      2751,
      2482,
      2469,
      2311,
      2041,
      1897,
      1861,
      1851,
      1769,
      1252,
      1217,
      1152,
      1140,
      1097,
      954,
      775,
      727,
      551,
      516,
      380,
      348,
      145,
      115,
      58
    ],
    "swim:geom": "approach",
    "swim:timestamps": [
      1788479057,
      1788479079,
      1788479126,
      1788479135,
      1788479166,
      1788479210,
      1788479234,
      1788479270,
      1788479305,
      1788479323,
      1788479365,
      1788479373,
      1788479410,
      1788479458,
      1788479485,
      1788479491,
      1788479533,
      1788479551,
      1788479603,
      1788479628,
      1788479667,
      1788479670,
      1788479683,
      1788479713,
      1788479754,
      1788479773,
      1788479817,
      1788479829,
      1788479871,
      1788479880,
      1788479933,
      1788479942,
      1788479976
    ],
    "wof:geomhash": "fb044a89c875a1fe5fd0b52b6f37b476",
    "wof:id": 2048239915,
    "wof:repo": "sfomuseum-data-flights-2026-09"
  },
  "bbox": [
    -122.36046,
    37.49189,
    -121.26189,
    37.61541
  ],
  "geometry": {"type":"LineString","coordinates":[[-121.26189,37.59274],[-121.30104,37.58765],[-121.38842,37.57796],[-121.40447,37.57617],[-121.45856,37.57009],[-121.53791,37.56077],[-121.57859,37.55598],[-121.63659,37.54813],[-121.68667,37.53596],[-121.71252,37.52973],[-121.76962,37.51604],[-121.78182,37.51311],[-121.83276,37.5008],[-121.90033,37.49189],[-121.93743,37.49443],[-121.94556,37.49496],[-121.99759,37.49802],[-122.01705,37.49919],[-122.07466,37.50227],[-122.10174,37.50671],[-122.14173,37.5228],[-122.14461,37.52404],[-122.15667,37.5292],[-122.18119,37.53946],[-122.21093,37.55209],[-122.2241,37.5576],[-122.25413,37.57024],[-122.26251,37.57376],[-122.29101,37.58578],[-122.29698,37.58829],[-122.33251,37.6032],[-122.33847,37.60572],[-122.36046,37.61541]]}
}
