{
  "id": 2048352235,
  "type": "Feature",
  "properties": {
    "geom:area": 0,
    "geom:bbox": "-122.357250,37.491390,-121.261840,37.613750",
    "geom:latitude": 37.54231382342014,
    "geom:longitude": -121.81653603938025,
    "src:alt_label": "swim-approach",
    "src:geom": "swim",
    "swim:elevations": [
      4854,
      4561,
      4450,
      4037,
      3810,
      3395,
      3251,
      3141,
      2952,
      2806,
      2743,
      2612,
      2308,
      2234,
      2107,
      1950,
      1861,
      1829,
      1613,
      1392,
      1317,
      1125,
      943,
      791,
      744,
      622,
      446,
      300,
      113,
      15
    ],
    "swim:geom": "approach",
    "swim:timestamps": [
      1789563297,
      1789563324,
      1789563332,
      1789563374,
      1789563397,
      1789563438,
      1789563452,
      1789563494,
      1789563533,
      1789563568,
      1789563578,
      1789563606,
      1789563647,
      1789563662,
      1789563685,
      1789563716,
      1789563738,
      1789563759,
      1789563805,
      1789563828,
      1789563840,
      1789563881,
      1789563919,
      1789563955,
      1789563968,
      1789563991,
      1789564036,
      1789564061,
      1789564106,
      1789564133
    ],
    "wof:geomhash": "a46060dc7c65af6bbd631f85ad67959c",
    "wof:id": 2048352235,
    "wof:repo": "sfomuseum-data-flights-2026-09"
  },
  "bbox": [
    -122.35725,
    37.49139,
    -121.26184,
    37.61375
  ],
  "geometry": {"type":"LineString","coordinates":[[-121.26184,37.59294],[-121.31371,37.58661],[-121.32987,37.58489],[-121.40777,37.57642],[-121.45067,37.57111],[-121.52474,37.56237],[-121.55006,37.55952],[-121.6235,37.5508],[-121.68407,37.5366],[-121.73667,37.5241],[-121.75049,37.52079],[-121.78736,37.51183],[-121.83865,37.49942],[-121.85763,37.49474],[-121.88725,37.49139],[-121.92693,37.49378],[-121.95639,37.49535],[-121.98359,37.497],[-122.04203,37.5001],[-122.07082,37.50196],[-122.0862,37.50311],[-122.13198,37.51863],[-122.1728,37.53594],[-122.20908,37.55126],[-122.2215,37.55654],[-122.24389,37.56583],[-122.28502,37.58327],[-122.30487,37.59186],[-122.33786,37.6056],[-122.35725,37.61375]]}
}
