{
  "id": 2048439709,
  "type": "Feature",
  "properties": {
    "geom:area": 0,
    "geom:bbox": "-122.357360,37.542620,-122.188550,37.613660",
    "geom:latitude": 37.57814486879485,
    "geom:longitude": -122.2729529617662,
    "src:alt_label": "swim-approach",
    "src:geom": "swim",
    "swim:elevations": [
      903,
      868,
      673,
      495,
      431,
      214,
      127,
      0
    ],
    "swim:geom": "approach",
    "swim:timestamps": [
      1790406021,
      1790406030,
      1790406072,
      1790406105,
      1790406120,
      1790406175,
      1790406199,
      1790406225
    ],
    "wof:geomhash": "eec96f9cb97f62323463d6186f21f1cd",
    "wof:id": 2048439709,
    "wof:repo": "sfomuseum-data-flights-2026-09"
  },
  "bbox": [
    -122.35736,
    37.54262,
    -122.18855,
    37.61366
  ],
  "geometry": {"type":"LineString","coordinates":[[-122.18855,37.54262],[-122.19732,37.54635],[-122.236,37.5626],[-122.26764,37.57593],[-122.28031,37.58125],[-122.32146,37.59854],[-122.33846,37.60565],[-122.35736,37.61366]]}
}
