{
  "id": 2048429445,
  "type": "Feature",
  "properties": {
    "geom:area": 0,
    "geom:bbox": "-122.750000,37.533333,-112.081389,40.857222",
    "geom:latitude": 39.82817642236384,
    "geom:longitude": -118.12091625417428,
    "src:alt_label": "swim-path",
    "src:geom": "swim",
    "swim:altitudes": [
      "065",
      "091",
      "091",
      "107",
      "129",
      "154",
      "174",
      "186",
      "196",
      "211",
      "227",
      "240",
      "252",
      "264",
      "272",
      "284",
      "299",
      "319",
      "327",
      "333",
      "338C",
      "340C",
      "340C",
      "340C",
      "340C",
      "340C",
      "340C",
      "340C",
      "340C",
      "341C",
      "340C",
      "340C",
      "340C",
      "341C",
      "340C",
      "340C",
      "340C",
      "340C",
      "339C",
      "340C",
      "341C",
      "340C",
      "340C",
      "339C",
      "340C",
      "341C",
      "340C",
      "340C",
      "340C",
      "340C",
      "340C",
      "340C",
      "340C",
      "340C",
      "340C",
      "340C",
      "340C",
      "340C",
      "340C",
      "340C",
      "340C",
      "341C",
      "340C",
      "340C",
      "340C",
      "340C",
      "340C",
      "340C",
      "340",
      "335",
      "330",
      "330",
      "330",
      "330",
      "328",
      "312",
      "275",
      "245",
      "222",
      "218",
      "197",
      "192",
      "176",
      "170",
      "161",
      "155",
      "138",
      "131",
      "129",
      "125",
      "113",
      "110",
      "108C",
      "101",
      "086",
      "078",
      "066",
      "061",
      "056",
      "051",
      "050",
      "050",
      "047",
      "043",
      "038",
      "033",
      "026",
      "022",
      "016",
      "014",
      "009",
      "006",
      "002"
    ],
    "swim:geom": "path",
    "swim:speeds": [
      260,
      271,
      269,
      305,
      325,
      334,
      346,
      377,
      410,
      420,
      426,
      436,
      437,
      441,
      451,
      454,
      448,
      419,
      417,
      417,
      422,
      422,
      427,
      426,
      427,
      422,
      421,
      422,
      425,
      423,
      424,
      426,
      426,
      427,
      421,
      420,
      420,
      417,
      415,
      416,
      417,
      418,
      417,
      416,
      417,
      418,
      416,
      414,
      412,
      412,
      412,
      411,
      413,
      414,
      415,
      415,
      417,
      418,
      418,
      419,
      422,
      422,
      421,
      420,
      417,
      415,
      413,
      413,
      413,
      412,
      416,
      417,
      417,
      418,
      418,
      418,
      423,
      425,
      390,
      383,
      396,
      398,
      384,
      372,
      367,
      325,
      324,
      312,
      280,
      259,
      260,
      255,
      261,
      260,
      260,
      261,
      256,
      249,
      248,
      243,
      246,
      243,
      226,
      200,
      198,
      197,
      185,
      179,
      181,
      151,
      143,
      135,
      136
    ],
    "swim:timestamps": [
      1790358613,
      1790358665,
      1790358673,
      1790358733,
      1790358793,
      1790358854,
      1790358914,
      1790358974,
      1790359034,
      1790359094,
      1790359154,
      1790359214,
      1790359274,
      1790359334,
      1790359394,
      1790359454,
      1790359514,
      1790359574,
      1790359635,
      1790359695,
      1790359755,
      1790359810,
      1790359875,
      1790359930,
      1790359990,
      1790360050,
      1790360115,
      1790360175,
      1790360235,
      1790360291,
      1790360351,
      1790360416,
      1790360471,
      1790360531,
      1790360596,
      1790360651,
      1790360711,
      1790360776,
      1790360836,
      1790360892,
      1790360952,
      1790361012,
      1790361072,
      1790361137,
      1790361197,
      1790361252,
      1790361317,
      1790361372,
      1790361432,
      1790361497,
      1790361557,
      1790361613,
      1790361673,
      1790361733,
      1790361793,
      1790361853,
      1790361913,
      1790361973,
      1790362033,
      1790362093,
      1790362154,
      1790362214,
      1790362274,
      1790362334,
      1790362394,
      1790362454,
      1790362514,
      1790362574,
      1790362634,
      1790362694,
      1790362754,
      1790362875,
      1790362935,
      1790362995,
      1790363055,
      1790363115,
      1790363175,
      1790363235,
      1790363295,
      1790363309,
      1790363355,
      1790363370,
      1790363415,
      1790363430,
      1790363476,
      1790363490,
      1790363536,
      1790363549,
      1790363596,
      1790363610,
      1790363656,
      1790363670,
      1790363716,
      1790363730,
      1790363776,
      1790363790,
      1790363836,
      1790363850,
      1790363896,
      1790363910,
      1790363956,
      1790363970,
      1790364016,
      1790364030,
      1790364076,
      1790364090,
      1790364137,
      1790364150,
      1790364197,
      1790364210,
      1790364257,
      1790364270,
      1790364317
    ],
    "wof:geomhash": "791d0b8708fdfc566b8bc6683a04e282",
    "wof:id": 2048429445,
    "wof:repo": "sfomuseum-data-flights-2026-09"
  },
  "bbox": [
    -122.75,
    37.53333333333333,
    -112.08138888888888,
    40.85722222222223
  ],
  "geometry": {"type":"LineString","coordinates":[[-112.08138888888888,40.77333333333333],[-112.17166666666667,40.79888888888889],[-112.1738888888889,40.799166666666665],[-112.27833333333334,40.81472222222222],[-112.39472222222223,40.833333333333336],[-112.51694444444445,40.85277777777778],[-112.64250000000001,40.85722222222223],[-112.77638888888889,40.84638888888889],[-112.92416666666666,40.842222222222226],[-113.07777777777777,40.8425],[-113.235,40.84277777777778],[-113.3963888888889,40.84277777777778],[-113.55694444444444,40.8425],[-113.71805555555555,40.842222222222226],[-113.885,40.84138888888889],[-114.05138888888888,40.84055555555556],[-114.21472222222222,40.83916666666667],[-114.36999999999999,40.83777777777778],[-114.51638888888888,40.83638888888889],[-114.66888888888889,40.83444444444444],[-114.82305555555556,40.825],[-114.97916666666667,40.81083333333333],[-115.13416666666667,40.78972222222222],[-115.28888888888889,40.77222222222222],[-115.44222222222223,40.75388888888889],[-115.5925,40.73638888888889],[-115.74416666666667,40.717777777777776],[-115.89694444444446,40.69916666666666],[-116.04972222222221,40.680277777777775],[-116.20472222222223,40.66111111111111],[-116.35777777777777,40.64194444444444],[-116.51083333333334,40.62222222222222],[-116.66555555555556,40.6025],[-116.81694444444445,40.58277777777778],[-116.98666666666666,40.54527777777778],[-117.09472222222222,40.50611111111111],[-117.23194444444445,40.45611111111111],[-117.39361111111111,40.39694444444444],[-117.52666666666667,40.34777777777778],[-117.64,40.30583333333333],[-117.77638888888889,40.255],[-117.91583333333334,40.20277777777778],[-118.05055555555555,40.15222222222222],[-118.20777777777778,40.09277777777778],[-118.3461111111111,40.04055555555556],[-118.45444444444445,39.99916666666667],[-118.61388888888888,39.93833333333333],[-118.72083333333333,39.89694444444444],[-118.85277777777777,39.846111111111114],[-119.00944444444444,39.78527777777778],[-119.13861111111112,39.735],[-119.27361111111111,39.68222222222222],[-119.40611111111112,39.63],[-119.53694444444444,39.57833333333333],[-119.67527777777778,39.5325],[-119.82027777777778,39.51027777777778],[-119.96777777777778,39.490833333333335],[-120.11555555555555,39.471111111111114],[-120.24722222222222,39.453611111111115],[-120.39527777777778,39.433611111111105],[-120.54444444444444,39.413333333333334],[-120.69333333333334,39.39277777777778],[-120.84222222222222,39.37222222222222],[-120.98833333333333,39.375],[-121.13527777777779,39.39333333333333],[-121.28222222222222,39.38777777777778],[-121.42611111111111,39.36888888888889],[-121.5325,39.29194444444444],[-121.63166666666666,39.20805555555556],[-121.73027777777779,39.12416666666667],[-121.85027777777778,39.02194444444444],[-122.05027777777778,38.85],[-122.14944444444446,38.76444444444444],[-122.24888888888889,38.67833333333333],[-122.33444444444444,38.60416666666667],[-122.43305555555555,38.518055555555556],[-122.5325,38.43111111111111],[-122.6325,38.34305555555556],[-122.74194444444444,38.242222222222225],[-122.75,38.21666666666667],[-122.74111111111111,38.13666666666666],[-122.73333333333333,38.11666666666667],[-122.71083333333334,38.030833333333334],[-122.7,38],[-122.68833333333333,37.95305555555556],[-122.68333333333334,37.916666666666664],[-122.63166666666666,37.86083333333333],[-122.61666666666666,37.833333333333336],[-122.56472222222222,37.79833333333333],[-122.55,37.78333333333333],[-122.5075,37.74333333333333],[-122.48333333333333,37.733333333333334],[-122.43444444444445,37.70416666666667],[-122.4,37.7],[-122.34972222222221,37.680277777777775],[-122.31666666666666,37.666666666666664],[-122.26555555555555,37.654444444444444],[-122.23333333333333,37.65],[-122.1863888888889,37.628055555555555],[-122.16666666666667,37.61666666666667],[-122.10722222222222,37.600833333333334],[-122.08333333333333,37.583333333333336],[-122.0775,37.550555555555555],[-122.1,37.53333333333333],[-122.14194444444445,37.547777777777775],[-122.16666666666667,37.55],[-122.2038888888889,37.56472222222222],[-122.21666666666667,37.56666666666667],[-122.26138888888889,37.58361111111111],[-122.28333333333333,37.583333333333336],[-122.30944444444444,37.59722222222222],[-122.31666666666666,37.6],[-122.35249999999999,37.611666666666665]]}
}
