{
  "id": 2048426243,
  "type": "Feature",
  "properties": {
    "geom:area": 0,
    "geom:bbox": "-122.399870,37.625750,-121.255460,38.419610",
    "geom:latitude": 38.08414575479787,
    "geom:longitude": -121.93409145088488,
    "src:alt_label": "swim-takeoff",
    "src:geom": "swim",
    "swim:elevations": [
      305,
      633,
      1168,
      1393,
      1481,
      2342,
      2652,
      3040,
      3354,
      3520,
      3722,
      3951,
      4572,
      5006,
      5244,
      5586,
      5943,
      6075,
      6342,
      6681,
      7125,
      7341
    ],
    "swim:geom": "takeoff",
    "swim:timestamps": [
      1790290375,
      1790290401,
      1790290491,
      1790290528,
      1790290544,
      1790290613,
      1790290642,
      1790290674,
      1790290708,
      1790290735,
      1790290761,
      1790290793,
      1790290851,
      1790290900,
      1790290926,
      1790290969,
      1790291011,
      1790291027,
      1790291065,
      1790291117,
      1790291184,
      1790291213
    ],
    "wof:geomhash": "3676344b017b8c3bb437890486b4f8d9",
    "wof:id": 2048426243,
    "wof:repo": "sfomuseum-data-flights-2026-09"
  },
  "bbox": [
    -122.39987,
    37.62575,
    -121.25546,
    38.41961
  ],
  "geometry": {"type":"LineString","coordinates":[[-122.39178,37.62575],[-122.39987,37.64062],[-122.35176,37.70435],[-122.33586,37.74015],[-122.34386,37.75804],[-122.38389,37.84163],[-122.38487,37.8807],[-122.3799,37.92571],[-122.33479,37.95993],[-122.28673,37.97849],[-122.2389,37.99853],[-122.17715,38.02325],[-122.0586,38.07076],[-121.95696,38.11162],[-121.90101,38.13362],[-121.80634,38.17118],[-121.71409,38.2082],[-121.67811,38.22255],[-121.59,38.25751],[-121.46979,38.30481],[-121.31905,38.3802],[-121.25546,38.41961]]}
}
