{
  "id": 2048370645,
  "type": "Feature",
  "properties": {
    "geom:area": 0,
    "geom:bbox": "-122.758010,37.512220,-122.035580,38.257860",
    "geom:latitude": 37.76068529169437,
    "geom:longitude": -122.41007649393995,
    "src:alt_label": "swim-approach",
    "src:geom": "swim",
    "swim:elevations": [
      6013,
      5709,
      5469,
      5170,
      5025,
      4662,
      4361,
      4205,
      3873,
      3533,
      3493,
      3400,
      3353,
      3231,
      3079,
      3000,
      2812,
      2603,
      2526,
      2362,
      2159,
      1924,
      1665,
      1559,
      1524,
      1368,
      1209,
      1219,
      1084,
      825,
      697,
      606,
      472,
      353,
      122,
      58,
      71
    ],
    "swim:geom": "approach",
    "swim:timestamps": [
      1789756305,
      1789756341,
      1789756367,
      1789756401,
      1789756418,
      1789756461,
      1789756496,
      1789756518,
      1789756549,
      1789756585,
      1789756591,
      1789756629,
      1789756655,
      1789756689,
      1789756727,
      1789756744,
      1789756788,
      1789756827,
      1789756841,
      1789756869,
      1789756906,
      1789756939,
      1789756972,
      1789756991,
      1789757016,
      1789757057,
      1789757087,
      1789757114,
      1789757147,
      1789757182,
      1789757205,
      1789757227,
      1789757256,
      1789757287,
      1789757337,
      1789757359,
      1789757373
    ],
    "wof:geomhash": "1f20c470485fbcfa8844baa490e2c51e",
    "wof:id": 2048370645,
    "wof:repo": "sfomuseum-data-flights-2026-09"
  },
  "bbox": [
    -122.75801,
    37.51222,
    -122.03558,
    38.25786
  ],
  "geometry": {"type":"LineString","coordinates":[[-122.75801,38.25786],[-122.75722,38.19053],[-122.74358,38.14308],[-122.72595,38.08136],[-122.71736,38.05219],[-122.69627,37.9798],[-122.67789,37.91907],[-122.65664,37.88515],[-122.6155,37.84502],[-122.56779,37.79991],[-122.56044,37.79306],[-122.51193,37.74747],[-122.48109,37.7182],[-122.43306,37.69352],[-122.3763,37.67878],[-122.35181,37.67313],[-122.28851,37.65885],[-122.23447,37.646],[-122.21436,37.64101],[-122.17604,37.6313],[-122.12614,37.61833],[-122.08467,37.59927],[-122.05144,37.57129],[-122.03558,37.55358],[-122.03759,37.52565],[-122.0834,37.51222],[-122.11219,37.52537],[-122.13658,37.53677],[-122.16614,37.55063],[-122.19942,37.56322],[-122.22064,37.57011],[-122.24106,37.57673],[-122.26777,37.58489],[-122.29215,37.59216],[-122.33175,37.60305],[-122.34792,37.60958],[-122.35778,37.61392]]}
}
