{
  "id": 2048350909,
  "type": "Feature",
  "properties": {
    "geom:area": 0,
    "geom:bbox": "-122.355510,37.464740,-121.262620,37.612900",
    "geom:latitude": 37.53214378689137,
    "geom:longitude": -121.81615361112596,
    "src:alt_label": "swim-approach",
    "src:geom": "swim",
    "swim:elevations": [
      4604,
      4445,
      3984,
      3723,
      3477,
      3433,
      3334,
      3258,
      3103,
      2999,
      2786,
      2710,
      2499,
      2436,
      2376,
      2133,
      2135,
      2041,
      1829,
      1830,
      1829,
      1829,
      1674,
      1516,
      1377,
      1210,
      982,
      878,
      756,
      573,
      485,
      414,
      297,
      206,
      124,
      14
    ],
    "swim:geom": "approach",
    "swim:timestamps": [
      1789596322,
      1789596340,
      1789596387,
      1789596415,
      1789596445,
      1789596451,
      1789596472,
      1789596489,
      1789596517,
      1789596558,
      1789596597,
      1789596612,
      1789596654,
      1789596672,
      1789596702,
      1789596747,
      1789596751,
      1789596796,
      1789596836,
      1789596845,
      1789596863,
      1789596875,
      1789596910,
      1789596947,
      1789596971,
      1789597007,
      1789597048,
      1789597071,
      1789597097,
      1789597133,
      1789597153,
      1789597173,
      1789597207,
      1789597234,
      1789597257,
      1789597278
    ],
    "wof:geomhash": "9456529ea84c924b0269776c3e1f0178",
    "wof:id": 2048350909,
    "wof:repo": "sfomuseum-data-flights-2026-09"
  },
  "bbox": [
    -122.35551,
    37.46474,
    -121.26262,
    37.6129
  ],
  "geometry": {"type":"LineString","coordinates":[[-121.26262,37.59271],[-121.29414,37.58869],[-121.37707,37.57971],[-121.43021,37.57367],[-121.4829,37.56746],[-121.49281,37.56632],[-121.52675,37.56235],[-121.55237,37.55934],[-121.59207,37.55462],[-121.64678,37.54552],[-121.69411,37.52939],[-121.70823,37.51848],[-121.74613,37.48688],[-121.76431,37.47591],[-121.80262,37.47229],[-121.85958,37.47076],[-121.86558,37.47054],[-121.92238,37.468],[-121.9682,37.46534],[-121.97788,37.46474],[-121.997,37.46491],[-122.00958,37.46954],[-122.04367,37.48215],[-122.07936,37.49637],[-122.10413,37.50682],[-122.13891,37.52156],[-122.1776,37.53788],[-122.19869,37.54687],[-122.22213,37.55669],[-122.25461,37.57038],[-122.27053,37.57713],[-122.28485,37.5831],[-122.30731,37.59262],[-122.32569,37.60028],[-122.34119,37.60687],[-122.35551,37.6129]]}
}
