{
  "id": 2048479231,
  "type": "Feature",
  "properties": {
    "geom:area": 0,
    "geom:bbox": "-122.348611,37.646111,-109.074167,42.176111",
    "geom:latitude": 40.494324775540655,
    "geom:longitude": -115.93889096608162,
    "src:alt_label": "swim-path",
    "src:geom": "swim",
    "swim:altitudes": [
      "016",
      "022",
      "030",
      "040",
      "058",
      "080",
      "101",
      "114",
      "123",
      "137",
      "153",
      "167",
      "183",
      "201",
      "213",
      "225",
      "235",
      "246",
      "258",
      "262",
      "268",
      "271",
      "276",
      "279",
      "284",
      "287",
      "291",
      "294",
      "296",
      "301",
      "303",
      "308",
      "311",
      "317",
      "320",
      "325",
      "329C",
      "330C",
      "330C",
      "330C",
      "330C",
      "330C",
      "330C",
      "330C",
      "330C",
      "330C",
      "330C",
      "330C",
      "330C",
      "330C",
      "330C",
      "330C",
      "330C",
      "330C",
      "330C",
      "330C",
      "330C",
      "330C",
      "330C",
      "330C",
      "330C",
      "330C",
      "330C",
      "330C",
      "330C",
      "330C",
      "330C",
      "330C",
      "330C",
      "330C",
      "330C",
      "330C",
      "330C",
      "330C",
      "330C",
      "330C",
      "329C",
      "330C",
      "330C",
      "330C",
      "330C",
      "330C",
      "330C",
      "330C",
      "330C",
      "330C",
      "330C",
      "330C",
      "330C",
      "330C",
      "330C",
      "330C",
      "330C",
      "330C",
      "330C",
      "330C",
      "330C",
      "330C",
      "330C",
      "330C",
      "331C",
      "330C",
      "330C",
      "330",
      "331",
      "335",
      "347",
      "350C",
      "350C"
    ],
    "swim:geom": "path",
    "swim:speeds": [
      174,
      188,
      190,
      238,
      274,
      277,
      285,
      308,
      348,
      371,
      382,
      391,
      398,
      401,
      401,
      405,
      416,
      423,
      431,
      428,
      437,
      437,
      444,
      446,
      450,
      450,
      458,
      457,
      462,
      463,
      465,
      463,
      467,
      467,
      468,
      467,
      467,
      467,
      466,
      467,
      468,
      468,
      469,
      471,
      470,
      474,
      471,
      473,
      477,
      480,
      481,
      480,
      481,
      480,
      480,
      480,
      479,
      479,
      478,
      478,
      478,
      477,
      478,
      477,
      477,
      477,
      476,
      476,
      475,
      474,
      474,
      474,
      473,
      473,
      473,
      472,
      472,
      472,
      474,
      473,
      473,
      474,
      475,
      475,
      475,
      473,
      472,
      471,
      470,
      469,
      469,
      469,
      469,
      468,
      468,
      467,
      467,
      467,
      468,
      470,
      472,
      472,
      471,
      470,
      486,
      471,
      472,
      467,
      471
    ],
    "swim:timestamps": [
      1790810920,
      1790810938,
      1790810980,
      1790811040,
      1790811100,
      1790811160,
      1790811220,
      1790811280,
      1790811340,
      1790811400,
      1790811460,
      1790811520,
      1790811581,
      1790811641,
      1790811701,
      1790811761,
      1790811821,
      1790811881,
      1790811941,
      1790811974,
      1790812001,
      1790812034,
      1790812061,
      1790812094,
      1790812121,
      1790812154,
      1790812181,
      1790812214,
      1790812242,
      1790812274,
      1790812302,
      1790812334,
      1790812362,
      1790812394,
      1790812422,
      1790812454,
      1790812482,
      1790812515,
      1790812542,
      1790812575,
      1790812602,
      1790812635,
      1790812662,
      1790812695,
      1790812722,
      1790812755,
      1790812782,
      1790812842,
      1790812875,
      1790812902,
      1790812935,
      1790812963,
      1790812995,
      1790813023,
      1790813055,
      1790813083,
      1790813115,
      1790813143,
      1790813175,
      1790813203,
      1790813236,
      1790813263,
      1790813296,
      1790813323,
      1790813356,
      1790813383,
      1790813416,
      1790813443,
      1790813476,
      1790813503,
      1790813536,
      1790813563,
      1790813596,
      1790813623,
      1790813656,
      1790813684,
      1790813716,
      1790813776,
      1790814557,
      1790814617,
      1790814677,
      1790814738,
      1790814798,
      1790814858,
      1790814918,
      1790814978,
      1790815038,
      1790815098,
      1790815158,
      1790815218,
      1790815278,
      1790815338,
      1790815398,
      1790815459,
      1790815519,
      1790815579,
      1790815699,
      1790815819,
      1790815879,
      1790815939,
      1790815999,
      1790816059,
      1790816119,
      1790816179,
      1790816188,
      1790816240,
      1790816308,
      1790816360,
      1790816368
    ],
    "wof:geomhash": "f6724c4fdc23efe748ee259a52b55bd3",
    "wof:id": 2048479231,
    "wof:repo": "sfomuseum-data-flights-2026-09"
  },
  "bbox": [
    -122.34861111111111,
    37.64611111111111,
    -109.07416666666666,
    42.17611111111111
  ],
  "geometry": {"type":"LineString","coordinates":[[-122.34861111111111,37.64611111111111],[-122.31666666666666,37.666666666666664],[-122.29416666666667,37.67527777777777],[-122.23111111111112,37.709722222222226],[-122.16722222222222,37.76555555555556],[-122.11277777777777,37.82944444444445],[-122.05055555555555,37.8925],[-121.96888888888888,37.94555555555555],[-121.87944444444443,38.007222222222225],[-121.77388888888889,38.07833333333333],[-121.6725,38.14694444444444],[-121.5586111111111,38.20861111111111],[-121.42694444444444,38.24611111111111],[-121.29333333333334,38.282222222222224],[-121.16694444444445,38.325833333333335],[-121.05583333333333,38.39555555555555],[-120.94194444444445,38.465833333333336],[-120.82416666666666,38.53861111111111],[-120.67888888888889,38.62833333333333],[-120.62805555555555,38.656388888888884],[-120.55666666666666,38.70333333333333],[-120.50416666666666,38.733333333333334],[-120.43277777777779,38.77916666666667],[-120.3786111111111,38.81111111111111],[-120.30416666666666,38.85777777777778],[-120.24944444444445,38.88666666666666],[-120.17750000000001,38.93472222222222],[-120.1211111111111,38.96638888888889],[-120.06944444444444,39.00138888888889],[-119.99472222222222,39.05138888888889],[-119.94777777777779,39.09027777777778],[-119.87277777777777,39.14111111111111],[-119.82222222222222,39.17861111111111],[-119.74583333333334,39.23027777777778],[-119.69638888888889,39.266666666666666],[-119.62277777777777,39.31638888888889],[-119.57305555555556,39.3525],[-119.49916666666667,39.40277777777778],[-119.44722222222222,39.439722222222215],[-119.37222222222222,39.49138888888889],[-119.32194444444444,39.52638888888889],[-119.2461111111111,39.57833333333333],[-119.19444444444444,39.61416666666667],[-119.14750000000001,39.646388888888886],[-119.06444444444445,39.70333333333333],[-118.98944444444444,39.754444444444445],[-118.93694444444445,39.790277777777774],[-118.80333333333333,39.87583333333333],[-118.71666666666667,39.91611111111111],[-118.64944444444446,39.94194444444444],[-118.55805555555555,39.97777777777778],[-118.49333333333334,40.00277777777778],[-118.4038888888889,40.0375],[-118.33916666666666,40.0625],[-118.25,40.096944444444446],[-118.18222222222222,40.12277777777778],[-118.09666666666666,40.155833333333334],[-118.0275,40.18222222222222],[-117.94194444444445,40.21472222222223],[-117.87249999999999,40.24111111111111],[-117.78555555555555,40.274166666666666],[-117.72027777777778,40.29861111111111],[-117.63083333333333,40.3325],[-117.56583333333333,40.356944444444444],[-117.47361111111111,40.391666666666666],[-117.40861111111111,40.41583333333333],[-117.31888888888888,40.44916666666666],[-117.25333333333333,40.47361111111111],[-117.16277777777778,40.5075],[-117.09722222222221,40.531666666666666],[-117.00333333333333,40.56638888888889],[-116.93861111111111,40.59027777777778],[-116.84555555555555,40.62444444444444],[-116.78138888888888,40.647777777777776],[-116.68805555555556,40.681666666666665],[-116.62305555555555,40.705555555555556],[-116.53194444444445,40.73861111111111],[-116.37583333333333,40.79527777777778],[-114.21638888888889,41.28638888888889],[-114.04805555555555,41.32083333333334],[-113.88111111111111,41.35444444444445],[-113.71027777777778,41.388333333333335],[-113.53805555555556,41.420833333333334],[-113.36916666666666,41.45305555555556],[-113.20055555555555,41.484722222222224],[-113.0286111111111,41.51694444444444],[-112.8611111111111,41.54805555555556],[-112.69055555555556,41.57916666666667],[-112.52222222222223,41.609722222222224],[-112.35138888888888,41.64055555555556],[-112.18111111111112,41.670833333333334],[-112.00972222222222,41.70111111111111],[-111.84027777777777,41.730555555555554],[-111.67166666666667,41.76],[-111.50166666666667,41.78916666666667],[-111.32972222222222,41.818333333333335],[-110.99305555555556,41.875],[-110.65305555555557,41.93083333333333],[-110.48027777777779,41.95888888888889],[-110.30916666666667,41.98638888888889],[-110.13444444444445,42.013888888888886],[-109.96361111111112,42.04083333333333],[-109.78972222222222,42.06777777777778],[-109.61888888888888,42.094166666666666],[-109.59083333333332,42.097500000000004],[-109.44694444444445,42.12027777777778],[-109.24666666666667,42.14972222222222],[-109.10305555555556,42.17194444444444],[-109.07416666666666,42.17611111111111]]}
}
