{
  "id": 2048475763,
  "type": "Feature",
  "properties": {
    "geom:area": 0,
    "geom:bbox": "-93.759722,39.833333,-75.283333,41.548611",
    "geom:latitude": 41.24947993369782,
    "geom:longitude": -84.3406335657248,
    "src:alt_label": "swim-path",
    "src:geom": "swim",
    "swim:altitudes": [
      "005",
      "017",
      "040",
      "055",
      "060",
      "081",
      "088",
      "106",
      "110",
      "117",
      "123",
      "130",
      "135",
      "154",
      "171",
      "171",
      "178",
      "192",
      "203",
      "213",
      "228",
      "237",
      "249",
      "256",
      "266",
      "272",
      "280C",
      "280C",
      "280C",
      "280C",
      "280C",
      "280C",
      "280C",
      "280C",
      "280C",
      "280C",
      "280C",
      "280C",
      "280C",
      "280C",
      "280C",
      "280C",
      "280C",
      "280C",
      "280C",
      "280C",
      "280C",
      "280C",
      "280C",
      "280C",
      "280C",
      "280C",
      "280C",
      "280C",
      "280C",
      "280C",
      "280C",
      "280C",
      "280C",
      "280C",
      "280C",
      "280C",
      "280C",
      "280C",
      "280C",
      "280C",
      "280C",
      "280C",
      "280C",
      "280C",
      "280C",
      "280C",
      "280C",
      "280C",
      "280C",
      "280C",
      "280C",
      "280C",
      "280C",
      "280C",
      "280C",
      "280C",
      "280C",
      "280C",
      "280C",
      "280C",
      "280C",
      "280C",
      "280C",
      "280C",
      "280C",
      "280C",
      "280C",
      "280C",
      "280C",
      "280C",
      "280C",
      "280C",
      "280C",
      "299",
      "300",
      "300",
      "308",
      "320C",
      "320C",
      "320C",
      "320C",
      "320C",
      "320C",
      "320C",
      "320C",
      "320C",
      "320C",
      "320C",
      "320C",
      "320C",
      "320C",
      "320C",
      "320C",
      "320C",
      "320C",
      "320C",
      "320C",
      "320C",
      "320C",
      "320C",
      "320C",
      "320C",
      "320C",
      "320C",
      "320C",
      "320C",
      "320C",
      "320C",
      "320C",
      "320C",
      "320C",
      "320C",
      "320C",
      "320C",
      "320C",
      "320C",
      "320",
      "320",
      "324",
      "328",
      "332",
      "336",
      "340C"
    ],
    "swim:geom": "path",
    "swim:speeds": [
      182,
      211,
      245,
      255,
      271,
      271,
      277,
      276,
      302,
      332,
      348,
      350,
      364,
      368,
      372,
      381,
      393,
      401,
      408,
      415,
      423,
      430,
      433,
      443,
      447,
      451,
      453,
      453,
      453,
      453,
      454,
      454,
      454,
      454,
      456,
      458,
      457,
      455,
      453,
      450,
      448,
      446,
      445,
      444,
      444,
      444,
      443,
      443,
      443,
      442,
      441,
      440,
      439,
      438,
      437,
      436,
      436,
      437,
      439,
      440,
      443,
      442,
      444,
      443,
      444,
      443,
      444,
      443,
      443,
      443,
      443,
      443,
      443,
      443,
      444,
      444,
      444,
      444,
      444,
      444,
      444,
      444,
      444,
      443,
      443,
      443,
      443,
      444,
      444,
      444,
      444,
      445,
      445,
      445,
      445,
      445,
      445,
      446,
      446,
      446,
      444,
      442,
      441,
      427,
      429,
      431,
      433,
      434,
      434,
      434,
      435,
      434,
      436,
      434,
      436,
      435,
      437,
      435,
      438,
      435,
      437,
      436,
      437,
      436,
      436,
      436,
      436,
      436,
      436,
      436,
      434,
      434,
      433,
      434,
      433,
      433,
      432,
      432,
      432,
      432,
      431,
      431,
      431,
      431,
      431,
      432,
      432,
      432,
      430
    ],
    "swim:timestamps": [
      1790809126,
      1790809171,
      1790809231,
      1790809270,
      1790809284,
      1790809330,
      1790809344,
      1790809390,
      1790809411,
      1790809450,
      1790809471,
      1790809510,
      1790809566,
      1790809626,
      1790809690,
      1790809747,
      1790809810,
      1790809870,
      1790809927,
      1790809987,
      1790810051,
      1790810111,
      1790810171,
      1790810231,
      1790810291,
      1790810348,
      1790810471,
      1790810528,
      1790810592,
      1790810652,
      1790810712,
      1790810772,
      1790810828,
      1790810888,
      1790810948,
      1790811069,
      1790811129,
      1790811189,
      1790811249,
      1790811309,
      1790811369,
      1790811429,
      1790811489,
      1790811549,
      1790811609,
      1790811670,
      1790811730,
      1790811790,
      1790811850,
      1790811910,
      1790811970,
      1790812030,
      1790812090,
      1790812150,
      1790812210,
      1790812270,
      1790812331,
      1790812391,
      1790812451,
      1790812511,
      1790812547,
      1790812571,
      1790812607,
      1790812631,
      1790812667,
      1790812691,
      1790812727,
      1790812751,
      1790812787,
      1790812848,
      1790812871,
      1790812908,
      1790812931,
      1790812968,
      1790812992,
      1790813028,
      1790813052,
      1790813088,
      1790813112,
      1790813148,
      1790813172,
      1790813208,
      1790813232,
      1790813268,
      1790813292,
      1790813328,
      1790813352,
      1790813388,
      1790813412,
      1790813448,
      1790813472,
      1790813509,
      1790813532,
      1790813569,
      1790813592,
      1790813629,
      1790813653,
      1790813689,
      1790813749,
      1790814530,
      1790814590,
      1790814650,
      1790814711,
      1790814771,
      1790814831,
      1790814891,
      1790814951,
      1790814969,
      1790815008,
      1790815029,
      1790815068,
      1790815089,
      1790815128,
      1790815149,
      1790815188,
      1790815209,
      1790815248,
      1790815269,
      1790815308,
      1790815329,
      1790815369,
      1790815389,
      1790815429,
      1790815449,
      1790815489,
      1790815549,
      1790815570,
      1790815630,
      1790815690,
      1790815750,
      1790815789,
      1790815870,
      1790815909,
      1790815930,
      1790815969,
      1790815990,
      1790816030,
      1790816050,
      1790816090,
      1790816110,
      1790816150,
      1790816170,
      1790816210,
      1790816230,
      1790816271,
      1790816291,
      1790816331,
      1790816351,
      1790816391
    ],
    "wof:geomhash": "b3f82b3b681760a2edda098c43e15017",
    "wof:id": 2048475763,
    "wof:repo": "sfomuseum-data-flights-2026-09"
  },
  "bbox": [
    -93.75972222222222,
    39.833333333333336,
    -75.28333333333333,
    41.54861111111111
  ],
  "geometry": {"type":"LineString","coordinates":[[-75.28333333333333,39.86666666666667],[-75.31666666666666,39.85],[-75.4,39.833333333333336],[-75.44222222222223,39.86694444444444],[-75.45,39.88333333333333],[-75.46583333333334,39.94083333333333],[-75.46666666666667,39.96666666666667],[-75.49111111111111,40.015277777777776],[-75.5,40.05],[-75.51972222222223,40.100833333333334],[-75.53333333333333,40.13333333333333],[-75.55111111111111,40.195277777777775],[-75.62444444444444,40.263333333333335],[-75.7238888888889,40.33027777777778],[-75.83833333333332,40.406666666666666],[-75.94388888888889,40.44833333333333],[-76.09166666666667,40.472500000000004],[-76.24166666666667,40.49666666666667],[-76.37027777777777,40.516666666666666],[-76.505,40.53861111111111],[-76.68472222222222,40.57638888888889],[-76.82333333333332,40.613055555555555],[-76.97500000000001,40.65333333333333],[-77.12805555555555,40.69361111111111],[-77.28444444444445,40.73444444444444],[-77.41638888888889,40.76861111111111],[-77.76277777777777,40.85666666666667],[-77.88777777777779,40.88916666666667],[-78.07972222222222,40.92666666666666],[-78.24416666666667,40.947222222222216],[-78.41222222222223,40.967777777777776],[-78.56972222222223,40.986666666666665],[-78.71027777777778,41.00333333333333],[-78.8761111111111,41.02305555555555],[-79.03916666666666,41.04194444444444],[-79.3711111111111,41.07972222222222],[-79.57027777777778,41.10194444444445],[-79.73416666666667,41.11972222222222],[-79.87944444444443,41.135555555555555],[-80.05777777777777,41.15472222222222],[-80.21861111111112,41.17166666666667],[-80.36611111111111,41.18694444444444],[-80.52583333333334,41.20333333333333],[-80.68861111111111,41.219722222222224],[-80.85055555555554,41.23583333333333],[-81.01305555555555,41.25194444444445],[-81.17472222222223,41.2675],[-81.33722222222222,41.283055555555556],[-81.5111111111111,41.29944444444444],[-81.67222222222223,41.31444444444444],[-81.83305555555555,41.32888888888889],[-81.99361111111111,41.34305555555556],[-82.15694444444445,41.3575],[-82.31805555555555,41.367222222222225],[-82.4775,41.37638888888889],[-82.63694444444445,41.385555555555555],[-82.8,41.39472222222222],[-82.95972222222223,41.40333333333333],[-83.12194444444444,41.41166666666666],[-83.28416666666666,41.419999999999995],[-83.38611111111112,41.425],[-83.44888888888889,41.42805555555555],[-83.52833333333334,41.43194444444444],[-83.61333333333333,41.43611111111111],[-83.69250000000001,41.439722222222215],[-83.77638888888889,41.44361111111111],[-83.85416666666666,41.447222222222216],[-83.94,41.45111111111111],[-84.02083333333333,41.45472222222222],[-84.18305555555555,41.461666666666666],[-84.26861111111111,41.46527777777778],[-84.345,41.468333333333334],[-84.41083333333334,41.471111111111114],[-84.50944444444444,41.475],[-84.57583333333334,41.47777777777778],[-84.67583333333334,41.481388888888894],[-84.7388888888889,41.48388888888889],[-84.84027777777777,41.48777777777778],[-84.90305555555557,41.49],[-85.00305555555556,41.493611111111115],[-85.06638888888888,41.49583333333334],[-85.16944444444445,41.49916666666667],[-85.23305555555555,41.50138888888889],[-85.33472222222221,41.50472222222222],[-85.39972222222222,41.50694444444444],[-85.50305555555556,41.51],[-85.56833333333333,41.511944444444445],[-85.67166666666667,41.515],[-85.73305555555555,41.51694444444444],[-85.83527777777778,41.51972222222222],[-85.89944444444446,41.52166666666667],[-86.00138888888888,41.52444444444444],[-86.06333333333333,41.52611111111111],[-86.16555555555556,41.52777777777778],[-86.22805555555556,41.528888888888886],[-86.33166666666666,41.53055555555555],[-86.39444444444445,41.53138888888889],[-86.49722222222222,41.533055555555556],[-86.66194444444444,41.535555555555554],[-88.79972222222221,41.54833333333333],[-88.96083333333334,41.54861111111111],[-89.12444444444444,41.54833333333333],[-89.28805555555556,41.54805555555556],[-89.44555555555556,41.5475],[-89.60472222222222,41.54666666666667],[-89.76444444444445,41.545833333333334],[-89.92416666666666,41.54472222222222],[-89.97833333333334,41.543055555555554],[-90.085,41.54333333333333],[-90.13833333333334,41.5425],[-90.24388888888889,41.541666666666664],[-90.3,41.54083333333333],[-90.40611111111112,41.54],[-90.46222222222222,41.53805555555555],[-90.56805555555555,41.53777777777778],[-90.62416666666665,41.53666666666666],[-90.75555555555556,41.53527777777778],[-90.78611111111111,41.535],[-90.91555555555556,41.5325],[-90.94888888888889,41.530833333333334],[-91.07972222222222,41.52972222222222],[-91.11083333333333,41.528888888888886],[-91.24111111111111,41.526666666666664],[-91.27277777777778,41.525277777777774],[-91.40277777777779,41.52361111111111],[-91.56361111111111,41.519999999999996],[-91.5961111111111,41.51861111111111],[-91.77305555555556,41.50388888888889],[-91.93194444444445,41.48833333333334],[-92.09138888888889,41.473333333333336],[-92.20166666666667,41.46277777777778],[-92.41055555555556,41.44194444444444],[-92.5038888888889,41.4325],[-92.56805555555555,41.42611111111111],[-92.66027777777778,41.416666666666664],[-92.72527777777778,41.41],[-92.81861111111111,41.400555555555556],[-92.88222222222221,41.39388888888889],[-92.97472222222223,41.384166666666665],[-93.0375,41.37777777777778],[-93.13166666666666,41.367777777777775],[-93.19583333333334,41.36083333333333],[-93.28861111111111,41.350833333333334],[-93.35166666666666,41.34388888888889],[-93.44611111111111,41.33361111111111],[-93.51138888888889,41.32666666666667],[-93.60416666666666,41.316111111111105],[-93.66611111111112,41.309444444444445],[-93.75972222222222,41.293055555555554]]}
}
