{
  "id": 2048338961,
  "type": "Feature",
  "properties": {
    "geom:area": 0,
    "geom:bbox": "-122.401690,37.624560,-121.263390,38.049510",
    "geom:latitude": 37.949152008667845,
    "geom:longitude": -121.95181963520953,
    "src:alt_label": "swim-takeoff",
    "src:geom": "swim",
    "swim:elevations": [
      213,
      468,
      611,
      985,
      1045,
      1277,
      1387,
      1883,
      2353,
      2776,
      3000,
      3349,
      3630,
      3881,
      4185,
      4429,
      4783,
      5087,
      5331,
      5505,
      5698,
      5859,
      6069,
      6354,
      6594,
      6764,
      6845,
      7186,
      7424
    ],
    "swim:geom": "takeoff",
    "swim:timestamps": [
      1789433968,
      1789433988,
      1789434008,
      1789434051,
      1789434060,
      1789434097,
      1789434111,
      1789434144,
      1789434174,
      1789434207,
      1789434225,
      1789434261,
      1789434296,
      1789434323,
      1789434356,
      1789434383,
      1789434416,
      1789434447,
      1789434477,
      1789434495,
      1789434512,
      1789434534,
      1789434558,
      1789434591,
      1789434618,
      1789434646,
      1789434661,
      1789434709,
      1789434736
    ],
    "wof:geomhash": "c42ce4ab8ff3debaf52bfedb642c2cc6",
    "wof:id": 2048338961,
    "wof:repo": "sfomuseum-data-flights-2026-09"
  },
  "bbox": [
    -122.40169,
    37.62456,
    -121.26339,
    38.04951
  ],
  "geometry": {"type":"LineString","coordinates":[[-122.38928,37.62456],[-122.40169,37.63383],[-122.40108,37.64801],[-122.37406,37.67609],[-122.36819,37.6828],[-122.34343,37.71543],[-122.33575,37.73152],[-122.34775,37.77182],[-122.36847,37.80675],[-122.38788,37.84747],[-122.38956,37.87181],[-122.37815,37.9217],[-122.32744,37.9533],[-122.27414,37.96301],[-122.20604,37.97638],[-122.14701,37.98212],[-122.07293,37.98779],[-122.00227,37.99325],[-121.93212,37.9988],[-121.88878,38.00212],[-121.84762,38.00526],[-121.79228,38.00956],[-121.73219,38.01408],[-121.64863,38.02054],[-121.57945,38.02595],[-121.50771,38.0315],[-121.46773,38.03451],[-121.33748,38.04412],[-121.26339,38.04951]]}
}
