{
  "id": 2048236633,
  "type": "Feature",
  "properties": {
    "geom:area": 0,
    "geom:bbox": "-122.544600,36.744140,-121.332350,37.668390",
    "geom:latitude": 37.21371361545606,
    "geom:longitude": -122.01694237142333,
    "src:alt_label": "swim-takeoff",
    "src:geom": "swim",
    "swim:elevations": [
      244,
      805,
      1073,
      1178,
      1676,
      2440,
      2953,
      3428,
      3615,
      3822,
      4261,
      4557,
      4943,
      5312,
      5670,
      5923,
      6234,
      6326,
      6465,
      6934,
      6972,
      7450,
      7537,
      7814,
      8163,
      8287,
      8589,
      9366,
      9856,
      10015
    ],
    "swim:geom": "takeoff",
    "swim:timestamps": [
      1788348083,
      1788348118,
      1788348138,
      1788348153,
      1788348188,
      1788348233,
      1788348263,
      1788348295,
      1788348307,
      1788348330,
      1788348357,
      1788348380,
      1788348406,
      1788348431,
      1788348462,
      1788348490,
      1788348522,
      1788348534,
      1788348552,
      1788348598,
      1788348602,
      1788348653,
      1788348662,
      1788348693,
      1788348736,
      1788348750,
      1788348784,
      1788348846,
      1788348897,
      1788348915
    ],
    "wof:geomhash": "f461917dd58ff116d0c3020dd4a8d643",
    "wof:id": 2048236633,
    "wof:repo": "sfomuseum-data-flights-2026-09"
  },
  "bbox": [
    -122.5446,
    36.74414,
    -121.33235,
    37.66839
  ],
  "geometry": {"type":"LineString","coordinates":[[-122.39303,37.62664],[-122.42509,37.64061],[-122.44375,37.64883],[-122.45992,37.65575],[-122.50592,37.66839],[-122.5446,37.6291],[-122.52797,37.59138],[-122.50503,37.55024],[-122.49667,37.53448],[-122.47832,37.50165],[-122.44107,37.46748],[-122.40391,37.4437],[-122.35783,37.41486],[-122.31444,37.38747],[-122.26007,37.35179],[-122.21013,37.31906],[-122.14961,37.27976],[-122.1266,37.26484],[-122.09199,37.24252],[-122.0001,37.18307],[-121.99202,37.17784],[-121.88842,37.11051],[-121.8703,37.09865],[-121.80464,37.05571],[-121.71219,36.99492],[-121.68206,36.97481],[-121.60911,36.92682],[-121.47627,36.83947],[-121.36944,36.76852],[-121.33235,36.74414]]}
}
