{
  "id": 2048480257,
  "type": "Feature",
  "properties": {
    "geom:area": 0,
    "geom:bbox": "-122.507370,36.748950,-121.396890,37.699290",
    "geom:latitude": 37.19990170522261,
    "geom:longitude": -122.08635287371122,
    "src:alt_label": "swim-takeoff",
    "src:geom": "swim",
    "swim:elevations": [
      122,
      354,
      689,
      870,
      900,
      1099,
      1161,
      1271,
      1329,
      1472,
      1792,
      2116,
      2378,
      2752,
      2908,
      3205,
      3323,
      3455,
      3619,
      3653,
      3717,
      3984,
      4108,
      4220,
      4539,
      4857,
      5103,
      5266,
      5530,
      5790,
      5816,
      6393,
      6667,
      6909,
      7036,
      7338,
      7377,
      7508,
      7648,
      7774
    ],
    "swim:geom": "takeoff",
    "swim:timestamps": [
      1790758941,
      1790758959,
      1790758983,
      1790759000,
      1790759003,
      1790759035,
      1790759045,
      1790759065,
      1790759078,
      1790759100,
      1790759128,
      1790759154,
      1790759179,
      1790759211,
      1790759221,
      1790759252,
      1790759276,
      1790759304,
      1790759335,
      1790759340,
      1790759349,
      1790759378,
      1790759392,
      1790759406,
      1790759440,
      1790759480,
      1790759508,
      1790759526,
      1790759551,
      1790759577,
      1790759581,
      1790759662,
      1790759693,
      1790759719,
      1790759737,
      1790759784,
      1790759790,
      1790759817,
      1790759840,
      1790759869
    ],
    "wof:geomhash": "73f934845e51ce1cc9a9d85be4cd84b0",
    "wof:id": 2048480257,
    "wof:repo": "sfomuseum-data-flights-2026-09"
  },
  "bbox": [
    -122.50737,
    36.74895,
    -121.39689,
    37.69929
  ],
  "geometry": {"type":"LineString","coordinates":[[-122.3675,37.63106],[-122.36053,37.64553],[-122.36127,37.66492],[-122.36201,37.67849],[-122.36262,37.68075],[-122.38572,37.69835],[-122.39771,37.69929],[-122.42163,37.69065],[-122.43503,37.68002],[-122.45845,37.66022],[-122.48478,37.63071],[-122.48985,37.59489],[-122.49365,37.56173],[-122.4984,37.51663],[-122.49969,37.50223],[-122.50383,37.45935],[-122.50737,37.42425],[-122.50644,37.37901],[-122.46312,37.34136],[-122.45464,37.33794],[-122.43621,37.33073],[-122.37976,37.3059],[-122.35372,37.29234],[-122.32757,37.27794],[-122.26462,37.24202],[-122.18847,37.19844],[-122.13476,37.16777],[-122.09972,37.14794],[-122.05027,37.12009],[-121.99948,37.09151],[-121.99164,37.08705],[-121.82875,36.99483],[-121.76542,36.95883],[-121.71209,36.92847],[-121.67619,36.908],[-121.57986,36.8529],[-121.56736,36.84577],[-121.50944,36.81249],[-121.46035,36.78422],[-121.39689,36.74895]]}
}
