{
  "id": 2048466787,
  "type": "Feature",
  "properties": {
    "geom:area": 0,
    "geom:bbox": "-122.358690,37.492160,-121.251830,37.614000",
    "geom:latitude": 37.546810596542755,
    "geom:longitude": -121.81009703483596,
    "src:alt_label": "swim-approach",
    "src:geom": "swim",
    "swim:elevations": [
      4613,
      4134,
      3589,
      3433,
      3171,
      3090,
      2749,
      2716,
      2613,
      2588,
      2578,
      2324,
      2281,
      2155,
      1895,
      1827,
      1736,
      1479,
      1404,
      1402,
      1305,
      1095,
      887,
      795,
      546,
      518,
      334,
      217,
      92,
      111
    ],
    "swim:geom": "approach",
    "swim:timestamps": [
      1790670821,
      1790670873,
      1790670937,
      1790670955,
      1790670986,
      1790670998,
      1790671047,
      1790671050,
      1790671070,
      1790671077,
      1790671080,
      1790671124,
      1790671131,
      1790671153,
      1790671191,
      1790671213,
      1790671248,
      1790671288,
      1790671317,
      1790671322,
      1790671355,
      1790671397,
      1790671422,
      1790671440,
      1790671496,
      1790671506,
      1790671551,
      1790671582,
      1790671615,
      1790671637
    ],
    "wof:geomhash": "15f1f82b32de558cf51e98c102e49274",
    "wof:id": 2048466787,
    "wof:repo": "sfomuseum-data-flights-2026-09"
  },
  "bbox": [
    -122.35869,
    37.49216,
    -121.25183,
    37.614
  ],
  "geometry": {"type":"LineString","coordinates":[[-121.25183,37.59437],[-121.36223,37.58129],[-121.49534,37.56597],[-121.53207,37.56176],[-121.59256,37.55454],[-121.61536,37.55183],[-121.70291,37.53218],[-121.70841,37.53085],[-121.74351,37.52239],[-121.75357,37.51994],[-121.75916,37.51858],[-121.82927,37.50197],[-121.84018,37.49932],[-121.87257,37.49216],[-121.92884,37.49273],[-121.96029,37.49339],[-122.00577,37.5009],[-122.05292,37.51618],[-122.08652,37.52688],[-122.09152,37.52854],[-122.12321,37.53896],[-122.16087,37.55083],[-122.18437,37.55827],[-122.20077,37.56356],[-122.25239,37.58027],[-122.26127,37.58314],[-122.29596,37.59323],[-122.31955,37.60033],[-122.34414,37.60793],[-122.35869,37.614]]}
}
