{
  "id": 2048391379,
  "type": "Feature",
  "properties": {
    "geom:area": 0,
    "geom:bbox": "-123.497560,37.413910,-122.392690,37.672160",
    "geom:latitude": 37.55562740910606,
    "geom:longitude": -122.94319664406758,
    "src:alt_label": "swim-takeoff",
    "src:geom": "swim",
    "swim:elevations": [
      183,
      474,
      812,
      881,
      1085,
      1310,
      1582,
      1743,
      2013,
      2737,
      2996,
      3121,
      3143,
      3294,
      3652,
      4035,
      4053,
      4465,
      4635,
      4781,
      5195,
      5666
    ],
    "swim:geom": "takeoff",
    "swim:timestamps": [
      1789913848,
      1789913867,
      1789913909,
      1789913917,
      1789913964,
      1789913995,
      1789914028,
      1789914041,
      1789914063,
      1789914115,
      1789914149,
      1789914165,
      1789914189,
      1789914223,
      1789914257,
      1789914288,
      1789914303,
      1789914357,
      1789914376,
      1789914397,
      1789914443,
      1789914469
    ],
    "wof:geomhash": "6687902e06f9dd6fb7a92ab812335ec5",
    "wof:id": 2048391379,
    "wof:repo": "sfomuseum-data-flights-2026-09"
  },
  "bbox": [
    -123.49756,
    37.41391,
    -122.39269,
    37.67216
  ],
  "geometry": {"type":"LineString","coordinates":[[-122.39269,37.62625],[-122.40954,37.6336],[-122.4483,37.65034],[-122.4564,37.65396],[-122.51053,37.67216],[-122.55312,37.66269],[-122.60454,37.64872],[-122.62497,37.64323],[-122.65892,37.63396],[-122.74331,37.61229],[-122.79829,37.59809],[-122.82738,37.59033],[-122.87104,37.57917],[-122.94056,37.56097],[-123.01306,37.54188],[-123.07726,37.52476],[-123.10841,37.51649],[-123.231,37.4843],[-123.27655,37.47248],[-123.32579,37.45951],[-123.43731,37.42999],[-123.49756,37.41391]]}
}
