{
  "id": 2048305117,
  "type": "Feature",
  "properties": {
    "geom:area": 0,
    "geom:bbox": "-123.507260,37.417910,-122.397970,37.669470",
    "geom:latitude": 37.55722519696254,
    "geom:longitude": -122.95091745174844,
    "src:alt_label": "swim-takeoff",
    "src:geom": "swim",
    "swim:elevations": [
      379,
      784,
      1063,
      1170,
      1300,
      1833,
      2687,
      3334,
      3617,
      3763,
      4470,
      4624,
      5260,
      5674,
      5995,
      6268,
      6436,
      6854,
      7203,
      7477,
      7601,
      7826
    ],
    "swim:geom": "takeoff",
    "swim:timestamps": [
      1789032473,
      1789032505,
      1789032536,
      1789032553,
      1789032573,
      1789032615,
      1789032666,
      1789032718,
      1789032740,
      1789032750,
      1789032801,
      1789032814,
      1789032864,
      1789032896,
      1789032921,
      1789032946,
      1789032961,
      1789033004,
      1789033041,
      1789033076,
      1789033094,
      1789033123
    ],
    "wof:geomhash": "5dacc7741067952563371b3348833038",
    "wof:id": 2048305117,
    "wof:repo": "sfomuseum-data-flights-2026-09"
  },
  "bbox": [
    -123.50726,
    37.41791,
    -122.39797,
    37.66947
  ],
  "geometry": {"type":"LineString","coordinates":[[-122.39797,37.62852],[-122.42332,37.64016],[-122.45058,37.65129],[-122.46831,37.65928],[-122.49173,37.66947],[-122.55439,37.66197],[-122.63525,37.64231],[-122.7197,37.62027],[-122.75802,37.6107],[-122.77611,37.60636],[-122.86874,37.58281],[-122.89203,37.57681],[-122.98538,37.55273],[-123.04703,37.53674],[-123.09571,37.52426],[-123.14359,37.51199],[-123.17302,37.50443],[-123.25756,37.48262],[-123.33381,37.46291],[-123.40776,37.44371],[-123.44525,37.434],[-123.50726,37.41791]]}
}
