{
  "id": 2048382179,
  "type": "Feature",
  "properties": {
    "geom:area": 0,
    "geom:bbox": "-122.405080,37.624310,-121.245280,38.120700",
    "geom:latitude": 37.88389333024172,
    "geom:longitude": -121.84175337926514,
    "src:alt_label": "swim-takeoff",
    "src:geom": "swim",
    "swim:elevations": [
      152,
      379,
      527,
      813,
      1161,
      1422,
      1869,
      2285,
      2653,
      2957,
      3104,
      3352,
      3596,
      3942,
      4139,
      4453,
      4672,
      5142,
      5370,
      5559,
      5795,
      6087,
      6311,
      6594,
      6768
    ],
    "swim:geom": "takeoff",
    "swim:timestamps": [
      1789805668,
      1789805692,
      1789805715,
      1789805741,
      1789805769,
      1789805803,
      1789805834,
      1789805868,
      1789805895,
      1789805923,
      1789805944,
      1789805997,
      1789806023,
      1789806057,
      1789806078,
      1789806111,
      1789806135,
      1789806178,
      1789806200,
      1789806225,
      1789806256,
      1789806287,
      1789806309,
      1789806341,
      1789806362
    ],
    "wof:geomhash": "7a2923373afa2deac608f5ded088f052",
    "wof:id": 2048382179,
    "wof:repo": "sfomuseum-data-flights-2026-09"
  },
  "bbox": [
    -122.40508,
    37.62431,
    -121.24528,
    38.1207
  ],
  "geometry": {"type":"LineString","coordinates":[[-122.38844,37.62431],[-122.40508,37.63627],[-122.39719,37.65594],[-122.3655,37.66551],[-122.3316,37.67587],[-122.28638,37.69254],[-122.24172,37.70811],[-122.19484,37.72794],[-122.15791,37.74699],[-122.11956,37.76726],[-122.08913,37.78294],[-122.0022,37.82707],[-121.95399,37.84657],[-121.88887,37.87246],[-121.84849,37.88837],[-121.7823,37.91448],[-121.73321,37.93382],[-121.64479,37.96854],[-121.59974,37.98623],[-121.54679,38.00702],[-121.48184,38.0325],[-121.41383,38.05917],[-121.36446,38.07841],[-121.29549,38.10533],[-121.24528,38.1207]]}
}
