{
  "id": 2048378577,
  "type": "Feature",
  "properties": {
    "geom:area": 0,
    "geom:bbox": "-122.359210,37.491330,-121.283340,37.614690",
    "geom:latitude": 37.545486776002974,
    "geom:longitude": -121.82612306835625,
    "src:alt_label": "swim-approach",
    "src:geom": "swim",
    "swim:elevations": [
      4525,
      4309,
      3989,
      3771,
      3398,
      3135,
      3078,
      2820,
      2622,
      2501,
      2407,
      2224,
      2101,
      1947,
      1784,
      1762,
      1455,
      1316,
      1233,
      1003,
      829,
      787,
      626,
      404,
      361,
      216,
      65,
      12
    ],
    "swim:geom": "approach",
    "swim:timestamps": [
      1789827116,
      1789827140,
      1789827173,
      1789827197,
      1789827236,
      1789827266,
      1789827286,
      1789827327,
      1789827355,
      1789827388,
      1789827407,
      1789827437,
      1789827465,
      1789827498,
      1789827538,
      1789827546,
      1789827597,
      1789827622,
      1789827639,
      1789827679,
      1789827716,
      1789827722,
      1789827754,
      1789827799,
      1789827813,
      1789827849,
      1789827893,
      1789827905
    ],
    "wof:geomhash": "f7ca3c76ea8d09f06a650469c88e2d57",
    "wof:id": 2048378577,
    "wof:repo": "sfomuseum-data-flights-2026-09"
  },
  "bbox": [
    -122.35921,
    37.49133,
    -121.28334,
    37.61469
  ],
  "geometry": {"type":"LineString","coordinates":[[-121.28334,37.58996],[-121.33071,37.58461],[-121.39798,37.57728],[-121.44421,37.57205],[-121.51969,37.56319],[-121.57784,37.55634],[-121.61531,37.55141],[-121.68399,37.5368],[-121.72947,37.52586],[-121.78102,37.51345],[-121.81073,37.50632],[-121.85511,37.49565],[-121.89797,37.49133],[-121.94857,37.49261],[-122.00495,37.50029],[-122.01375,37.503],[-122.07484,37.52296],[-122.10027,37.53125],[-122.11832,37.53695],[-122.16181,37.55116],[-122.20077,37.56377],[-122.20702,37.56577],[-122.23932,37.57627],[-122.28144,37.58903],[-122.29284,37.59258],[-122.32006,37.59984],[-122.35166,37.61127],[-122.35921,37.61469]]}
}
