{
  "id": 2048250499,
  "type": "Feature",
  "properties": {
    "geom:area": 0,
    "geom:bbox": "-122.357010,37.438490,-121.264150,37.613250",
    "geom:latitude": 37.53738645029109,
    "geom:longitude": -121.81621325042642,
    "src:alt_label": "swim-approach",
    "src:geom": "swim",
    "swim:elevations": [
      4733,
      4425,
      4241,
      4016,
      3813,
      3650,
      3548,
      3382,
      3215,
      2950,
      2797,
      2663,
      2569,
      2435,
      2438,
      2438,
      2303,
      2225,
      2110,
      1998,
      1891,
      1820,
      1701,
      1554,
      1343,
      1342,
      1252,
      1125,
      1036,
      788,
      621,
      572,
      366,
      302,
      152,
      0
    ],
    "swim:geom": "approach",
    "swim:timestamps": [
      1788549506,
      1788549536,
      1788549555,
      1788549588,
      1788549622,
      1788549649,
      1788549681,
      1788549699,
      1788549724,
      1788549769,
      1788549790,
      1788549812,
      1788549826,
      1788549856,
      1788549895,
      1788549911,
      1788549945,
      1788549966,
      1788549999,
      1788550018,
      1788550041,
      1788550074,
      1788550094,
      1788550124,
      1788550166,
      1788550171,
      1788550186,
      1788550214,
      1788550234,
      1788550281,
      1788550317,
      1788550332,
      1788550378,
      1788550391,
      1788550432,
      1788550465
    ],
    "wof:geomhash": "27b034fdb59c67657aac574a70640e6c",
    "wof:id": 2048250499,
    "wof:repo": "sfomuseum-data-flights-2026-09"
  },
  "bbox": [
    -122.35701,
    37.43849,
    -121.26415,
    37.61325
  ],
  "geometry": {"type":"LineString","coordinates":[[-121.26415,37.5926],[-121.32283,37.58578],[-121.35929,37.58159],[-121.41907,37.57473],[-121.4766,37.56821],[-121.52082,37.56301],[-121.56994,37.55731],[-121.59775,37.55392],[-121.63414,37.54843],[-121.69601,37.53368],[-121.72604,37.52657],[-121.75602,37.51946],[-121.77449,37.515],[-121.80663,37.50059],[-121.81212,37.46373],[-121.81729,37.44907],[-121.8524,37.43849],[-121.87516,37.4474],[-121.91077,37.46236],[-121.93137,37.47097],[-121.95594,37.48121],[-121.98967,37.49529],[-122.01054,37.50185],[-122.04293,37.51217],[-122.08747,37.52723],[-122.09215,37.52868],[-122.10755,37.53328],[-122.13607,37.54242],[-122.15648,37.54934],[-122.20325,37.56436],[-122.23768,37.57528],[-122.25169,37.57986],[-122.2899,37.59138],[-122.30033,37.59422],[-122.33178,37.60389],[-122.35701,37.61325]]}
}
