{
  "id": 2048396003,
  "type": "Feature",
  "properties": {
    "geom:area": 0,
    "geom:bbox": "-122.349000,37.491510,-121.249840,37.610080",
    "geom:latitude": 37.54626917056461,
    "geom:longitude": -121.804097132157,
    "src:alt_label": "swim-approach",
    "src:geom": "swim",
    "swim:elevations": [
      4570,
      4229,
      4017,
      3727,
      3310,
      3172,
      3108,
      3049,
      2824,
      2550,
      2462,
      2349,
      2153,
      1973,
      1773,
      1672,
      1424,
      1237,
      1127,
      978,
      829,
      650,
      516,
      366,
      214,
      121,
      62
    ],
    "swim:geom": "approach",
    "swim:timestamps": [
      1789996724,
      1789996759,
      1789996779,
      1789996812,
      1789996856,
      1789996880,
      1789996898,
      1789996920,
      1789996960,
      1789996999,
      1789997024,
      1789997051,
      1789997076,
      1789997110,
      1789997155,
      1789997170,
      1789997211,
      1789997246,
      1789997265,
      1789997292,
      1789997324,
      1789997358,
      1789997385,
      1789997423,
      1789997455,
      1789997477,
      1789997491
    ],
    "wof:geomhash": "4265ae589beb6d370cde18ca6372a8f7",
    "wof:id": 2048396003,
    "wof:repo": "sfomuseum-data-flights-2026-09"
  },
  "bbox": [
    -122.349,
    37.49151,
    -121.24984,
    37.61008
  ],
  "geometry": {"type":"LineString","coordinates":[[-121.24984,37.59452],[-121.32305,37.58577],[-121.36426,37.58111],[-121.43052,37.57355],[-121.51924,37.56321],[-121.56638,37.55769],[-121.6002,37.55368],[-121.63871,37.54744],[-121.70468,37.5318],[-121.76752,37.51676],[-121.8063,37.50735],[-121.84643,37.49771],[-121.88421,37.49151],[-121.93535,37.49257],[-121.99991,37.49845],[-122.0203,37.5051],[-122.07175,37.52186],[-122.11406,37.53562],[-122.1364,37.54281],[-122.16542,37.55228],[-122.19876,37.56307],[-122.23263,37.57397],[-122.25985,37.58258],[-122.29295,37.59228],[-122.31963,37.60027],[-122.33823,37.60596],[-122.349,37.61008]]}
}
