{
  "id": 2048335603,
  "type": "Feature",
  "properties": {
    "geom:area": 0,
    "geom:bbox": "-122.349660,37.450840,-121.266630,37.610450",
    "geom:latitude": 37.544369160490994,
    "geom:longitude": -121.81393068886652,
    "src:alt_label": "swim-approach",
    "src:geom": "swim",
    "swim:elevations": [
      4688,
      4413,
      4035,
      3995,
      3663,
      3395,
      3324,
      3124,
      3071,
      3005,
      2838,
      2820,
      2605,
      2439,
      2438,
      2438,
      2318,
      2216,
      2161,
      1976,
      1569,
      1439,
      1370,
      1305,
      1146,
      850,
      756,
      613,
      547,
      413,
      289,
      179,
      72
    ],
    "swim:geom": "approach",
    "swim:timestamps": [
      1789420075,
      1789420101,
      1789420138,
      1789420143,
      1789420179,
      1789420220,
      1789420239,
      1789420274,
      1789420304,
      1789420338,
      1789420376,
      1789420380,
      1789420420,
      1789420463,
      1789420487,
      1789420500,
      1789420552,
      1789420581,
      1789420596,
      1789420620,
      1789420676,
      1789420704,
      1789420730,
      1789420742,
      1789420770,
      1789420827,
      1789420849,
      1789420879,
      1789420895,
      1789420928,
      1789420963,
      1789420986,
      1789421013
    ],
    "wof:geomhash": "92407eda2b170800c1217211c8b91c56",
    "wof:id": 2048335603,
    "wof:repo": "sfomuseum-data-flights-2026-09"
  },
  "bbox": [
    -122.34966,
    37.45084,
    -121.26663,
    37.61045
  ],
  "geometry": {"type":"LineString","coordinates":[[-121.26663,37.59224],[-121.31815,37.58632],[-121.38959,37.57828],[-121.39765,37.57734],[-121.46812,37.56919],[-121.53969,37.56079],[-121.57236,37.5569],[-121.62585,37.5503],[-121.66756,37.55376],[-121.71333,37.5709],[-121.76603,37.58307],[-121.77219,37.58178],[-121.80413,37.54574],[-121.8196,37.49884],[-121.82789,37.47308],[-121.83462,37.45848],[-121.89792,37.45084],[-121.93012,37.46654],[-121.94679,37.47304],[-121.97345,37.48333],[-122.03384,37.50643],[-122.06359,37.51798],[-122.09007,37.52803],[-122.10406,37.53235],[-122.13453,37.54218],[-122.19412,37.56138],[-122.2141,37.56803],[-122.2406,37.57658],[-122.2537,37.58083],[-122.27976,37.58836],[-122.30833,37.5969],[-122.32814,37.60287],[-122.34966,37.61045]]}
}
