{
  "id": 2048432063,
  "type": "Feature",
  "properties": {
    "geom:area": 0,
    "geom:bbox": "-122.394167,32.283889,-97.025556,37.438333",
    "geom:latitude": 33.8340991645722,
    "geom:longitude": -109.75797265460169,
    "src:alt_label": "swim-path",
    "src:geom": "swim",
    "swim:altitudes": [
      "113",
      "127",
      "167",
      "175",
      "183",
      "196",
      "210",
      "225",
      "244",
      "250",
      "262",
      "275",
      "280",
      "289",
      "300",
      "308",
      "317",
      "325",
      "332",
      "339",
      "344",
      "349C",
      "350C",
      "350C",
      "350C",
      "350C",
      "350C",
      "350C",
      "350C",
      "350C",
      "350C",
      "350C",
      "350C",
      "350C",
      "350C",
      "350C",
      "350C",
      "350C",
      "350C",
      "350C",
      "350C",
      "350C",
      "350C",
      "350C",
      "350C",
      "350C",
      "350C",
      "350C",
      "350C",
      "350C",
      "350C",
      "350C",
      "350C",
      "350C",
      "350C",
      "350C",
      "350C",
      "350C",
      "350C",
      "350C",
      "350C",
      "350C",
      "350C",
      "350C",
      "350C",
      "350C",
      "350C",
      "350C",
      "350C",
      "350C",
      "350C",
      "350C",
      "350C",
      "350C",
      "350C",
      "350C",
      "350C",
      "350C",
      "350C",
      "350C",
      "350C",
      "350C",
      "350C",
      "350C",
      "350C",
      "350C",
      "350C",
      "350C",
      "350C",
      "350C",
      "350C",
      "350C",
      "350C",
      "350C",
      "350C",
      "350C",
      "350C",
      "350C",
      "350C",
      "350C",
      "350C",
      "350C",
      "350C",
      "350C",
      "350C",
      "350C",
      "350C",
      "350C",
      "350C",
      "350C",
      "350C",
      "350C",
      "350C",
      "350C",
      "350C",
      "350C",
      "350C",
      "350C",
      "350C",
      "350C",
      "350C",
      "350C",
      "350C",
      "350C",
      "349C",
      "350C",
      "350C",
      "350C",
      "350C",
      "350C",
      "350C",
      "350C",
      "350C",
      "350C",
      "350C",
      "350C",
      "350C",
      "350C",
      "350C",
      "350C",
      "350C",
      "350C",
      "350C",
      "350",
      "350",
      "350",
      "350",
      "352",
      "361",
      "368C",
      "369C",
      "370C",
      "370C",
      "370C",
      "369C",
      "370C",
      "370C",
      "370C",
      "370C",
      "370C",
      "370C",
      "370C",
      "370C",
      "370C",
      "370C",
      "370C",
      "370",
      "364",
      "355",
      "350",
      "350",
      "350",
      "342",
      "332",
      "312",
      "290",
      "269",
      "246",
      "248",
      "229",
      "226",
      "211",
      "207",
      "193",
      "187",
      "171",
      "159",
      "149",
      "146",
      "132",
      "130",
      "123",
      "121",
      "120",
      "120",
      "115",
      "111",
      "096",
      "091",
      "078",
      "074",
      "059",
      "056",
      "039",
      "036",
      "030",
      "030",
      "030",
      "030",
      "023",
      "016",
      "015",
      "009",
      "008"
    ],
    "swim:geom": "path",
    "swim:speeds": [
      347,
      382,
      407,
      437,
      459,
      466,
      471,
      486,
      503,
      513,
      506,
      503,
      500,
      499,
      492,
      490,
      489,
      487,
      485,
      484,
      485,
      489,
      492,
      493,
      494,
      495,
      495,
      494,
      494,
      493,
      492,
      493,
      497,
      499,
      500,
      501,
      501,
      501,
      503,
      504,
      505,
      505,
      505,
      505,
      505,
      505,
      505,
      503,
      505,
      503,
      504,
      503,
      503,
      503,
      503,
      503,
      504,
      504,
      504,
      504,
      504,
      504,
      503,
      503,
      503,
      503,
      503,
      503,
      503,
      504,
      503,
      503,
      503,
      504,
      505,
      507,
      507,
      507,
      506,
      506,
      507,
      509,
      509,
      508,
      506,
      505,
      504,
      504,
      503,
      503,
      503,
      503,
      503,
      504,
      504,
      504,
      505,
      507,
      506,
      505,
      503,
      503,
      502,
      501,
      501,
      502,
      502,
      501,
      502,
      503,
      503,
      503,
      503,
      504,
      504,
      504,
      505,
      505,
      506,
      507,
      507,
      508,
      507,
      508,
      508,
      508,
      508,
      508,
      508,
      509,
      510,
      512,
      513,
      516,
      517,
      517,
      517,
      515,
      515,
      514,
      514,
      514,
      514,
      513,
      514,
      513,
      514,
      513,
      512,
      510,
      498,
      500,
      505,
      504,
      502,
      500,
      500,
      505,
      506,
      501,
      498,
      511,
      514,
      515,
      514,
      511,
      508,
      506,
      502,
      503,
      504,
      505,
      504,
      506,
      507,
      498,
      484,
      469,
      470,
      451,
      450,
      426,
      428,
      412,
      408,
      394,
      371,
      354,
      357,
      347,
      345,
      305,
      303,
      290,
      281,
      250,
      254,
      250,
      253,
      253,
      253,
      232,
      235,
      224,
      214,
      187,
      176,
      165,
      170,
      169,
      142,
      145,
      142,
      144
    ],
    "swim:timestamps": [
      1790383233,
      1790383293,
      1790383414,
      1790383474,
      1790383534,
      1790383594,
      1790383654,
      1790383769,
      1790383894,
      1790383949,
      1790384015,
      1790384075,
      1790384129,
      1790384195,
      1790384255,
      1790384310,
      1790384375,
      1790384435,
      1790384490,
      1790384555,
      1790384615,
      1790384670,
      1790384736,
      1790384796,
      1790384851,
      1790384916,
      1790384976,
      1790385031,
      1790385091,
      1790385151,
      1790385211,
      1790385271,
      1790385331,
      1790385391,
      1790385451,
      1790385512,
      1790385572,
      1790385632,
      1790385692,
      1790385752,
      1790385812,
      1790385872,
      1790385932,
      1790385992,
      1790386052,
      1790386112,
      1790386173,
      1790386216,
      1790386233,
      1790386276,
      1790386293,
      1790386336,
      1790386353,
      1790386396,
      1790386413,
      1790386456,
      1790386593,
      1790386636,
      1790386653,
      1790386697,
      1790386713,
      1790386757,
      1790386774,
      1790386817,
      1790386834,
      1790386877,
      1790386894,
      1790386937,
      1790386997,
      1790387057,
      1790387117,
      1790387177,
      1790387237,
      1790387298,
      1790387358,
      1790387418,
      1790387478,
      1790387538,
      1790387598,
      1790387658,
      1790387718,
      1790387778,
      1790387838,
      1790387898,
      1790387958,
      1790388019,
      1790388079,
      1790388139,
      1790388199,
      1790388259,
      1790388319,
      1790388379,
      1790388439,
      1790388499,
      1790388559,
      1790388619,
      1790388680,
      1790388740,
      1790388800,
      1790388860,
      1790388920,
      1790388979,
      1790389040,
      1790389100,
      1790389160,
      1790389220,
      1790389280,
      1790389341,
      1790389402,
      1790389418,
      1790389462,
      1790389478,
      1790389522,
      1790389538,
      1790389583,
      1790389598,
      1790389643,
      1790389658,
      1790389703,
      1790389719,
      1790389763,
      1790389779,
      1790389823,
      1790389839,
      1790389883,
      1790389899,
      1790389944,
      1790389959,
      1790390004,
      1790390064,
      1790390079,
      1790390124,
      1790390139,
      1790390181,
      1790390199,
      1790390241,
      1790390259,
      1790390301,
      1790390319,
      1790390361,
      1790390379,
      1790390421,
      1790390440,
      1790390481,
      1790390500,
      1790390541,
      1790390560,
      1790390620,
      1790390680,
      1790390740,
      1790390860,
      1790390920,
      1790390980,
      1790391040,
      1790391100,
      1790391161,
      1790391221,
      1790391281,
      1790391341,
      1790391401,
      1790391461,
      1790391521,
      1790391581,
      1790391641,
      1790391701,
      1790391761,
      1790391821,
      1790391882,
      1790391942,
      1790392002,
      1790392062,
      1790392122,
      1790392182,
      1790392242,
      1790392302,
      1790392362,
      1790392422,
      1790392475,
      1790392482,
      1790392523,
      1790392542,
      1790392583,
      1790392602,
      1790392643,
      1790392663,
      1790392723,
      1790392783,
      1790392823,
      1790392843,
      1790392889,
      1790392903,
      1790392949,
      1790392963,
      1790393009,
      1790393023,
      1790393064,
      1790393083,
      1790393123,
      1790393143,
      1790393183,
      1790393203,
      1790393249,
      1790393263,
      1790393304,
      1790393323,
      1790393369,
      1790393383,
      1790393429,
      1790393443,
      1790393504,
      1790393550,
      1790393564,
      1790393610,
      1790393624
    ],
    "wof:geomhash": "addf29dbc8cd00755a88114d6c7df52a",
    "wof:id": 2048432063,
    "wof:repo": "sfomuseum-data-flights-2026-09"
  },
  "bbox": [
    -122.39416666666668,
    32.28388888888889,
    -97.02555555555556,
    37.43833333333333
  ],
  "geometry": {"type":"LineString","coordinates":[[-122.39416666666668,37.43833333333333],[-122.2911111111111,37.37166666666667],[-122.05583333333333,37.21944444444445],[-121.94027777777778,37.14416666666666],[-121.81694444444445,37.06361111111111],[-121.6913888888889,36.981388888888894],[-121.56305555555555,36.89722222222222],[-121.33749999999999,36.74305555555556],[-121.03416666666666,36.54527777777778],[-120.93027777777779,36.475833333333334],[-120.76305555555555,36.36416666666667],[-120.63083333333333,36.275277777777774],[-120.52888888888889,36.20638888888889],[-120.39361111111111,36.11527777777778],[-120.26305555555555,36.026666666666664],[-120.13805555555557,35.94166666666666],[-120.00666666666666,35.85166666666667],[-119.87333333333332,35.769444444444446],[-119.74444444444444,35.690555555555555],[-119.60916666666667,35.606944444444444],[-119.47555555555556,35.52444444444444],[-119.34583333333333,35.443888888888885],[-119.20833333333334,35.35805555555556],[-119.075,35.27444444444444],[-118.94416666666667,35.192499999999995],[-118.80805555555555,35.10666666666667],[-118.67555555555556,35.022777777777776],[-118.54583333333333,34.94027777777777],[-118.42194444444445,34.861111111111114],[-118.29194444444444,34.77777777777778],[-118.15972222222223,34.693888888888885],[-118.01777777777778,34.6275],[-117.86083333333333,34.5825],[-117.69972222222222,34.543055555555554],[-117.53861111111111,34.50333333333333],[-117.37777777777777,34.46388888888889],[-117.21722222222222,34.42388888888889],[-117.05666666666666,34.38472222222222],[-116.85638888888889,34.36361111111111],[-116.68861111111111,34.35166666666667],[-116.51916666666666,34.339444444444446],[-116.35055555555554,34.32694444444445],[-116.18138888888889,34.314166666666665],[-116.015,34.30166666666666],[-115.85333333333332,34.288888888888884],[-115.68555555555555,34.27583333333333],[-115.515,34.261944444444445],[-115.40916666666668,34.254444444444445],[-115.34583333333333,34.24805555555556],[-115.2425,34.23861111111111],[-115.17805555555556,34.23416666666667],[-115.07527777777777,34.22555555555556],[-115.01222222222222,34.22027777777778],[-114.90916666666668,34.21138888888889],[-114.84166666666667,34.205555555555556],[-114.70916666666668,34.193888888888885],[-114.33777777777777,34.16083333333333],[-114.20527777777778,34.14861111111111],[-114.16888888888889,34.14527777777778],[-114.03777777777778,34.13305555555556],[-114.0038888888889,34.12972222222222],[-113.89305555555556,34.11944444444445],[-113.83444444444444,34.11388888888889],[-113.7238888888889,34.10333333333333],[-113.66972222222223,34.09805555555556],[-113.55777777777777,34.08722222222222],[-113.5213888888889,34.08361111111111],[-113.3913888888889,34.07083333333334],[-113.22305555555556,34.05416666666667],[-113.05638888888889,34.03722222222222],[-112.89,34.02027777777778],[-112.72361111111111,34.003055555555555],[-112.55499999999999,33.98527777777778],[-112.38833333333334,33.9675],[-112.22111111111111,33.94944444444444],[-112.05333333333333,33.93111111111111],[-111.87638888888888,33.91166666666666],[-111.71111111111111,33.893055555555556],[-111.53055555555555,33.8725],[-111.36416666666666,33.85333333333333],[-111.19500000000001,33.83361111111111],[-111.02694444444444,33.81388888888888],[-110.86,33.79388888888889],[-110.69388888888889,33.77388888888889],[-110.5261111111111,33.75333333333333],[-110.36138888888888,33.73305555555556],[-110.1875,33.71138888888889],[-110.02305555555556,33.690555555555555],[-109.85583333333332,33.66916666666666],[-109.6913888888889,33.64805555555556],[-109.52472222222222,33.626111111111115],[-109.35944444444443,33.60444444444445],[-109.19166666666668,33.581944444444446],[-109.02555555555556,33.559444444444445],[-108.86,33.536944444444444],[-108.72555555555556,33.51861111111111],[-108.55777777777777,33.49527777777778],[-108.3888888888889,33.47166666666667],[-108.22444444444444,33.44833333333333],[-108.05833333333334,33.42444444444444],[-107.89472222222223,33.40083333333333],[-107.70694444444445,33.373333333333335],[-107.54166666666667,33.34916666666667],[-107.37888888888888,33.325],[-107.21388888888889,33.30027777777777],[-107.04777777777778,33.275],[-106.88472222222222,33.25],[-106.71916666666667,33.224444444444444],[-106.55694444444444,33.19916666666666],[-106.52416666666666,33.19416666666666],[-106.39888888888889,33.17444444444444],[-106.35888888888888,33.168055555555554],[-106.22666666666667,33.14722222222222],[-106.19500000000001,33.14194444444444],[-106.06722222222221,33.12166666666667],[-106.03138888888888,33.115833333333335],[-105.9088888888889,33.096111111111114],[-105.86666666666666,33.08916666666667],[-105.73666666666666,33.06805555555556],[-105.70083333333334,33.06222222222222],[-105.57305555555556,33.04111111111111],[-105.53666666666666,33.03527777777778],[-105.40916666666668,33.013888888888886],[-105.37305555555555,33.00805555555556],[-105.24527777777777,32.98638888888889],[-105.20666666666666,32.980000000000004],[-105.08166666666666,32.95916666666667],[-105.0436111111111,32.9525],[-104.91777777777779,32.93138888888889],[-104.7538888888889,32.903055555555554],[-104.715,32.896388888888886],[-104.58833333333332,32.87444444444444],[-104.54638888888888,32.867222222222225],[-104.42083333333333,32.84527777777778],[-104.37944444444443,32.83833333333334],[-104.25361111111111,32.816111111111105],[-104.21333333333334,32.80888888888889],[-104.0761111111111,32.78472222222222],[-104.04666666666667,32.77916666666667],[-103.91111111111111,32.755],[-103.88194444444444,32.75],[-103.74555555555555,32.72527777777778],[-103.71666666666667,32.72027777777778],[-103.58166666666666,32.69555555555555],[-103.55166666666666,32.69],[-103.41805555555555,32.66583333333333],[-103.3863888888889,32.65972222222222],[-103.22,32.63361111111111],[-103.05361111111111,32.61805555555556],[-102.88916666666667,32.6025],[-102.55694444444444,32.57055555555556],[-102.38333333333334,32.55333333333333],[-102.21138888888889,32.53611111111111],[-102.0475,32.519444444444446],[-101.88305555555554,32.5025],[-101.7213888888889,32.48583333333333],[-101.55888888888889,32.468611111111116],[-101.3913888888889,32.450833333333335],[-101.2461111111111,32.434999999999995],[-101.08444444444444,32.4175],[-100.92222222222223,32.39944444444444],[-100.75638888888889,32.380833333333335],[-100.58805555555556,32.36194444444445],[-100.42194444444445,32.34277777777778],[-100.25638888888889,32.32361111111111],[-100.05916666666667,32.30027777777777],[-99.89611111111111,32.28388888888889],[-99.73166666666667,32.28805555555555],[-99.56944444444444,32.29611111111111],[-99.405,32.30472222222222],[-99.2375,32.312777777777775],[-99.0736111111111,32.32083333333334],[-98.90611111111112,32.328611111111115],[-98.74083333333333,32.33638888888889],[-98.59916666666666,32.34305555555556],[-98.435,32.35027777777778],[-98.27638888888889,32.356944444444444],[-98.11666666666666,32.36666666666667],[-98.12249999999999,32.36333333333334],[-98,32.36666666666667],[-97.95861111111111,32.36972222222222],[-97.85,32.36666666666667],[-97.81861111111111,32.375277777777775],[-97.71666666666667,32.38333333333333],[-97.68277777777779,32.38055555555555],[-97.57277777777777,32.42916666666667],[-97.48777777777778,32.503055555555555],[-97.43333333333334,32.55],[-97.40555555555557,32.575],[-97.33333333333333,32.63333333333333],[-97.3261111111111,32.64416666666666],[-97.26666666666667,32.7],[-97.24944444444445,32.711111111111116],[-97.2,32.75],[-97.18777777777778,32.76444444444444],[-97.16666666666667,32.81666666666667],[-97.16722222222222,32.83083333333334],[-97.16666666666667,32.88333333333333],[-97.16611111111112,32.9],[-97.16666666666667,32.95],[-97.16472222222222,32.97138888888889],[-97.15,33.03333333333333],[-97.15305555555557,33.03638888888889],[-97.13333333333334,33.083333333333336],[-97.12555555555555,33.09055555555556],[-97.06666666666666,33.083333333333336],[-97.06388888888888,33.08916666666667],[-97.03333333333333,33.06666666666667],[-97.02888888888889,33.053888888888885],[-97.02555555555556,33.007222222222225],[-97.03333333333333,32.96666666666667],[-97.02583333333334,32.96638888888889],[-97.03333333333333,32.93333333333333],[-97.0261111111111,32.92666666666666]]}
}
