{
  "id": 2048462951,
  "type": "Feature",
  "properties": {
    "geom:area": 0,
    "geom:bbox": "-123.498760,37.629170,-122.394470,37.731600",
    "geom:latitude": 37.69865050289779,
    "geom:longitude": -122.9426165072835,
    "src:alt_label": "swim-takeoff",
    "src:geom": "swim",
    "swim:elevations": [
      213,
      271,
      561,
      950,
      1130,
      1207,
      1246,
      1336,
      1365,
      1410,
      1435,
      3013,
      3230,
      3381,
      4048,
      4128,
      4396,
      4707,
      5052,
      5065,
      5161,
      5619
    ],
    "swim:geom": "takeoff",
    "swim:timestamps": [
      1790606957,
      1790606963,
      1790606985,
      1790607026,
      1790607056,
      1790607071,
      1790607076,
      1790607085,
      1790607088,
      1790607095,
      1790607101,
      1790607240,
      1790607257,
      1790607290,
      1790607391,
      1790607398,
      1790607430,
      1790607459,
      1790607491,
      1790607498,
      1790607512,
      1790607556
    ],
    "wof:geomhash": "b133d0294cf670cda153a0ac63c2ce2a",
    "wof:id": 2048462951,
    "wof:repo": "sfomuseum-data-flights-2026-09"
  },
  "bbox": [
    -123.49876,
    37.62917,
    -122.39447,
    37.7316
  ],
  "geometry": {"type":"LineString","coordinates":[[-122.39447,37.62917],[-122.40028,37.63148],[-122.42179,37.6403],[-122.46336,37.65801],[-122.49711,37.67219],[-122.51705,37.67636],[-122.52396,37.67685],[-122.53766,37.67752],[-122.54209,37.67772],[-122.55258,37.67822],[-122.56116,37.67866],[-122.79866,37.69303],[-122.82759,37.69461],[-122.88997,37.69836],[-123.10748,37.71043],[-123.12482,37.71142],[-123.19823,37.71561],[-123.26713,37.71936],[-123.34257,37.72346],[-123.35901,37.72432],[-123.39276,37.72618],[-123.49876,37.7316]]}
}
