{
  "id": 2048221061,
  "type": "Feature",
  "properties": {
    "geom:area": 0,
    "geom:bbox": "-122.360510,36.726080,-121.881610,37.613500",
    "geom:latitude": 37.21489284373855,
    "geom:longitude": -122.07135629947607,
    "src:alt_label": "swim-approach",
    "src:geom": "swim",
    "swim:elevations": [
      4718,
      4403,
      4172,
      4002,
      3612,
      3431,
      3364,
      3109,
      2698,
      2649,
      2469,
      2438,
      2438,
      2408,
      2385,
      2198,
      2130,
      1807,
      1282,
      1219,
      1106,
      1039,
      935,
      761,
      640,
      546,
      431,
      364,
      211,
      84,
      0
    ],
    "swim:geom": "approach",
    "swim:timestamps": [
      1788288344,
      1788288379,
      1788288407,
      1788288425,
      1788288472,
      1788288498,
      1788288512,
      1788288547,
      1788288595,
      1788288603,
      1788288633,
      1788288673,
      1788288711,
      1788288747,
      1788288750,
      1788288773,
      1788288780,
      1788288816,
      1788288868,
      1788288887,
      1788288921,
      1788288933,
      1788288975,
      1788289014,
      1788289040,
      1788289063,
      1788289093,
      1788289112,
      1788289157,
      1788289195,
      1788289214
    ],
    "wof:geomhash": "26905b2bbb1135b41fbbdfaea68fb849",
    "wof:id": 2048221061,
    "wof:repo": "sfomuseum-data-flights-2026-09"
  },
  "bbox": [
    -122.36051,
    36.72608,
    -121.88161,
    37.6135
  ],
  "geometry": {"type":"LineString","coordinates":[[-121.88161,36.72608],[-121.90494,36.78149],[-121.91772,36.82718],[-121.92623,36.85718],[-121.94639,36.92937],[-121.95947,36.96919],[-121.9672,36.98908],[-121.98535,37.03566],[-122.01035,37.09955],[-122.01433,37.10954],[-122.02917,37.14775],[-122.04881,37.198],[-122.06692,37.24418],[-122.08396,37.28759],[-122.08542,37.29127],[-122.09665,37.31972],[-122.09981,37.32776],[-122.11652,37.36978],[-122.13746,37.42998],[-122.1447,37.45133],[-122.15653,37.48586],[-122.1605,37.4972],[-122.17583,37.53372],[-122.21052,37.54956],[-122.23397,37.55946],[-122.25397,37.56782],[-122.2772,37.57765],[-122.29031,37.58314],[-122.32196,37.59641],[-122.34894,37.60777],[-122.36051,37.6135]]}
}
