{
  "id": 2048258973,
  "type": "Feature",
  "properties": {
    "date:inception_lower": "2026-09-05",
    "date:inception_upper": "2026-09-05",
    "edtf:cessation": "",
    "edtf:inception": "2026-09-05",
    "flysfo:actual_timestamp": -1,
    "flysfo:airline": "UA",
    "flysfo:base_airline": "",
    "flysfo:base_flight_number": "2270",
    "flysfo:date": "2026-09-05",
    "flysfo:estimated_timestamp": 1788654000,
    "flysfo:event": "A",
    "flysfo:flight_number": "UA2077",
    "flysfo:gate": "E11",
    "flysfo:journey": "EUG-SFO",
    "flysfo:scheduled_timestamp": 1788647700,
    "flysfo:timestamp": 1788654000,
    "geom:area": 0,
    "geom:bbox": "-123.213030,37.617990,-122.370943,44.119058",
    "geom:latitude": 40.868524,
    "geom:longitude": -122.79198650000001,
    "iata:airline": "UA",
    "iata:base_airline": "",
    "icao:airline": "UAL",
    "icao:base_airline": "AVA",
    "lbl:latitude": 37.619367,
    "lbl:longitude": -122.38387,
    "sfomuseum:airline_id": 1159285413,
    "sfomuseum:arrival_id": 102527513,
    "sfomuseum:base_flight_id": "20260905-A-AVA-2270",
    "sfomuseum:departure_id": 102533927,
    "sfomuseum:flight_id": "20260905-A-UAL-2077",
    "sfomuseum:flight_number": [
      "UAL2077",
      "UA2077"
    ],
    "sfomuseum:placetype": "flight",
    "src:geom": "flysfo",
    "wof:belongsto": [
      1947304067,
      102527513,
      1947304511,
      102191575,
      85633793,
      102087579,
      85922583,
      554784711,
      85688637,
      1947304527,
      1947304447,
      102085387
    ],
    "wof:country": "US",
    "wof:created": 1788710831,
    "wof:geomhash": "68b06bbd791163721a20ab955d143e55",
    "wof:hierarchy": [
      {
        "building_id": 1947304067,
        "campus_id": 102527513,
        "concourse_id": 1947304511,
        "continent_id": 102191575,
        "country_id": 85633793,
        "county_id": 102087579,
        "custom_id": 2048258973,
        "flight_id": 2048258973,
        "locality_id": 85922583,
        "postalcode_id": 554784711,
        "region_id": 85688637,
        "venue_id": 1947304527,
        "wing_id": 1947304447
      },
      {
        "building_id": 1947304067,
        "campus_id": 102527513,
        "concourse_id": 1947304511,
        "continent_id": 102191575,
        "country_id": 85633793,
        "county_id": 102085387,
        "custom_id": 2048258973,
        "flight_id": 2048258973,
        "region_id": 85688637,
        "venue_id": 1947304527,
        "wing_id": 1947304447
      }
    ],
    "wof:id": 2048258973,
    "wof:involves": [
      102527513,
      102533927,
      1159285413,
      1947304527,
      1159285749
    ],
    "wof:lastmodified": 1788710831,
    "wof:name": "UA2077 (EUG-SFO)",
    "wof:parent_id": 1947304527,
    "wof:placetype": "custom",
    "wof:placetype_alt": [
      "flight"
    ],
    "wof:repo": "sfomuseum-data-flights-2026-09",
    "wof:superseded_by": [],
    "wof:supersedes": []
  },
  "bbox": [
    -123.21303,
    37.61799,
    -122.370943,
    44.119058
  ],
  "geometry": {"type":"MultiPoint","coordinates":[[-123.21303,44.119058],[-122.370943,37.61799]]}
}
