{
  "id": 2048401651,
  "type": "Feature",
  "properties": {
    "geom:area": 0,
    "geom:bbox": "-122.757220,37.437260,-122.091100,38.418580",
    "geom:latitude": 37.80713993225531,
    "geom:longitude": -122.46251045020567,
    "src:alt_label": "swim-approach",
    "src:geom": "swim",
    "swim:elevations": [
      7437,
      7155,
      6930,
      6606,
      6294,
      5947,
      5875,
      5387,
      5160,
      4871,
      4596,
      4402,
      4047,
      3640,
      3616,
      3505,
      3399,
      3353,
      3353,
      3353,
      3353,
      3258,
      3077,
      2859,
      2829,
      2367,
      2040,
      1806,
      1570,
      1444,
      1219,
      1219,
      1219,
      1157,
      1127,
      1068,
      900,
      752,
      650,
      507,
      366,
      302,
      212,
      31,
      280
    ],
    "swim:geom": "approach",
    "swim:timestamps": [
      1790070088,
      1790070116,
      1790070138,
      1790070170,
      1790070202,
      1790070236,
      1790070243,
      1790070296,
      1790070320,
      1790070347,
      1790070377,
      1790070396,
      1790070433,
      1790070477,
      1790070481,
      1790070504,
      1790070528,
      1790070543,
      1790070586,
      1790070619,
      1790070654,
      1790070687,
      1790070715,
      1790070747,
      1790070752,
      1790070801,
      1790070834,
      1790070861,
      1790070885,
      1790070901,
      1790070955,
      1790070963,
      1790071015,
      1790071048,
      1790071066,
      1790071090,
      1790071135,
      1790071165,
      1790071190,
      1790071221,
      1790071255,
      1790071273,
      1790071299,
      1790071345,
      1790071359
    ],
    "wof:geomhash": "39bf48778b587873bbd6f8bef3c935b1",
    "wof:id": 2048401651,
    "wof:repo": "sfomuseum-data-flights-2026-09"
  },
  "bbox": [
    -122.75722,
    37.43726,
    -122.0911,
    38.41858
  ],
  "geometry": {"type":"LineString","coordinates":[[-122.56783,38.41858],[-122.61006,38.37777],[-122.64257,38.34626],[-122.689,38.30096],[-122.73566,38.25507],[-122.75722,38.19755],[-122.75485,38.18455],[-122.72827,38.09137],[-122.71604,38.04859],[-122.70269,38.00212],[-122.68817,37.95164],[-122.67898,37.91955],[-122.63885,37.86713],[-122.58019,37.81218],[-122.57562,37.80786],[-122.54675,37.78041],[-122.51878,37.7537],[-122.50244,37.73824],[-122.45986,37.69789],[-122.42843,37.66836],[-122.39501,37.63706],[-122.36606,37.60705],[-122.34917,37.57666],[-122.32878,37.54338],[-122.32588,37.53856],[-122.29325,37.49027],[-122.2514,37.47269],[-122.21612,37.46008],[-122.18567,37.44848],[-122.16637,37.44092],[-122.10073,37.43726],[-122.0926,37.44197],[-122.0911,37.48561],[-122.11152,37.50717],[-122.12687,37.51422],[-122.14738,37.52301],[-122.18599,37.53922],[-122.21192,37.55014],[-122.23309,37.55907],[-122.2598,37.5703],[-122.28678,37.58166],[-122.30066,37.58749],[-122.32016,37.59566],[-122.354,37.60987],[-122.36553,37.61534]]}
}
