{
  "id": 2048224633,
  "type": "Feature",
  "properties": {
    "date:cessation_lower": "2026-09-01",
    "date:cessation_upper": "2026-09-01",
    "date:inception_lower": "1970-01-01",
    "date:inception_upper": "1970-01-01",
    "edtf:cessation": "2026-09-01T08:42:42-07:00",
    "edtf:inception": "1970-01-01T00:00:00Z",
    "flysfo:actual_timestamp": -1,
    "flysfo:airline": "UA",
    "flysfo:base_airline": "",
    "flysfo:base_flight_number": "5082",
    "flysfo:date": "2026-09-01",
    "flysfo:estimated_timestamp": 1788303480,
    "flysfo:event": "A",
    "flysfo:flight_number": "UA949",
    "flysfo:gate": "G8",
    "flysfo:journey": "LHR-SFO",
    "flysfo:scheduled_timestamp": 1788303600,
    "flysfo:timestamp": 1788303600,
    "geom:area": 0,
    "geom:bbox": "-122.370943,37.617990,-0.450443,51.470087",
    "geom:latitude": 44.5440385,
    "geom:longitude": -61.410693,
    "iata:airline": "UA",
    "iata:base_airline": "",
    "icao:aircraft": "B789",
    "icao:airline": "UAL",
    "icao:base_airline": "ACA",
    "lbl:latitude": 37.61836,
    "lbl:longitude": -122.393229,
    "sfomuseum:aircraft_id": 1159293215,
    "sfomuseum:airline_id": 1159285413,
    "sfomuseum:arrival_id": 102527513,
    "sfomuseum:base_flight_id": "20260901-A-ACA-5082",
    "sfomuseum:departure_id": 102556703,
    "sfomuseum:flight_id": "20260901-A-UAL-949",
    "sfomuseum:flight_number": [
      "UAL949",
      "UA949"
    ],
    "sfomuseum:placetype": "flight",
    "src:geom": "flysfo",
    "src:geom_alt": [
      "swim-approach"
    ],
    "swim:tail_number": "N61101",
    "wof:belongsto": [
      1947304067,
      102527513,
      1947304129,
      102191575,
      85633793,
      102087579,
      85922583,
      554784711,
      85688637,
      1947304133,
      1947304069,
      102085387
    ],
    "wof:country": "US",
    "wof:created": 1788365296,
    "wof:geomhash": "c7bf5337358552a3a60caed0c1e9ea63",
    "wof:hierarchy": [
      {
        "building_id": 1947304067,
        "campus_id": 102527513,
        "concourse_id": 1947304129,
        "continent_id": 102191575,
        "country_id": 85633793,
        "county_id": 102087579,
        "custom_id": 2048224633,
        "flight_id": 2048224633,
        "locality_id": 85922583,
        "postalcode_id": 554784711,
        "region_id": 85688637,
        "venue_id": 1947304133,
        "wing_id": 1947304069
      },
      {
        "building_id": 1947304067,
        "campus_id": 102527513,
        "concourse_id": 1947304129,
        "continent_id": 102191575,
        "country_id": 85633793,
        "county_id": 102085387,
        "custom_id": 2048224633,
        "flight_id": 2048224633,
        "region_id": 85688637,
        "venue_id": 1947304133,
        "wing_id": 1947304069
      }
    ],
    "wof:id": 2048224633,
    "wof:involves": [
      1159285413,
      1947304133,
      1159283597,
      1159293215,
      102527513,
      102556703
    ],
    "wof:lastmodified": 1788365815,
    "wof:name": "UA949 (LHR-SFO)",
    "wof:parent_id": 1947304133,
    "wof:placetype": "custom",
    "wof:placetype_alt": [
      "flight"
    ],
    "wof:repo": "sfomuseum-data-flights-2026-09",
    "wof:superseded_by": [],
    "wof:supersedes": []
  },
  "bbox": [
    -122.370943,
    37.61799,
    -0.450443,
    51.470087
  ],
  "geometry": {"type":"MultiPoint","coordinates":[[-0.450443,51.470087],[-122.370943,37.61799]]}
}
