{
  "id": 2048306365,
  "type": "Feature",
  "properties": {
    "geom:area": 0,
    "geom:bbox": "-122.354550,37.491530,-121.274020,37.612510",
    "geom:latitude": 37.545652199692526,
    "geom:longitude": -121.819046426792,
    "src:alt_label": "swim-approach",
    "src:geom": "swim",
    "swim:elevations": [
      4898,
      4527,
      4312,
      4209,
      4139,
      3913,
      3780,
      3516,
      3397,
      3205,
      2852,
      2686,
      2569,
      2489,
      2310,
      2075,
      1921,
      1828,
      1772,
      1400,
      1216,
      1071,
      911,
      914,
      885,
      768,
      638,
      551,
      481,
      365,
      246,
      178,
      144,
      122,
      42
    ],
    "swim:geom": "approach",
    "swim:timestamps": [
      1789160659,
      1789160694,
      1789160728,
      1789160753,
      1789160762,
      1789160784,
      1789160799,
      1789160842,
      1789160852,
      1789160884,
      1789160931,
      1789160955,
      1789160985,
      1789161003,
      1789161030,
      1789161071,
      1789161103,
      1789161139,
      1789161150,
      1789161198,
      1789161229,
      1789161262,
      1789161296,
      1789161323,
      1789161332,
      1789161355,
      1789161384,
      1789161409,
      1789161433,
      1789161470,
      1789161508,
      1789161525,
      1789161538,
      1789161549,
      1789161572
    ],
    "wof:geomhash": "c1e77187fe85c279d114e097a07ef24d",
    "wof:id": 2048306365,
    "wof:repo": "sfomuseum-data-flights-2026-09"
  },
  "bbox": [
    -122.35455,
    37.49153,
    -121.27402,
    37.61251
  ],
  "geometry": {"type":"LineString","coordinates":[[-121.27402,37.59149],[-121.34188,37.58369],[-121.40483,37.57649],[-121.44575,37.57168],[-121.4597,37.57006],[-121.49261,37.5665],[-121.51658,37.5636],[-121.57944,37.55627],[-121.59412,37.55445],[-121.6395,37.54746],[-121.70483,37.53179],[-121.73727,37.52403],[-121.77734,37.51445],[-121.80217,37.50851],[-121.83791,37.49989],[-121.8942,37.49153],[-121.93744,37.49278],[-121.98438,37.49477],[-121.99672,37.49789],[-122.04943,37.51482],[-122.0818,37.52529],[-122.11541,37.53621],[-122.14903,37.54703],[-122.17436,37.55522],[-122.18296,37.558],[-122.20357,37.56462],[-122.22745,37.57235],[-122.24813,37.57915],[-122.26427,37.58407],[-122.28827,37.59104],[-122.31256,37.59828],[-122.32387,37.60162],[-122.33272,37.60429],[-122.33985,37.60636],[-122.35455,37.61251]]}
}
