{
  "id": 2048435707,
  "type": "Feature",
  "properties": {
    "geom:area": 0,
    "geom:bbox": "-122.547710,36.743760,-121.331810,37.667660",
    "geom:latitude": 37.21620154803859,
    "geom:longitude": -122.01958608876608,
    "src:alt_label": "swim-takeoff",
    "src:geom": "swim",
    "swim:elevations": [
      183,
      596,
      1177,
      1333,
      1513,
      1644,
      2224,
      2686,
      3074,
      3444,
      3829,
      3872,
      4228,
      4628,
      4959,
      5154,
      5195,
      5326,
      5524,
      5968,
      6116,
      6418,
      6695,
      6836,
      7279,
      7481,
      7670,
      8029,
      8162,
      8814,
      8879,
      9129,
      9618,
      9662,
      9821
    ],
    "swim:geom": "takeoff",
    "swim:timestamps": [
      1790373063,
      1790373092,
      1790373144,
      1790373165,
      1790373180,
      1790373193,
      1790373230,
      1790373258,
      1790373282,
      1790373318,
      1790373356,
      1790373360,
      1790373388,
      1790373417,
      1790373443,
      1790373458,
      1790373461,
      1790373470,
      1790373489,
      1790373524,
      1790373536,
      1790373565,
      1790373591,
      1790373605,
      1790373649,
      1790373674,
      1790373696,
      1790373743,
      1790373760,
      1790373837,
      1790373846,
      1790373875,
      1790373925,
      1790373931,
      1790373946
    ],
    "wof:geomhash": "a57b10e837c1abeb705aef4a9b63c06e",
    "wof:id": 2048435707,
    "wof:repo": "sfomuseum-data-flights-2026-09"
  },
  "bbox": [
    -122.54771,
    36.74376,
    -121.33181,
    37.66766
  ],
  "geometry": {"type":"LineString","coordinates":[[-122.38928,37.6245],[-122.41233,37.63321],[-122.45652,37.65293],[-122.47984,37.66264],[-122.49922,37.66766],[-122.51776,37.66588],[-122.54771,37.63113],[-122.53355,37.59635],[-122.51614,37.56787],[-122.49087,37.52188],[-122.44907,37.47236],[-122.44268,37.468],[-122.39676,37.43917],[-122.34706,37.40767],[-122.30312,37.37942],[-122.2774,37.36282],[-122.27222,37.35948],[-122.25665,37.34944],[-122.22485,37.32895],[-122.16164,37.28825],[-122.14032,37.27444],[-122.08802,37.24054],[-122.04132,37.21019],[-122.01558,37.19349],[-121.93275,37.13948],[-121.88582,37.10881],[-121.8425,37.0805],[-121.74735,37.01859],[-121.71473,36.99686],[-121.55715,36.8927],[-121.53849,36.88055],[-121.47673,36.83963],[-121.37365,36.77212],[-121.3614,36.7638],[-121.33181,36.74376]]}
}
