{
  "id": 2048476031,
  "type": "Feature",
  "properties": {
    "geom:area": 0,
    "geom:bbox": "-92.645833,33.666667,-84.283333,35.802778",
    "geom:latitude": 34.48579730412487,
    "geom:longitude": -88.45563356349523,
    "src:alt_label": "swim-path",
    "src:geom": "swim",
    "swim:altitudes": [
      "035",
      "059",
      "115",
      "126",
      "150",
      "169",
      "200",
      "208",
      "224",
      "236",
      "249",
      "260",
      "269",
      "278",
      "287",
      "301",
      "340C",
      "340C",
      "340C",
      "340C",
      "340C",
      "340C",
      "340C",
      "340C",
      "340C",
      "340C",
      "340C",
      "340C",
      "340C",
      "340C",
      "340C",
      "340C",
      "340",
      "346",
      "355",
      "359C",
      "360C",
      "360C",
      "360C",
      "360C",
      "360C",
      "360C",
      "360C",
      "360C",
      "360C",
      "360C",
      "360C",
      "360C",
      "360C",
      "360C",
      "360C",
      "360C",
      "360C",
      "360C",
      "360C",
      "360C",
      "360C",
      "360C",
      "360C"
    ],
    "swim:geom": "path",
    "swim:speeds": [
      237,
      282,
      296,
      330,
      343,
      353,
      379,
      395,
      413,
      423,
      425,
      431,
      443,
      448,
      458,
      473,
      460,
      460,
      460,
      459,
      458,
      457,
      457,
      456,
      457,
      457,
      458,
      458,
      458,
      459,
      460,
      458,
      460,
      459,
      449,
      452,
      443,
      444,
      444,
      445,
      445,
      447,
      445,
      449,
      449,
      449,
      450,
      448,
      449,
      447,
      449,
      447,
      449,
      446,
      447,
      445,
      445,
      444,
      444
    ],
    "swim:timestamps": [
      1790812681,
      1790812741,
      1790812865,
      1790812925,
      1790812986,
      1790813046,
      1790813166,
      1790813227,
      1790813287,
      1790813347,
      1790813407,
      1790813467,
      1790813527,
      1790813587,
      1790813647,
      1790813767,
      1790814548,
      1790814668,
      1790814729,
      1790814789,
      1790814849,
      1790814909,
      1790814969,
      1790815029,
      1790815089,
      1790815149,
      1790815209,
      1790815269,
      1790815329,
      1790815389,
      1790815449,
      1790815471,
      1790815510,
      1790815531,
      1790815570,
      1790815591,
      1790815651,
      1790815711,
      1790815750,
      1790815810,
      1790815831,
      1790815870,
      1790815891,
      1790815930,
      1790815951,
      1790815990,
      1790816011,
      1790816050,
      1790816071,
      1790816110,
      1790816131,
      1790816170,
      1790816192,
      1790816231,
      1790816252,
      1790816291,
      1790816312,
      1790816351,
      1790816372
    ],
    "wof:geomhash": "797788283f9d4fac4abfd4af4c501782",
    "wof:id": 2048476031,
    "wof:repo": "sfomuseum-data-flights-2026-09"
  },
  "bbox": [
    -92.64583333333334,
    33.666666666666664,
    -84.28333333333333,
    35.80277777777778
  ],
  "geometry": {"type":"LineString","coordinates":[[-84.33333333333333,33.666666666666664],[-84.28333333333333,33.71666666666667],[-84.39166666666668,33.816111111111105],[-84.47916666666667,33.815],[-84.61388888888888,33.8],[-84.73027777777779,33.78111111111111],[-84.97777777777777,33.73972222222222],[-85.11027777777777,33.7175],[-85.24805555555555,33.69694444444444],[-85.39,33.69611111111111],[-85.53388888888888,33.69444444444444],[-85.67916666666667,33.692499999999995],[-85.8286111111111,33.690555555555555],[-85.97972222222222,33.68805555555555],[-86.13277777777778,33.70388888888889],[-86.4388888888889,33.75833333333333],[-88.3775,34.29388888888889],[-88.65944444444445,34.401944444444446],[-88.79805555555555,34.45444444444445],[-88.9325,34.50555555555555],[-89.07305555555556,34.55833333333333],[-89.21305555555556,34.611111111111114],[-89.35388888888889,34.66361111111111],[-89.49166666666667,34.71527777777778],[-89.63388888888889,34.76777777777777],[-89.77972222222222,34.82166666666667],[-89.90055555555556,34.865833333333335],[-90.04083333333332,34.91722222222222],[-90.18444444444445,34.96944444444445],[-90.3261111111111,35.019444444444446],[-90.4713888888889,35.07083333333334],[-90.52277777777778,35.08833333333334],[-90.61277777777777,35.12083333333334],[-90.6675,35.138333333333335],[-90.7538888888889,35.17027777777778],[-90.80666666666666,35.18722222222222],[-90.94694444444445,35.237500000000004],[-91.08638888888889,35.28444444444444],[-91.17,35.315],[-91.30833333333334,35.362500000000004],[-91.36444444444444,35.382222222222225],[-91.45027777777779,35.41138888888889],[-91.50444444444445,35.43055555555555],[-91.5911111111111,35.45916666666667],[-91.64694444444446,35.47833333333333],[-91.73138888888889,35.50694444444444],[-91.78722222222223,35.52722222222222],[-91.87194444444444,35.55444444444444],[-91.92805555555556,35.57416666666667],[-92.01305555555555,35.600833333333334],[-92.06861111111111,35.62],[-92.15555555555557,35.646388888888886],[-92.21055555555556,35.665],[-92.32444444444444,35.70055555555556],[-92.35111111111111,35.709722222222226],[-92.46277777777777,35.74472222222222],[-92.49055555555556,35.75472222222222],[-92.60333333333332,35.78944444444444],[-92.64583333333334,35.80277777777778]]}
}
