{
  "id": 2048412787,
  "type": "Feature",
  "properties": {
    "geom:area": 0,
    "geom:bbox": "-156.400000,20.950000,-122.157222,37.611389",
    "geom:latitude": 29.841773456900555,
    "geom:longitude": -139.46010376960857,
    "src:alt_label": "swim-path",
    "src:geom": "swim",
    "swim:altitudes": [
      "021C",
      "042C",
      "068C",
      "091C",
      "109C",
      "123C",
      "141C",
      "159C",
      "173C",
      "186C",
      "200C",
      "214C",
      "230C",
      "241C",
      "250C",
      "259C",
      "268C",
      "276C",
      "284C",
      "292C",
      "300C",
      "307C",
      "314C",
      "323C",
      "333C",
      "343C",
      "350",
      "350",
      "350",
      "350",
      "350",
      "350",
      "350",
      "350",
      "350",
      "350",
      "350",
      "350",
      "350C",
      "350C",
      "350C",
      "350C",
      "350C",
      "350",
      "350C",
      "350",
      "350C",
      "350",
      "350",
      "350",
      "350",
      "350",
      "350",
      "350",
      "350",
      "350",
      "350",
      "350",
      "350",
      "348",
      "326C",
      "321",
      "305C",
      "300",
      "284C",
      "280",
      "259",
      "238",
      "219",
      "199",
      "179",
      "160",
      "141",
      "123",
      "103",
      "100",
      "100C",
      "100C",
      "100",
      "100C",
      "099",
      "094",
      "092",
      "087",
      "084",
      "079",
      "076",
      "070",
      "064",
      "058",
      "051",
      "040",
      "036",
      "028",
      "024",
      "019",
      "015",
      "011",
      "007",
      "004",
      "001"
    ],
    "swim:geom": "path",
    "swim:speeds": [
      200,
      250,
      270,
      280,
      300,
      340,
      360,
      360,
      380,
      390,
      400,
      410,
      410,
      410,
      430,
      440,
      440,
      450,
      460,
      460,
      470,
      470,
      480,
      480,
      480,
      470,
      470,
      470,
      470,
      470,
      470,
      470,
      470,
      470,
      470,
      480,
      480,
      480,
      455,
      455,
      454,
      452,
      450,
      440,
      449,
      450,
      448,
      450,
      448,
      449,
      460,
      451,
      453,
      455,
      457,
      458,
      460,
      458,
      460,
      458,
      450,
      458,
      460,
      461,
      450,
      448,
      436,
      426,
      414,
      403,
      392,
      381,
      369,
      360,
      354,
      328,
      330,
      329,
      331,
      322,
      290,
      276,
      259,
      252,
      249,
      246,
      246,
      244,
      236,
      240,
      238,
      228,
      230,
      193,
      198,
      194,
      186,
      157,
      149,
      137,
      138
    ],
    "swim:timestamps": [
      1790201417,
      1790201477,
      1790201537,
      1790201597,
      1790201656,
      1790201716,
      1790201776,
      1790201837,
      1790201897,
      1790201957,
      1790202017,
      1790202077,
      1790202137,
      1790202197,
      1790202257,
      1790202317,
      1790202377,
      1790202437,
      1790202498,
      1790202558,
      1790202618,
      1790202678,
      1790202738,
      1790202798,
      1790202858,
      1790202918,
      1790202979,
      1790203039,
      1790203099,
      1790203159,
      1790203219,
      1790203279,
      1790203339,
      1790203399,
      1790203459,
      1790203470,
      1790203531,
      1790203600,
      1790215080,
      1790215140,
      1790215260,
      1790215320,
      1790215381,
      1790215427,
      1790215441,
      1790215487,
      1790215501,
      1790215547,
      1790215561,
      1790215621,
      1790215667,
      1790215681,
      1790215741,
      1790215801,
      1790215861,
      1790215921,
      1790215968,
      1790215981,
      1790216027,
      1790216041,
      1790216088,
      1790216101,
      1790216147,
      1790216162,
      1790216208,
      1790216222,
      1790216282,
      1790216342,
      1790216402,
      1790216462,
      1790216522,
      1790216582,
      1790216642,
      1790216702,
      1790216762,
      1790216790,
      1790216822,
      1790216882,
      1790216893,
      1790216943,
      1790216958,
      1790217003,
      1790217018,
      1790217063,
      1790217073,
      1790217123,
      1790217145,
      1790217183,
      1790217205,
      1790217243,
      1790217264,
      1790217324,
      1790217363,
      1790217439,
      1790217483,
      1790217505,
      1790217543,
      1790217564,
      1790217603,
      1790217625,
      1790217663
    ],
    "wof:geomhash": "f35abe4139fdb2379179f23fc35787e5",
    "wof:id": 2048412787,
    "wof:repo": "sfomuseum-data-flights-2026-09"
  },
  "bbox": [
    -156.4,
    20.95,
    -122.15722222222223,
    37.61138888888889
  ],
  "geometry": {"type":"LineString","coordinates":[[-156.4,20.95],[-156.4,21.016666666666666],[-156.4,21.1],[-156.36666666666667,21.166666666666668],[-156.3,21.233333333333334],[-156.23333333333332,21.283333333333335],[-156.15,21.366666666666667],[-156.08333333333334,21.433333333333334],[-156,21.5],[-155.91666666666666,21.566666666666666],[-155.81666666666666,21.65],[-155.73333333333332,21.733333333333334],[-155.65,21.816666666666666],[-155.55,21.883333333333333],[-155.46666666666667,21.966666666666665],[-155.36666666666667,22.05],[-155.26666666666668,22.133333333333333],[-155.16666666666666,22.216666666666665],[-155.06666666666666,22.316666666666666],[-154.96666666666667,22.4],[-154.86666666666667,22.483333333333334],[-154.76666666666668,22.566666666666666],[-154.66666666666666,22.666666666666668],[-154.55,22.766666666666666],[-154.45,22.85],[-154.35,22.933333333333334],[-154.23333333333332,23.033333333333335],[-154.13333333333333,23.116666666666667],[-154.03333333333333,23.2],[-153.91666666666666,23.3],[-153.81666666666666,23.383333333333333],[-153.71666666666667,23.466666666666665],[-153.61666666666667,23.566666666666666],[-153.5,23.65],[-153.4,23.75],[-153.36666666666667,23.766666666666666],[-153.25,23.833333333333332],[-153.11666666666667,23.916666666666668],[-126.53111111111112,35.605555555555554],[-126.38722222222223,35.6475],[-126.095,35.73166666666667],[-125.9525,35.78666666666666],[-125.82083333333333,35.852222222222224],[-125.73333333333333,35.916666666666664],[-125.69027777777778,35.91694444444444],[-125.6,35.96666666666667],[-125.55805555555555,35.981944444444444],[-125.46666666666667,36.03333333333333],[-125.42888888888889,36.04555555555555],[-125.29555555555555,36.111111111111114],[-125.2,36.15],[-125.16222222222223,36.17611111111111],[-125.02805555555555,36.24111111111111],[-124.89472222222223,36.30555555555555],[-124.75861111111111,36.37138888888889],[-124.6236111111111,36.436388888888885],[-124.5,36.46666666666667],[-124.48805555555556,36.50111111111111],[-124.36666666666666,36.53333333333333],[-124.35166666666666,36.56583333333333],[-124.23333333333333,36.6],[-124.21555555555555,36.630833333333335],[-124.1,36.666666666666664],[-124.07805555555555,36.695277777777775],[-123.96666666666667,36.733333333333334],[-123.94472222222223,36.75805555555556],[-123.81333333333333,36.819722222222225],[-123.68694444444445,36.87861111111111],[-123.56361111111111,36.93583333333333],[-123.44222222222223,36.992222222222225],[-123.32583333333334,37.04611111111111],[-123.21083333333334,37.098888888888894],[-123.10027777777778,37.14972222222222],[-122.99194444444444,37.19888888888889],[-122.88666666666667,37.246944444444445],[-122.81666666666666,37.266666666666666],[-122.77722222222222,37.27777777777778],[-122.66777777777779,37.30333333333333],[-122.63333333333334,37.31666666666667],[-122.55833333333334,37.32055555555556],[-122.51666666666667,37.3],[-122.47722222222222,37.276666666666664],[-122.45,37.266666666666666],[-122.40055555555556,37.26888888888889],[-122.38333333333334,37.28333333333333],[-122.39861111111112,37.33361111111111],[-122.38333333333334,37.36666666666667],[-122.34388888888888,37.3725],[-122.3,37.36666666666667],[-122.26666666666667,37.37138888888889],[-122.23333333333333,37.38333333333333],[-122.16666666666667,37.43333333333333],[-122.15722222222223,37.46222222222222],[-122.16666666666667,37.53333333333333],[-122.20833333333334,37.54861111111111],[-122.23333333333333,37.56666666666667],[-122.2675,37.57333333333334],[-122.3,37.583333333333336],[-122.315,37.593333333333334],[-122.33333333333333,37.6],[-122.35722222222222,37.61138888888889]]}
}
