{
  "id": 2048443291,
  "type": "Feature",
  "properties": {
    "geom:area": 0,
    "geom:bbox": "-122.558056,32.694722,-116.958333,37.665556",
    "geom:latitude": 34.986446209709804,
    "geom:longitude": -119.9606874139387,
    "src:alt_label": "swim-path",
    "src:geom": "swim",
    "swim:altitudes": [
      "007",
      "027",
      "050",
      "077",
      "101",
      "113",
      "118",
      "140",
      "144",
      "166",
      "171",
      "190",
      "194",
      "210",
      "232",
      "249",
      "265",
      "280",
      "294",
      "306",
      "309",
      "323",
      "324",
      "339",
      "341",
      "349",
      "359",
      "361",
      "369C",
      "370C",
      "370C",
      "370C",
      "370C",
      "370C",
      "370C",
      "370C",
      "370C",
      "370C",
      "370C",
      "370C",
      "370C",
      "370C",
      "370C",
      "370C",
      "370C",
      "370C",
      "370C",
      "370C",
      "370C",
      "370C",
      "370C",
      "370C",
      "370C",
      "370C",
      "370C",
      "370C",
      "370C",
      "370C",
      "370C",
      "370",
      "360",
      "331",
      "302",
      "273",
      "250",
      "229",
      "224",
      "199",
      "174",
      "157",
      "135",
      "130",
      "114",
      "112",
      "105",
      "101",
      "098",
      "086",
      "084",
      "074",
      "071",
      "062",
      "061",
      "056",
      "055",
      "048",
      "046",
      "039",
      "038",
      "030",
      "028",
      "021",
      "019",
      "011",
      "009",
      "001"
    ],
    "swim:geom": "path",
    "swim:speeds": [
      148,
      205,
      245,
      264,
      283,
      343,
      347,
      355,
      359,
      363,
      365,
      379,
      385,
      404,
      411,
      425,
      435,
      443,
      453,
      461,
      462,
      463,
      462,
      458,
      458,
      456,
      458,
      458,
      458,
      458,
      457,
      457,
      457,
      471,
      471,
      471,
      471,
      470,
      471,
      470,
      470,
      470,
      470,
      471,
      472,
      472,
      474,
      476,
      478,
      481,
      481,
      483,
      484,
      473,
      467,
      465,
      464,
      464,
      465,
      465,
      460,
      456,
      455,
      454,
      452,
      444,
      446,
      418,
      402,
      386,
      371,
      374,
      356,
      355,
      303,
      254,
      256,
      255,
      256,
      259,
      255,
      253,
      253,
      229,
      233,
      202,
      202,
      180,
      183,
      179,
      182,
      180,
      177,
      152,
      155,
      149
    ],
    "swim:timestamps": [
      1790466378,
      1790466451,
      1790466511,
      1790466571,
      1790466631,
      1790466691,
      1790466700,
      1790466751,
      1790466760,
      1790466811,
      1790466820,
      1790466871,
      1790466880,
      1790466932,
      1790466992,
      1790467052,
      1790467112,
      1790467172,
      1790467232,
      1790467292,
      1790467298,
      1790467352,
      1790467358,
      1790467412,
      1790467418,
      1790467472,
      1790467532,
      1790467538,
      1790467593,
      1790467653,
      1790467713,
      1790467773,
      1790467833,
      1790467893,
      1790467899,
      1790467953,
      1790467959,
      1790468013,
      1790468019,
      1790468073,
      1790468079,
      1790468133,
      1790468139,
      1790468193,
      1790468253,
      1790468259,
      1790468314,
      1790468374,
      1790468434,
      1790468494,
      1790468500,
      1790468560,
      1790468620,
      1790468680,
      1790468740,
      1790468800,
      1790468860,
      1790468920,
      1790468980,
      1790469040,
      1790469101,
      1790469161,
      1790469221,
      1790469281,
      1790469341,
      1790469386,
      1790469401,
      1790469461,
      1790469521,
      1790469567,
      1790469627,
      1790469641,
      1790469687,
      1790469701,
      1790469762,
      1790469807,
      1790469822,
      1790469867,
      1790469882,
      1790469927,
      1790469942,
      1790469987,
      1790470002,
      1790470047,
      1790470062,
      1790470107,
      1790470122,
      1790470167,
      1790470182,
      1790470227,
      1790470242,
      1790470287,
      1790470302,
      1790470347,
      1790470363,
      1790470407
    ],
    "wof:geomhash": "f6ed68cfe6c27fe37b134176c1c49e2f",
    "wof:id": 2048443291,
    "wof:repo": "sfomuseum-data-flights-2026-09"
  },
  "bbox": [
    -122.55805555555555,
    32.69472222222222,
    -116.95833333333334,
    37.66555555555556
  ],
  "geometry": {"type":"LineString","coordinates":[[-122.38333333333334,37.61666666666667],[-122.44777777777779,37.650277777777774],[-122.52277777777778,37.66555555555556],[-122.54722222222222,37.598333333333336],[-122.54916666666666,37.520833333333336],[-122.55166666666666,37.43083333333333],[-122.55638888888889,37.4125],[-122.55472222222222,37.330555555555556],[-122.55527777777777,37.31305555555555],[-122.55777777777777,37.22888888888889],[-122.55805555555555,37.21194444444445],[-122.55194444444444,37.125],[-122.5425,37.10888888888889],[-122.47277777777778,37.03361111111111],[-122.38611111111112,36.94222222222222],[-122.29777777777778,36.84861111111111],[-122.20583333333333,36.75111111111111],[-122.11416666666666,36.65333333333333],[-122.01916666666666,36.551944444444445],[-121.92361111111111,36.44944444444444],[-121.90611111111112,36.43055555555555],[-121.82583333333334,36.34444444444445],[-121.81166666666667,36.32944444444445],[-121.73166666666667,36.24305555555556],[-121.71722222222222,36.227222222222224],[-121.64027777777778,36.14361111111111],[-121.5461111111111,36.04111111111111],[-121.53,36.02361111111111],[-121.4538888888889,35.94],[-121.35944444444443,35.83638888888889],[-121.2675,35.73555555555556],[-121.17444444444445,35.63305555555556],[-121.08083333333333,35.5325],[-120.95444444444445,35.45027777777778],[-120.93416666666667,35.43833333333333],[-120.825,35.375],[-120.80305555555556,35.36222222222222],[-120.67222222222223,35.285555555555554],[-120.67194444444445,35.285555555555554],[-120.54388888888889,35.21027777777778],[-120.5436111111111,35.21027777777778],[-120.41611111111112,35.13527777777778],[-120.41166666666668,35.1325],[-120.28805555555556,35.059444444444445],[-120.1588888888889,34.98305555555556],[-120.15083333333334,34.97833333333333],[-120.02805555555555,34.905],[-119.89805555555556,34.82805555555556],[-119.76638888888888,34.74916666666667],[-119.63527777777779,34.669999999999995],[-119.63722222222223,34.671388888888885],[-119.49444444444444,34.58444444444444],[-119.36416666666666,34.50611111111111],[-119.23611111111111,34.428888888888885],[-119.10916666666667,34.35111111111111],[-118.9863888888889,34.275555555555556],[-118.86055555555555,34.198055555555555],[-118.73583333333333,34.12138888888889],[-118.61,34.04361111111111],[-118.48444444444445,33.965833333333336],[-118.36749999999999,33.8825],[-118.24972222222222,33.79222222222222],[-118.13527777777779,33.705000000000005],[-118.02277777777778,33.619166666666665],[-117.91444444444446,33.53388888888889],[-117.83333333333333,33.46666666666667],[-117.81055555555555,33.44444444444444],[-117.71527777777779,33.35583333333334],[-117.62666666666667,33.272777777777776],[-117.55,33.2],[-117.48333333333333,33.13333333333333],[-117.46166666666667,33.11083333333333],[-117.4,33.05],[-117.39527777777778,33.03138888888889],[-117.33583333333333,32.96027777777778],[-117.3,32.916666666666664],[-117.285,32.89944444444444],[-117.25,32.85],[-117.23666666666666,32.84138888888889],[-117.18333333333334,32.8],[-117.17194444444445,32.80277777777778],[-117.1,32.78333333333333],[-117.09055555555555,32.78472222222222],[-117.03333333333333,32.766666666666666],[-117.0175,32.76722222222222],[-116.96666666666667,32.75],[-116.95833333333334,32.74],[-116.96666666666667,32.7],[-116.97305555555556,32.69472222222222],[-117.01666666666667,32.7],[-117.02972222222222,32.69472222222222],[-117.08333333333333,32.7],[-117.08638888888889,32.708333333333336],[-117.13333333333334,32.71666666666667],[-117.13527777777779,32.72027777777778],[-117.18333333333334,32.733333333333334]]}
}
