{
  "id": 2048265851,
  "type": "Feature",
  "properties": {
    "geom:area": 0,
    "geom:bbox": "-122.363630,36.726340,-121.881920,37.614360",
    "geom:latitude": 37.216119398164835,
    "geom:longitude": -122.07241155117404,
    "src:alt_label": "swim-approach",
    "src:geom": "swim",
    "swim:elevations": [
      5282,
      4829,
      4469,
      4297,
      4238,
      3999,
      3573,
      3460,
      3251,
      3028,
      2978,
      2758,
      2667,
      2604,
      2470,
      2438,
      2427,
      2244,
      1920,
      1798,
      1481,
      1373,
      1034,
      959,
      945,
      789,
      740,
      552,
      459,
      318,
      247,
      185,
      53,
      292
    ],
    "swim:geom": "approach",
    "swim:timestamps": [
      1788687272,
      1788687316,
      1788687350,
      1788687368,
      1788687373,
      1788687398,
      1788687445,
      1788687456,
      1788687485,
      1788687536,
      1788687556,
      1788687592,
      1788687605,
      1788687615,
      1788687640,
      1788687672,
      1788687695,
      1788687720,
      1788687772,
      1788687792,
      1788687838,
      1788687850,
      1788687892,
      1788687908,
      1788687946,
      1788687986,
      1788687999,
      1788688046,
      1788688066,
      1788688104,
      1788688124,
      1788688142,
      1788688186,
      1788688204
    ],
    "wof:geomhash": "7185cc7afdbc3a7948db7b480a0c2ed4",
    "wof:id": 2048265851,
    "wof:repo": "sfomuseum-data-flights-2026-09"
  },
  "bbox": [
    -122.36363,
    36.72634,
    -121.88192,
    37.61436
  ],
  "geometry": {"type":"LineString","coordinates":[[-121.88192,36.72634],[-121.90948,36.79752],[-121.92514,36.85372],[-121.93372,36.88406],[-121.93573,36.89109],[-121.9467,36.93],[-121.97056,36.99752],[-121.97638,37.0124],[-121.99064,37.04864],[-122.01433,37.1088],[-122.02319,37.13094],[-122.03828,37.16973],[-122.04362,37.1837],[-122.04761,37.19405],[-122.05814,37.22134],[-122.07113,37.25438],[-122.08061,37.27832],[-122.09135,37.30578],[-122.11263,37.3599],[-122.12071,37.38012],[-122.13733,37.42741],[-122.14133,37.43967],[-122.15539,37.4817],[-122.16104,37.49806],[-122.17294,37.52981],[-122.2034,37.54646],[-122.21382,37.55093],[-122.25097,37.56658],[-122.26683,37.57328],[-122.29675,37.58569],[-122.31059,37.59173],[-122.32273,37.5968],[-122.35114,37.60867],[-122.36363,37.61436]]}
}
