{
  "id": 2048377285,
  "type": "Feature",
  "properties": {
    "geom:area": 0,
    "geom:bbox": "-122.365470,36.794690,-121.908850,37.615810",
    "geom:latitude": 37.248082659357706,
    "geom:longitude": -122.09073842001808,
    "src:alt_label": "swim-approach",
    "src:geom": "swim",
    "swim:elevations": [
      4977,
      4866,
      4514,
      4292,
      4095,
      3814,
      3529,
      3459,
      3154,
      3108,
      3038,
      2803,
      2626,
      2390,
      2222,
      2134,
      1877,
      1803,
      1612,
      1329,
      1172,
      1131,
      879,
      857,
      701,
      563,
      391,
      206,
      485
    ],
    "swim:geom": "approach",
    "swim:timestamps": [
      1789815891,
      1789815903,
      1789815951,
      1789815974,
      1789816002,
      1789816041,
      1789816078,
      1789816088,
      1789816137,
      1789816148,
      1789816180,
      1789816221,
      1789816248,
      1789816283,
      1789816303,
      1789816339,
      1789816378,
      1789816390,
      1789816420,
      1789816466,
      1789816496,
      1789816503,
      1789816557,
      1789816561,
      1789816591,
      1789816623,
      1789816658,
      1789816703,
      1789816761
    ],
    "wof:geomhash": "608463622b27e3c2dd1932d71cf041c7",
    "wof:id": 2048377285,
    "wof:repo": "sfomuseum-data-flights-2026-09"
  },
  "bbox": [
    -122.36547,
    36.79469,
    -121.90885,
    37.61581
  ],
  "geometry": {"type":"LineString","coordinates":[[-121.90885,36.79469],[-121.91409,36.8132],[-121.93342,36.88251],[-121.94267,36.91568],[-121.95414,36.95527],[-121.97563,37.00985],[-121.99465,37.05891],[-122.00024,37.07322],[-122.02682,37.13669],[-122.03911,37.14821],[-122.07698,37.17556],[-122.09516,37.21792],[-122.09997,37.24756],[-122.1049,37.28324],[-122.1078,37.30456],[-122.11387,37.34115],[-122.12066,37.38033],[-122.12476,37.39173],[-122.1349,37.42155],[-122.15007,37.46668],[-122.15934,37.4954],[-122.16133,37.50193],[-122.19083,37.54337],[-122.19485,37.54506],[-122.22461,37.55783],[-122.256,37.57107],[-122.28674,37.58397],[-122.32148,37.59855],[-122.36547,37.61581]]}
}
