{
  "id": 2048254325,
  "type": "Feature",
  "properties": {
    "geom:area": 0,
    "geom:bbox": "-122.357710,37.666380,-121.246890,38.110320",
    "geom:latitude": 37.88466872710611,
    "geom:longitude": -121.80073212666451,
    "src:alt_label": "swim-takeoff",
    "src:geom": "swim",
    "swim:elevations": [
      801,
      1257,
      1575,
      1961,
      2452,
      2754,
      3171,
      3423,
      3778,
      4126,
      4509,
      4559,
      4752,
      5315,
      5453,
      5809,
      6013,
      6258,
      6756,
      7050,
      7178
    ],
    "swim:geom": "takeoff",
    "swim:timestamps": [
      1788542779,
      1788542817,
      1788542844,
      1788542869,
      1788542900,
      1788542918,
      1788542941,
      1788542981,
      1788543019,
      1788543045,
      1788543077,
      1788543085,
      1788543103,
      1788543142,
      1788543160,
      1788543202,
      1788543223,
      1788543247,
      1788543295,
      1788543323,
      1788543338
    ],
    "wof:geomhash": "9e48b96d006806b2a01e6d7a00aff32b",
    "wof:id": 2048254325,
    "wof:repo": "sfomuseum-data-flights-2026-09"
  },
  "bbox": [
    -122.35771,
    37.66638,
    -121.24689,
    38.11032
  ],
  "geometry": {"type":"LineString","coordinates":[[-122.35771,37.66638],[-122.31042,37.68274],[-122.27246,37.69619],[-122.23704,37.70924],[-122.19141,37.72968],[-122.16483,37.74357],[-122.12978,37.75951],[-122.06203,37.78747],[-121.98857,37.81757],[-121.937,37.83878],[-121.86888,37.86702],[-121.85132,37.87428],[-121.81037,37.88804],[-121.7192,37.91395],[-121.67552,37.92553],[-121.57391,37.96034],[-121.52674,37.98214],[-121.46801,38.00923],[-121.35177,38.06245],[-121.28313,38.09377],[-121.24689,38.11032]]}
}
