{
  "id": 2048296547,
  "type": "Feature",
  "properties": {
    "geom:area": 0,
    "geom:bbox": "-122.526130,37.629000,-121.436240,38.512140",
    "geom:latitude": 38.081292908604745,
    "geom:longitude": -122.05728749330548,
    "src:alt_label": "swim-takeoff",
    "src:geom": "swim",
    "swim:elevations": [
      244,
      391,
      895,
      913,
      914,
      914,
      914,
      1090,
      1764,
      2124,
      2622,
      3044,
      3048,
      3067,
      3277,
      3526,
      4180,
      4280,
      4689,
      4827,
      5092,
      5486,
      5775,
      6195,
      6515,
      6786,
      6821,
      7261,
      7353,
      7540
    ],
    "swim:geom": "takeoff",
    "swim:timestamps": [
      1788960168,
      1788960182,
      1788960228,
      1788960251,
      1788960295,
      1788960309,
      1788960333,
      1788960360,
      1788960402,
      1788960422,
      1788960453,
      1788960506,
      1788960538,
      1788960568,
      1788960588,
      1788960606,
      1788960655,
      1788960663,
      1788960701,
      1788960714,
      1788960735,
      1788960772,
      1788960797,
      1788960834,
      1788960864,
      1788960897,
      1788960900,
      1788960957,
      1788960968,
      1788960990
    ],
    "wof:geomhash": "2baa5fb787fa794b97577b481b5691e5",
    "wof:id": 2048296547,
    "wof:repo": "sfomuseum-data-flights-2026-09"
  },
  "bbox": [
    -122.52613,
    37.629,
    -121.43624,
    38.51214
  ],
  "geometry": {"type":"LineString","coordinates":[[-122.39947,37.629],[-122.41186,37.63437],[-122.45428,37.65291],[-122.47899,37.66343],[-122.52424,37.69827],[-122.52613,37.71551],[-122.52592,37.74594],[-122.5259,37.77873],[-122.48521,37.81916],[-122.45433,37.83017],[-122.41145,37.85327],[-122.34029,37.90274],[-122.293,37.9354],[-122.24414,37.96925],[-122.211,37.9922],[-122.18175,38.01253],[-122.09762,38.07069],[-122.08292,38.08091],[-122.01626,38.12816],[-121.99295,38.14458],[-121.95308,38.17211],[-121.88304,38.21945],[-121.83632,38.25087],[-121.76234,38.30092],[-121.70409,38.34045],[-121.63819,38.38511],[-121.63052,38.39032],[-121.51027,38.46834],[-121.48528,38.48309],[-121.43624,38.51214]]}
}
