{
  "id": 2048365549,
  "type": "Feature",
  "properties": {
    "geom:area": 0,
    "geom:bbox": "-122.410710,37.626500,-121.251080,38.122600",
    "geom:latitude": 37.88313213710586,
    "geom:longitude": -121.84512352559035,
    "src:alt_label": "swim-takeoff",
    "src:geom": "swim",
    "swim:elevations": [
      122,
      498,
      831,
      1005,
      1326,
      1426,
      2035,
      2455,
      2575,
      3119,
      3467,
      3486,
      3886,
      4346,
      4529,
      4888,
      5020,
      5452,
      5547,
      5694,
      5874,
      6075,
      6213,
      6608,
      6735
    ],
    "swim:geom": "takeoff",
    "swim:timestamps": [
      1789633498,
      1789633527,
      1789633557,
      1789633573,
      1789633618,
      1789633633,
      1789633673,
      1789633705,
      1789633714,
      1789633752,
      1789633798,
      1789633801,
      1789633846,
      1789633882,
      1789633902,
      1789633937,
      1789633950,
      1789634006,
      1789634022,
      1789634045,
      1789634067,
      1789634093,
      1789634109,
      1789634156,
      1789634169
    ],
    "wof:geomhash": "039d1184ad76cb00afa5a893ded84ceb",
    "wof:id": 2048365549,
    "wof:repo": "sfomuseum-data-flights-2026-09"
  },
  "bbox": [
    -122.41071,
    37.6265,
    -121.25108,
    38.1226
  ],
  "geometry": {"type":"LineString","coordinates":[[-122.39325,37.6265],[-122.41071,37.64527],[-122.38787,37.66385],[-122.3693,37.66828],[-122.31107,37.68696],[-122.28925,37.69403],[-122.22719,37.71411],[-122.1803,37.73578],[-122.16764,37.74231],[-122.1119,37.7711],[-122.0401,37.80796],[-122.03507,37.81057],[-121.95266,37.84686],[-121.88386,37.87416],[-121.84326,37.89021],[-121.77492,37.91725],[-121.74675,37.92842],[-121.62802,37.97517],[-121.59319,37.98887],[-121.54156,38.00917],[-121.49129,38.02884],[-121.43218,38.05203],[-121.39487,38.06664],[-121.28272,38.11027],[-121.25108,38.1226]]}
}
