{
  "id": 2048326941,
  "type": "Feature",
  "properties": {
    "geom:area": 0,
    "geom:bbox": "-122.358770,36.719040,-121.876480,37.612360",
    "geom:latitude": 37.20998115643313,
    "geom:longitude": -122.0694230168418,
    "src:alt_label": "swim-approach",
    "src:geom": "swim",
    "swim:elevations": [
      4834,
      4544,
      4261,
      4042,
      3867,
      3692,
      3431,
      3261,
      3102,
      2847,
      2718,
      2558,
      2439,
      2438,
      2438,
      2137,
      1824,
      1578,
      1253,
      1090,
      975,
      975,
      933,
      730,
      617,
      486,
      396,
      275,
      188,
      113,
      40
    ],
    "swim:geom": "approach",
    "swim:timestamps": [
      1789286409,
      1789286448,
      1789286485,
      1789286513,
      1789286537,
      1789286559,
      1789286594,
      1789286618,
      1789286641,
      1789286687,
      1789286714,
      1789286735,
      1789286769,
      1789286808,
      1789286824,
      1789286871,
      1789286904,
      1789286932,
      1789286963,
      1789286994,
      1789287026,
      1789287058,
      1789287075,
      1789287114,
      1789287141,
      1789287168,
      1789287193,
      1789287236,
      1789287259,
      1789287288,
      1789287318
    ],
    "wof:geomhash": "38d59f1734cd5c4fbb4966d579aa2159",
    "wof:id": 2048326941,
    "wof:repo": "sfomuseum-data-flights-2026-09"
  },
  "bbox": [
    -122.35877,
    36.71904,
    -121.87648,
    37.61236
  ],
  "geometry": {"type":"LineString","coordinates":[[-121.87648,36.71904],[-121.90396,36.77639],[-121.92014,36.83448],[-121.93218,36.87697],[-121.94306,36.91552],[-121.95257,36.94925],[-121.972,36.99999],[-121.98451,37.03233],[-121.99615,37.06211],[-122.01925,37.12122],[-122.03198,37.1542],[-122.04181,37.17924],[-122.05737,37.21849],[-122.07627,37.26694],[-122.08363,37.28556],[-122.10577,37.34193],[-122.12005,37.37789],[-122.13096,37.41032],[-122.14254,37.44448],[-122.15325,37.47611],[-122.16246,37.50263],[-122.17108,37.52668],[-122.18272,37.53717],[-122.21655,37.55217],[-122.24103,37.56244],[-122.26407,37.57212],[-122.28145,37.57948],[-122.30835,37.59072],[-122.32268,37.59674],[-122.34066,37.60431],[-122.35877,37.61236]]}
}
