{
  "id": 2048240975,
  "type": "Feature",
  "properties": {
    "date:inception_lower": "2026-09-03",
    "date:inception_upper": "2026-09-03",
    "edtf:cessation": "",
    "edtf:inception": "2026-09-03",
    "flysfo:actual_timestamp": -1,
    "flysfo:airline": "UA",
    "flysfo:base_airline": "",
    "flysfo:base_flight_number": "2888",
    "flysfo:date": "2026-09-03",
    "flysfo:estimated_timestamp": 1788495960,
    "flysfo:event": "A",
    "flysfo:flight_number": "UA1229",
    "flysfo:gate": "D7",
    "flysfo:journey": "DTW-SFO",
    "flysfo:scheduled_timestamp": 1788496020,
    "flysfo:timestamp": 1788496020,
    "geom:area": 0,
    "geom:bbox": "-122.370943,37.617990,-83.351709,42.218860",
    "geom:latitude": 39.918425,
    "geom:longitude": -102.86132599999999,
    "iata:airline": "UA",
    "iata:base_airline": "",
    "icao:airline": "UAL",
    "icao:base_airline": "ANZ",
    "lbl:latitude": 37.61705,
    "lbl:longitude": -122.380838,
    "sfomuseum:airline_id": 1159285413,
    "sfomuseum:arrival_id": 102527513,
    "sfomuseum:base_flight_id": "20260903-A-ANZ-2888",
    "sfomuseum:departure_id": 102525635,
    "sfomuseum:flight_id": "20260903-A-UAL-1229",
    "sfomuseum:flight_number": [
      "UAL1229",
      "UA1229"
    ],
    "sfomuseum:placetype": "flight",
    "src:geom": "flysfo",
    "wof:belongsto": [
      1947304067,
      102527513,
      1947304595,
      102191575,
      85633793,
      102087579,
      85922583,
      554784711,
      85688637,
      1947304601,
      1947304591,
      102085387
    ],
    "wof:country": "US",
    "wof:created": 1788538067,
    "wof:geomhash": "a23858bb4e93419105e139a22bd92749",
    "wof:hierarchy": [
      {
        "building_id": 1947304067,
        "campus_id": 102527513,
        "concourse_id": 1947304595,
        "continent_id": 102191575,
        "country_id": 85633793,
        "county_id": 102087579,
        "custom_id": 2048240975,
        "flight_id": 2048240975,
        "locality_id": 85922583,
        "postalcode_id": 554784711,
        "region_id": 85688637,
        "venue_id": 1947304601,
        "wing_id": 1947304591
      },
      {
        "building_id": 1947304067,
        "campus_id": 102527513,
        "concourse_id": 1947304595,
        "continent_id": 102191575,
        "country_id": 85633793,
        "county_id": 102085387,
        "custom_id": 2048240975,
        "flight_id": 2048240975,
        "region_id": 85688637,
        "venue_id": 1947304601,
        "wing_id": 1947304591
      }
    ],
    "wof:id": 2048240975,
    "wof:involves": [
      102527513,
      102525635,
      1159285413,
      1947304601,
      1159283697
    ],
    "wof:lastmodified": 1788538067,
    "wof:name": "UA1229 (DTW-SFO)",
    "wof:parent_id": 1947304601,
    "wof:placetype": "custom",
    "wof:placetype_alt": [
      "flight"
    ],
    "wof:repo": "sfomuseum-data-flights-2026-09",
    "wof:superseded_by": [],
    "wof:supersedes": []
  },
  "bbox": [
    -122.370943,
    37.61799,
    -83.351709,
    42.21886
  ],
  "geometry": {"type":"MultiPoint","coordinates":[[-83.351709,42.21886],[-122.370943,37.61799]]}
}
