{
  "id": 2048469351,
  "type": "Feature",
  "properties": {
    "geom:area": 0,
    "geom:bbox": "-122.545560,36.719070,-121.439810,37.668350",
    "geom:latitude": 37.21012969398066,
    "geom:longitude": -122.06688395557013,
    "src:alt_label": "swim-takeoff",
    "src:geom": "swim",
    "swim:elevations": [
      122,
      305,
      733,
      968,
      1059,
      1255,
      1469,
      1699,
      1882,
      1960,
      2213,
      2428,
      2669,
      2774,
      3089,
      3296,
      3447,
      3540,
      3629,
      3851,
      4025,
      4212,
      4419,
      4777,
      4939,
      5178,
      5409,
      5606,
      5706,
      5997,
      6113,
      6382,
      6568
    ],
    "swim:geom": "takeoff",
    "swim:timestamps": [
      1790731765,
      1790731783,
      1790731828,
      1790731855,
      1790731873,
      1790731915,
      1790731945,
      1790731975,
      1790732006,
      1790732020,
      1790732065,
      1790732095,
      1790732125,
      1790732140,
      1790732176,
      1790732215,
      1790732245,
      1790732266,
      1790732287,
      1790732327,
      1790732357,
      1790732387,
      1790732412,
      1790732457,
      1790732480,
      1790732507,
      1790732540,
      1790732564,
      1790732582,
      1790732636,
      1790732657,
      1790732690,
      1790732714
    ],
    "wof:geomhash": "421b38887f1aa0ef8a640f4271a2b328",
    "wof:id": 2048469351,
    "wof:repo": "sfomuseum-data-flights-2026-09"
  },
  "bbox": [
    -122.54556,
    36.71907,
    -121.43981,
    37.66835
  ],
  "geometry": {"type":"LineString","coordinates":[[-122.38992,37.62728],[-122.40738,37.63455],[-122.45362,37.65304],[-122.48096,37.66472],[-122.50244,37.66835],[-122.54556,37.64075],[-122.53689,37.60524],[-122.51739,37.57173],[-122.49815,37.53606],[-122.48966,37.51894],[-122.44623,37.4697],[-122.40733,37.44184],[-122.36874,37.41254],[-122.34943,37.39783],[-122.30284,37.36312],[-122.25078,37.32505],[-122.20887,37.29428],[-122.17863,37.27193],[-122.14762,37.24898],[-122.08521,37.20266],[-122.03893,37.16831],[-121.99075,37.13248],[-121.9501,37.1021],[-121.87632,37.04727],[-121.83811,37.01869],[-121.79356,36.98519],[-121.73905,36.94436],[-121.69895,36.91431],[-121.66862,36.89153],[-121.5759,36.82183],[-121.5392,36.7942],[-121.48147,36.75063],[-121.43981,36.71907]]}
}
