{
  "id": 2048426673,
  "type": "Feature",
  "properties": {
    "geom:area": 0,
    "geom:bbox": "-122.407270,37.627750,-121.250750,38.421390",
    "geom:latitude": 38.02316304126222,
    "geom:longitude": -121.8400269874961,
    "src:alt_label": "swim-takeoff",
    "src:geom": "swim",
    "swim:elevations": [
      183,
      492,
      677,
      761,
      1127,
      1139,
      1524,
      1649,
      2202,
      2467,
      3010,
      3106,
      4140,
      5232,
      5434,
      5539,
      5811,
      6031,
      6242,
      6742,
      7250,
      7462,
      7687
    ],
    "swim:geom": "takeoff",
    "swim:timestamps": [
      1790238291,
      1790238325,
      1790238342,
      1790238350,
      1790238387,
      1790238391,
      1790238447,
      1790238457,
      1790238496,
      1790238516,
      1790238563,
      1790238570,
      1790238670,
      1790238775,
      1790238798,
      1790238807,
      1790238836,
      1790238859,
      1790238881,
      1790238936,
      1790239006,
      1790239032,
      1790239070
    ],
    "wof:geomhash": "6765b6bde2a9869e5eb27928507ed4a3",
    "wof:id": 2048426673,
    "wof:repo": "sfomuseum-data-flights-2026-09"
  },
  "bbox": [
    -122.40727,
    37.62775,
    -121.25075,
    38.42139
  ],
  "geometry": {"type":"LineString","coordinates":[[-122.39667,37.62775],[-122.40727,37.65222],[-122.39113,37.66093],[-122.38224,37.66288],[-122.34237,37.6755],[-122.33765,37.67711],[-122.26099,37.70268],[-122.24516,37.70778],[-122.19294,37.74106],[-122.17256,37.76402],[-122.12284,37.81921],[-122.11521,37.82759],[-121.97294,37.94366],[-121.80008,38.0611],[-121.76029,38.08798],[-121.74453,38.09866],[-121.69318,38.13312],[-121.6533,38.15994],[-121.61313,38.18695],[-121.51183,38.25456],[-121.38177,38.34155],[-121.32867,38.37488],[-121.25075,38.42139]]}
}
