{
  "id": 2048470881,
  "type": "Feature",
  "properties": {
    "geom:area": 0,
    "geom:bbox": "-122.465700,36.738320,-121.577200,37.700720",
    "geom:latitude": 37.207502609506484,
    "geom:longitude": -122.09555791259577,
    "src:alt_label": "swim-takeoff",
    "src:geom": "swim",
    "swim:elevations": [
      714,
      1011,
      2175,
      2225,
      2279,
      2314,
      2338,
      2373,
      2410,
      2442,
      2478,
      2507,
      3370,
      3936,
      4148,
      4516,
      4681,
      5227,
      5806,
      6201,
      6468,
      6868,
      7188,
      7378
    ],
    "swim:geom": "takeoff",
    "swim:timestamps": [
      1790727344,
      1790727387,
      1790727530,
      1790727533,
      1790727536,
      1790727539,
      1790727542,
      1790727545,
      1790727548,
      1790727551,
      1790727554,
      1790727557,
      1790727668,
      1790727758,
      1790727784,
      1790727829,
      1790727844,
      1790727893,
      1790727956,
      1790728014,
      1790728051,
      1790728111,
      1790728156,
      1790728183
    ],
    "wof:geomhash": "409807d413a82ee024077a8270edac69",
    "wof:id": 2048470881,
    "wof:repo": "sfomuseum-data-flights-2026-09"
  },
  "bbox": [
    -122.4657,
    36.73832,
    -121.5772,
    37.70072
  ],
  "geometry": {"type":"LineString","coordinates":[[-122.3629,37.66778],[-122.37083,37.70072],[-122.46046,37.595],[-122.46103,37.59095],[-122.46158,37.5869],[-122.46215,37.58286],[-122.46275,37.57884],[-122.46335,37.57482],[-122.46394,37.5708],[-122.46452,37.56677],[-122.46511,37.56272],[-122.4657,37.55866],[-122.39072,37.42124],[-122.25722,37.30982],[-122.21598,37.27544],[-122.14432,37.21567],[-122.1204,37.19567],[-122.04382,37.13173],[-121.94559,37.04931],[-121.85344,36.97195],[-121.79406,36.92189],[-121.69607,36.83915],[-121.62188,36.77623],[-121.5772,36.73832]]}
}
