{
  "id": 2048447401,
  "type": "Feature",
  "properties": {
    "geom:area": 0,
    "geom:bbox": "-122.358570,37.491160,-121.324410,37.614100",
    "geom:latitude": 37.53936530115285,
    "geom:longitude": -121.8482049026542,
    "src:alt_label": "swim-approach",
    "src:geom": "swim",
    "swim:elevations": [
      4308,
      4241,
      3717,
      3595,
      3207,
      3168,
      3060,
      3028,
      2723,
      2466,
      2438,
      2424,
      2370,
      2198,
      1999,
      1870,
      1826,
      1803,
      1688,
      1402,
      1222,
      1045,
      896,
      794,
      548,
      456,
      364,
      228,
      214,
      121,
      6
    ],
    "swim:geom": "approach",
    "swim:timestamps": [
      1790497916,
      1790497922,
      1790497975,
      1790497989,
      1790498032,
      1790498043,
      1790498074,
      1790498083,
      1790498120,
      1790498151,
      1790498174,
      1790498207,
      1790498214,
      1790498239,
      1790498275,
      1790498301,
      1790498310,
      1790498333,
      1790498361,
      1790498397,
      1790498422,
      1790498450,
      1790498481,
      1790498495,
      1790498548,
      1790498565,
      1790498583,
      1790498618,
      1790498622,
      1790498646,
      1790498677
    ],
    "wof:geomhash": "f6710c74dece3023f96b76c9f9c7baae",
    "wof:id": 2048447401,
    "wof:repo": "sfomuseum-data-flights-2026-09"
  },
  "bbox": [
    -122.35857,
    37.49116,
    -121.32441,
    37.6141
  ],
  "geometry": {"type":"LineString","coordinates":[[-121.32441,37.58451],[-121.33581,37.58326],[-121.43684,37.5721],[-121.46226,37.56925],[-121.54429,37.55979],[-121.56348,37.55756],[-121.61814,37.55096],[-121.63303,37.54842],[-121.69119,37.53452],[-121.74054,37.52258],[-121.77584,37.51413],[-121.82764,37.5018],[-121.83842,37.49925],[-121.87614,37.49116],[-121.93088,37.49385],[-121.96796,37.49617],[-121.98169,37.49694],[-122.01421,37.49866],[-122.05361,37.50085],[-122.09993,37.50654],[-122.12985,37.51803],[-122.16264,37.53161],[-122.19597,37.5457],[-122.20995,37.55164],[-122.25846,37.57197],[-122.27405,37.57863],[-122.28918,37.58496],[-122.31574,37.59613],[-122.319,37.59752],[-122.33671,37.60494],[-122.35857,37.6141]]}
}
