{
  "id": 2048469043,
  "type": "Feature",
  "properties": {
    "geom:area": 0,
    "geom:bbox": "-122.736944,38.658611,-121.652222,47.465278",
    "geom:latitude": 43.17925299005481,
    "geom:longitude": -122.23247148537395,
    "src:alt_label": "swim-path",
    "src:geom": "swim",
    "swim:altitudes": [
      "228",
      "243",
      "257",
      "271",
      "283",
      "294",
      "304",
      "315",
      "342",
      "351",
      "358C",
      "360C",
      "360C",
      "360C",
      "360C",
      "360C",
      "360C",
      "360C",
      "360C",
      "360C",
      "360C",
      "360C",
      "360C",
      "360C",
      "360C",
      "360C",
      "360C",
      "360C",
      "360C",
      "360C",
      "360C",
      "360C",
      "360C",
      "360C",
      "360C",
      "360C",
      "360C",
      "360C",
      "360C",
      "360C",
      "360C",
      "360C",
      "360C",
      "360C",
      "360C",
      "360C",
      "360C",
      "354",
      "345",
      "340C",
      "340C",
      "340C",
      "340C",
      "340C",
      "340C",
      "340C",
      "340C",
      "340C",
      "340",
      "340",
      "340",
      "340",
      "340",
      "325",
      "299",
      "278",
      "258",
      "238",
      "216",
      "196",
      "180",
      "160",
      "143",
      "141",
      "122",
      "104",
      "098",
      "086",
      "073",
      "060",
      "042",
      "042",
      "033",
      "033",
      "025",
      "016",
      "015",
      "008",
      "007",
      "004"
    ],
    "swim:geom": "path",
    "swim:speeds": [
      381,
      388,
      394,
      408,
      413,
      426,
      437,
      444,
      445,
      441,
      442,
      443,
      444,
      444,
      443,
      442,
      441,
      431,
      420,
      418,
      417,
      418,
      414,
      406,
      404,
      401,
      398,
      398,
      407,
      422,
      433,
      434,
      428,
      427,
      428,
      429,
      431,
      433,
      434,
      434,
      433,
      416,
      413,
      411,
      411,
      410,
      410,
      409,
      444,
      464,
      466,
      467,
      436,
      400,
      398,
      399,
      399,
      399,
      400,
      400,
      401,
      402,
      403,
      403,
      417,
      413,
      402,
      392,
      381,
      378,
      371,
      361,
      348,
      352,
      349,
      342,
      302,
      278,
      281,
      264,
      197,
      203,
      170,
      172,
      159,
      150,
      153,
      138,
      142,
      144
    ],
    "swim:timestamps": [
      1790737457,
      1790737517,
      1790737577,
      1790737637,
      1790737697,
      1790737758,
      1790737818,
      1790737878,
      1790737998,
      1790738058,
      1790738118,
      1790738178,
      1790738238,
      1790738298,
      1790738418,
      1790738478,
      1790738538,
      1790738598,
      1790738658,
      1790738718,
      1790738779,
      1790738839,
      1790738899,
      1790738959,
      1790739019,
      1790739079,
      1790739139,
      1790739199,
      1790739259,
      1790739319,
      1790739379,
      1790739439,
      1790739499,
      1790739559,
      1790739619,
      1790739679,
      1790739739,
      1790739799,
      1790739860,
      1790739920,
      1790739980,
      1790740040,
      1790740100,
      1790740160,
      1790740220,
      1790740280,
      1790740340,
      1790740400,
      1790740460,
      1790740520,
      1790740580,
      1790740640,
      1790740700,
      1790740832,
      1790740892,
      1790740952,
      1790741012,
      1790741073,
      1790741133,
      1790741193,
      1790741253,
      1790741313,
      1790741373,
      1790741433,
      1790741493,
      1790741553,
      1790741613,
      1790741673,
      1790741733,
      1790741793,
      1790741853,
      1790741913,
      1790741955,
      1790741973,
      1790742033,
      1790742093,
      1790742153,
      1790742213,
      1790742273,
      1790742334,
      1790742448,
      1790742454,
      1790742508,
      1790742514,
      1790742568,
      1790742623,
      1790742634,
      1790742683,
      1790742694,
      1790742754
    ],
    "wof:geomhash": "f237bdb0686d26c9e84f35129a029bc6",
    "wof:id": 2048469043,
    "wof:repo": "sfomuseum-data-flights-2026-09"
  },
  "bbox": [
    -122.73694444444445,
    38.65861111111111,
    -121.65222222222222,
    47.46527777777778
  ],
  "geometry": {"type":"LineString","coordinates":[[-122.1125,38.65861111111111],[-122.10972222222222,38.76777777777777],[-122.10749999999999,38.87916666666667],[-122.10527777777777,38.99444444444445],[-122.10333333333332,39.11083333333333],[-122.10083333333333,39.23083333333334],[-122.09777777777778,39.35305555555556],[-122.09694444444445,39.47666666666667],[-122.09055555555555,39.72416666666667],[-122.08749999999999,39.845],[-122.08583333333333,39.967222222222226],[-122.08305555555555,40.08777777777778],[-122.08027777777778,40.20888888888889],[-122.07722222222222,40.33111111111111],[-122.07166666666666,40.57555555555556],[-122.06888888888888,40.69777777777777],[-122.06611111111111,40.81944444444445],[-122.06305555555555,40.93944444444444],[-122.06055555555555,41.05694444444444],[-122.05777777777777,41.17666666666666],[-122.05472222222222,41.29277777777778],[-122.05222222222221,41.40888888888889],[-122.0775,41.52166666666667],[-122.17666666666668,41.60472222222222],[-122.31305555555555,41.65222222222222],[-122.44861111111112,41.698055555555555],[-122.5736111111111,41.756388888888885],[-122.6563888888889,41.84666666666667],[-122.685,41.958333333333336],[-122.65,42.07277777777778],[-122.56,42.17194444444444],[-122.45833333333334,42.268055555555556],[-122.40555555555557,42.38111111111111],[-122.35888888888888,42.49638888888889],[-122.31166666666667,42.609722222222224],[-122.26416666666667,42.725833333333334],[-122.21555555555555,42.843611111111116],[-122.16861111111112,42.9575],[-122.1211111111111,43.07277777777778],[-122.07249999999999,43.18833333333333],[-122.02472222222222,43.30361111111111],[-122.02,43.41833333333333],[-122.0461111111111,43.531666666666666],[-122.07277777777777,43.64277777777778],[-122.09944444444444,43.75611111111111],[-122.12638888888888,43.86805555555556],[-122.15333333333334,43.97916666666667],[-122.17972222222222,44.090833333333336],[-122.14361111111111,44.20527777777778],[-122.01777777777778,44.29527777777778],[-121.87777777777777,44.379444444444445],[-121.73138888888889,44.46611111111111],[-121.65222222222222,44.57333333333334],[-121.76861111111111,44.77722222222222],[-121.86444444444444,44.89222222222222],[-121.93694444444445,44.97916666666667],[-122.01694444444445,45.07416666666667],[-122.0975,45.169999999999995],[-122.17750000000001,45.26444444444444],[-122.25805555555556,45.35916666666667],[-122.33888888888889,45.45416666666667],[-122.42111111111112,45.55],[-122.50361111111111,45.645833333333336],[-122.58333333333333,45.744166666666665],[-122.61861111111111,45.85666666666667],[-122.64611111111111,45.969722222222224],[-122.67361111111111,46.078611111111115],[-122.69583333333334,46.18527777777778],[-122.71833333333333,46.30138888888889],[-122.72527777777778,46.406388888888884],[-122.72833333333334,46.49111111111111],[-122.73194444444445,46.595],[-122.73694444444445,46.67944444444444],[-122.73583333333333,46.69166666666666],[-122.72083333333333,46.79944444444444],[-122.62916666666666,46.87388888888889],[-122.54055555555556,46.93583333333333],[-122.45694444444445,46.99472222222222],[-122.40222222222222,47.06083333333333],[-122.34944444444444,47.126111111111115],[-122.31944444444444,47.24638888888889],[-122.32027777777778,47.25],[-122.32055555555556,47.297777777777775],[-122.31944444444444,47.29972222222222],[-122.32027777777778,47.34],[-122.31805555555555,47.379444444444445],[-122.31861111111111,47.38583333333333],[-122.32,47.41777777777777],[-122.31833333333333,47.42472222222222],[-122.31805555555555,47.46527777777778]]}
}
