{
  "id": 2048408219,
  "type": "Feature",
  "properties": {
    "geom:area": 0,
    "geom:bbox": "-122.544920,36.718740,-121.437040,37.665780",
    "geom:latitude": 37.21200487032114,
    "geom:longitude": -122.0677659762142,
    "src:alt_label": "swim-takeoff",
    "src:geom": "swim",
    "swim:elevations": [
      213,
      449,
      983,
      1291,
      1696,
      2074,
      2426,
      3340,
      3647,
      4418,
      4592,
      5055,
      5168,
      6002,
      6453,
      6529,
      6712,
      7163,
      7498,
      7846,
      8506,
      8949,
      9044,
      9292,
      9583,
      10008,
      10351,
      10564
    ],
    "swim:geom": "takeoff",
    "swim:timestamps": [
      1790079801,
      1790079817,
      1790079866,
      1790079886,
      1790079926,
      1790079948,
      1790079964,
      1790080012,
      1790080033,
      1790080077,
      1790080088,
      1790080132,
      1790080140,
      1790080195,
      1790080226,
      1790080231,
      1790080244,
      1790080274,
      1790080301,
      1790080330,
      1790080389,
      1790080437,
      1790080450,
      1790080478,
      1790080509,
      1790080550,
      1790080571,
      1790080601
    ],
    "wof:geomhash": "e1e37e2d72f4f8111684b5353c90c403",
    "wof:id": 2048408219,
    "wof:repo": "sfomuseum-data-flights-2026-09"
  },
  "bbox": [
    -122.54492,
    36.71874,
    -121.43704,
    37.66578
  ],
  "geometry": {"type":"LineString","coordinates":[[-122.38356,37.62231],[-122.39683,37.62784],[-122.44565,37.64895],[-122.46773,37.65804],[-122.52018,37.66578],[-122.54353,37.645],[-122.54492,37.62472],[-122.51484,37.56566],[-122.49875,37.53565],[-122.45589,37.47618],[-122.43924,37.46377],[-122.36675,37.41073],[-122.3526,37.40038],[-122.25533,37.32875],[-122.19768,37.28599],[-122.18926,37.27976],[-122.16427,37.26137],[-122.10741,37.21925],[-122.056,37.18113],[-121.99999,37.139],[-121.88215,37.05153],[-121.78373,36.97853],[-121.756,36.95846],[-121.69805,36.91585],[-121.62986,36.86505],[-121.54282,36.79949],[-121.49818,36.76549],[-121.43704,36.71874]]}
}
