{
  "id": 2048269697,
  "type": "Feature",
  "properties": {
    "geom:area": 0,
    "geom:bbox": "-122.405300,37.630360,-121.260320,37.962170",
    "geom:latitude": 37.83114943681974,
    "geom:longitude": -121.85189199869245,
    "src:alt_label": "swim-takeoff",
    "src:geom": "swim",
    "swim:elevations": [
      366,
      601,
      625,
      895,
      1444,
      1532,
      2003,
      2575,
      2774,
      3139,
      3277,
      3368,
      3646,
      3992,
      4128,
      4213,
      4661,
      4810,
      5001,
      5263,
      5690,
      5712,
      6135
    ],
    "swim:geom": "takeoff",
    "swim:timestamps": [
      1788682678,
      1788682708,
      1788682711,
      1788682761,
      1788682798,
      1788682804,
      1788682845,
      1788682885,
      1788682903,
      1788682942,
      1788682971,
      1788682989,
      1788683023,
      1788683055,
      1788683067,
      1788683076,
      1788683128,
      1788683145,
      1788683163,
      1788683192,
      1788683247,
      1788683250,
      1788683303
    ],
    "wof:geomhash": "7c5d68c4722a154a5ac9ff19d4123812",
    "wof:id": 2048269697,
    "wof:repo": "sfomuseum-data-flights-2026-09"
  },
  "bbox": [
    -122.4053,
    37.63036,
    -121.26032,
    37.96217
  ],
  "geometry": {"type":"LineString","coordinates":[[-122.40131,37.63036],[-122.4053,37.65292],[-122.4034,37.6553],[-122.34175,37.67806],[-122.2861,37.69503],[-122.27726,37.69779],[-122.21593,37.71731],[-122.1583,37.74625],[-122.13268,37.75954],[-122.07481,37.78956],[-122.02815,37.81343],[-121.99549,37.82598],[-121.92289,37.84075],[-121.85322,37.8531],[-121.828,37.85772],[-121.80629,37.86176],[-121.68699,37.88438],[-121.64784,37.8916],[-121.60471,37.89928],[-121.53579,37.91186],[-121.40112,37.93683],[-121.39372,37.93821],[-121.26032,37.96217]]}
}
