{
  "id": 2048435511,
  "type": "Feature",
  "properties": {
    "geom:area": 0,
    "geom:bbox": "-122.397300,37.623390,-121.244930,38.425720",
    "geom:latitude": 38.072391285697485,
    "geom:longitude": -121.91218966445747,
    "src:alt_label": "swim-takeoff",
    "src:geom": "swim",
    "swim:elevations": [
      152,
      353,
      920,
      1189,
      1304,
      1493,
      1684,
      1821,
      2741,
      3207,
      3231,
      3492,
      3833,
      4143,
      4545,
      5026,
      5113,
      5708,
      5984,
      6051,
      6332,
      6549,
      6826,
      7052,
      7310,
      7493,
      7523,
      7601,
      7990,
      8163,
      8250
    ],
    "swim:geom": "takeoff",
    "swim:timestamps": [
      1790403777,
      1790403793,
      1790403837,
      1790403861,
      1790403873,
      1790403895,
      1790403920,
      1790403932,
      1790403986,
      1790404018,
      1790404022,
      1790404050,
      1790404098,
      1790404124,
      1790404152,
      1790404193,
      1790404200,
      1790404258,
      1790404285,
      1790404291,
      1790404317,
      1790404338,
      1790404372,
      1790404397,
      1790404433,
      1790404455,
      1790404460,
      1790404474,
      1790404528,
      1790404553,
      1790404566
    ],
    "wof:geomhash": "b91c868e069a463207f07d1104b0e9cb",
    "wof:id": 2048435511,
    "wof:repo": "sfomuseum-data-flights-2026-09"
  },
  "bbox": [
    -122.3973,
    37.62339,
    -121.24493,
    38.42572
  ],
  "geometry": {"type":"LineString","coordinates":[[-122.38589,37.62339],[-122.3973,37.63054],[-122.38659,37.66207],[-122.37258,37.6789],[-122.36484,37.68795],[-122.34984,37.70684],[-122.33566,37.73398],[-122.337,37.74973],[-122.3708,37.81641],[-122.38178,37.85884],[-122.38059,37.86305],[-122.3514,37.89808],[-122.26379,37.93774],[-122.2133,37.96013],[-122.15769,37.9857],[-122.07742,38.02276],[-122.06177,38.03002],[-121.94087,38.08555],[-121.88298,38.11207],[-121.87001,38.11801],[-121.81298,38.14406],[-121.76653,38.16535],[-121.69021,38.20018],[-121.63453,38.22547],[-121.55058,38.26351],[-121.49883,38.28707],[-121.48905,38.29151],[-121.45388,38.30738],[-121.33072,38.37283],[-121.27423,38.40741],[-121.24493,38.42572]]}
}
