{
  "id": 2048311115,
  "type": "Feature",
  "properties": {
    "date:inception_lower": "2026-09-11",
    "date:inception_upper": "2026-09-11",
    "edtf:cessation": "",
    "edtf:inception": "2026-09-11",
    "flysfo:actual_timestamp": -1,
    "flysfo:airline": "AC",
    "flysfo:base_airline": "",
    "flysfo:base_flight_number": "4347",
    "flysfo:date": "2026-09-11",
    "flysfo:estimated_timestamp": 1789169220,
    "flysfo:event": "D",
    "flysfo:flight_number": "AC4347",
    "flysfo:gate": "D7",
    "flysfo:journey": "SFO-SAT",
    "flysfo:scheduled_timestamp": 1789168980,
    "flysfo:timestamp": 1789169220,
    "geom:area": 0,
    "geom:bbox": "-122.370943,29.534838,-98.472784,37.617990",
    "geom:latitude": 33.576414,
    "geom:longitude": -110.4218635,
    "iata:airline": "AC",
    "iata:base_airline": "",
    "icao:airline": "ACA",
    "icao:base_airline": "ACA",
    "lbl:latitude": 37.61705,
    "lbl:longitude": -122.380838,
    "sfomuseum:airline_id": 1159283597,
    "sfomuseum:arrival_id": 102527373,
    "sfomuseum:base_flight_id": "20260911-D-ACA-4347",
    "sfomuseum:departure_id": 102527513,
    "sfomuseum:flight_id": "20260911-D-ACA-4347",
    "sfomuseum:flight_number": [
      "ACA4347",
      "AC4347"
    ],
    "sfomuseum:placetype": "flight",
    "src:geom": "flysfo",
    "wof:belongsto": [
      1947304067,
      102527513,
      1947304595,
      102191575,
      85633793,
      102087579,
      85922583,
      554784711,
      85688637,
      1947304601,
      1947304591,
      102085387
    ],
    "wof:country": "US",
    "wof:created": 1789229425,
    "wof:geomhash": "3d1812cb234aac8b643ea0201167e576",
    "wof:hierarchy": [
      {
        "building_id": 1947304067,
        "campus_id": 102527513,
        "concourse_id": 1947304595,
        "continent_id": 102191575,
        "country_id": 85633793,
        "county_id": 102087579,
        "custom_id": 2048311115,
        "flight_id": 2048311115,
        "locality_id": 85922583,
        "postalcode_id": 554784711,
        "region_id": 85688637,
        "venue_id": 1947304601,
        "wing_id": 1947304591
      },
      {
        "building_id": 1947304067,
        "campus_id": 102527513,
        "concourse_id": 1947304595,
        "continent_id": 102191575,
        "country_id": 85633793,
        "county_id": 102085387,
        "custom_id": 2048311115,
        "flight_id": 2048311115,
        "region_id": 85688637,
        "venue_id": 1947304601,
        "wing_id": 1947304591
      }
    ],
    "wof:id": 2048311115,
    "wof:involves": [
      102527373,
      102527513,
      1159283597,
      1947304601,
      1159283597
    ],
    "wof:lastmodified": 1789229425,
    "wof:name": "AC4347 (SFO-SAT)",
    "wof:parent_id": 1947304601,
    "wof:placetype": "custom",
    "wof:placetype_alt": [
      "flight"
    ],
    "wof:repo": "sfomuseum-data-flights-2026-09",
    "wof:superseded_by": [],
    "wof:supersedes": []
  },
  "bbox": [
    -122.370943,
    29.534838,
    -98.472784,
    37.61799
  ],
  "geometry": {"type":"MultiPoint","coordinates":[[-122.370943,37.61799],[-98.472784,29.534838]]}
}
