{
  "id": 2048284685,
  "type": "Feature",
  "properties": {
    "geom:area": 0,
    "geom:bbox": "-122.356330,36.743440,-121.892540,37.610840",
    "geom:latitude": 37.22118387320069,
    "geom:longitude": -122.08740137657279,
    "src:alt_label": "swim-approach",
    "src:geom": "swim",
    "swim:elevations": [
      4597,
      4317,
      4095,
      3815,
      3735,
      3639,
      3474,
      3311,
      3078,
      3070,
      2803,
      2672,
      2586,
      2465,
      2414,
      2256,
      2098,
      1934,
      1700,
      1587,
      1376,
      1259,
      1068,
      942,
      822,
      585,
      470,
      363,
      204,
      114,
      27
    ],
    "swim:geom": "approach",
    "swim:timestamps": [
      1788863390,
      1788863424,
      1788863448,
      1788863485,
      1788863504,
      1788863524,
      1788863563,
      1788863594,
      1788863638,
      1788863642,
      1788863692,
      1788863714,
      1788863742,
      1788863772,
      1788863811,
      1788863847,
      1788863871,
      1788863891,
      1788863922,
      1788863943,
      1788863977,
      1788864023,
      1788864044,
      1788864062,
      1788864091,
      1788864137,
      1788864164,
      1788864195,
      1788864236,
      1788864262,
      1788864285
    ],
    "wof:geomhash": "3486136b306dfed16a7b3f7f40eccf62",
    "wof:id": 2048284685,
    "wof:repo": "sfomuseum-data-flights-2026-09"
  },
  "bbox": [
    -122.35633,
    36.74344,
    -121.89254,
    37.61084
  ],
  "geometry": {"type":"LineString","coordinates":[[-121.89254,36.74344],[-121.91052,36.80022],[-121.92208,36.8416],[-121.93895,36.90196],[-121.94735,36.93206],[-121.95666,36.96128],[-121.9769,37.01306],[-121.99172,37.05105],[-122.01149,37.1017],[-122.01329,37.10641],[-122.03499,37.16178],[-122.04517,37.18707],[-122.07157,37.20892],[-122.10607,37.2294],[-122.15078,37.25596],[-122.17775,37.28936],[-122.17107,37.31743],[-122.16337,37.34125],[-122.15211,37.37808],[-122.14811,37.4016],[-122.15357,37.44036],[-122.1606,37.48671],[-122.16393,37.50586],[-122.16722,37.52232],[-122.19093,37.54104],[-122.23744,37.56091],[-122.26414,37.57218],[-122.29043,37.58315],[-122.32089,37.59599],[-122.33973,37.60392],[-122.35633,37.61084]]}
}
