{
  "id": 2048269469,
  "type": "Feature",
  "properties": {
    "geom:area": 0,
    "geom:bbox": "-122.142830,37.754560,-121.270460,38.114980",
    "geom:latitude": 37.94126713469321,
    "geom:longitude": -121.70955316902914,
    "src:alt_label": "swim-takeoff",
    "src:geom": "swim",
    "swim:elevations": [
      2644,
      2819,
      3193,
      3392,
      3711,
      3907,
      4551,
      4798,
      5144,
      5724,
      6115,
      6318,
      6753,
      7015,
      7337
    ],
    "swim:geom": "takeoff",
    "swim:timestamps": [
      1788717859,
      1788717875,
      1788717923,
      1788717956,
      1788717986,
      1788717998,
      1788718045,
      1788718064,
      1788718091,
      1788718136,
      1788718167,
      1788718185,
      1788718221,
      1788718245,
      1788718273
    ],
    "wof:geomhash": "06eabe24eebeedbf46f8dbd31b7b9b00",
    "wof:id": 2048269469,
    "wof:repo": "sfomuseum-data-flights-2026-09"
  },
  "bbox": [
    -122.14283,
    37.75456,
    -121.27046,
    38.11498
  ],
  "geometry": {"type":"LineString","coordinates":[[-122.14283,37.75456],[-122.12057,37.76605],[-122.0478,37.8041],[-121.98907,37.83239],[-121.93044,37.85583],[-121.90449,37.86606],[-121.80612,37.90499],[-121.76538,37.92102],[-121.70434,37.94508],[-121.60066,37.98584],[-121.52835,38.01422],[-121.48657,38.03058],[-121.39721,38.06559],[-121.33807,38.08871],[-121.27046,38.11498]]}
}
