{
  "id": 2048382417,
  "type": "Feature",
  "properties": {
    "geom:area": 0,
    "geom:bbox": "-122.588870,37.625940,-121.284530,38.150550",
    "geom:latitude": 37.94564974651183,
    "geom:longitude": -122.04510288643385,
    "src:alt_label": "swim-takeoff",
    "src:geom": "swim",
    "swim:elevations": [
      152,
      548,
      774,
      1044,
      1291,
      1596,
      1952,
      2362,
      2887,
      3230,
      3530,
      3620,
      3907,
      4329,
      4710,
      5125,
      5357,
      5591,
      5853,
      6173,
      6501,
      6760,
      6951,
      7356,
      7560,
      7985,
      8227,
      8374
    ],
    "swim:geom": "takeoff",
    "swim:timestamps": [
      1789863019,
      1789863050,
      1789863071,
      1789863092,
      1789863131,
      1789863159,
      1789863189,
      1789863219,
      1789863255,
      1789863283,
      1789863324,
      1789863337,
      1789863370,
      1789863409,
      1789863444,
      1789863477,
      1789863498,
      1789863520,
      1789863559,
      1789863592,
      1789863622,
      1789863646,
      1789863667,
      1789863708,
      1789863729,
      1789863775,
      1789863803,
      1789863821
    ],
    "wof:geomhash": "3408539cc5fd7f613ca98c788c66f5f3",
    "wof:id": 2048382417,
    "wof:repo": "sfomuseum-data-flights-2026-09"
  },
  "bbox": [
    -122.58887,
    37.62594,
    -121.28453,
    38.15055
  ],
  "geometry": {"type":"LineString","coordinates":[[-122.39258,37.62594],[-122.42058,37.63745],[-122.4404,37.64593],[-122.46056,37.6548],[-122.50248,37.6732],[-122.53842,37.68926],[-122.5766,37.71143],[-122.58887,37.74808],[-122.5739,37.79407],[-122.54858,37.82689],[-122.5007,37.87256],[-122.47748,37.88221],[-122.4097,37.89815],[-122.32394,37.91598],[-122.2441,37.93451],[-122.16797,37.95186],[-122.11864,37.96322],[-122.06613,37.97523],[-121.97192,37.99677],[-121.88947,38.01542],[-121.81365,38.03269],[-121.75246,38.04653],[-121.69839,38.05875],[-121.59201,38.08267],[-121.5352,38.09534],[-121.41089,38.12237],[-121.33419,38.13958],[-121.28453,38.15055]]}
}
