{
  "id": 2048399521,
  "type": "Feature",
  "properties": {
    "geom:area": 0,
    "geom:bbox": "-122.407080,37.631610,-121.263190,37.958060",
    "geom:latitude": 37.821848575564296,
    "geom:longitude": -121.85124748581384,
    "src:alt_label": "swim-takeoff",
    "src:geom": "swim",
    "swim:elevations": [
      316,
      546,
      703,
      935,
      1122,
      1741,
      2031,
      2205,
      2644,
      3116,
      3299,
      3378,
      3456,
      3595,
      3818,
      4065,
      4335,
      4838,
      5006,
      5289,
      5310,
      5567,
      5976,
      6154
    ],
    "swim:geom": "takeoff",
    "swim:timestamps": [
      1789978398,
      1789978417,
      1789978445,
      1789978484,
      1789978505,
      1789978556,
      1789978579,
      1789978594,
      1789978629,
      1789978673,
      1789978707,
      1789978720,
      1789978734,
      1789978764,
      1789978792,
      1789978814,
      1789978841,
      1789978887,
      1789978905,
      1789978947,
      1789978950,
      1789978980,
      1789979029,
      1789979055
    ],
    "wof:geomhash": "3e395e81e0763da5d29a1c9ef10f8cfe",
    "wof:id": 2048399521,
    "wof:repo": "sfomuseum-data-flights-2026-09"
  },
  "bbox": [
    -122.40708,
    37.63161,
    -121.26319,
    37.95806
  ],
  "geometry": {"type":"LineString","coordinates":[[-122.39846,37.63161],[-122.40708,37.645],[-122.38934,37.66409],[-122.34029,37.67939],[-122.31014,37.68818],[-122.2347,37.71144],[-122.20094,37.72456],[-122.1805,37.73535],[-122.13207,37.76081],[-122.06951,37.78766],[-122.01088,37.7995],[-121.98822,37.80423],[-121.95987,37.81015],[-121.90118,37.82283],[-121.84279,37.83535],[-121.79642,37.84536],[-121.73967,37.85756],[-121.64211,37.87851],[-121.60288,37.88683],[-121.50975,37.90653],[-121.50306,37.90794],[-121.43487,37.92225],[-121.32467,37.94523],[-121.26319,37.95806]]}
}
