{
  "id": 2048428751,
  "type": "Feature",
  "properties": {
    "geom:area": 0,
    "geom:bbox": "-122.346389,37.493056,-73.693056,41.226389",
    "geom:latitude": 39.93337843229505,
    "geom:longitude": -98.09583582521027,
    "src:alt_label": "swim-path",
    "src:geom": "swim",
    "swim:altitudes": [
      "006",
      "027",
      "032",
      "050",
      "057",
      "080",
      "107",
      "116",
      "123",
      "139",
      "176",
      "190",
      "220",
      "220",
      "220",
      "220",
      "229",
      "241",
      "249",
      "260",
      "276",
      "285",
      "291",
      "303",
      "314",
      "320C",
      "320C",
      "320C",
      "320C",
      "320C",
      "320C",
      "320C",
      "320C",
      "320C",
      "320C",
      "320C",
      "320C",
      "320C",
      "320C",
      "320C",
      "320C",
      "320C",
      "320C",
      "320C",
      "320C",
      "320C",
      "320C",
      "320C",
      "320C",
      "320C",
      "320C",
      "320C",
      "320C",
      "320C",
      "320C",
      "320C",
      "320C",
      "320C",
      "320C",
      "320C",
      "320C",
      "320C",
      "320C",
      "320C",
      "320C",
      "320C",
      "320C",
      "320C",
      "320C",
      "320C",
      "320C",
      "320C",
      "320C",
      "320C",
      "320C",
      "320C",
      "320C",
      "320C",
      "320C",
      "320C",
      "320C",
      "320C",
      "320C",
      "320C",
      "320C",
      "320C",
      "320C",
      "320C",
      "320C",
      "320C",
      "320C",
      "320C",
      "320C",
      "320C",
      "320C",
      "320C",
      "320C",
      "320C",
      "320C",
      "320C",
      "320C",
      "320C",
      "320C",
      "320C",
      "320C",
      "320C",
      "320C",
      "320C",
      "320C",
      "320C",
      "320C",
      "320C",
      "320C",
      "320C",
      "320C",
      "320C",
      "320C",
      "320C",
      "320C",
      "320C",
      "320",
      "328",
      "338C",
      "340C",
      "340C",
      "340C",
      "340C",
      "340C",
      "340C",
      "340C",
      "340C",
      "340C",
      "340C",
      "340C",
      "340C",
      "340C",
      "340C",
      "340C",
      "340C",
      "340C",
      "340C",
      "340C",
      "340C",
      "340C",
      "340C",
      "340C",
      "340C",
      "340C",
      "340C",
      "340C",
      "340C",
      "340C",
      "340C",
      "340C",
      "340C",
      "340C",
      "340C",
      "340C",
      "340C",
      "340C",
      "340C",
      "340C",
      "340C",
      "340C",
      "340C",
      "340C",
      "340C",
      "340C",
      "340C",
      "340C",
      "340C",
      "340C",
      "340C",
      "340C",
      "340C",
      "340C",
      "340C",
      "340C",
      "340C",
      "340C",
      "340C",
      "340C",
      "340C",
      "340C",
      "340C",
      "340C",
      "340C",
      "340C",
      "340C",
      "340C",
      "340C",
      "340C",
      "340C",
      "340C",
      "340C",
      "340C",
      "340C",
      "340C",
      "340C",
      "340C",
      "340C",
      "340C",
      "340C",
      "340C",
      "340C",
      "340C",
      "340C",
      "340C",
      "340C",
      "340C",
      "340C",
      "340C",
      "340C",
      "340C",
      "340C",
      "340C",
      "340C",
      "340C",
      "340C",
      "340C",
      "340C",
      "340C",
      "340C",
      "340C",
      "340C",
      "340C",
      "340C",
      "340C",
      "340C",
      "340C",
      "340C",
      "340C",
      "340C",
      "340C",
      "340C",
      "340C",
      "340C",
      "340C",
      "340C",
      "340C",
      "340C",
      "340C",
      "340C",
      "340C",
      "340C",
      "340C",
      "340C",
      "340C",
      "340C",
      "340C",
      "340C",
      "340C",
      "340C",
      "340C",
      "340C",
      "340C",
      "340C",
      "340C",
      "340C",
      "340C",
      "340C",
      "340C",
      "340C",
      "340C",
      "340C",
      "340C",
      "340C",
      "340C",
      "340C",
      "340C",
      "340C",
      "340C",
      "340C",
      "340C",
      "340C",
      "340C",
      "340C",
      "340C",
      "340C",
      "340C",
      "340C",
      "340C",
      "340C",
      "340C",
      "340C",
      "340C",
      "340C",
      "340C",
      "340C",
      "340C",
      "340C",
      "340C",
      "340C",
      "340C",
      "340C",
      "340C",
      "340C",
      "340C",
      "340C",
      "340C",
      "340C",
      "340C",
      "340C",
      "340C",
      "340C",
      "340C",
      "340C",
      "340C",
      "340C",
      "340C",
      "340C",
      "340C",
      "340C",
      "340C",
      "340C",
      "340C",
      "340C",
      "340C",
      "340C",
      "340C",
      "340C",
      "340C",
      "340C",
      "340C",
      "340C",
      "340C",
      "340C",
      "340C",
      "340C",
      "340C",
      "340C",
      "340C",
      "340C",
      "340C",
      "340C",
      "340C",
      "340C",
      "340C",
      "340C",
      "340C",
      "340C",
      "340C",
      "340C",
      "340C",
      "340C",
      "340C",
      "340C",
      "340C",
      "340C",
      "340C",
      "340C",
      "340C",
      "340C",
      "340C",
      "340C",
      "340C",
      "340C",
      "340C",
      "340C",
      "340C",
      "340C",
      "340C",
      "340C",
      "340C",
      "340C",
      "340C",
      "340C",
      "340C",
      "340C",
      "340C",
      "340C",
      "340C",
      "340C",
      "340C",
      "340C",
      "340C",
      "340C",
      "340C",
      "340C",
      "340C",
      "340C",
      "340C",
      "340C",
      "340C",
      "340C",
      "340C",
      "340C",
      "340C",
      "340C",
      "340C",
      "340C",
      "340C",
      "340C",
      "340C",
      "340C",
      "340C",
      "340C",
      "340C",
      "340C",
      "340C",
      "340C",
      "340C",
      "340",
      "337",
      "322",
      "312",
      "298",
      "291",
      "277",
      "256",
      "235",
      "233",
      "214",
      "197",
      "194",
      "178",
      "175",
      "159",
      "154",
      "136",
      "122",
      "118",
      "110",
      "108",
      "102",
      "099",
      "096",
      "092",
      "085",
      "081",
      "073",
      "062",
      "058",
      "054",
      "048",
      "045",
      "038",
      "035",
      "029",
      "027",
      "018",
      "011",
      "005",
      "002"
    ],
    "swim:geom": "path",
    "swim:speeds": [
      170,
      253,
      270,
      317,
      315,
      322,
      328,
      382,
      399,
      406,
      418,
      429,
      436,
      437,
      435,
      434,
      435,
      452,
      456,
      465,
      464,
      459,
      460,
      460,
      455,
      452,
      451,
      443,
      441,
      441,
      442,
      443,
      445,
      448,
      445,
      447,
      445,
      446,
      443,
      443,
      441,
      440,
      435,
      434,
      431,
      431,
      429,
      427,
      426,
      425,
      424,
      423,
      423,
      423,
      424,
      427,
      431,
      431,
      432,
      433,
      434,
      434,
      434,
      435,
      435,
      435,
      435,
      435,
      435,
      435,
      434,
      434,
      433,
      432,
      431,
      431,
      430,
      430,
      429,
      429,
      429,
      428,
      428,
      428,
      428,
      428,
      428,
      427,
      427,
      427,
      426,
      426,
      425,
      425,
      425,
      424,
      424,
      423,
      422,
      421,
      421,
      421,
      419,
      419,
      417,
      418,
      415,
      415,
      413,
      412,
      413,
      412,
      413,
      412,
      413,
      413,
      414,
      414,
      415,
      415,
      416,
      417,
      415,
      414,
      414,
      414,
      414,
      414,
      414,
      415,
      414,
      414,
      415,
      414,
      415,
      414,
      415,
      415,
      414,
      415,
      414,
      415,
      414,
      414,
      414,
      414,
      415,
      415,
      416,
      416,
      416,
      416,
      417,
      417,
      416,
      416,
      416,
      416,
      416,
      416,
      416,
      416,
      416,
      416,
      416,
      416,
      416,
      416,
      416,
      416,
      417,
      418,
      418,
      420,
      421,
      423,
      423,
      425,
      424,
      426,
      426,
      425,
      424,
      423,
      422,
      421,
      420,
      419,
      418,
      419,
      420,
      422,
      424,
      426,
      427,
      427,
      427,
      427,
      427,
      428,
      429,
      430,
      432,
      433,
      435,
      437,
      439,
      440,
      440,
      439,
      439,
      438,
      438,
      438,
      438,
      438,
      439,
      439,
      440,
      439,
      440,
      440,
      440,
      440,
      439,
      439,
      438,
      438,
      438,
      440,
      441,
      442,
      444,
      446,
      447,
      447,
      447,
      447,
      447,
      447,
      447,
      447,
      448,
      449,
      449,
      451,
      451,
      452,
      452,
      452,
      465,
      451,
      450,
      446,
      446,
      445,
      447,
      446,
      446,
      451,
      447,
      449,
      452,
      451,
      450,
      450,
      452,
      451,
      449,
      444,
      439,
      439,
      432,
      436,
      431,
      432,
      429,
      431,
      430,
      428,
      428,
      428,
      428,
      428,
      426,
      426,
      426,
      431,
      435,
      434,
      435,
      434,
      436,
      435,
      436,
      434,
      435,
      433,
      433,
      433,
      432,
      432,
      429,
      429,
      428,
      429,
      424,
      424,
      425,
      424,
      425,
      426,
      426,
      427,
      427,
      430,
      430,
      432,
      433,
      433,
      433,
      431,
      431,
      430,
      430,
      429,
      429,
      429,
      429,
      429,
      429,
      429,
      428,
      428,
      427,
      426,
      425,
      425,
      424,
      423,
      422,
      422,
      423,
      423,
      424,
      424,
      425,
      424,
      424,
      423,
      423,
      422,
      421,
      420,
      420,
      420,
      421,
      420,
      419,
      419,
      421,
      422,
      424,
      423,
      424,
      423,
      423,
      428,
      421,
      421,
      420,
      420,
      419,
      420,
      418,
      415,
      414,
      413,
      411,
      409,
      408,
      406,
      407,
      408,
      407,
      406,
      405,
      405,
      407,
      408,
      411,
      412,
      411,
      410,
      410,
      409,
      410,
      411,
      411,
      412,
      414,
      414,
      414,
      414,
      413,
      412,
      402,
      400,
      389,
      380,
      369,
      373,
      364,
      353,
      357,
      344,
      347,
      336,
      339,
      333,
      323,
      324,
      302,
      296,
      270,
      259,
      238,
      240,
      232,
      236,
      226,
      195,
      192,
      189,
      193,
      191,
      188,
      189,
      182,
      177,
      147,
      143,
      152,
      147
    ],
    "swim:timestamps": [
      1790373764,
      1790373830,
      1790373848,
      1790373890,
      1790373908,
      1790373950,
      1790374028,
      1790374088,
      1790374148,
      1790374208,
      1790374329,
      1790374389,
      1790374509,
      1790374569,
      1790374629,
      1790374689,
      1790374807,
      1790374869,
      1790374927,
      1790374987,
      1790375047,
      1790375107,
      1790375168,
      1790375228,
      1790375288,
      1790375348,
      1790375408,
      1790375468,
      1790375530,
      1790375588,
      1790375648,
      1790375708,
      1790375768,
      1790375788,
      1790375829,
      1790375848,
      1790375889,
      1790375908,
      1790375949,
      1790375968,
      1790376009,
      1790376028,
      1790376069,
      1790376088,
      1790376129,
      1790376148,
      1790376189,
      1790376208,
      1790376249,
      1790376268,
      1790376309,
      1790376328,
      1790376369,
      1790376388,
      1790376429,
      1790376449,
      1790376490,
      1790376509,
      1790376550,
      1790376569,
      1790376610,
      1790376629,
      1790376670,
      1790376689,
      1790376730,
      1790376749,
      1790376790,
      1790376809,
      1790376850,
      1790376869,
      1790376910,
      1790376929,
      1790376970,
      1790376989,
      1790377030,
      1790377049,
      1790377090,
      1790377109,
      1790377151,
      1790377170,
      1790377230,
      1790377271,
      1790377290,
      1790377331,
      1790377350,
      1790377391,
      1790377410,
      1790377451,
      1790377470,
      1790377511,
      1790377530,
      1790377571,
      1790377590,
      1790377631,
      1790377650,
      1790377691,
      1790377710,
      1790377752,
      1790377770,
      1790377812,
      1790377830,
      1790377872,
      1790377891,
      1790377932,
      1790377951,
      1790377992,
      1790378011,
      1790378052,
      1790378071,
      1790378131,
      1790378172,
      1790378191,
      1790378233,
      1790378251,
      1790378293,
      1790378311,
      1790378353,
      1790378371,
      1790378407,
      1790378413,
      1790378473,
      1790378533,
      1790378588,
      1790378648,
      1790378681,
      1790378708,
      1790378741,
      1790378768,
      1790378801,
      1790378834,
      1790378861,
      1790378888,
      1790378894,
      1790378921,
      1790378954,
      1790378981,
      1790379008,
      1790379014,
      1790379041,
      1790379068,
      1790379102,
      1790379134,
      1790379162,
      1790379188,
      1790379194,
      1790379222,
      1790379254,
      1790379282,
      1790379309,
      1790379342,
      1790379369,
      1790379402,
      1790379429,
      1790379462,
      1790379489,
      1790379507,
      1790379522,
      1790379549,
      1790379567,
      1790379582,
      1790379609,
      1790379627,
      1790379642,
      1790379669,
      1790379687,
      1790379702,
      1790379729,
      1790379747,
      1790379763,
      1790379789,
      1790379807,
      1790379823,
      1790379849,
      1790379883,
      1790379969,
      1790380003,
      1790380030,
      1790380063,
      1790380090,
      1790380123,
      1790380183,
      1790380243,
      1790380303,
      1790380363,
      1790380424,
      1790380484,
      1790380544,
      1790380604,
      1790380664,
      1790380724,
      1790380784,
      1790380844,
      1790380904,
      1790380964,
      1790381024,
      1790381084,
      1790381145,
      1790381205,
      1790381265,
      1790381325,
      1790381385,
      1790381391,
      1790381451,
      1790381511,
      1790381571,
      1790381631,
      1790381691,
      1790381745,
      1790381811,
      1790381866,
      1790381926,
      1790381986,
      1790382046,
      1790382106,
      1790382172,
      1790382232,
      1790382286,
      1790382346,
      1790382406,
      1790382466,
      1790382527,
      1790382587,
      1790382647,
      1790382712,
      1790382772,
      1790382832,
      1790382893,
      1790382953,
      1790383013,
      1790383073,
      1790383133,
      1790383193,
      1790383253,
      1790383312,
      1790383372,
      1790383432,
      1790383493,
      1790383552,
      1790383612,
      1790383672,
      1790383732,
      1790383794,
      1790383852,
      1790383912,
      1790383974,
      1790384033,
      1790384093,
      1790384153,
      1790384213,
      1790384273,
      1790384334,
      1790384393,
      1790384453,
      1790384519,
      1790384580,
      1790384633,
      1790384640,
      1790384700,
      1790384760,
      1790384814,
      1790384820,
      1790384880,
      1790384934,
      1790384994,
      1790385000,
      1790385054,
      1790385060,
      1790385120,
      1790385180,
      1790385234,
      1790385294,
      1790385361,
      1790385414,
      1790385421,
      1790385481,
      1790385541,
      1790385595,
      1790385601,
      1790385661,
      1790385721,
      1790385775,
      1790385781,
      1790385841,
      1790385901,
      1790385955,
      1790385961,
      1790386021,
      1790386082,
      1790386135,
      1790386142,
      1790386196,
      1790386262,
      1790386316,
      1790386322,
      1790386376,
      1790386436,
      1790386442,
      1790386496,
      1790386562,
      1790386616,
      1790386676,
      1790386742,
      1790386796,
      1790386802,
      1790386856,
      1790386863,
      1790386923,
      1790386983,
      1790387037,
      1790387043,
      1790387103,
      1790387157,
      1790387163,
      1790387217,
      1790387223,
      1790387277,
      1790387283,
      1790387337,
      1790387403,
      1790387457,
      1790387463,
      1790387517,
      1790387523,
      1790387584,
      1790387644,
      1790387704,
      1790387758,
      1790387818,
      1790387824,
      1790387878,
      1790387884,
      1790387944,
      1790387998,
      1790388004,
      1790388064,
      1790388118,
      1790388178,
      1790388184,
      1790388244,
      1790388298,
      1790388365,
      1790388425,
      1790388485,
      1790388545,
      1790388605,
      1790388665,
      1790388725,
      1790388785,
      1790388845,
      1790388905,
      1790388965,
      1790389025,
      1790389086,
      1790389146,
      1790389206,
      1790389266,
      1790389326,
      1790389386,
      1790389446,
      1790389566,
      1790389626,
      1790389686,
      1790389746,
      1790389806,
      1790389867,
      1790389927,
      1790389987,
      1790390047,
      1790390107,
      1790390167,
      1790390227,
      1790390287,
      1790390347,
      1790390407,
      1790390467,
      1790390527,
      1790390587,
      1790390647,
      1790390708,
      1790390768,
      1790390828,
      1790390888,
      1790390948,
      1790391008,
      1790391068,
      1790391128,
      1790391188,
      1790391248,
      1790391308,
      1790391368,
      1790391428,
      1790391488,
      1790391549,
      1790391609,
      1790391669,
      1790391729,
      1790391849,
      1790391909,
      1790391969,
      1790392029,
      1790392089,
      1790392149,
      1790392209,
      1790392269,
      1790392305,
      1790392330,
      1790392371,
      1790392390,
      1790392431,
      1790392491,
      1790392551,
      1790392570,
      1790392630,
      1790392671,
      1790392690,
      1790392731,
      1790392750,
      1790392791,
      1790392810,
      1790392870,
      1790392911,
      1790392930,
      1790392971,
      1790392990,
      1790393031,
      1790393050,
      1790393091,
      1790393110,
      1790393151,
      1790393170,
      1790393211,
      1790393291,
      1790393331,
      1790393351,
      1790393391,
      1790393411,
      1790393451,
      1790393471,
      1790393511,
      1790393531,
      1790393591,
      1790393651,
      1790393692,
      1790393711
    ],
    "wof:geomhash": "4645e18354c3f5f3a03bb63c0281be69",
    "wof:id": 2048428751,
    "wof:repo": "sfomuseum-data-flights-2026-09"
  },
  "bbox": [
    -122.34638888888888,
    37.49305555555556,
    -73.69305555555556,
    41.22638888888889
  ],
  "geometry": {"type":"LineString","coordinates":[[-73.76666666666667,40.65],[-73.7,40.65],[-73.69305555555556,40.6275],[-73.71666666666667,40.56666666666667],[-73.73833333333333,40.550555555555555],[-73.8,40.5],[-73.93805555555556,40.45194444444445],[-74.04583333333333,40.404444444444444],[-74.17166666666667,40.34805555555556],[-74.30166666666666,40.28972222222222],[-74.57833333333333,40.19611111111111],[-74.73277777777778,40.183611111111105],[-75.0461111111111,40.15833333333333],[-75.205,40.14527777777778],[-75.35777777777777,40.132222222222225],[-75.51444444444445,40.118611111111115],[-75.79555555555555,40.093611111111116],[-75.985,40.0775],[-76.12333333333332,40.07666666666667],[-76.29166666666667,40.077222222222225],[-76.48333333333333,40.07888888888889],[-76.65527777777778,40.07944444444445],[-76.82027777777778,40.07972222222222],[-76.98944444444444,40.080000000000005],[-77.15083333333334,40.07972222222222],[-77.31444444444445,40.07944444444445],[-77.47361111111111,40.07888888888889],[-77.63388888888889,40.07833333333333],[-77.79166666666667,40.0775],[-77.94444444444444,40.0825],[-78.10388888888889,40.087500000000006],[-78.26666666666667,40.091944444444444],[-78.42694444444444,40.096111111111114],[-78.47,40.096944444444446],[-78.5911111111111,40.10027777777778],[-78.65138888888889,40.10166666666667],[-78.75111111111111,40.10388888888889],[-78.81138888888889,40.10527777777778],[-78.91166666666668,40.1075],[-78.97277777777778,40.10888888888889],[-79.07027777777778,40.11083333333333],[-79.13055555555555,40.11222222222222],[-79.22722222222222,40.11388888888889],[-79.28777777777778,40.115],[-79.38333333333334,40.11666666666667],[-79.44111111111111,40.117777777777775],[-79.53611111111111,40.11944444444445],[-79.59472222222222,40.120555555555555],[-79.69055555555556,40.121944444444445],[-79.74972222222222,40.12277777777778],[-79.84527777777777,40.12388888888889],[-79.90277777777779,40.124722222222225],[-80,40.12583333333333],[-80.05638888888889,40.126666666666665],[-80.15555555555557,40.12777777777778],[-80.21083333333334,40.12833333333333],[-80.31388888888888,40.129444444444445],[-80.36666666666666,40.13],[-80.47333333333333,40.130833333333335],[-80.505,40.13111111111111],[-80.63027777777778,40.132222222222225],[-80.66166666666668,40.132222222222225],[-80.78999999999999,40.13305555555556],[-80.82111111111111,40.13333333333333],[-80.94694444444445,40.13388888888889],[-80.98055555555555,40.13388888888889],[-81.10583333333332,40.13444444444444],[-81.13777777777779,40.13444444444444],[-81.26361111111112,40.13472222222222],[-81.29416666666667,40.13472222222222],[-81.42,40.13472222222222],[-81.45277777777778,40.13472222222222],[-81.5761111111111,40.13444444444444],[-81.6086111111111,40.13444444444444],[-81.7325,40.13444444444444],[-81.76611111111112,40.134166666666665],[-81.86861111111111,40.13388888888889],[-81.93805555555556,40.13361111111111],[-82.02222222222223,40.13305555555556],[-82.09277777777777,40.132777777777775],[-82.24583333333334,40.13166666666667],[-82.33361111111111,40.13111111111111],[-82.40083333333334,40.13055555555555],[-82.48777777777778,40.12972222222222],[-82.55583333333333,40.12916666666667],[-82.64194444444445,40.12833333333333],[-82.7088888888889,40.1275],[-82.79583333333333,40.12638888888889],[-82.86472222222221,40.12583333333333],[-82.94861111111112,40.124722222222225],[-83.02833333333334,40.12361111111111],[-83.13277777777778,40.12222222222222],[-83.18138888888889,40.12138888888889],[-83.28472222222221,40.11972222222222],[-83.33388888888888,40.11888888888889],[-83.43777777777778,40.117222222222225],[-83.48611111111111,40.11638888888889],[-83.58749999999999,40.11472222222223],[-83.63694444444445,40.11361111111111],[-83.73611111111111,40.111666666666665],[-83.79027777777777,40.11055555555556],[-83.88083333333333,40.10861111111111],[-83.91833333333334,40.10777777777778],[-84.03305555555555,40.10527777777778],[-84.06777777777778,40.10444444444445],[-84.18222222222222,40.10166666666667],[-84.21583333333334,40.10111111111111],[-84.33222222222221,40.09805555555556],[-84.36444444444444,40.09722222222222],[-84.51305555555555,40.093611111111116],[-84.62083333333332,40.09055555555556],[-84.66083333333334,40.089444444444446],[-84.77277777777778,40.086111111111116],[-84.83972222222222,40.08444444444444],[-84.92111111111112,40.081944444444446],[-84.98055555555555,40.080000000000005],[-85.07222222222222,40.077222222222225],[-85.13222222222221,40.07527777777778],[-85.2225,40.072500000000005],[-85.22,40.072500000000005],[-85.37333333333332,40.0675],[-85.52583333333334,40.06194444444444],[-85.6825,40.05611111111111],[-85.83083333333333,40.05083333333333],[-85.88833333333334,40.049166666666665],[-85.98,40.044999999999995],[-86.03916666666666,40.04277777777778],[-86.12944444444443,40.03916666666667],[-86.18861111111111,40.03666666666666],[-86.29583333333333,40.032222222222224],[-86.33944444444444,40.030277777777776],[-86.42916666666667,40.02638888888889],[-86.44472222222223,40.02583333333333],[-86.48916666666666,40.024166666666666],[-86.59277777777777,40.01916666666666],[-86.63777777777779,40.01833333333333],[-86.72527777777778,40.01305555555555],[-86.74166666666667,40.0125],[-86.78861111111111,40.00972222222222],[-86.87472222222222,40.005833333333335],[-86.93777777777778,40.003055555555555],[-87.04027777777777,39.998333333333335],[-87.08611111111111,39.99611111111111],[-87.1763888888889,39.99166666666667],[-87.18861111111111,39.99111111111111],[-87.23777777777778,39.98861111111111],[-87.33694444444444,39.98361111111111],[-87.38611111111112,39.98111111111111],[-87.45972222222223,39.977222222222224],[-87.53916666666666,39.973055555555554],[-87.60972222222222,39.969166666666666],[-87.68777777777778,39.965],[-87.75888888888889,39.961111111111116],[-87.83916666666666,39.95666666666667],[-87.90833333333335,39.95277777777778],[-87.96805555555555,39.94944444444444],[-87.99833333333333,39.94777777777777],[-88.05722222222222,39.94416666666666],[-88.11972222222222,39.940555555555555],[-88.14972222222222,39.93888888888888],[-88.20944444444444,39.93555555555555],[-88.27027777777778,39.93194444444444],[-88.3,39.93],[-88.35777777777777,39.92666666666666],[-88.41861111111112,39.92305555555555],[-88.45083333333334,39.920833333333334],[-88.52,39.916666666666664],[-88.57027777777778,39.91361111111111],[-88.60027777777778,39.911944444444444],[-88.6725,39.907222222222224],[-88.72083333333333,39.90416666666667],[-88.75055555555555,39.90222222222222],[-88.82249999999999,39.897777777777776],[-88.90472222222223,39.8925],[-89.13027777777778,39.8775],[-89.21000000000001,39.87222222222222],[-89.28055555555555,39.8675],[-89.36333333333333,39.86194444444445],[-89.43555555555555,39.856944444444444],[-89.51888888888888,39.85111111111111],[-89.6725,39.84111111111111],[-89.82527777777777,39.85111111111111],[-89.97611111111111,39.86277777777778],[-90.12888888888888,39.87444444444444],[-90.28111111111112,39.88805555555555],[-90.42916666666667,39.907777777777774],[-90.58027777777778,39.927499999999995],[-90.72805555555556,39.94638888888888],[-90.8786111111111,39.965833333333336],[-91.02777777777777,39.984722222222224],[-91.18027777777779,40.00388888888889],[-91.33055555555555,40.0225],[-91.4825,40.04111111111111],[-91.635,40.059444444444445],[-91.78777777777778,40.07777777777778],[-91.94083333333333,40.096111111111114],[-92.09333333333333,40.11388888888889],[-92.2461111111111,40.13166666666667],[-92.385,40.1475],[-92.53861111111111,40.164722222222224],[-92.69416666666667,40.18222222222222],[-92.715,40.18444444444444],[-92.87305555555555,40.20166666666667],[-93.03027777777778,40.21888888888889],[-93.18777777777778,40.23583333333333],[-93.34722222222221,40.2525],[-93.50472222222223,40.26916666666666],[-93.66527777777779,40.285555555555554],[-93.82305555555556,40.30166666666666],[-93.98222222222222,40.31777777777778],[-94.14194444444445,40.333333333333336],[-94.29666666666667,40.348333333333336],[-94.45444444444445,40.36333333333334],[-94.61305555555555,40.37833333333333],[-94.7713888888889,40.393055555555556],[-94.92972222222222,40.407777777777774],[-95.08694444444444,40.42194444444444],[-95.24472222222222,40.43583333333333],[-95.40527777777778,40.45],[-95.56361111111111,40.46361111111111],[-95.72222222222223,40.47694444444445],[-95.88055555555555,40.49027777777778],[-96.03861111111111,40.50555555555555],[-96.20333333333333,40.528888888888886],[-96.36194444444443,40.55138888888889],[-96.51861111111111,40.573055555555555],[-96.67805555555556,40.595],[-96.83444444444444,40.61638888888889],[-96.99333333333334,40.63777777777778],[-97.15444444444445,40.659166666666664],[-97.3111111111111,40.67972222222222],[-97.46694444444445,40.70027777777778],[-97.63138888888888,40.72166666666667],[-97.79083333333332,40.74194444444444],[-97.95111111111112,40.76222222222222],[-98.11444444444444,40.7825],[-98.27638888888889,40.80222222222222],[-98.43777777777778,40.82194444444445],[-98.60166666666666,40.84166666666667],[-98.76527777777778,40.861111111111114],[-98.92111111111112,40.879444444444445],[-99.08749999999999,40.89888888888889],[-99.25722222222223,40.918055555555554],[-99.4225,40.93666666666666],[-99.58888888888889,40.95527777777778],[-99.75055555555555,40.973055555555554],[-99.89888888888889,40.98916666666667],[-100.06194444444444,41.0025],[-100.22694444444444,41.01],[-100.39194444444445,41.01722222222222],[-100.57972222222222,41.029444444444444],[-100.75055555555555,41.031666666666666],[-100.91361111111112,41.03777777777778],[-101.06472222222222,41.04333333333333],[-101.22888888888889,41.04694444444444],[-101.39972222222222,41.055],[-101.39083333333333,41.051944444444445],[-101.55361111111111,41.05916666666666],[-101.71805555555555,41.06472222222222],[-101.89444444444445,41.07027777777778],[-101.88472222222222,41.07],[-102.05194444444444,41.07555555555556],[-102.22472222222223,41.07944444444445],[-102.39083333333333,41.094166666666666],[-102.38416666666667,41.087500000000006],[-102.5525,41.11805555555556],[-102.54583333333333,41.11666666666667],[-102.70611111111111,41.140277777777776],[-102.86944444444444,41.16083333333333],[-103.03027777777778,41.18],[-103.18833333333333,41.195277777777775],[-103.34805555555555,41.20861111111111],[-103.50361111111111,41.225],[-103.50527777777778,41.223888888888894],[-103.66222222222223,41.22638888888889],[-103.81833333333333,41.202222222222225],[-103.97444444444444,41.18527777777778],[-103.9725,41.183055555555555],[-104.1286111111111,41.17194444444444],[-104.28444444444445,41.16583333333333],[-104.44611111111111,41.16138888888889],[-104.44083333333333,41.16027777777778],[-104.6,41.155],[-104.75527777777778,41.15],[-104.91111111111111,41.11611111111111],[-104.90666666666667,41.11666666666667],[-105.0586111111111,41.08555555555556],[-105.21277777777777,41.05444444444444],[-105.37166666666666,41.02305555555555],[-105.36833333333333,41.02222222222222],[-105.53305555555555,40.99],[-105.67694444444444,40.95888888888889],[-105.8411111111111,40.92583333333333],[-105.83166666666666,40.92833333333333],[-105.99416666666667,40.89333333333333],[-106.14555555555556,40.86138888888889],[-106.1388888888889,40.862500000000004],[-106.28944444444444,40.83083333333334],[-106.44166666666668,40.7975],[-106.595,40.765],[-106.7525,40.73083333333334],[-106.89694444444446,40.69833333333333],[-107.06666666666666,40.66138888888889],[-107.04638888888888,40.665277777777774],[-107.20361111111112,40.63111111111111],[-107.19666666666667,40.63166666666667],[-107.34472222222222,40.598888888888894],[-107.51805555555555,40.56055555555555],[-107.65166666666667,40.53],[-107.6725,40.525277777777774],[-107.82222222222222,40.49111111111111],[-107.95,40.46194444444445],[-107.96972222222223,40.45722222222223],[-108.1036111111111,40.42611111111111],[-108.11944444444444,40.4225],[-108.25444444444445,40.39083333333333],[-108.2725,40.38666666666666],[-108.38861111111112,40.35944444444445],[-108.5736111111111,40.31583333333333],[-108.68833333333333,40.28861111111111],[-108.72027777777778,40.280833333333334],[-108.83694444444444,40.25277777777778],[-108.86666666666666,40.24583333333334],[-109.01444444444445,40.21027777777778],[-109.1613888888889,40.17444444444444],[-109.30777777777777,40.138888888888886],[-109.42583333333334,40.11],[-109.57222222222222,40.073888888888895],[-109.60138888888888,40.06666666666667],[-109.74972222222222,40.02972222222222],[-109.74972222222222,40.02972222222222],[-109.89722222222223,39.99277777777778],[-110.04138888888889,39.95638888888889],[-110.04388888888889,39.95583333333334],[-110.1888888888889,39.91916666666666],[-110.33333333333333,39.8825],[-110.47972222222222,39.844722222222224],[-110.47972222222222,39.844722222222224],[-110.62388888888889,39.80777777777777],[-110.76861111111111,39.769999999999996],[-110.9113888888889,39.73305555555556],[-111.05416666666666,39.695277777777775],[-111.19805555555556,39.6575],[-111.33416666666666,39.62111111111111],[-111.48027777777779,39.5825],[-111.62416666666665,39.54388888888889],[-111.7675,39.505],[-111.9113888888889,39.465833333333336],[-112.05527777777777,39.42666666666666],[-112.19972222222222,39.386944444444445],[-112.34138888888889,39.34777777777778],[-112.4825,39.308611111111105],[-112.62916666666666,39.27833333333333],[-112.78361111111111,39.24805555555556],[-112.92833333333334,39.21944444444445],[-113.07583333333334,39.19027777777777],[-113.22027777777778,39.16111111111111],[-113.365,39.13194444444444],[-113.50833333333334,39.10305555555556],[-113.79666666666667,39.04388888888889],[-113.94250000000001,39.01361111111111],[-114.08944444444444,38.98305555555556],[-114.23583333333333,38.952222222222225],[-114.38083333333333,38.92166666666667],[-114.525,38.89083333333333],[-114.66916666666667,38.86],[-114.81583333333333,38.828611111111115],[-114.96138888888889,38.84638888888889],[-115.08416666666666,38.91083333333333],[-115.22500000000001,38.92333333333333],[-115.36749999999999,38.88472222222222],[-115.5075,38.846111111111114],[-115.65861111111111,38.80472222222222],[-115.79944444444445,38.76611111111111],[-115.93833333333333,38.727222222222224],[-116.07555555555555,38.68888888888888],[-116.21305555555556,38.65],[-116.35222222222221,38.611111111111114],[-116.4863888888889,38.57277777777778],[-116.62222222222222,38.53388888888889],[-116.75694444444444,38.49527777777778],[-116.89222222222223,38.45638888888889],[-117.02722222222222,38.41694444444444],[-117.16361111111112,38.382222222222225],[-117.31416666666667,38.3525],[-117.43777777777778,38.32833333333333],[-117.57527777777777,38.30083333333333],[-117.71305555555556,38.27333333333333],[-117.85249999999999,38.245555555555555],[-117.99194444444444,38.217222222222226],[-118.15361111111112,38.18416666666666],[-118.29333333333334,38.15555555555555],[-118.41194444444444,38.13111111111111],[-118.55361111111111,38.10166666666667],[-118.69361111111111,38.07222222222222],[-118.83194444444445,38.04333333333333],[-119.1111111111111,37.98388888888889],[-119.27083333333333,37.94972222222222],[-119.40944444444445,37.91972222222222],[-119.55055555555555,37.888888888888886],[-119.69333333333334,37.85777777777778],[-119.8325,37.82694444444445],[-119.9738888888889,37.795833333333334],[-120.11277777777777,37.764722222222225],[-120.2,37.75],[-120.25277777777778,37.73361111111111],[-120.33333333333333,37.71666666666667],[-120.38861111111112,37.70277777777778],[-120.46666666666667,37.7],[-120.6,37.68333333333333],[-120.73333333333333,37.666666666666664],[-120.75694444444444,37.657777777777774],[-120.88194444444444,37.64277777777778],[-120.98333333333333,37.63333333333333],[-121.00555555555556,37.6275],[-121.11666666666666,37.61666666666667],[-121.12583333333333,37.611111111111114],[-121.23333333333333,37.6],[-121.25944444444444,37.593333333333334],[-121.37277777777777,37.580555555555556],[-121.45,37.56666666666667],[-121.48555555555555,37.566944444444445],[-121.56666666666666,37.55],[-121.59166666666667,37.56055555555555],[-121.66666666666667,37.583333333333336],[-121.68472222222222,37.57027777777778],[-121.71666666666667,37.53333333333333],[-121.72916666666667,37.51611111111111],[-121.78333333333333,37.5],[-121.80777777777777,37.50138888888889],[-121.86666666666666,37.5],[-121.9575,37.49305555555556],[-122,37.5],[-122.02083333333333,37.50527777777778],[-122.06666666666666,37.516666666666666],[-122.08388888888888,37.52583333333333],[-122.13333333333334,37.53333333333333],[-122.14472222222223,37.54555555555555],[-122.18333333333334,37.56666666666667],[-122.20333333333333,37.56444444444444],[-122.25194444444445,37.580000000000005],[-122.29805555555555,37.59388888888889],[-122.33333333333333,37.6],[-122.34638888888888,37.60916666666667]]}
}
