{
  "id": 2048321883,
  "type": "Feature",
  "properties": {
    "geom:area": 0,
    "geom:bbox": "-122.400730,37.624470,-121.294460,38.395940",
    "geom:latitude": 38.00749292652591,
    "geom:longitude": -121.86498250926527,
    "src:alt_label": "swim-takeoff",
    "src:geom": "swim",
    "swim:elevations": [
      122,
      213,
      1040,
      1067,
      1384,
      1606,
      2116,
      2620,
      2993,
      3071,
      3324,
      3640,
      3860,
      4039,
      4340,
      4699,
      4826,
      5301,
      5323,
      5582,
      5861,
      6065,
      6150,
      6500,
      6623
    ],
    "swim:geom": "takeoff",
    "swim:timestamps": [
      1789225587,
      1789225590,
      1789225649,
      1789225652,
      1789225687,
      1789225712,
      1789225758,
      1789225796,
      1789225824,
      1789225830,
      1789225862,
      1789225908,
      1789225937,
      1789225954,
      1789225992,
      1789226028,
      1789226045,
      1789226095,
      1789226101,
      1789226141,
      1789226177,
      1789226216,
      1789226224,
      1789226269,
      1789226286
    ],
    "wof:geomhash": "867362eefa5e93b78ccbc09676257be4",
    "wof:id": 2048321883,
    "wof:repo": "sfomuseum-data-flights-2026-09"
  },
  "bbox": [
    -122.40073,
    37.62447,
    -121.29446,
    38.39594
  ],
  "geometry": {"type":"LineString","coordinates":[[-122.38281,37.62447],[-122.38578,37.62586],[-122.40073,37.66737],[-122.39734,37.66959],[-122.35226,37.68188],[-122.31695,37.6906],[-122.24281,37.71027],[-122.18943,37.74364],[-122.1596,37.77727],[-122.15342,37.78435],[-122.11777,37.82455],[-122.05864,37.88471],[-122.00916,37.9201],[-121.97839,37.9407],[-121.90813,37.98784],[-121.84189,38.03236],[-121.80856,38.05486],[-121.70978,38.12154],[-121.69774,38.12959],[-121.61619,38.18449],[-121.53841,38.23658],[-121.45317,38.29344],[-121.43554,38.30519],[-121.33511,38.37099],[-121.29446,38.39594]]}
}
