{
  "id": 2048279613,
  "type": "Feature",
  "properties": {
    "geom:area": 0,
    "geom:bbox": "-122.551850,36.731990,-122.152280,37.666970",
    "geom:latitude": 37.22026851700006,
    "geom:longitude": -122.43980675773312,
    "src:alt_label": "swim-takeoff",
    "src:geom": "swim",
    "swim:elevations": [
      365,
      602,
      713,
      1268,
      1445,
      1880,
      2362,
      2821,
      3135,
      3257,
      3437,
      3971,
      4145,
      4779,
      5080,
      5457,
      6183,
      6599,
      6657,
      6953,
      7481,
      7596,
      8062,
      8438,
      8647,
      8779
    ],
    "swim:geom": "takeoff",
    "swim:timestamps": [
      1788847433,
      1788847464,
      1788847479,
      1788847515,
      1788847544,
      1788847580,
      1788847616,
      1788847647,
      1788847668,
      1788847686,
      1788847716,
      1788847758,
      1788847771,
      1788847815,
      1788847839,
      1788847866,
      1788847914,
      1788847948,
      1788847954,
      1788847983,
      1788848032,
      1788848042,
      1788848088,
      1788848123,
      1788848151,
      1788848169
    ],
    "wof:geomhash": "498e369332bebfa3bef3219404fa5e2b",
    "wof:id": 2048279613,
    "wof:repo": "sfomuseum-data-flights-2026-09"
  },
  "bbox": [
    -122.55185,
    36.73199,
    -122.15228,
    37.66697
  ],
  "geometry": {"type":"LineString","coordinates":[[-122.39869,37.62854],[-122.42795,37.64136],[-122.44489,37.6488],[-122.48618,37.66697],[-122.52565,37.66438],[-122.54493,37.62538],[-122.52909,37.58165],[-122.53072,37.5408],[-122.53259,37.51319],[-122.53418,37.48843],[-122.53695,37.44311],[-122.54121,37.37527],[-122.54241,37.35459],[-122.54682,37.28246],[-122.54932,37.24223],[-122.55185,37.19619],[-122.50758,37.12215],[-122.46298,37.07354],[-122.45505,37.06486],[-122.41571,37.02189],[-122.3479,36.94773],[-122.33322,36.93164],[-122.26912,36.86047],[-122.21913,36.80587],[-122.17881,36.76109],[-122.15228,36.73199]]}
}
