{
  "id": 2048281019,
  "type": "Feature",
  "properties": {
    "geom:area": 0,
    "geom:bbox": "-122.524590,37.629330,-122.028140,38.486450",
    "geom:latitude": 38.061784188102735,
    "geom:longitude": -122.35722831956916,
    "src:alt_label": "swim-takeoff",
    "src:geom": "swim",
    "swim:elevations": [
      213,
      454,
      736,
      1094,
      1211,
      1371,
      1912,
      2298,
      2643,
      2899,
      3147,
      3299,
      3724,
      3902,
      4485,
      4806,
      5222,
      5443,
      5847,
      6094,
      6484,
      6873,
      7143,
      7281
    ],
    "swim:geom": "takeoff",
    "swim:timestamps": [
      1788848270,
      1788848295,
      1788848335,
      1788848367,
      1788848388,
      1788848406,
      1788848453,
      1788848483,
      1788848513,
      1788848535,
      1788848556,
      1788848580,
      1788848634,
      1788848646,
      1788848696,
      1788848725,
      1788848758,
      1788848778,
      1788848811,
      1788848830,
      1788848867,
      1788848907,
      1788848938,
      1788848953
    ],
    "wof:geomhash": "e3f8ae441d2a8e974966d6e66148d43e",
    "wof:id": 2048281019,
    "wof:repo": "sfomuseum-data-flights-2026-09"
  },
  "bbox": [
    -122.52459,
    37.62933,
    -122.02814,
    38.48645
  ],
  "geometry": {"type":"LineString","coordinates":[[-122.3995,37.62933],[-122.42253,37.63934],[-122.46945,37.65955],[-122.5072,37.67671],[-122.52333,37.69764],[-122.52459,37.72031],[-122.52227,37.78276],[-122.52036,37.82268],[-122.51855,37.86338],[-122.51698,37.89383],[-122.51539,37.92331],[-122.51367,37.95873],[-122.50473,38.04613],[-122.49207,38.06327],[-122.41166,38.12045],[-122.36475,38.15445],[-122.30933,38.19485],[-122.27363,38.2206],[-122.21704,38.26133],[-122.183,38.28556],[-122.12119,38.33423],[-122.07466,38.40383],[-122.04361,38.45894],[-122.02814,38.48645]]}
}
