{
  "id": 2048440615,
  "type": "Feature",
  "properties": {
    "geom:area": 0,
    "geom:bbox": "-122.403611,37.650000,-73.550000,42.756111",
    "geom:latitude": 41.78215887813264,
    "geom:longitude": -97.64563408928261,
    "src:alt_label": "swim-path",
    "src:geom": "swim",
    "swim:altitudes": [
      "016",
      "018",
      "028",
      "031",
      "057",
      "080",
      "102",
      "113",
      "131",
      "152",
      "171",
      "188",
      "204",
      "217",
      "229",
      "239",
      "250",
      "261",
      "271",
      "280",
      "289",
      "297",
      "306",
      "314",
      "322",
      "329",
      "336",
      "343",
      "345",
      "349C",
      "350C",
      "350C",
      "350C",
      "350C",
      "350C",
      "350C",
      "350C",
      "350C",
      "350C",
      "350C",
      "350C",
      "350C",
      "350C",
      "350C",
      "350C",
      "350C",
      "350C",
      "350C",
      "350C",
      "350C",
      "350C",
      "350C",
      "350C",
      "350C",
      "350C",
      "350C",
      "350C",
      "350C",
      "350C",
      "350C",
      "350C",
      "350C",
      "351C",
      "350C",
      "350C",
      "350C",
      "350C",
      "350C",
      "350C",
      "350C",
      "350C",
      "350C",
      "350C",
      "350C",
      "350C",
      "350C",
      "350C",
      "350C",
      "350C",
      "350C",
      "350C",
      "350C",
      "350C",
      "350C",
      "350C",
      "350C",
      "350C",
      "350C",
      "351C",
      "350C",
      "350C",
      "350C",
      "350C",
      "350C",
      "350C",
      "350C",
      "350C",
      "350C",
      "350C",
      "350C",
      "350C",
      "350C",
      "350C",
      "350C",
      "350C",
      "351C",
      "351C",
      "350C",
      "350C",
      "350C",
      "350C",
      "350C",
      "350C",
      "350C",
      "350C",
      "350C",
      "350C",
      "350C",
      "350C",
      "350C",
      "350C",
      "350C",
      "350C",
      "350C",
      "350C",
      "350C",
      "350C",
      "350C",
      "350C",
      "350C",
      "350C",
      "350C",
      "350C",
      "350C",
      "351C",
      "351C",
      "350C",
      "350C",
      "350C",
      "350C",
      "350C",
      "350C",
      "350C",
      "350C",
      "350C",
      "350C",
      "350C",
      "350C",
      "350C",
      "350C",
      "349C",
      "349C",
      "350C",
      "349C",
      "350C",
      "350C",
      "350C",
      "350C",
      "350C",
      "350C",
      "350C",
      "350C",
      "350C",
      "350C",
      "350C",
      "349C",
      "350C",
      "350C",
      "350C",
      "350C",
      "350C",
      "350C",
      "350C",
      "350C",
      "350C",
      "350C",
      "350C",
      "350C",
      "350C",
      "350C",
      "350C",
      "350C",
      "350C",
      "350C",
      "350C",
      "350C",
      "350C",
      "350C",
      "350C",
      "350C",
      "350C",
      "350C",
      "351C",
      "351C",
      "350C",
      "352",
      "358",
      "367",
      "370C",
      "370C",
      "370C",
      "370C",
      "370C",
      "370C",
      "370C",
      "370C",
      "370C",
      "370C",
      "370C",
      "370C",
      "370C",
      "370C",
      "370C",
      "370C",
      "370C",
      "370C",
      "370C",
      "370C",
      "370C",
      "370C",
      "370C",
      "370C",
      "370C",
      "370C",
      "370C",
      "371C",
      "371C",
      "370C",
      "370C",
      "370C",
      "370C",
      "370C",
      "370C",
      "370C",
      "370C",
      "370C",
      "370C",
      "370C",
      "370C",
      "370C",
      "370C",
      "370C",
      "370C",
      "370C",
      "371C",
      "371C",
      "370C",
      "370C",
      "370C",
      "370C",
      "370C",
      "370C",
      "370C",
      "370C",
      "370C",
      "370C",
      "370C",
      "370C",
      "370C",
      "370C",
      "370C",
      "370C",
      "370C",
      "370C",
      "370C",
      "370C",
      "370C",
      "370C",
      "370C",
      "370C",
      "370C",
      "370C",
      "370C",
      "370C",
      "370C",
      "371C",
      "370C",
      "370C",
      "370C",
      "370C",
      "370C",
      "370C",
      "370C",
      "370C",
      "370C",
      "370C",
      "370C",
      "370C",
      "370C",
      "370C",
      "370C",
      "370C",
      "370C",
      "370C",
      "370C",
      "370C",
      "370C",
      "370C",
      "370C",
      "370C",
      "370C",
      "371C",
      "370C",
      "370C",
      "370C",
      "370C",
      "370C",
      "370C",
      "370C",
      "370C",
      "370C",
      "370C",
      "370C",
      "370C",
      "371C",
      "370C",
      "370C",
      "370C",
      "370C",
      "370C",
      "370C",
      "370C",
      "370C",
      "370C",
      "370C",
      "370C",
      "370C",
      "370C",
      "370C",
      "370C",
      "370C",
      "370C",
      "370C",
      "370C",
      "370C",
      "370C",
      "370C",
      "370C",
      "370C",
      "370C",
      "370C",
      "370C",
      "370C",
      "370C",
      "371C",
      "370C",
      "370C",
      "370C",
      "370C",
      "370C",
      "370C",
      "370C",
      "370C",
      "370C",
      "370C",
      "370C",
      "370C",
      "370C",
      "370C",
      "370C",
      "370C",
      "370C",
      "370C",
      "370C",
      "370C",
      "370C",
      "370C",
      "370C",
      "370C",
      "370C",
      "370C",
      "370C",
      "370C",
      "370C",
      "370C",
      "370C",
      "371C",
      "370C",
      "370C",
      "370C",
      "370C",
      "370C",
      "370C",
      "370C",
      "370C",
      "370",
      "370",
      "370",
      "371",
      "368",
      "365",
      "359",
      "355",
      "349",
      "346",
      "339",
      "336",
      "320",
      "293",
      "271",
      "250",
      "231C",
      "230C",
      "230",
      "218",
      "210C",
      "210C",
      "209",
      "194",
      "191",
      "190",
      "190",
      "190",
      "190",
      "190",
      "190",
      "190",
      "190",
      "189",
      "174",
      "158",
      "144",
      "129",
      "120",
      "120",
      "113",
      "110",
      "102",
      "094",
      "082",
      "065",
      "050",
      "032",
      "030",
      "030",
      "030",
      "030",
      "030",
      "025",
      "020",
      "020",
      "020",
      "020",
      "020",
      "019",
      "013",
      "007"
    ],
    "swim:geom": "path",
    "swim:speeds": [
      177,
      184,
      261,
      258,
      275,
      294,
      309,
      363,
      385,
      394,
      410,
      419,
      427,
      445,
      458,
      468,
      478,
      484,
      491,
      497,
      501,
      504,
      507,
      509,
      511,
      513,
      513,
      516,
      513,
      516,
      517,
      517,
      518,
      519,
      520,
      519,
      519,
      518,
      518,
      517,
      517,
      518,
      518,
      518,
      518,
      518,
      518,
      517,
      517,
      516,
      516,
      516,
      517,
      517,
      517,
      517,
      517,
      517,
      515,
      514,
      514,
      514,
      514,
      512,
      508,
      504,
      502,
      501,
      500,
      500,
      500,
      500,
      501,
      501,
      501,
      500,
      500,
      491,
      499,
      499,
      499,
      498,
      497,
      497,
      502,
      497,
      494,
      496,
      494,
      494,
      494,
      491,
      488,
      490,
      488,
      488,
      487,
      487,
      486,
      487,
      488,
      489,
      490,
      491,
      492,
      494,
      494,
      495,
      495,
      495,
      495,
      494,
      493,
      493,
      492,
      490,
      489,
      488,
      488,
      487,
      487,
      486,
      485,
      484,
      484,
      484,
      483,
      483,
      483,
      483,
      484,
      485,
      486,
      488,
      489,
      488,
      485,
      480,
      478,
      476,
      480,
      481,
      481,
      481,
      480,
      480,
      481,
      483,
      484,
      485,
      485,
      485,
      485,
      485,
      486,
      485,
      486,
      485,
      486,
      486,
      485,
      478,
      484,
      479,
      483,
      480,
      483,
      481,
      481,
      483,
      481,
      481,
      480,
      480,
      479,
      479,
      478,
      479,
      476,
      477,
      474,
      475,
      473,
      471,
      472,
      471,
      471,
      472,
      472,
      471,
      471,
      472,
      476,
      478,
      480,
      481,
      490,
      490,
      491,
      493,
      496,
      497,
      498,
      496,
      494,
      493,
      443,
      493,
      483,
      493,
      492,
      493,
      492,
      493,
      492,
      491,
      490,
      490,
      489,
      488,
      488,
      486,
      486,
      484,
      483,
      478,
      477,
      471,
      469,
      466,
      466,
      465,
      465,
      470,
      470,
      470,
      470,
      469,
      469,
      468,
      468,
      469,
      470,
      472,
      474,
      475,
      474,
      471,
      469,
      467,
      466,
      466,
      466,
      466,
      465,
      464,
      463,
      463,
      463,
      465,
      466,
      468,
      470,
      472,
      472,
      472,
      471,
      471,
      471,
      475,
      472,
      474,
      473,
      474,
      475,
      477,
      475,
      477,
      474,
      476,
      473,
      472,
      474,
      472,
      473,
      473,
      472,
      472,
      471,
      471,
      468,
      466,
      465,
      465,
      463,
      464,
      462,
      462,
      461,
      462,
      461,
      461,
      459,
      456,
      454,
      452,
      452,
      453,
      453,
      420,
      453,
      449,
      452,
      449,
      451,
      449,
      449,
      449,
      447,
      444,
      445,
      444,
      444,
      444,
      442,
      442,
      441,
      442,
      440,
      441,
      440,
      441,
      439,
      438,
      437,
      437,
      436,
      436,
      429,
      427,
      424,
      426,
      424,
      426,
      425,
      423,
      422,
      417,
      420,
      422,
      419,
      417,
      418,
      417,
      422,
      426,
      436,
      440,
      438,
      439,
      433,
      429,
      429,
      428,
      428,
      428,
      427,
      425,
      424,
      424,
      423,
      423,
      423,
      423,
      423,
      424,
      424,
      424,
      424,
      423,
      423,
      421,
      421,
      420,
      420,
      420,
      420,
      421,
      421,
      423,
      423,
      430,
      431,
      433,
      432,
      434,
      433,
      441,
      445,
      450,
      440,
      417,
      338,
      328,
      329,
      329,
      335,
      338,
      333,
      332,
      317,
      314,
      316,
      318,
      317,
      320,
      319,
      325,
      323,
      323,
      317,
      305,
      295,
      285,
      282,
      293,
      296,
      299,
      271,
      262,
      251,
      258,
      258,
      232,
      202,
      179,
      151,
      152,
      144,
      145,
      146,
      138,
      134,
      128,
      125,
      121,
      119
    ],
    "swim:timestamps": [
      1790432471,
      1790432492,
      1790432537,
      1790432552,
      1790432612,
      1790432672,
      1790432732,
      1790432792,
      1790432852,
      1790432912,
      1790432972,
      1790433032,
      1790433093,
      1790433153,
      1790433213,
      1790433273,
      1790433333,
      1790433393,
      1790433453,
      1790433513,
      1790433573,
      1790433633,
      1790433693,
      1790433753,
      1790433813,
      1790433879,
      1790433939,
      1790433993,
      1790433999,
      1790434054,
      1790434114,
      1790434174,
      1790434234,
      1790434294,
      1790434354,
      1790434414,
      1790434474,
      1790434534,
      1790434594,
      1790434654,
      1790434660,
      1790434720,
      1790434780,
      1790434834,
      1790434840,
      1790434895,
      1790434955,
      1790435015,
      1790435080,
      1790435140,
      1790435200,
      1790435260,
      1790435320,
      1790435381,
      1790435441,
      1790435501,
      1790435561,
      1790435621,
      1790435681,
      1790435801,
      1790435861,
      1790435921,
      1790436041,
      1790436101,
      1790436162,
      1790436222,
      1790436282,
      1790436342,
      1790436402,
      1790436462,
      1790436522,
      1790436582,
      1790436642,
      1790436702,
      1790436762,
      1790436822,
      1790436883,
      1790436903,
      1790436943,
      1790436963,
      1790437003,
      1790437063,
      1790437123,
      1790437183,
      1790437203,
      1790437243,
      1790437263,
      1790437303,
      1790437323,
      1790437363,
      1790437383,
      1790437423,
      1790437443,
      1790437483,
      1790437503,
      1790437543,
      1790437564,
      1790437603,
      1790437624,
      1790437664,
      1790437684,
      1790437724,
      1790437744,
      1790437784,
      1790437804,
      1790437844,
      1790437864,
      1790437904,
      1790437924,
      1790437964,
      1790437984,
      1790438024,
      1790438044,
      1790438084,
      1790438104,
      1790438144,
      1790438164,
      1790438204,
      1790438224,
      1790438264,
      1790438285,
      1790438324,
      1790438345,
      1790438384,
      1790438405,
      1790438445,
      1790438465,
      1790438505,
      1790438525,
      1790438565,
      1790438585,
      1790438625,
      1790438645,
      1790438705,
      1790438765,
      1790438825,
      1790438885,
      1790438945,
      1790439006,
      1790439066,
      1790439186,
      1790439246,
      1790439306,
      1790439366,
      1790439426,
      1790439486,
      1790439546,
      1790439606,
      1790439666,
      1790439726,
      1790439800,
      1790439860,
      1790439907,
      1790439920,
      1790439967,
      1790439980,
      1790440027,
      1790440040,
      1790440087,
      1790440100,
      1790440147,
      1790440160,
      1790440207,
      1790440220,
      1790440267,
      1790440280,
      1790440327,
      1790440340,
      1790440400,
      1790440411,
      1790440471,
      1790440521,
      1790440532,
      1790440581,
      1790440592,
      1790440641,
      1790440652,
      1790440701,
      1790440761,
      1790440772,
      1790440821,
      1790440832,
      1790440892,
      1790440941,
      1790440952,
      1790441001,
      1790441061,
      1790441121,
      1790441181,
      1790441242,
      1790441302,
      1790441362,
      1790441422,
      1790441482,
      1790441542,
      1790441602,
      1790441662,
      1790441722,
      1790441782,
      1790441842,
      1790441902,
      1790441963,
      1790442023,
      1790442083,
      1790442143,
      1790442203,
      1790442218,
      1790442263,
      1790442278,
      1790442323,
      1790442338,
      1790442383,
      1790442399,
      1790442443,
      1790442459,
      1790442503,
      1790442519,
      1790442563,
      1790442579,
      1790442623,
      1790442639,
      1790442683,
      1790442699,
      1790442744,
      1790442759,
      1790442804,
      1790442819,
      1790442864,
      1790442879,
      1790442924,
      1790442939,
      1790442984,
      1790442999,
      1790443044,
      1790443059,
      1790443104,
      1790443120,
      1790443164,
      1790443180,
      1790443224,
      1790443240,
      1790443284,
      1790443344,
      1790443404,
      1790443465,
      1790443525,
      1790443585,
      1790443645,
      1790443705,
      1790443765,
      1790443825,
      1790443889,
      1790443949,
      1790444009,
      1790444069,
      1790444129,
      1790444189,
      1790444249,
      1790444310,
      1790444370,
      1790444430,
      1790444490,
      1790444550,
      1790444610,
      1790444670,
      1790444730,
      1790444787,
      1790444848,
      1790444908,
      1790444923,
      1790444968,
      1790444983,
      1790445028,
      1790445043,
      1790445088,
      1790445103,
      1790445148,
      1790445163,
      1790445208,
      1790445223,
      1790445268,
      1790445328,
      1790445344,
      1790445389,
      1790445404,
      1790445464,
      1790445509,
      1790445524,
      1790445569,
      1790445584,
      1790445644,
      1790445689,
      1790445704,
      1790445749,
      1790445764,
      1790445809,
      1790445824,
      1790445869,
      1790445884,
      1790445929,
      1790445945,
      1790446005,
      1790446065,
      1790446125,
      1790446185,
      1790446245,
      1790446305,
      1790446365,
      1790446425,
      1790446465,
      1790446485,
      1790446525,
      1790446545,
      1790446585,
      1790446606,
      1790446645,
      1790446666,
      1790446705,
      1790446726,
      1790446765,
      1790446786,
      1790446826,
      1790446846,
      1790446886,
      1790446906,
      1790446946,
      1790446966,
      1790447006,
      1790447026,
      1790447066,
      1790447086,
      1790447126,
      1790447146,
      1790447186,
      1790447207,
      1790447246,
      1790447267,
      1790447306,
      1790447327,
      1790447366,
      1790447387,
      1790447426,
      1790447447,
      1790447486,
      1790447507,
      1790447547,
      1790447567,
      1790447607,
      1790447627,
      1790447667,
      1790447687,
      1790447727,
      1790447747,
      1790447787,
      1790447807,
      1790447847,
      1790447868,
      1790447907,
      1790447928,
      1790447967,
      1790447988,
      1790448027,
      1790448048,
      1790448087,
      1790448108,
      1790448147,
      1790448168,
      1790448208,
      1790448228,
      1790448268,
      1790448288,
      1790448328,
      1790448348,
      1790448388,
      1790448408,
      1790448448,
      1790448469,
      1790448508,
      1790448529,
      1790448568,
      1790448589,
      1790448628,
      1790448649,
      1790448688,
      1790448709,
      1790448748,
      1790448769,
      1790448808,
      1790448829,
      1790448868,
      1790448889,
      1790448929,
      1790448949,
      1790448989,
      1790449009,
      1790449049,
      1790449069,
      1790449109,
      1790449169,
      1790449229,
      1790449289,
      1790449349,
      1790449409,
      1790449469,
      1790449529,
      1790449590,
      1790449650,
      1790449710,
      1790449770,
      1790449778,
      1790449830,
      1790449838,
      1790449890,
      1790449898,
      1790449950,
      1790449964,
      1790450010,
      1790450024,
      1790450070,
      1790450130,
      1790450190,
      1790450251,
      1790450313,
      1790450371,
      1790450378,
      1790450431,
      1790450438,
      1790450493,
      1790450551,
      1790450611,
      1790450671,
      1790450731,
      1790450791,
      1790450851,
      1790450912,
      1790450972,
      1790450978,
      1790451032,
      1790451093,
      1790451152,
      1790451212,
      1790451273,
      1790451332,
      1790451392,
      1790451452,
      1790451512,
      1790451573
    ],
    "wof:geomhash": "95c1361aa78a5bbe5e5104509aa19d06",
    "wof:id": 2048440615,
    "wof:repo": "sfomuseum-data-flights-2026-09"
  },
  "bbox": [
    -122.40361111111112,
    37.65,
    -73.55,
    42.75611111111111
  ],
  "geometry": {"type":"LineString","coordinates":[[-122.4,37.65],[-122.40361111111112,37.651111111111106],[-122.33333333333333,37.68333333333333],[-122.33027777777778,37.67777777777778],[-122.24166666666667,37.708333333333336],[-122.17166666666667,37.765277777777776],[-122.10916666666667,37.83416666666667],[-122.03833333333333,37.911944444444444],[-121.95833333333334,38],[-121.87694444444443,38.08916666666667],[-121.78555555555555,38.18944444444444],[-121.69888888888889,38.28388888888889],[-121.60805555555555,38.3825],[-121.50333333333333,38.473055555555554],[-121.37333333333332,38.55277777777778],[-121.26083333333334,38.62111111111111],[-121.125,38.703611111111115],[-120.98694444444445,38.786944444444444],[-120.8461111111111,38.87166666666667],[-120.7063888888889,38.95527777777778],[-120.56416666666667,39.04],[-120.41805555555555,39.12638888888889],[-120.27361111111111,39.21194444444445],[-120.12833333333333,39.29722222222222],[-119.98222222222222,39.382777777777775],[-119.80583333333333,39.48388888888889],[-119.65805555555556,39.56944444444445],[-119.53527777777778,39.64194444444444],[-119.50777777777778,39.655833333333334],[-119.385,39.72833333333333],[-119.23611111111111,39.81361111111111],[-119.08333333333333,39.89944444444444],[-118.92472222222223,39.97916666666667],[-118.75944444444444,40.050555555555555],[-118.5925,40.12166666666667],[-118.42833333333334,40.19083333333333],[-118.26222222222222,40.26083333333333],[-118.09333333333333,40.32277777777778],[-117.91416666666667,40.36361111111111],[-117.73444444444445,40.401666666666664],[-117.69833333333334,40.409166666666664],[-117.51722222222222,40.447222222222216],[-117.33638888888889,40.484722222222224],[-117.18388888888889,40.51611111111111],[-117.15166666666667,40.5225],[-117.00083333333333,40.55333333333333],[-116.81527777777778,40.598888888888894],[-116.63444444444445,40.647777777777776],[-116.45861111111111,40.695277777777775],[-116.28277777777778,40.742222222222225],[-116.10277777777777,40.790277777777774],[-115.92472222222223,40.83722222222222],[-115.74472222222222,40.88444444444444],[-115.56527777777778,40.93111111111111],[-115.3875,40.97694444444445],[-115.20805555555556,41.02333333333333],[-115.02583333333334,41.069722222222225],[-114.84638888888888,41.11472222222223],[-114.65194444444445,41.14833333333333],[-114.28472222222221,41.21083333333333],[-114.10055555555554,41.2425],[-113.915,41.274166666666666],[-113.54555555555555,41.33638888888889],[-113.36055555555555,41.36694444444444],[-113.17694444444444,41.39694444444444],[-112.99666666666667,41.42583333333333],[-112.8175,41.45444444444445],[-112.63472222222222,41.48361111111111],[-112.45194444444445,41.51222222222222],[-112.26972222222223,41.540277777777774],[-112.08916666666666,41.56805555555556],[-111.90472222222223,41.59583333333334],[-111.72361111111111,41.62305555555555],[-111.53666666666666,41.651111111111106],[-111.3561111111111,41.67722222222222],[-111.17416666666666,41.703611111111115],[-110.98972222222223,41.73027777777778],[-110.93916666666667,41.74111111111111],[-110.79472222222222,41.757777777777775],[-110.73972222222223,41.76861111111111],[-110.61,41.78333333333333],[-110.42833333333334,41.80833333333333],[-110.24777777777778,41.83305555555556],[-110.065,41.8575],[-110.02777777777777,41.864444444444445],[-109.88138888888888,41.88166666666667],[-109.84583333333333,41.8875],[-109.73722222222223,41.900555555555556],[-109.66333333333334,41.91111111111111],[-109.55583333333333,41.924166666666665],[-109.48194444444445,41.93444444444444],[-109.37416666666665,41.9475],[-109.30277777777778,41.95666666666667],[-109.19638888888889,41.97],[-109.12527777777777,41.97888888888889],[-109.01555555555555,41.9925],[-108.94472222222223,42.00111111111111],[-108.835,42.014722222222225],[-108.76361111111112,42.02361111111111],[-108.65333333333334,42.036944444444444],[-108.58111111111111,42.04555555555555],[-108.47277777777778,42.05833333333333],[-108.40111111111112,42.066944444444445],[-108.2911111111111,42.080000000000005],[-108.21638888888889,42.08861111111111],[-108.10638888888889,42.10138888888889],[-108.03555555555555,42.109722222222224],[-107.9225,42.12277777777778],[-107.85,42.130833333333335],[-107.74027777777778,42.143055555555556],[-107.66861111111112,42.15138888888889],[-107.55944444444444,42.163333333333334],[-107.485,42.17166666666667],[-107.37638888888888,42.18333333333333],[-107.30444444444444,42.191111111111105],[-107.19638888888889,42.20277777777778],[-107.1236111111111,42.21055555555556],[-107.01638888888888,42.221944444444446],[-106.94333333333334,42.22972222222222],[-106.83472222222221,42.24111111111111],[-106.76527777777778,42.24805555555556],[-106.65666666666667,42.25944444444445],[-106.58472222222221,42.266666666666666],[-106.46388888888889,42.278888888888886],[-106.39166666666668,42.28611111111111],[-106.28527777777778,42.29694444444444],[-106.21388888888889,42.303888888888885],[-106.10416666666666,42.31444444444444],[-106.03583333333333,42.321111111111115],[-105.92527777777778,42.331944444444446],[-105.8536111111111,42.33888888888889],[-105.745,42.34916666666667],[-105.67305555555556,42.35583333333334],[-105.49166666666667,42.37277777777778],[-105.30749999999999,42.38972222222222],[-105.1261111111111,42.405833333333334],[-104.94861111111112,42.421388888888885],[-104.7713888888889,42.43666666666666],[-104.60055555555554,42.45111111111111],[-104.42694444444444,42.46555555555556],[-104.06972222222223,42.49444444444445],[-103.88944444444445,42.50083333333333],[-103.71000000000001,42.50194444444445],[-103.53111111111112,42.503055555555555],[-103.34944444444444,42.50388888888889],[-103.16944444444445,42.50416666666667],[-102.98972222222223,42.50416666666667],[-102.80527777777777,42.50416666666667],[-102.6236111111111,42.50388888888889],[-102.44222222222223,42.503055555555555],[-102.22972222222222,42.50138888888889],[-102.0461111111111,42.50055555555556],[-101.89583333333334,42.50472222222222],[-101.86527777777778,42.505],[-101.69611111111111,42.51277777777778],[-101.68138888888889,42.513888888888886],[-101.51444444444445,42.519999999999996],[-101.49861111111112,42.52027777777778],[-101.33277777777778,42.526944444444446],[-101.31583333333333,42.526944444444446],[-101.14805555555556,42.53333333333333],[-101.12722222222222,42.534166666666664],[-100.96861111111112,42.53972222222222],[-100.94805555555556,42.54055555555556],[-100.78555555555555,42.545833333333334],[-100.7713888888889,42.546388888888885],[-100.60555555555555,42.55138888888889],[-100.5886111111111,42.551944444444445],[-100.40583333333333,42.5575],[-100.38833333333334,42.558055555555555],[-100.17083333333333,42.564166666666665],[-100.0425,42.5675],[-99.99083333333333,42.569722222222225],[-99.8625,42.58277777777778],[-99.82944444444443,42.58638888888889],[-99.685,42.60166666666667],[-99.64972222222222,42.605555555555554],[-99.50611111111111,42.620555555555555],[-99.3286111111111,42.62694444444445],[-99.2961111111111,42.62638888888889],[-99.14916666666667,42.62305555555555],[-99.11694444444444,42.62222222222222],[-98.93805555555556,42.617777777777775],[-98.79472222222222,42.61388888888889],[-98.7611111111111,42.613055555555555],[-98.61638888888888,42.60888888888889],[-98.4388888888889,42.603611111111114],[-98.26166666666667,42.59805555555556],[-98.08388888888888,42.592222222222226],[-97.90666666666667,42.58638888888889],[-97.73694444444445,42.58027777777778],[-97.55722222222222,42.57333333333334],[-97.35444444444444,42.56527777777777],[-97.19666666666667,42.55888888888889],[-97.01638888888888,42.55138888888889],[-96.83305555555555,42.54361111111111],[-96.64944444444446,42.5475],[-96.46277777777777,42.55638888888888],[-96.27888888888889,42.56472222222222],[-96.09277777777777,42.578611111111115],[-95.91416666666667,42.618611111111115],[-95.73444444444445,42.65833333333333],[-95.55055555555555,42.69611111111111],[-95.36472222222221,42.70638888888889],[-95.18,42.71194444444445],[-94.99472222222222,42.716944444444444],[-94.93916666666667,42.7175],[-94.80777777777777,42.72166666666667],[-94.76194444444444,42.72166666666667],[-94.6236111111111,42.726111111111116],[-94.575,42.7275],[-94.4263888888889,42.730555555555554],[-94.39222222222223,42.73111111111111],[-94.24166666666667,42.73416666666667],[-94.2038888888889,42.735],[-94.05638888888889,42.73777777777778],[-94.02166666666666,42.73833333333334],[-93.87222222222222,42.740833333333335],[-93.83611111111111,42.74138888888889],[-93.69111111111111,42.74388888888889],[-93.65416666666667,42.744166666666665],[-93.50916666666667,42.74611111111111],[-93.47277777777778,42.74666666666667],[-93.32583333333334,42.748333333333335],[-93.29277777777777,42.74888888888889],[-93.14722222222223,42.750277777777775],[-93.11222222222221,42.75055555555556],[-92.97166666666666,42.75194444444445],[-92.93694444444445,42.75222222222222],[-92.79555555555555,42.75333333333333],[-92.76333333333334,42.75361111111111],[-92.62083333333332,42.754444444444445],[-92.58611111111111,42.754444444444445],[-92.44305555555556,42.75527777777778],[-92.40861111111111,42.75527777777778],[-92.26555555555555,42.755833333333335],[-92.23194444444445,42.755833333333335],[-92.09138888888889,42.75611111111111],[-92.05611111111111,42.75611111111111],[-91.91305555555556,42.75611111111111],[-91.87916666666666,42.75611111111111],[-91.73722222222223,42.755833333333335],[-91.53972222222222,42.75527777777778],[-91.36138888888888,42.754444444444445],[-91.18222222222222,42.753055555555555],[-91.00166666666667,42.751666666666665],[-90.82388888888889,42.75],[-90.64888888888889,42.74805555555556],[-90.47055555555556,42.74583333333334],[-90.2961111111111,42.74333333333333],[-90.12472222222222,42.740833333333335],[-89.94722222222222,42.73777777777778],[-89.78,42.734722222222224],[-89.60416666666666,42.73111111111111],[-89.43277777777779,42.727222222222224],[-89.25861111111111,42.723333333333336],[-89.08333333333333,42.719166666666666],[-88.91027777777778,42.71472222222223],[-88.73666666666666,42.709722222222226],[-88.56166666666667,42.70472222222222],[-88.38611111111112,42.69916666666666],[-88.21055555555556,42.69361111111111],[-88.03333333333333,42.687777777777775],[-87.8561111111111,42.68138888888889],[-87.67944444444444,42.675],[-87.50277777777778,42.668055555555554],[-87.2975,42.66],[-87.11805555555554,42.652499999999996],[-86.94083333333333,42.64472222222222],[-86.9213888888889,42.64277777777778],[-86.76638888888888,42.636944444444445],[-86.73027777777779,42.635],[-86.58722222222222,42.62861111111111],[-86.55333333333333,42.626666666666665],[-86.4088888888889,42.62],[-86.37472222222222,42.61833333333333],[-86.23305555555555,42.61138888888889],[-86.20055555555555,42.609722222222224],[-86.05722222222222,42.602222222222224],[-86.02472222222222,42.60055555555556],[-85.88111111111111,42.59305555555556],[-85.70583333333333,42.583333333333336],[-85.6738888888889,42.58166666666667],[-85.52944444444444,42.57361111111111],[-85.49861111111112,42.57194444444445],[-85.3275,42.56222222222222],[-85.17833333333334,42.55333333333333],[-85.14416666666668,42.55138888888889],[-85.00305555555556,42.54277777777778],[-84.97055555555556,42.54083333333333],[-84.79472222222222,42.52972222222222],[-84.65583333333333,42.52111111111111],[-84.61444444444444,42.51833333333333],[-84.48472222222222,42.51],[-84.44277777777778,42.507222222222225],[-84.3111111111111,42.49861111111111],[-84.2713888888889,42.49583333333334],[-84.1438888888889,42.48694444444445],[-84.09722222222221,42.48361111111111],[-83.96666666666667,42.474722222222226],[-83.92583333333334,42.471944444444446],[-83.7525,42.45944444444445],[-83.57972222222222,42.44694444444444],[-83.40833333333335,42.43388888888889],[-83.25444444444445,42.4225],[-83.06583333333333,42.407777777777774],[-82.89694444444446,42.394444444444446],[-82.72638888888889,42.380833333333335],[-82.55805555555555,42.373333333333335],[-82.46166666666667,42.365833333333335],[-82.38666666666667,42.36638888888889],[-82.29194444444444,42.35777777777778],[-82.21888888888888,42.36],[-82.1236111111111,42.350833333333334],[-82.06861111111111,42.35333333333333],[-81.9538888888889,42.34527777777778],[-81.89944444444446,42.346111111111114],[-81.78694444444444,42.33888888888889],[-81.73388888888888,42.338055555555556],[-81.62166666666666,42.331944444444446],[-81.56611111111111,42.330555555555556],[-81.4563888888889,42.32472222222223],[-81.40222222222222,42.32277777777778],[-81.29166666666667,42.31666666666667],[-81.23666666666666,42.31444444444444],[-81.12777777777777,42.30611111111111],[-81.07222222222222,42.30611111111111],[-80.96361111111112,42.29805555555556],[-80.90861111111111,42.2975],[-80.79944444444445,42.288888888888884],[-80.74472222222222,42.288888888888884],[-80.63555555555556,42.282222222222224],[-80.58055555555555,42.27972222222222],[-80.47305555555556,42.27166666666667],[-80.41611111111112,42.27027777777778],[-80.31055555555555,42.2625],[-80.25527777777778,42.26083333333333],[-80.14805555555556,42.25416666666667],[-80.09277777777777,42.25138888888889],[-79.99083333333333,42.243611111111115],[-79.93138888888889,42.24138888888889],[-79.83166666666666,42.23388888888889],[-79.76805555555555,42.231388888888894],[-79.67361111111111,42.22361111111111],[-79.61333333333333,42.21027777777778],[-79.52777777777777,42.157222222222224],[-79.50416666666666,42.12722222222222],[-79.46027777777778,42.06666666666667],[-79.42805555555556,42.02611111111111],[-79.3825,41.964444444444446],[-79.35222222222221,41.92527777777777],[-79.29277777777777,41.87222222222222],[-79.25222222222222,41.85611111111111],[-79.13027777777778,41.84138888888889],[-79.09944444444444,41.848333333333336],[-79.0025,41.890277777777776],[-78.96861111111112,41.91833333333333],[-78.89972222222222,41.986111111111114],[-78.85666666666665,42.025277777777774],[-78.76305555555555,42.065555555555555],[-78.71194444444444,42.07138888888889],[-78.60888888888888,42.05722222222222],[-78.55611111111111,42.04388888888889],[-78.4588888888889,42.019444444444446],[-78.40472222222223,42.005833333333335],[-78.30638888888889,41.98083333333334],[-78.2538888888889,41.9675],[-78.15972222222223,41.94333333333333],[-78.09833333333333,41.927499999999995],[-78.01361111111112,41.90555555555555],[-77.9563888888889,41.89083333333333],[-77.86305555555555,41.86666666666667],[-77.80638888888889,41.85194444444445],[-77.71777777777778,41.82888888888889],[-77.65861111111111,41.81333333333333],[-77.56722222222221,41.78916666666667],[-77.50805555555556,41.77333333333333],[-77.41944444444445,41.749722222222225],[-77.36222222222221,41.734722222222224],[-77.27194444444444,41.71083333333333],[-77.21194444444444,41.69499999999999],[-77.1275,41.6725],[-77.06694444444445,41.655833333333334],[-76.98222222222222,41.632777777777775],[-76.92055555555557,41.61611111111111],[-76.83583333333333,41.59305555555556],[-76.77638888888889,41.57694444444445],[-76.69027777777778,41.55305555555555],[-76.62833333333333,41.53611111111111],[-76.53583333333333,41.51083333333333],[-76.47805555555556,41.49472222222222],[-76.38527777777779,41.46888888888889],[-76.33333333333333,41.45444444444445],[-76.22805555555556,41.425],[-76.18166666666667,41.41222222222222],[-76.07388888888889,41.38194444444444],[-76.03416666666666,41.37083333333334],[-75.93972222222223,41.34388888888889],[-75.78583333333333,41.30027777777777],[-75.61277777777777,41.2475],[-75.46277777777777,41.197222222222216],[-75.32194444444444,41.14972222222222],[-75.18861111111111,41.12916666666667],[-75.09027777777777,41.175],[-74.99111111111111,41.22222222222222],[-74.88388888888889,41.27361111111111],[-74.77583333333334,41.26611111111111],[-74.66888888888889,41.20805555555556],[-74.5736111111111,41.15611111111111],[-74.55,41.15],[-74.47583333333334,41.10277777777778],[-74.46666666666667,41.1],[-74.38138888888888,41.05083333333333],[-74.36666666666666,41.05],[-74.28694444444444,40.99888888888889],[-74.26666666666667,40.983333333333334],[-74.19111111111111,40.94555555555555],[-74.16666666666667,40.93333333333333],[-74.09416666666667,40.89361111111111],[-73.99333333333334,40.844722222222224],[-73.89583333333334,40.79694444444444],[-73.80138888888888,40.750277777777775],[-73.7,40.7],[-73.62833333333333,40.664722222222224],[-73.61666666666666,40.65],[-73.56611111111111,40.60111111111111],[-73.55,40.583333333333336],[-73.56666666666666,40.516666666666666],[-73.60444444444444,40.45055555555556],[-73.61,40.3775],[-73.62194444444444,40.30888888888889],[-73.69111111111111,40.27027777777778],[-73.78583333333333,40.24666666666667],[-73.86972222222222,40.23638888888889],[-73.93777777777778,40.24888888888889],[-74.00277777777778,40.26694444444444],[-74,40.266666666666666],[-74.00472222222223,40.30888888888889],[-73.98333333333333,40.35],[-73.96111111111111,40.38055555555555],[-73.93333333333334,40.41583333333333],[-73.9,40.45],[-73.88138888888888,40.48277777777778],[-73.85805555555555,40.51305555555555],[-73.835,40.54277777777778],[-73.81277777777777,40.571111111111115],[-73.7911111111111,40.598888888888894]]}
}
