{
  "id": 2048424707,
  "type": "Feature",
  "properties": {
    "geom:area": 0,
    "geom:bbox": "-122.410290,37.625750,-121.284730,38.247180",
    "geom:latitude": 37.949920661258425,
    "geom:longitude": -121.87294802713913,
    "src:alt_label": "swim-takeoff",
    "src:geom": "swim",
    "swim:elevations": [
      152,
      429,
      749,
      1164,
      1369,
      1727,
      2271,
      2587,
      3214,
      3411,
      3579,
      4189,
      4566,
      4843,
      5404,
      5742,
      6358,
      6806,
      6878,
      7112,
      7521,
      7868,
      8003
    ],
    "swim:geom": "takeoff",
    "swim:timestamps": [
      1790234111,
      1790234134,
      1790234161,
      1790234200,
      1790234228,
      1790234263,
      1790234300,
      1790234321,
      1790234362,
      1790234386,
      1790234412,
      1790234451,
      1790234478,
      1790234498,
      1790234545,
      1790234573,
      1790234626,
      1790234668,
      1790234677,
      1790234703,
      1790234747,
      1790234786,
      1790234803
    ],
    "wof:geomhash": "a9179bc4467d214aab9449717f75dcfb",
    "wof:id": 2048424707,
    "wof:repo": "sfomuseum-data-flights-2026-09"
  },
  "bbox": [
    -122.41029,
    37.62575,
    -121.28473,
    38.24718
  ],
  "geometry": {"type":"LineString","coordinates":[[-122.39186,37.62575],[-122.41029,37.63707],[-122.40489,37.65785],[-122.36612,37.67123],[-122.33097,37.68199],[-122.28028,37.69745],[-122.23066,37.72619],[-122.20972,37.75111],[-122.17104,37.80116],[-122.14548,37.8334],[-122.11495,37.87046],[-122.05378,37.9165],[-121.9983,37.93424],[-121.95392,37.94751],[-121.85136,37.97624],[-121.78683,37.9944],[-121.67024,38.04033],[-121.58194,38.08725],[-121.56252,38.09745],[-121.50614,38.12752],[-121.41098,38.17903],[-121.32179,38.22753],[-121.28473,38.24718]]}
}
