{
  "id": 2048429327,
  "type": "Feature",
  "properties": {
    "geom:area": 0,
    "geom:bbox": "-122.357990,36.721400,-121.877950,37.611510",
    "geom:latitude": 37.2262536438186,
    "geom:longitude": -122.06685449623338,
    "src:alt_label": "swim-approach",
    "src:geom": "swim",
    "swim:elevations": [
      5352,
      5045,
      4914,
      4696,
      4613,
      4245,
      3959,
      3549,
      3273,
      3149,
      3075,
      2929,
      2864,
      2831,
      2733,
      2577,
      2400,
      2030,
      1703,
      1460,
      1340,
      1247,
      1215,
      1219,
      1152,
      1039,
      951,
      852,
      696,
      570,
      445,
      425,
      279,
      93,
      40
    ],
    "swim:geom": "approach",
    "swim:timestamps": [
      1790323015,
      1790323045,
      1790323059,
      1790323082,
      1790323090,
      1790323126,
      1790323156,
      1790323195,
      1790323226,
      1790323252,
      1790323285,
      1790323314,
      1790323323,
      1790323336,
      1790323362,
      1790323384,
      1790323415,
      1790323460,
      1790323496,
      1790323522,
      1790323550,
      1790323581,
      1790323593,
      1790323635,
      1790323656,
      1790323679,
      1790323707,
      1790323727,
      1790323763,
      1790323795,
      1790323824,
      1790323830,
      1790323870,
      1790323917,
      1790323938
    ],
    "wof:geomhash": "176c8091f0af0d246637b5783941cb1b",
    "wof:id": 2048429327,
    "wof:repo": "sfomuseum-data-flights-2026-09"
  },
  "bbox": [
    -122.35799,
    36.7214,
    -121.87795,
    37.61151
  ],
  "geometry": {"type":"LineString","coordinates":[[-121.87795,36.7214],[-121.90155,36.76879],[-121.90785,36.79119],[-121.91864,36.82908],[-121.92224,36.84179],[-121.93895,36.90189],[-121.95213,36.94917],[-121.97575,37.01037],[-121.9941,37.05744],[-122.0093,37.09658],[-122.02729,37.14241],[-122.04226,37.18022],[-122.04687,37.19175],[-122.05337,37.20834],[-122.06563,37.23978],[-122.07627,37.26537],[-122.09141,37.30141],[-122.10898,37.34878],[-122.12121,37.38682],[-122.10973,37.41339],[-122.09277,37.44022],[-122.07721,37.468],[-122.08109,37.47815],[-122.10863,37.50485],[-122.12724,37.51457],[-122.14726,37.52309],[-122.17264,37.53357],[-122.1893,37.54067],[-122.22056,37.5537],[-122.24773,37.56527],[-122.26976,37.57449],[-122.27433,37.57639],[-122.3048,37.58928],[-122.34123,37.60451],[-122.35799,37.61151]]}
}
