{
  "id": 2048232007,
  "type": "Feature",
  "properties": {
    "geom:area": 0,
    "geom:bbox": "-122.359270,37.491640,-121.243850,37.614210",
    "geom:latitude": 37.54713213724222,
    "geom:longitude": -121.8065019934026,
    "src:alt_label": "swim-approach",
    "src:geom": "swim",
    "swim:elevations": [
      5121,
      4872,
      4513,
      4059,
      3930,
      3383,
      3291,
      3191,
      3049,
      2767,
      2596,
      2372,
      2287,
      2066,
      1947,
      1862,
      1736,
      1525,
      1367,
      1187,
      1095,
      1012,
      899,
      754,
      699,
      552,
      387,
      301,
      225,
      125,
      0
    ],
    "swim:geom": "approach",
    "swim:timestamps": [
      1788390358,
      1788390378,
      1788390408,
      1788390448,
      1788390460,
      1788390508,
      1788390517,
      1788390556,
      1788390583,
      1788390619,
      1788390640,
      1788390685,
      1788390703,
      1788390745,
      1788390776,
      1788390798,
      1788390825,
      1788390861,
      1788390896,
      1788390926,
      1788390946,
      1788390961,
      1788390985,
      1788391017,
      1788391029,
      1788391062,
      1788391107,
      1788391127,
      1788391150,
      1788391174,
      1788391203
    ],
    "wof:geomhash": "7017a9b7edf8b8c5012e0c16e035fb25",
    "wof:id": 2048232007,
    "wof:repo": "sfomuseum-data-flights-2026-09"
  },
  "bbox": [
    -122.35927,
    37.49164,
    -121.24385,
    37.61421
  ],
  "geometry": {"type":"LineString","coordinates":[[-121.24385,37.59538],[-121.28517,37.58982],[-121.34653,37.58321],[-121.42438,37.5745],[-121.44751,37.57169],[-121.53955,37.56086],[-121.55658,37.55886],[-121.626,37.55018],[-121.66971,37.54015],[-121.72496,37.52704],[-121.75732,37.51922],[-121.82401,37.50299],[-121.84847,37.49718],[-121.90384,37.49164],[-121.94333,37.49262],[-121.9726,37.4935],[-122.00573,37.50035],[-122.04809,37.51429],[-122.08894,37.52733],[-122.12123,37.5377],[-122.14284,37.54468],[-122.15744,37.54963],[-122.18135,37.55732],[-122.21229,37.56727],[-122.22325,37.5708],[-122.25225,37.58042],[-122.28779,37.59066],[-122.3032,37.59524],[-122.32055,37.60049],[-122.33837,37.6058],[-122.35927,37.61421]]}
}
