{
  "id": 2048430389,
  "type": "Feature",
  "properties": {
    "geom:area": 0,
    "geom:bbox": "-122.762770,37.527020,-122.057410,38.519420",
    "geom:latitude": 37.86943657035022,
    "geom:longitude": -122.4723974108227,
    "src:alt_label": "swim-approach",
    "src:geom": "swim",
    "swim:elevations": [
      8090,
      7933,
      7376,
      7230,
      6806,
      6314,
      5887,
      5593,
      5348,
      4928,
      4866,
      4435,
      4157,
      3910,
      3688,
      3651,
      3407,
      3331,
      3353,
      3326,
      3139,
      2839,
      2508,
      2255,
      2082,
      1829,
      1690,
      1569,
      1523,
      1251,
      1175,
      950,
      691,
      536,
      390,
      301,
      208,
      65,
      30
    ],
    "swim:geom": "approach",
    "swim:timestamps": [
      1790355777,
      1790355795,
      1790355834,
      1790355859,
      1790355900,
      1790355944,
      1790355984,
      1790356013,
      1790356035,
      1790356076,
      1790356082,
      1790356123,
      1790356152,
      1790356176,
      1790356198,
      1790356201,
      1790356236,
      1790356276,
      1790356311,
      1790356326,
      1790356371,
      1790356422,
      1790356478,
      1790356519,
      1790356543,
      1790356580,
      1790356598,
      1790356614,
      1790356628,
      1790356675,
      1790356693,
      1790356719,
      1790356760,
      1790356791,
      1790356825,
      1790356855,
      1790356877,
      1790356917,
      1790356924
    ],
    "wof:geomhash": "06c6a07b102a2352d43f087f8e13d981",
    "wof:id": 2048430389,
    "wof:repo": "sfomuseum-data-flights-2026-09"
  },
  "bbox": [
    -122.76277,
    37.52702,
    -122.05741,
    38.51942
  ],
  "geometry": {"type":"LineString","coordinates":[[-122.66973,38.51942],[-122.68151,38.48516],[-122.70208,38.41323],[-122.71928,38.36739],[-122.74401,38.29547],[-122.76277,38.21959],[-122.74574,38.1482],[-122.73186,38.09906],[-122.7204,38.06007],[-122.70003,37.99137],[-122.69716,37.98152],[-122.67611,37.91373],[-122.64371,37.87199],[-122.61134,37.84132],[-122.58052,37.81184],[-122.57645,37.808],[-122.53061,37.76483],[-122.48072,37.71749],[-122.43179,37.69302],[-122.40905,37.68663],[-122.34164,37.66759],[-122.26825,37.64767],[-122.19013,37.62646],[-122.13382,37.61126],[-122.10471,37.59758],[-122.06624,37.57089],[-122.05741,37.5536],[-122.06148,37.53754],[-122.07342,37.52702],[-122.12912,37.53356],[-122.14895,37.5427],[-122.17716,37.55555],[-122.22355,37.57095],[-122.25387,37.58108],[-122.2842,37.58952],[-122.30651,37.59625],[-122.32164,37.60079],[-122.35008,37.61054],[-122.35492,37.61252]]}
}
