{
  "id": 2048460333,
  "type": "Feature",
  "properties": {
    "geom:area": 0,
    "geom:bbox": "-122.402490,37.635930,-122.233380,38.513630",
    "geom:latitude": 38.045115252147504,
    "geom:longitude": -122.2619874235904,
    "src:alt_label": "swim-takeoff",
    "src:geom": "swim",
    "swim:elevations": [
      367,
      431,
      800,
      1442,
      1714,
      1992,
      2373,
      2949,
      3115,
      3536,
      3949,
      4776,
      5262,
      5732,
      6166,
      6632,
      6706,
      7124,
      7741,
      7927,
      8195
    ],
    "swim:geom": "takeoff",
    "swim:timestamps": [
      1790580927,
      1790580937,
      1790580993,
      1790581053,
      1790581069,
      1790581093,
      1790581121,
      1790581164,
      1790581177,
      1790581226,
      1790581258,
      1790581310,
      1790581341,
      1790581377,
      1790581406,
      1790581437,
      1790581443,
      1790581484,
      1790581556,
      1790581580,
      1790581613
    ],
    "wof:geomhash": "52d56c5a7bc8680be9c8f585c6be42c1",
    "wof:id": 2048460333,
    "wof:repo": "sfomuseum-data-flights-2026-09"
  },
  "bbox": [
    -122.40249,
    37.63593,
    -122.23338,
    38.51363
  ],
  "geometry": {"type":"LineString","coordinates":[[-122.40249,37.63593],[-122.40193,37.64394],[-122.34119,37.672],[-122.28161,37.72023],[-122.27157,37.73853],[-122.26189,37.7658],[-122.25894,37.80089],[-122.25542,37.85455],[-122.25468,37.87018],[-122.25195,37.93885],[-122.24982,37.9855],[-122.24584,38.06271],[-122.24368,38.10802],[-122.24106,38.16082],[-122.23886,38.20366],[-122.23669,38.24752],[-122.23631,38.25604],[-122.23338,38.31446],[-122.23935,38.42417],[-122.24333,38.4611],[-122.24877,38.51363]]}
}
