{
  "id": 2048450735,
  "type": "Feature",
  "properties": {
    "geom:area": 0,
    "geom:bbox": "-122.586310,36.734350,-121.515030,37.667680",
    "geom:latitude": 37.206887138269096,
    "geom:longitude": -122.15109878083511,
    "src:alt_label": "swim-takeoff",
    "src:geom": "swim",
    "swim:elevations": [
      122,
      831,
      1014,
      1296,
      1780,
      2188,
      2687,
      2740,
      2931,
      3200,
      3279,
      3561,
      3975,
      4245,
      4464,
      4746,
      4881,
      5213,
      5388,
      6127,
      6433,
      6542,
      6954,
      7147,
      7344,
      7618,
      7832,
      8006,
      8270,
      8347,
      8495
    ],
    "swim:geom": "takeoff",
    "swim:timestamps": [
      1790533153,
      1790533226,
      1790533242,
      1790533269,
      1790533312,
      1790533347,
      1790533378,
      1790533382,
      1790533400,
      1790533427,
      1790533440,
      1790533489,
      1790533527,
      1790533553,
      1790533572,
      1790533600,
      1790533612,
      1790533641,
      1790533656,
      1790533719,
      1790533757,
      1790533773,
      1790533823,
      1790533851,
      1790533879,
      1790533917,
      1790533945,
      1790533968,
      1790534008,
      1790534025,
      1790534044
    ],
    "wof:geomhash": "7aac3f7787394ed4ea25b388bbf43982",
    "wof:id": 2048450735,
    "wof:repo": "sfomuseum-data-flights-2026-09"
  },
  "bbox": [
    -122.58631,
    36.73435,
    -121.51503,
    37.66768
  ],
  "geometry": {"type":"LineString","coordinates":[[-122.38719,37.62603],[-122.45676,37.65432],[-122.47522,37.66174],[-122.51015,37.66768],[-122.54991,37.63083],[-122.56064,37.58707],[-122.57071,37.54652],[-122.57203,37.54155],[-122.57763,37.5193],[-122.58631,37.48338],[-122.58433,37.4649],[-122.51913,37.40955],[-122.45681,37.36827],[-122.41443,37.34042],[-122.3807,37.31818],[-122.33346,37.28704],[-122.31341,37.27384],[-122.26083,37.23913],[-122.23456,37.22179],[-122.12411,37.14861],[-122.05627,37.10336],[-122.02815,37.08468],[-121.93681,37.02371],[-121.88499,36.98908],[-121.83121,36.95303],[-121.75687,36.90325],[-121.70212,36.86745],[-121.65854,36.83856],[-121.57949,36.78501],[-121.54777,36.76226],[-121.51503,36.73435]]}
}
