{
  "id": 2048246189,
  "type": "Feature",
  "properties": {
    "geom:area": 0,
    "geom:bbox": "-123.498600,37.029060,-122.393500,37.666100",
    "geom:latitude": 37.37921898191627,
    "geom:longitude": -122.95247718766984,
    "src:alt_label": "swim-takeoff",
    "src:geom": "swim",
    "swim:elevations": [
      152,
      213,
      970,
      1091,
      1304,
      1523,
      1718,
      2048,
      2603,
      2811,
      3185,
      3300,
      3492,
      3556,
      3704,
      4134,
      4180,
      4421,
      4862,
      5107,
      5375,
      5597,
      5648,
      5840,
      6034,
      6266,
      6370
    ],
    "swim:geom": "takeoff",
    "swim:timestamps": [
      1788480967,
      1788480970,
      1788481058,
      1788481098,
      1788481132,
      1788481157,
      1788481171,
      1788481206,
      1788481258,
      1788481276,
      1788481318,
      1788481336,
      1788481373,
      1788481391,
      1788481419,
      1788481467,
      1788481473,
      1788481500,
      1788481550,
      1788481580,
      1788481616,
      1788481642,
      1788481651,
      1788481675,
      1788481700,
      1788481737,
      1788481752
    ],
    "wof:geomhash": "f3b7cee3aa079c51eaa37698ea104767",
    "wof:id": 2048246189,
    "wof:repo": "sfomuseum-data-flights-2026-09"
  },
  "bbox": [
    -123.4986,
    37.02906,
    -122.3935,
    37.6661
  ],
  "geometry": {"type":"LineString","coordinates":[[-122.3935,37.6265],[-122.39617,37.62764],[-122.47539,37.66278],[-122.51872,37.6661],[-122.55532,37.6428],[-122.58456,37.62321],[-122.60086,37.61259],[-122.6422,37.58596],[-122.70567,37.5455],[-122.72786,37.53114],[-122.7797,37.4975],[-122.80319,37.48224],[-122.85513,37.4491],[-122.88163,37.43191],[-122.9247,37.40373],[-123.00296,37.35274],[-123.01283,37.34628],[-123.05747,37.31727],[-123.14248,37.26217],[-123.19386,37.22866],[-123.25564,37.18821],[-123.30231,37.15772],[-123.31822,37.14732],[-123.36077,37.11944],[-123.40453,37.09073],[-123.47118,37.04672],[-123.4986,37.02906]]}
}
