{
  "id": 2048284221,
  "type": "Feature",
  "properties": {
    "geom:area": 0,
    "geom:bbox": "-122.367230,36.739510,-121.889240,37.613780",
    "geom:latitude": 37.22590293665191,
    "geom:longitude": -122.09053501202166,
    "src:alt_label": "swim-approach",
    "src:geom": "swim",
    "swim:elevations": [
      5332,
      5225,
      4971,
      4826,
      4722,
      4473,
      4004,
      3942,
      3823,
      3622,
      3531,
      3135,
      2974,
      2723,
      2429,
      2149,
      1847,
      1831,
      1829,
      1634,
      1465,
      1307,
      1191,
      1084,
      918,
      693,
      607,
      505,
      395,
      304,
      184,
      100,
      0
    ],
    "swim:geom": "approach",
    "swim:timestamps": [
      1788901976,
      1788901992,
      1788902037,
      1788902058,
      1788902073,
      1788902101,
      1788902152,
      1788902161,
      1788902181,
      1788902211,
      1788902223,
      1788902268,
      1788902294,
      1788902328,
      1788902365,
      1788902393,
      1788902428,
      1788902440,
      1788902478,
      1788902515,
      1788902544,
      1788902569,
      1788902589,
      1788902624,
      1788902656,
      1788902689,
      1788902706,
      1788902733,
      1788902757,
      1788902778,
      1788902811,
      1788902840,
      1788902871
    ],
    "wof:geomhash": "4caf85b7ab611509986e6bc99d621bed",
    "wof:id": 2048284221,
    "wof:repo": "sfomuseum-data-flights-2026-09"
  },
  "bbox": [
    -122.36723,
    36.73951,
    -121.88924,
    37.61378
  ],
  "geometry": {"type":"LineString","coordinates":[[-121.88924,36.73951],[-121.90046,36.76606],[-121.92083,36.83761],[-121.9299,36.86945],[-121.93625,36.89179],[-121.94781,36.93286],[-121.97307,37.00285],[-121.97794,37.01519],[-121.98864,37.04286],[-122.00353,37.08097],[-122.00927,37.09606],[-122.03141,37.15249],[-122.05267,37.18104],[-122.0908,37.21112],[-122.13327,37.2447],[-122.16512,37.26981],[-122.18291,37.30903],[-122.17873,37.32329],[-122.1662,37.36708],[-122.15426,37.40862],[-122.14572,37.43974],[-122.13791,37.46733],[-122.13648,37.48788],[-122.16152,37.51751],[-122.18526,37.53865],[-122.21872,37.55297],[-122.23586,37.56026],[-122.261,37.57082],[-122.28017,37.57885],[-122.29629,37.58565],[-122.32135,37.59613],[-122.34285,37.60529],[-122.36723,37.61378]]}
}
