{
  "id": 2048299759,
  "type": "Feature",
  "properties": {
    "geom:area": 0,
    "geom:bbox": "-122.359840,37.491250,-121.247710,37.614420",
    "geom:latitude": 37.54671138505985,
    "geom:longitude": -121.80871962430203,
    "src:alt_label": "swim-approach",
    "src:geom": "swim",
    "swim:elevations": [
      4902,
      4637,
      4541,
      4302,
      3955,
      3759,
      3428,
      3401,
      3008,
      2900,
      2687,
      2563,
      2328,
      2141,
      2015,
      1884,
      1675,
      1504,
      1329,
      1210,
      1099,
      999,
      945,
      884,
      715,
      700,
      500,
      391,
      333,
      181,
      123,
      0
    ],
    "swim:geom": "approach",
    "swim:timestamps": [
      1789068416,
      1789068442,
      1789068457,
      1789068489,
      1789068532,
      1789068555,
      1789068598,
      1789068601,
      1789068655,
      1789068670,
      1789068699,
      1789068728,
      1789068777,
      1789068807,
      1789068838,
      1789068866,
      1789068897,
      1789068928,
      1789068958,
      1789068982,
      1789069008,
      1789069034,
      1789069078,
      1789069097,
      1789069137,
      1789069141,
      1789069190,
      1789069218,
      1789069230,
      1789069278,
      1789069293,
      1789069325
    ],
    "wof:geomhash": "0449a83bd78104f95f009b64c4a61bb7",
    "wof:id": 2048299759,
    "wof:repo": "sfomuseum-data-flights-2026-09"
  },
  "bbox": [
    -122.35984,
    37.49125,
    -121.24771,
    37.61442
  ],
  "geometry": {"type":"LineString","coordinates":[[-121.24771,37.59464],[-121.29814,37.58787],[-121.3274,37.58442],[-121.38856,37.5779],[-121.46671,37.56912],[-121.50807,37.56424],[-121.57865,37.55612],[-121.58518,37.55537],[-121.66775,37.54016],[-121.68979,37.53524],[-121.73172,37.52517],[-121.77417,37.51492],[-121.83695,37.49989],[-121.87568,37.49125],[-121.91594,37.49212],[-121.95163,37.49296],[-121.99163,37.49586],[-122.0278,37.50781],[-122.06104,37.51854],[-122.08621,37.52669],[-122.11163,37.53491],[-122.1379,37.54333],[-122.17585,37.55568],[-122.19205,37.56089],[-122.2244,37.57138],[-122.22798,37.57254],[-122.26719,37.58495],[-122.288,37.59093],[-122.29602,37.59332],[-122.32888,37.60305],[-122.33931,37.60622],[-122.35984,37.61442]]}
}
