{
  "id": 2048339989,
  "type": "Feature",
  "properties": {
    "geom:area": 0,
    "geom:bbox": "-122.417830,37.627690,-121.242940,37.966080",
    "geom:latitude": 37.83067556312865,
    "geom:longitude": -121.85384492355999,
    "src:alt_label": "swim-takeoff",
    "src:geom": "swim",
    "swim:elevations": [
      122,
      490,
      866,
      1122,
      1325,
      1510,
      1977,
      2412,
      2673,
      3028,
      3201,
      3327,
      3444,
      3649,
      3792,
      4152,
      4218,
      4604,
      4730,
      4962,
      5061,
      5364,
      5474
    ],
    "swim:geom": "takeoff",
    "swim:timestamps": [
      1789387233,
      1789387260,
      1789387299,
      1789387339,
      1789387368,
      1789387386,
      1789387421,
      1789387462,
      1789387487,
      1789387522,
      1789387558,
      1789387585,
      1789387609,
      1789387642,
      1789387659,
      1789387706,
      1789387720,
      1789387765,
      1789387784,
      1789387821,
      1789387837,
      1789387882,
      1789387904
    ],
    "wof:geomhash": "e9d7af73991993f08b0c38595bf6fc25",
    "wof:id": 2048339989,
    "wof:repo": "sfomuseum-data-flights-2026-09"
  },
  "bbox": [
    -122.41783,
    37.62769,
    -121.24294,
    37.96608
  ],
  "geometry": {"type":"LineString","coordinates":[[-122.39625,37.62769],[-122.41783,37.64387],[-122.39583,37.66813],[-122.3474,37.67867],[-122.30756,37.69077],[-122.27978,37.69905],[-122.22723,37.71417],[-122.16957,37.74118],[-122.13433,37.75929],[-122.08478,37.78508],[-122.0279,37.81414],[-121.97945,37.83066],[-121.92911,37.84042],[-121.85857,37.85341],[-121.82068,37.86031],[-121.71513,37.87976],[-121.68337,37.8857],[-121.57957,37.90468],[-121.53496,37.91284],[-121.44705,37.9289],[-121.4085,37.93609],[-121.29697,37.95629],[-121.24294,37.96608]]}
}
