{
  "id": 2048340065,
  "type": "Feature",
  "properties": {
    "geom:area": 0,
    "geom:bbox": "-122.403410,37.628360,-122.215810,38.465310",
    "geom:latitude": 38.001478674530034,
    "geom:longitude": -122.24717924410933,
    "src:alt_label": "swim-takeoff",
    "src:geom": "swim",
    "swim:elevations": [
      183,
      338,
      876,
      935,
      1426,
      1832,
      2157,
      2588,
      3056,
      3312,
      3415,
      3587,
      3777,
      4108,
      4343,
      4629,
      5130,
      5320,
      5495,
      5830,
      6055,
      6183
    ],
    "swim:geom": "takeoff",
    "swim:timestamps": [
      1789393104,
      1789393120,
      1789393168,
      1789393173,
      1789393226,
      1789393251,
      1789393276,
      1789393312,
      1789393345,
      1789393376,
      1789393402,
      1789393427,
      1789393452,
      1789393490,
      1789393512,
      1789393539,
      1789393588,
      1789393612,
      1789393632,
      1789393669,
      1789393696,
      1789393711
    ],
    "wof:geomhash": "893ff0a70a5ab565bc3da29bc7fd27c8",
    "wof:id": 2048340065,
    "wof:repo": "sfomuseum-data-flights-2026-09"
  },
  "bbox": [
    -122.40341,
    37.62836,
    -122.21581,
    38.46531
  ],
  "geometry": {"type":"LineString","coordinates":[[-122.3925,37.62836],[-122.40341,37.63666],[-122.3709,37.66482],[-122.36564,37.66644],[-122.3012,37.68861],[-122.26682,37.70071],[-122.23322,37.71546],[-122.21581,37.75911],[-122.21692,37.80255],[-122.21849,37.84563],[-122.21929,37.88617],[-122.22025,37.92754],[-122.22143,37.97177],[-122.22317,38.03997],[-122.22418,38.07995],[-122.22559,38.13175],[-122.22802,38.22312],[-122.22925,38.26959],[-122.23028,38.30859],[-122.23481,38.38251],[-122.24021,38.43494],[-122.24325,38.46531]]}
}
