{
  "id": 2048357553,
  "type": "Feature",
  "properties": {
    "geom:area": 0,
    "geom:bbox": "-121.958890,36.727170,-121.882700,36.967010",
    "geom:latitude": 36.84610943896222,
    "geom:longitude": -121.92293661068105,
    "src:alt_label": "swim-approach",
    "src:geom": "swim",
    "swim:elevations": [
      4882,
      4728,
      4538,
      4143,
      3922,
      3743,
      3689
    ],
    "swim:geom": "approach",
    "swim:timestamps": [
      1789659624,
      1789659640,
      1789659663,
      1789659713,
      1789659740,
      1789659775,
      1789659795
    ],
    "wof:geomhash": "4a8ca4a526f951d32b43b93ec6914a05",
    "wof:id": 2048357553,
    "wof:repo": "sfomuseum-data-flights-2026-09"
  },
  "bbox": [
    -121.95889,
    36.72717,
    -121.8827,
    36.96701
  ],
  "geometry": {"type":"LineString","coordinates":[[-121.8827,36.72717],[-121.89528,36.74823],[-121.90525,36.78186],[-121.92548,36.85434],[-121.93616,36.89189],[-121.95003,36.94147],[-121.95889,36.96701]]}
}
