{
  "id": 2048271261,
  "type": "Feature",
  "properties": {
    "geom:area": 0,
    "geom:bbox": "-122.410420,37.626670,-121.246080,37.965420",
    "geom:latitude": 37.83155576737827,
    "geom:longitude": -121.85279976737931,
    "src:alt_label": "swim-takeoff",
    "src:geom": "swim",
    "swim:elevations": [
      183,
      789,
      883,
      1420,
      1555,
      2015,
      2849,
      3163,
      3507,
      3875,
      4082,
      4399,
      4938,
      5182,
      5666,
      5822,
      6265,
      6452,
      6750,
      7421
    ],
    "swim:geom": "takeoff",
    "swim:timestamps": [
      1788694150,
      1788694193,
      1788694201,
      1788694255,
      1788694268,
      1788694300,
      1788694357,
      1788694382,
      1788694433,
      1788694461,
      1788694481,
      1788694505,
      1788694556,
      1788694576,
      1788694616,
      1788694632,
      1788694673,
      1788694699,
      1788694723,
      1788694777
    ],
    "wof:geomhash": "8e2c545790d624e97fedf2d9f6f6c2e7",
    "wof:id": 2048271261,
    "wof:repo": "sfomuseum-data-flights-2026-09"
  },
  "bbox": [
    -122.41042,
    37.62667,
    -121.24608,
    37.96542
  ],
  "geometry": {"type":"LineString","coordinates":[[-122.38836,37.62667],[-122.41042,37.65242],[-122.40711,37.6583],[-122.34409,37.67828],[-122.32623,37.68372],[-122.27911,37.69803],[-122.19153,37.72899],[-122.15491,37.74908],[-122.06957,37.79302],[-122.01695,37.82014],[-121.97601,37.8336],[-121.92261,37.84339],[-121.80361,37.86415],[-121.75537,37.87329],[-121.657,37.89144],[-121.61801,37.89899],[-121.51491,37.91767],[-121.4485,37.92931],[-121.38553,37.94054],[-121.24608,37.96542]]}
}
