{
  "id": 2048285237,
  "type": "Feature",
  "properties": {
    "geom:area": 0,
    "geom:bbox": "-122.401280,37.624580,-121.276100,37.953970",
    "geom:latitude": 37.81650018858906,
    "geom:longitude": -121.85830323159718,
    "src:alt_label": "swim-takeoff",
    "src:geom": "swim",
    "swim:elevations": [
      152,
      427,
      574,
      594,
      1009,
      1321,
      1633,
      1859,
      2276,
      2443,
      2893,
      3075,
      3311,
      3344,
      3622,
      3886,
      4051,
      4163,
      4708,
      4997,
      5226,
      5348,
      5605
    ],
    "swim:geom": "takeoff",
    "swim:timestamps": [
      1788878989,
      1788879023,
      1788879056,
      1788879064,
      1788879112,
      1788879138,
      1788879166,
      1788879188,
      1788879232,
      1788879249,
      1788879292,
      1788879313,
      1788879358,
      1788879370,
      1788879414,
      1788879444,
      1788879466,
      1788879480,
      1788879526,
      1788879554,
      1788879586,
      1788879600,
      1788879638
    ],
    "wof:geomhash": "7f45fa974ffa4d497c748f0a742e0e5b",
    "wof:id": 2048285237,
    "wof:repo": "sfomuseum-data-flights-2026-09"
  },
  "bbox": [
    -122.40128,
    37.62458,
    -121.2761,
    37.95397
  ],
  "geometry": {"type":"LineString","coordinates":[[-122.38378,37.62458],[-122.40128,37.64543],[-122.37281,37.66415],[-122.36314,37.66703],[-122.29883,37.68784],[-122.26282,37.70036],[-122.22279,37.7144],[-122.19201,37.72874],[-122.13034,37.76092],[-122.10468,37.77247],[-122.03111,37.78939],[-121.99507,37.79736],[-121.9101,37.81612],[-121.88602,37.82143],[-121.79218,37.84206],[-121.72504,37.85676],[-121.67476,37.86769],[-121.64276,37.87468],[-121.53606,37.89792],[-121.47398,37.9114],[-121.39935,37.92743],[-121.36672,37.93451],[-121.2761,37.95397]]}
}
