{
  "id": 2048458063,
  "type": "Feature",
  "properties": {
    "geom:area": 0,
    "geom:bbox": "-122.361660,37.492010,-121.255180,37.614730",
    "geom:latitude": 37.54677103084522,
    "geom:longitude": -121.81322354134734,
    "src:alt_label": "swim-approach",
    "src:geom": "swim",
    "swim:elevations": [
      4736,
      4460,
      4214,
      4060,
      3896,
      3662,
      3479,
      3455,
      3107,
      3024,
      2686,
      2521,
      2414,
      2163,
      2026,
      2011,
      1919,
      1900,
      1748,
      1505,
      1383,
      1145,
      976,
      867,
      701,
      576,
      539,
      354,
      273,
      177,
      132,
      0
    ],
    "swim:geom": "approach",
    "swim:timestamps": [
      1790592116,
      1790592145,
      1790592177,
      1790592194,
      1790592217,
      1790592269,
      1790592297,
      1790592300,
      1790592353,
      1790592362,
      1790592409,
      1790592440,
      1790592458,
      1790592502,
      1790592536,
      1790592540,
      1790592565,
      1790592571,
      1790592619,
      1790592653,
      1790592670,
      1790592710,
      1790592745,
      1790592772,
      1790592808,
      1790592837,
      1790592846,
      1790592890,
      1790592910,
      1790592931,
      1790592943,
      1790592972
    ],
    "wof:geomhash": "dfe5caf37f799f25a6feb96e4bd0eaac",
    "wof:id": 2048458063,
    "wof:repo": "sfomuseum-data-flights-2026-09"
  },
  "bbox": [
    -122.36166,
    37.49201,
    -121.25518,
    37.61473
  ],
  "geometry": {"type":"LineString","coordinates":[[-121.25518,37.59395],[-121.31543,37.58656],[-121.38103,37.57919],[-121.41403,37.57533],[-121.45614,37.57041],[-121.54599,37.56003],[-121.59063,37.55488],[-121.59514,37.55434],[-121.66917,37.54005],[-121.68175,37.53716],[-121.74618,37.52182],[-121.78702,37.51209],[-121.81146,37.50609],[-121.86904,37.49269],[-121.9151,37.49201],[-121.92075,37.49212],[-121.95398,37.49299],[-121.96238,37.49324],[-122.02167,37.50555],[-122.06296,37.51901],[-122.08265,37.52543],[-122.12917,37.54051],[-122.16454,37.55189],[-122.18936,37.55994],[-122.22197,37.57064],[-122.24761,37.57887],[-122.25566,37.58147],[-122.29269,37.59215],[-122.3096,37.59717],[-122.32799,37.60294],[-122.33742,37.6058],[-122.36166,37.61473]]}
}
