{
  "id": 2048335915,
  "type": "Feature",
  "properties": {
    "geom:area": 0,
    "geom:bbox": "-123.504650,36.949390,-122.131370,37.612170",
    "geom:latitude": 37.281525143096296,
    "geom:longitude": -122.72734028162122,
    "src:alt_label": "swim-approach",
    "src:geom": "swim",
    "swim:elevations": [
      5552,
      5090,
      4792,
      4588,
      4269,
      3891,
      3850,
      3360,
      3302,
      3190,
      3167,
      3115,
      3080,
      2951,
      2863,
      2674,
      2529,
      2438,
      2438,
      2438,
      2438,
      2438,
      2438,
      2438,
      2438,
      2438,
      2438,
      2438,
      2438,
      2315,
      2045,
      1896,
      1725,
      1553,
      1460,
      1260,
      768,
      707,
      638,
      580,
      473,
      365,
      214,
      148,
      69
    ],
    "swim:geom": "approach",
    "swim:timestamps": [
      1789370461,
      1789370503,
      1789370529,
      1789370547,
      1789370574,
      1789370608,
      1789370611,
      1789370664,
      1789370676,
      1789370725,
      1789370731,
      1789370755,
      1789370783,
      1789370816,
      1789370831,
      1789370875,
      1789370904,
      1789370935,
      1789370966,
      1789370991,
      1789371015,
      1789371054,
      1789371080,
      1789371094,
      1789371107,
      1789371145,
      1789371177,
      1789371185,
      1789371221,
      1789371258,
      1789371297,
      1789371319,
      1789371338,
      1789371366,
      1789371397,
      1789371422,
      1789371477,
      1789371490,
      1789371507,
      1789371534,
      1789371562,
      1789371589,
      1789371627,
      1789371643,
      1789371679
    ],
    "wof:geomhash": "b39895e3e9113bc75c9bd0d5eff4cd82",
    "wof:id": 2048335915,
    "wof:repo": "sfomuseum-data-flights-2026-09"
  },
  "bbox": [
    -123.50465,
    36.94939,
    -122.13137,
    37.61217
  ],
  "geometry": {"type":"LineString","coordinates":[[-123.50465,36.94939],[-123.4067,36.99561],[-123.34878,37.02423],[-123.30911,37.04363],[-123.25001,37.07241],[-123.17795,37.10713],[-123.17157,37.11015],[-123.06375,37.16174],[-123.04012,37.17305],[-122.95989,37.21162],[-122.95069,37.21593],[-122.91603,37.2324],[-122.87899,37.24996],[-122.83495,37.2644],[-122.81422,37.26906],[-122.7547,37.28308],[-122.71657,37.29199],[-122.67544,37.30141],[-122.63373,37.31125],[-122.6008,37.31895],[-122.56907,37.32622],[-122.51754,37.33817],[-122.48309,37.34609],[-122.46584,37.3501],[-122.44824,37.35409],[-122.39826,37.36561],[-122.35588,37.37534],[-122.34435,37.37801],[-122.29623,37.38898],[-122.24733,37.40018],[-122.19744,37.41162],[-122.17082,37.42215],[-122.15116,37.43457],[-122.13521,37.45868],[-122.13137,37.485],[-122.14793,37.50134],[-122.18601,37.53448],[-122.19589,37.54267],[-122.21221,37.55039],[-122.23804,37.56119],[-122.26448,37.57227],[-122.28848,37.58233],[-122.31885,37.59513],[-122.33172,37.60056],[-122.35998,37.61217]]}
}
