{
  "id": 2048450267,
  "type": "Feature",
  "properties": {
    "geom:area": 0,
    "geom:bbox": "-125.884722,35.631944,-124.776667,36.321667",
    "geom:latitude": 35.97808676002347,
    "geom:longitude": -125.33149128794636,
    "src:alt_label": "swim-path",
    "src:geom": "swim",
    "swim:altitudes": [
      "266",
      "273",
      "291",
      "304",
      "324",
      "330C",
      "330C",
      "330C"
    ],
    "swim:geom": "path",
    "swim:speeds": [
      499,
      507,
      516,
      513,
      483,
      481,
      478,
      481
    ],
    "swim:timestamps": [
      1790574819,
      1790574879,
      1790574999,
      1790575059,
      1790575119,
      1790575179,
      1790575239,
      1790575299
    ],
    "wof:geomhash": "2b53043453fec9b68facb0518e1fea4f",
    "wof:id": 2048450267,
    "wof:repo": "sfomuseum-data-flights-2026-09"
  },
  "bbox": [
    -125.88472222222222,
    35.63194444444444,
    -124.77666666666667,
    36.32166666666667
  ],
  "geometry": {"type":"LineString","coordinates":[[-124.77666666666667,36.32166666666667],[-124.91694444444445,36.23583333333333],[-125.19805555555556,36.06194444444444],[-125.33666666666666,35.976111111111116],[-125.47027777777778,35.89194444444444],[-125.60111111111111,35.81055555555555],[-125.72777777777777,35.73083333333334],[-125.88472222222222,35.63194444444444]]}
}
