{
  "id": 2048280245,
  "type": "Feature",
  "properties": {
    "date:cessation_lower": "1970-01-01",
    "date:cessation_upper": "1970-01-01",
    "date:inception_lower": "2026-09-07",
    "date:inception_upper": "2026-09-07",
    "edtf:cessation": "1970-01-01T00:00:00Z",
    "edtf:inception": "2026-09-07T11:56:42-07:00",
    "flysfo:actual_timestamp": -1,
    "flysfo:airline": "UA",
    "flysfo:date": "2026-09-07",
    "flysfo:estimated_timestamp": 1788831240,
    "flysfo:event": "D",
    "flysfo:flight_number": "UA3934",
    "flysfo:gate": "E9",
    "flysfo:journey": "SFO-JAC",
    "flysfo:scheduled_timestamp": 1788831000,
    "flysfo:timestamp": 1788831240,
    "geom:area": 0,
    "geom:bbox": "-122.370943,37.617990,-110.738540,43.606600",
    "geom:latitude": 40.612295,
    "geom:longitude": -116.5547415,
    "iata:airline": "UA",
    "icao:aircraft": "A320",
    "icao:airline": "UAL",
    "lbl:latitude": 37.619124,
    "lbl:longitude": -122.383949,
    "sfomuseum:aircraft_id": 1159292085,
    "sfomuseum:airline_id": 1159285413,
    "sfomuseum:arrival_id": 102534217,
    "sfomuseum:departure_id": 102527513,
    "sfomuseum:flight_id": "20260907-D-UAL-3934",
    "sfomuseum:flight_number": [
      "UAL3934",
      "UA3934"
    ],
    "sfomuseum:placetype": "flight",
    "src:geom": "flysfo",
    "src:geom_alt": [
      "swim-takeoff"
    ],
    "swim:tail_number": "N4901U",
    "wof:belongsto": [
      1947304067,
      102527513,
      1947304511,
      102191575,
      85633793,
      102087579,
      85922583,
      554784711,
      85688637,
      1947304523,
      1947304447,
      102085387
    ],
    "wof:country": "US",
    "wof:created": 1788884222,
    "wof:geomhash": "9f2aefec298b0356dc0b4065c5b61f73",
    "wof:hierarchy": [
      {
        "building_id": 1947304067,
        "campus_id": 102527513,
        "concourse_id": 1947304511,
        "continent_id": 102191575,
        "country_id": 85633793,
        "county_id": 102087579,
        "custom_id": 2048280245,
        "flight_id": 2048280245,
        "locality_id": 85922583,
        "postalcode_id": 554784711,
        "region_id": 85688637,
        "venue_id": 1947304523,
        "wing_id": 1947304447
      },
      {
        "building_id": 1947304067,
        "campus_id": 102527513,
        "concourse_id": 1947304511,
        "continent_id": 102191575,
        "country_id": 85633793,
        "county_id": 102085387,
        "custom_id": 2048280245,
        "flight_id": 2048280245,
        "region_id": 85688637,
        "venue_id": 1947304523,
        "wing_id": 1947304447
      }
    ],
    "wof:id": 2048280245,
    "wof:involves": [
      1159292085,
      102534217,
      102527513,
      1159285413,
      1947304523
    ],
    "wof:lastmodified": 1788884378,
    "wof:name": "UA3934 (SFO-JAC)",
    "wof:parent_id": 1947304523,
    "wof:placetype": "custom",
    "wof:placetype_alt": [
      "flight"
    ],
    "wof:repo": "sfomuseum-data-flights-2026-09",
    "wof:superseded_by": [],
    "wof:supersedes": []
  },
  "bbox": [
    -122.370943,
    37.61799,
    -110.73854,
    43.6066
  ],
  "geometry": {"type":"MultiPoint","coordinates":[[-122.370943,37.61799],[-110.73854,43.6066]]}
}
