{
  "id": 2048280443,
  "type": "Feature",
  "properties": {
    "geom:area": 0,
    "geom:bbox": "-122.527620,37.625000,-121.268590,37.967650",
    "geom:latitude": 37.864441796932866,
    "geom:longitude": -121.9974088592459,
    "src:alt_label": "swim-takeoff",
    "src:geom": "swim",
    "swim:elevations": [
      152,
      578,
      727,
      1009,
      1097,
      1246,
      1406,
      1771,
      2219,
      2594,
      3037,
      3247,
      3359,
      3587,
      3863,
      4231,
      4451,
      4565,
      4904,
      5396,
      5481,
      5882,
      6139,
      6268,
      6563,
      6798,
      7075
    ],
    "swim:geom": "takeoff",
    "swim:timestamps": [
      1788829099,
      1788829138,
      1788829156,
      1788829186,
      1788829204,
      1788829234,
      1788829264,
      1788829299,
      1788829338,
      1788829368,
      1788829407,
      1788829428,
      1788829449,
      1788829479,
      1788829509,
      1788829557,
      1788829580,
      1788829591,
      1788829624,
      1788829672,
      1788829684,
      1788829728,
      1788829758,
      1788829773,
      1788829814,
      1788829847,
      1788829880
    ],
    "wof:geomhash": "71642b0d1b3fedc32c149665acff8459",
    "wof:id": 2048280443,
    "wof:repo": "sfomuseum-data-flights-2026-09"
  },
  "bbox": [
    -122.52762,
    37.625,
    -121.26859,
    37.96765
  ],
  "geometry": {"type":"LineString","coordinates":[[-122.39003,37.625],[-122.425,37.63996],[-122.44152,37.64727],[-122.47055,37.65963],[-122.48866,37.66755],[-122.52018,37.68546],[-122.52762,37.72011],[-122.52722,37.76495],[-122.50494,37.81231],[-122.45894,37.83047],[-122.39378,37.8433],[-122.357,37.84743],[-122.31851,37.85194],[-122.25987,37.85868],[-122.19784,37.86588],[-122.09212,37.87858],[-122.03667,37.88495],[-122.01239,37.88781],[-121.93365,37.89717],[-121.81652,37.91087],[-121.78685,37.9143],[-121.67529,37.9271],[-121.5966,37.9361],[-121.55754,37.94049],[-121.44928,37.95149],[-121.35965,37.95945],[-121.26859,37.96765]]}
}
