{
  "id": 2048298107,
  "type": "Feature",
  "properties": {
    "geom:area": 0,
    "geom:bbox": "-122.816310,37.402940,-122.137720,38.478080",
    "geom:latitude": 37.81780461930847,
    "geom:longitude": -122.50119462768919,
    "src:alt_label": "swim-approach",
    "src:geom": "swim",
    "swim:elevations": [
      7097,
      6917,
      6764,
      6534,
      6274,
      5918,
      5826,
      5401,
      5211,
      5019,
      4822,
      4491,
      4453,
      4163,
      3959,
      3792,
      3465,
      3353,
      3353,
      3353,
      3353,
      3353,
      3353,
      3232,
      2836,
      2794,
      2283,
      1964,
      1702,
      1624,
      1303,
      1192,
      1006,
      844,
      694,
      610,
      473,
      385,
      244,
      149,
      71
    ],
    "swim:geom": "approach",
    "swim:timestamps": [
      1789033945,
      1789033966,
      1789033986,
      1789034014,
      1789034047,
      1789034089,
      1789034100,
      1789034154,
      1789034180,
      1789034204,
      1789034234,
      1789034277,
      1789034281,
      1789034318,
      1789034346,
      1789034370,
      1789034418,
      1789034448,
      1789034478,
      1789034513,
      1789034530,
      1789034574,
      1789034589,
      1789034610,
      1789034665,
      1789034671,
      1789034725,
      1789034758,
      1789034786,
      1789034804,
      1789034847,
      1789034871,
      1789034905,
      1789034935,
      1789034963,
      1789034985,
      1789035019,
      1789035042,
      1789035083,
      1789035116,
      1789035135
    ],
    "wof:geomhash": "813a19dacd0ca395163ed9dcc2046861",
    "wof:id": 2048298107,
    "wof:repo": "sfomuseum-data-flights-2026-09"
  },
  "bbox": [
    -122.81631,
    37.40294,
    -122.13772,
    38.47808
  ],
  "geometry": {"type":"LineString","coordinates":[[-122.81631,38.47808],[-122.80894,38.44065],[-122.80208,38.40491],[-122.79291,38.35688],[-122.78191,38.29918],[-122.76769,38.22689],[-122.76222,38.20719],[-122.73632,38.11954],[-122.72443,38.0778],[-122.71368,38.04016],[-122.70061,37.99465],[-122.68118,37.92724],[-122.67882,37.91971],[-122.64059,37.86857],[-122.60363,37.83355],[-122.57339,37.80512],[-122.51515,37.74995],[-122.47984,37.71678],[-122.44538,37.68443],[-122.40449,37.64598],[-122.38503,37.62764],[-122.34595,37.57686],[-122.33672,37.56033],[-122.32338,37.53711],[-122.28862,37.4789],[-122.28507,37.47313],[-122.25152,37.41809],[-122.21361,37.40294],[-122.17975,37.41933],[-122.16021,37.4306],[-122.13772,37.46479],[-122.15284,37.48399],[-122.17402,37.50915],[-122.19227,37.53141],[-122.21183,37.54851],[-122.2315,37.55847],[-122.26179,37.571],[-122.2801,37.57881],[-122.30946,37.59116],[-122.33258,37.60086],[-122.34639,37.60671]]}
}
