{
  "id": 2048228227,
  "type": "Feature",
  "properties": {
    "geom:area": 0,
    "geom:bbox": "-122.540240,36.733500,-121.315970,37.667390",
    "geom:latitude": 37.19541356294693,
    "geom:longitude": -121.99628071038771,
    "src:alt_label": "swim-takeoff",
    "src:geom": "swim",
    "swim:elevations": [
      864,
      1140,
      1583,
      2011,
      2486,
      3087,
      3269,
      3778,
      4119,
      4507,
      4944,
      5319,
      5409,
      5871,
      6274,
      6473,
      6731,
      6895,
      7162,
      7428,
      7743,
      7928,
      8260,
      8504,
      8667,
      8821,
      9015,
      9292,
      9445
    ],
    "swim:geom": "takeoff",
    "swim:timestamps": [
      1788282711,
      1788282738,
      1788282773,
      1788282800,
      1788282829,
      1788282865,
      1788282876,
      1788282920,
      1788282948,
      1788282980,
      1788283010,
      1788283048,
      1788283060,
      1788283100,
      1788283135,
      1788283153,
      1788283180,
      1788283215,
      1788283247,
      1788283277,
      1788283309,
      1788283328,
      1788283366,
      1788283398,
      1788283424,
      1788283451,
      1788283484,
      1788283526,
      1788283542
    ],
    "wof:geomhash": "863d69671d3bfc16f6f32ad613854062",
    "wof:id": 2048228227,
    "wof:repo": "sfomuseum-data-flights-2026-09"
  },
  "bbox": [
    -122.54024,
    36.7335,
    -121.31597,
    37.66739
  ],
  "geometry": {"type":"LineString","coordinates":[[-122.44141,37.64721],[-122.46793,37.65878],[-122.51269,37.66739],[-122.54024,37.64618],[-122.53581,37.61112],[-122.51392,37.56912],[-122.50683,37.55523],[-122.47535,37.49837],[-122.43947,37.46784],[-122.38846,37.43468],[-122.34037,37.4037],[-122.27798,37.36335],[-122.25704,37.3498],[-122.18756,37.30496],[-122.12524,37.26461],[-122.09313,37.24376],[-122.04433,37.21208],[-121.97905,37.16973],[-121.91659,37.1289],[-121.85756,37.09044],[-121.79265,37.0479],[-121.75575,37.02368],[-121.68006,36.97374],[-121.61428,36.93031],[-121.56056,36.89482],[-121.50559,36.86029],[-121.43532,36.81314],[-121.34853,36.75509],[-121.31597,36.7335]]}
}
