{
  "id": 2048248255,
  "type": "Feature",
  "properties": {
    "geom:area": 0,
    "geom:bbox": "-122.481960,36.744020,-121.891220,37.612750",
    "geom:latitude": 37.231911383997314,
    "geom:longitude": -122.18633892343559,
    "src:alt_label": "swim-approach",
    "src:geom": "swim",
    "swim:elevations": [
      5179,
      4920,
      4624,
      4490,
      4123,
      4021,
      3826,
      3467,
      3161,
      3048,
      3048,
      3080,
      3061,
      3048,
      3048,
      2973,
      2752,
      2577,
      2438,
      2438,
      2438,
      2094,
      1920,
      1864,
      1830,
      1829,
      1829,
      1829,
      1829,
      1829,
      1829,
      1803,
      1685,
      1406,
      1331,
      1021,
      899,
      789,
      942,
      638,
      550,
      409,
      396,
      305,
      213,
      183,
      56,
      25
    ],
    "swim:geom": "approach",
    "swim:timestamps": [
      1788520909,
      1788520936,
      1788520965,
      1788520980,
      1788521027,
      1788521046,
      1788521076,
      1788521117,
      1788521148,
      1788521181,
      1788521193,
      1788521239,
      1788521261,
      1788521291,
      1788521328,
      1788521366,
      1788521397,
      1788521418,
      1788521448,
      1788521512,
      1788521521,
      1788521577,
      1788521608,
      1788521625,
      1788521641,
      1788521685,
      1788521727,
      1788521746,
      1788521771,
      1788521801,
      1788521826,
      1788521862,
      1788521880,
      1788521929,
      1788521940,
      1788521989,
      1788522021,
      1788522045,
      1788522067,
      1788522101,
      1788522140,
      1788522178,
      1788522191,
      1788522210,
      1788522241,
      1788522248,
      1788522280,
      1788522300
    ],
    "wof:geomhash": "30015f8a1de113b1361cad1957a85e5a",
    "wof:id": 2048248255,
    "wof:repo": "sfomuseum-data-flights-2026-09"
  },
  "bbox": [
    -122.48196,
    36.74402,
    -121.89122,
    37.61275
  ],
  "geometry": {"type":"LineString","coordinates":[[-121.89122,36.74402],[-121.90712,36.78909],[-121.92116,36.83791],[-121.92825,36.86283],[-121.94908,36.9387],[-121.9589,36.96732],[-121.97497,37.00817],[-121.99707,37.06371],[-122.01377,37.10438],[-122.05662,37.12748],[-122.07482,37.12684],[-122.14885,37.1203],[-122.18371,37.11723],[-122.23079,37.113],[-122.28838,37.10731],[-122.34757,37.10679],[-122.38028,37.1342],[-122.39824,37.15568],[-122.42319,37.18607],[-122.47563,37.25175],[-122.48196,37.26011],[-122.45141,37.31832],[-122.401,37.32706],[-122.37438,37.32884],[-122.34902,37.33033],[-122.28516,37.33413],[-122.22448,37.33777],[-122.19674,37.33944],[-122.16224,37.3442],[-122.12572,37.36264],[-122.09637,37.37773],[-122.07093,37.40774],[-122.06211,37.42347],[-122.06999,37.46489],[-122.07216,37.47382],[-122.10288,37.50339],[-122.13232,37.51688],[-122.1546,37.52601],[-122.17539,37.53471],[-122.2062,37.54775],[-122.24162,37.56264],[-122.27294,37.57583],[-122.28257,37.57991],[-122.29664,37.58578],[-122.31938,37.59534],[-122.32524,37.59777],[-122.34909,37.60778],[-122.36375,37.61275]]}
}
