{
  "id": 2048394021,
  "type": "Feature",
  "properties": {
    "geom:area": 0,
    "geom:bbox": "-122.808920,37.555630,-122.106620,38.481830",
    "geom:latitude": 37.878153064769926,
    "geom:longitude": -122.50310327172163,
    "src:alt_label": "swim-approach",
    "src:geom": "swim",
    "swim:elevations": [
      7468,
      7306,
      6975,
      6849,
      6418,
      6315,
      5971,
      5645,
      5496,
      5262,
      5132,
      4856,
      4524,
      4063,
      3852,
      3545,
      3451,
      3352,
      3357,
      3046,
      2654,
      2430,
      2263,
      2148,
      1971,
      1830,
      1797,
      1328,
      1081,
      920,
      914,
      731,
      651,
      451,
      273,
      181,
      66,
      271
    ],
    "swim:geom": "approach",
    "swim:timestamps": [
      1790025480,
      1790025498,
      1790025531,
      1790025544,
      1790025590,
      1790025600,
      1790025637,
      1790025671,
      1790025686,
      1790025713,
      1790025725,
      1790025754,
      1790025790,
      1790025838,
      1790025862,
      1790025893,
      1790025902,
      1790025932,
      1790025964,
      1790026017,
      1790026046,
      1790026059,
      1790026071,
      1790026083,
      1790026134,
      1790026166,
      1790026178,
      1790026227,
      1790026254,
      1790026275,
      1790026302,
      1790026345,
      1790026357,
      1790026398,
      1790026438,
      1790026459,
      1790026490,
      1790026508
    ],
    "wof:geomhash": "8f8c8c45387c01f9d6e09dc167c61ec2",
    "wof:id": 2048394021,
    "wof:repo": "sfomuseum-data-flights-2026-09"
  },
  "bbox": [
    -122.80892,
    37.55563,
    -122.10662,
    38.48183
  ],
  "geometry": {"type":"LineString","coordinates":[[-122.80892,38.48183],[-122.8031,38.44625],[-122.79256,38.38176],[-122.78885,38.35889],[-122.77522,38.27259],[-122.77211,38.25329],[-122.75686,38.18755],[-122.73947,38.12717],[-122.73192,38.10136],[-122.71837,38.05523],[-122.71244,38.0346],[-122.69845,37.98632],[-122.68116,37.92623],[-122.63065,37.85955],[-122.59986,37.83016],[-122.56015,37.79259],[-122.54872,37.78181],[-122.5115,37.74676],[-122.46396,37.72476],[-122.38551,37.70221],[-122.34133,37.68966],[-122.32011,37.6836],[-122.3013,37.67814],[-122.28276,37.67272],[-122.20711,37.65059],[-122.16179,37.6374],[-122.14804,37.63083],[-122.10662,37.59251],[-122.11301,37.5661],[-122.13539,37.55563],[-122.16808,37.55986],[-122.21602,37.57147],[-122.22915,37.57461],[-122.27238,37.58605],[-122.30721,37.59665],[-122.3242,37.60169],[-122.34841,37.60983],[-122.36286,37.61496]]}
}
