{
  "id": 2048417011,
  "type": "Feature",
  "properties": {
    "geom:area": 0,
    "geom:bbox": "-122.546470,36.727470,-121.565430,37.664320",
    "geom:latitude": 37.22091627791294,
    "geom:longitude": -122.12415902602538,
    "src:alt_label": "swim-takeoff",
    "src:geom": "swim",
    "swim:elevations": [
      213,
      315,
      577,
      966,
      1130,
      1505,
      1799,
      2011,
      2203,
      2698,
      3190,
      3274,
      3643,
      4445,
      4969,
      5187,
      5524,
      5794,
      5991,
      6246,
      6448,
      6527,
      6970,
      7136,
      7586,
      7903,
      8109
    ],
    "swim:geom": "takeoff",
    "swim:timestamps": [
      1790189661,
      1790189674,
      1790189698,
      1790189728,
      1790189745,
      1790189786,
      1790189808,
      1790189824,
      1790189838,
      1790189871,
      1790189908,
      1790189921,
      1790189962,
      1790190020,
      1790190075,
      1790190127,
      1790190161,
      1790190187,
      1790190210,
      1790190238,
      1790190262,
      1790190273,
      1790190327,
      1790190351,
      1790190414,
      1790190456,
      1790190480
    ],
    "wof:geomhash": "ef803fa7c65412be3bceef88f8c7fcdf",
    "wof:id": 2048417011,
    "wof:repo": "sfomuseum-data-flights-2026-09"
  },
  "bbox": [
    -122.54647,
    36.72747,
    -121.56543,
    37.66432
  ],
  "geometry": {"type":"LineString","coordinates":[[-122.39186,37.62603],[-122.40205,37.63058],[-122.42499,37.64014],[-122.45293,37.65212],[-122.47028,37.6598],[-122.52386,37.66432],[-122.54455,37.64494],[-122.54647,37.62578],[-122.53883,37.60926],[-122.5175,37.57018],[-122.49324,37.52484],[-122.48455,37.50892],[-122.43627,37.45858],[-122.35532,37.39136],[-122.27693,37.32611],[-122.19423,37.25752],[-122.13684,37.20971],[-122.09284,37.17284],[-122.05316,37.13962],[-122.00394,37.09844],[-121.96173,37.06306],[-121.94403,37.04818],[-121.84735,36.96677],[-121.80327,36.92967],[-121.6886,36.83283],[-121.61035,36.76569],[-121.56543,36.72747]]}
}
