{
  "id": 2048448841,
  "type": "Feature",
  "properties": {
    "geom:area": 0,
    "geom:bbox": "-122.353611,35.885278,-115.251667,38.020000",
    "geom:latitude": 37.28689056938885,
    "geom:longitude": -118.748022117834,
    "src:alt_label": "swim-path",
    "src:geom": "swim",
    "swim:altitudes": [
      "055",
      "076",
      "101",
      "102",
      "121",
      "152",
      "178",
      "205",
      "225",
      "240",
      "252",
      "270",
      "281",
      "284",
      "296",
      "298",
      "313",
      "316",
      "332",
      "347",
      "349",
      "357",
      "360C",
      "360C",
      "360C",
      "360C",
      "360C",
      "360C",
      "360C",
      "360C",
      "360C",
      "360C",
      "360C",
      "360C",
      "360C",
      "360C",
      "360C",
      "360C",
      "360C",
      "360C",
      "360C",
      "360C",
      "360C",
      "360",
      "354",
      "345",
      "334",
      "320C",
      "320C",
      "320C",
      "320C",
      "320C",
      "320C",
      "320",
      "320",
      "314",
      "312",
      "287",
      "282",
      "261",
      "255",
      "240",
      "236",
      "218",
      "214",
      "194",
      "181",
      "171",
      "171",
      "161",
      "160",
      "145",
      "133",
      "131",
      "118",
      "117",
      "110",
      "110",
      "110",
      "110",
      "109",
      "107",
      "099",
      "100",
      "100",
      "098",
      "090",
      "088",
      "080",
      "077",
      "076",
      "067",
      "060",
      "060",
      "056",
      "053",
      "047",
      "044",
      "038",
      "036",
      "029",
      "026",
      "020",
      "017",
      "012",
      "008",
      "003",
      "001"
    ],
    "swim:geom": "path",
    "swim:speeds": [
      221,
      257,
      264,
      269,
      320,
      331,
      348,
      349,
      356,
      409,
      429,
      440,
      452,
      445,
      452,
      454,
      454,
      455,
      452,
      447,
      445,
      444,
      443,
      459,
      464,
      463,
      448,
      444,
      441,
      424,
      423,
      423,
      427,
      426,
      424,
      425,
      425,
      426,
      383,
      367,
      362,
      365,
      368,
      369,
      371,
      374,
      369,
      361,
      360,
      355,
      352,
      350,
      350,
      350,
      366,
      372,
      373,
      391,
      387,
      387,
      387,
      365,
      366,
      355,
      357,
      348,
      306,
      276,
      267,
      246,
      248,
      247,
      253,
      250,
      248,
      250,
      261,
      257,
      258,
      258,
      251,
      252,
      238,
      239,
      239,
      243,
      247,
      245,
      244,
      235,
      235,
      234,
      206,
      203,
      187,
      187,
      179,
      182,
      179,
      181,
      171,
      174,
      176,
      174,
      154,
      150,
      143,
      145
    ],
    "swim:timestamps": [
      1790536871,
      1790536931,
      1790536991,
      1790536997,
      1790537051,
      1790537111,
      1790537171,
      1790537231,
      1790537291,
      1790537351,
      1790537412,
      1790537472,
      1790537523,
      1790537532,
      1790537583,
      1790537592,
      1790537643,
      1790537652,
      1790537712,
      1790537763,
      1790537772,
      1790537823,
      1790537892,
      1790537952,
      1790538004,
      1790538013,
      1790538073,
      1790538133,
      1790538193,
      1790538244,
      1790538304,
      1790538313,
      1790538373,
      1790538433,
      1790538493,
      1790538544,
      1790538554,
      1790538614,
      1790538674,
      1790538734,
      1790538785,
      1790538845,
      1790538905,
      1790538965,
      1790539025,
      1790539085,
      1790539145,
      1790539265,
      1790539326,
      1790539386,
      1790539446,
      1790539506,
      1790539566,
      1790539626,
      1790539686,
      1790539783,
      1790539806,
      1790539844,
      1790539866,
      1790539903,
      1790539926,
      1790539964,
      1790539987,
      1790540024,
      1790540047,
      1790540107,
      1790540167,
      1790540204,
      1790540227,
      1790540270,
      1790540287,
      1790540347,
      1790540385,
      1790540407,
      1790540450,
      1790540467,
      1790540504,
      1790540527,
      1790540565,
      1790540587,
      1790540625,
      1790540648,
      1790540685,
      1790540708,
      1790540745,
      1790540768,
      1790540805,
      1790540828,
      1790540888,
      1790540930,
      1790540948,
      1790541008,
      1790541045,
      1790541068,
      1790541105,
      1790541128,
      1790541165,
      1790541188,
      1790541225,
      1790541248,
      1790541285,
      1790541308,
      1790541345,
      1790541369,
      1790541405,
      1790541429,
      1790541465,
      1790541489
    ],
    "wof:geomhash": "60d73c690fe1b55398c39ddd2e71e6f6",
    "wof:id": 2048448841,
    "wof:repo": "sfomuseum-data-flights-2026-09"
  },
  "bbox": [
    -122.3536111111111,
    35.88527777777778,
    -115.25166666666667,
    38.019999999999996
  ],
  "geometry": {"type":"LineString","coordinates":[[-115.25166666666667,36.06583333333333],[-115.28944444444444,36.005833333333335],[-115.32888888888888,35.939166666666665],[-115.33305555555555,35.93194444444444],[-115.39583333333334,35.88527777777778],[-115.50888888888889,35.88722222222222],[-115.62777777777777,35.88972222222222],[-115.74777777777778,35.89222222222222],[-115.86805555555554,35.89416666666666],[-115.9863888888889,35.93444444444444],[-116.08027777777778,36.00972222222222],[-116.19166666666668,36.10027777777778],[-116.27916666666667,36.17027777777778],[-116.29555555555555,36.18388888888889],[-116.39027777777778,36.26027777777778],[-116.40722222222223,36.27333333333333],[-116.50027777777778,36.35],[-116.515,36.36361111111111],[-116.62194444444444,36.45388888888889],[-116.71138888888889,36.532777777777774],[-116.73305555555555,36.55222222222222],[-116.815,36.62388888888889],[-116.92972222222222,36.72638888888889],[-117.015,36.84666666666667],[-117.07638888888889,36.94027777777777],[-117.09138888888889,36.96333333333334],[-117.16416666666667,37.07527777777778],[-117.23527777777778,37.183611111111105],[-117.30805555555555,37.29138888888889],[-117.38138888888888,37.36833333333333],[-117.47111111111111,37.46138888888889],[-117.4888888888889,37.47972222222222],[-117.58027777777778,37.574444444444445],[-117.6725,37.66972222222222],[-117.76444444444445,37.76361111111111],[-117.83722222222222,37.83916666666667],[-117.85583333333332,37.858333333333334],[-117.94777777777779,37.95333333333333],[-118.05555555555556,38.019999999999996],[-118.18388888888889,38.00833333333333],[-118.28416666666666,37.995555555555555],[-118.41222222222223,37.97888888888889],[-118.53916666666666,37.96194444444445],[-118.66805555555555,37.94499999999999],[-118.79833333333333,37.927499999999995],[-118.92861111111111,37.90972222222222],[-119.05583333333333,37.89222222222222],[-119.31555555555555,37.85638888888889],[-119.43944444444445,37.83916666666667],[-119.56027777777777,37.82194444444445],[-119.68305555555555,37.80472222222222],[-119.80222222222221,37.7875],[-119.92333333333333,37.769999999999996],[-120.04444444444444,37.75222222222222],[-120.16833333333334,37.73416666666667],[-120.36666666666666,37.7],[-120.39972222222222,37.69972222222222],[-120.5,37.68333333333333],[-120.53361111111111,37.68416666666666],[-120.63333333333334,37.666666666666664],[-120.66888888888889,37.66833333333333],[-120.78333333333333,37.65],[-120.79805555555555,37.65277777777778],[-120.9,37.63333333333333],[-120.92194444444445,37.63805555555555],[-121.04194444444444,37.62222222222222],[-121.15166666666667,37.60777777777778],[-121.23333333333333,37.6],[-121.2525,37.594166666666666],[-121.31666666666666,37.583333333333336],[-121.33694444444444,37.58416666666667],[-121.42305555555556,37.574444444444445],[-121.48333333333333,37.56666666666667],[-121.51,37.564166666666665],[-121.58333333333333,37.55],[-121.5961111111111,37.55416666666667],[-121.65,37.56666666666667],[-121.66944444444445,37.58388888888889],[-121.71666666666667,37.61666666666667],[-121.73166666666667,37.63666666666666],[-121.78333333333333,37.68333333333333],[-121.79805555555555,37.68055555555555],[-121.86666666666666,37.68333333333333],[-121.88166666666666,37.67583333333333],[-121.91666666666667,37.63333333333333],[-121.90361111111112,37.62277777777778],[-121.86666666666666,37.583333333333336],[-121.85,37.57083333333334],[-121.79722222222222,37.51861111111111],[-121.8,37.46666666666667],[-121.81583333333333,37.46361111111111],[-121.89555555555556,37.473888888888894],[-121.95,37.483333333333334],[-121.96611111111112,37.489444444444445],[-122.01666666666667,37.5],[-122.02805555555555,37.5075],[-122.06666666666666,37.516666666666666],[-122.08722222222222,37.526944444444446],[-122.13333333333334,37.53333333333333],[-122.1438888888889,37.54527777777778],[-122.18333333333334,37.56666666666667],[-122.20166666666667,37.56388888888888],[-122.25,37.583333333333336],[-122.25861111111111,37.58222222222223],[-122.3,37.6],[-122.3125,37.59805555555556],[-122.35,37.6],[-122.3536111111111,37.61194444444445]]}
}
