{
  "id": 2048420441,
  "type": "Feature",
  "properties": {
    "geom:area": 0,
    "geom:bbox": "-122.333333,34.050000,-117.633333,37.600000",
    "geom:latitude": 35.66160706603116,
    "geom:longitude": -120.18407337248213,
    "src:alt_label": "swim-path",
    "src:geom": "swim",
    "swim:altitudes": [
      "023",
      "026",
      "049",
      "080",
      "113",
      "151",
      "175",
      "202",
      "226",
      "247",
      "268",
      "288",
      "307",
      "311",
      "317",
      "320C",
      "320C",
      "320C",
      "320C",
      "320C",
      "320C",
      "320C",
      "320C",
      "320C",
      "320C",
      "320C",
      "320C",
      "320C",
      "320C",
      "320C",
      "320C",
      "320C",
      "320C",
      "320C",
      "319",
      "310",
      "300",
      "290",
      "271",
      "249",
      "229",
      "223",
      "209",
      "203",
      "184",
      "171",
      "165",
      "153",
      "146",
      "132",
      "128",
      "114",
      "110",
      "103",
      "090",
      "080",
      "072",
      "069",
      "060",
      "047",
      "029",
      "025",
      "023",
      "020",
      "014",
      "007",
      "005"
    ],
    "swim:geom": "path",
    "swim:speeds": [
      170,
      208,
      277,
      290,
      299,
      310,
      334,
      371,
      379,
      392,
      402,
      409,
      412,
      430,
      448,
      447,
      447,
      447,
      446,
      447,
      450,
      449,
      449,
      447,
      446,
      446,
      438,
      417,
      418,
      419,
      419,
      417,
      417,
      415,
      413,
      412,
      407,
      411,
      412,
      401,
      374,
      368,
      370,
      364,
      346,
      347,
      340,
      343,
      337,
      337,
      332,
      332,
      324,
      317,
      310,
      280,
      283,
      282,
      283,
      257,
      254,
      238,
      198,
      193,
      165,
      140,
      134
    ],
    "swim:timestamps": [
      1790277682,
      1790277722,
      1790277782,
      1790277842,
      1790277903,
      1790277963,
      1790278023,
      1790278095,
      1790278155,
      1790278215,
      1790278275,
      1790278335,
      1790278395,
      1790278456,
      1790278508,
      1790278568,
      1790278576,
      1790278636,
      1790278696,
      1790278756,
      1790278876,
      1790278929,
      1790278936,
      1790278996,
      1790279049,
      1790279117,
      1790279169,
      1790279237,
      1790279297,
      1790279357,
      1790279417,
      1790279470,
      1790279477,
      1790279537,
      1790279590,
      1790279650,
      1790279710,
      1790279770,
      1790279830,
      1790279890,
      1790279951,
      1790279965,
      1790280011,
      1790280026,
      1790280086,
      1790280131,
      1790280147,
      1790280191,
      1790280212,
      1790280263,
      1790280272,
      1790280323,
      1790280332,
      1790280383,
      1790280443,
      1790280512,
      1790280563,
      1790280572,
      1790280624,
      1790280684,
      1790280744,
      1790280752,
      1790280804,
      1790280812,
      1790280864,
      1790280924,
      1790280932
    ],
    "wof:geomhash": "aea462d419116c0446b3893bf0c92a38",
    "wof:id": 2048420441,
    "wof:repo": "sfomuseum-data-flights-2026-09"
  },
  "bbox": [
    -122.33333333333333,
    34.05,
    -117.63333333333334,
    37.6
  ],
  "geometry": {"type":"LineString","coordinates":[[-117.63333333333334,34.05],[-117.66833333333334,34.05694444444444],[-117.755,34.07138888888889],[-117.83527777777778,34.11527777777778],[-117.91666666666667,34.163888888888884],[-118.01805555555555,34.223333333333336],[-118.10638888888889,34.275277777777774],[-118.22416666666666,34.349444444444444],[-118.325,34.41361111111111],[-118.42972222222222,34.47972222222222],[-118.53666666666666,34.54694444444444],[-118.6463888888889,34.61555555555556],[-118.75833333333334,34.68472222222222],[-118.86916666666666,34.75472222222222],[-118.95722222222223,34.82527777777778],[-119.03333333333333,34.933055555555555],[-119.04638888888888,34.95138888888889],[-119.12249999999999,35.05694444444444],[-119.19944444444445,35.163888888888884],[-119.27944444444444,35.26916666666666],[-119.54805555555555,35.38527777777778],[-119.66250000000001,35.42861111111111],[-119.68472222222222,35.43694444444444],[-119.8236111111111,35.48888888888889],[-119.93694444444445,35.53138888888889],[-120.0975,35.59138888888889],[-120.20916666666668,35.632777777777775],[-120.3586111111111,35.68805555555555],[-120.48611111111111,35.73694444444445],[-120.61555555555555,35.78666666666666],[-120.745,35.83583333333333],[-120.87555555555555,35.885],[-120.87305555555555,35.884166666666665],[-120.99972222222222,35.931666666666665],[-121.13138888888888,35.98111111111111],[-121.25777777777778,36.02833333333333],[-121.37805555555555,36.085],[-121.45305555555557,36.181666666666665],[-121.52972222222222,36.28],[-121.60305555555556,36.37361111111111],[-121.67277777777778,36.46194444444445],[-121.7,36.483333333333334],[-121.74166666666667,36.54861111111111],[-121.76666666666667,36.583333333333336],[-121.83333333333333,36.65],[-121.87166666666666,36.71277777777778],[-121.88333333333334,36.733333333333334],[-121.91111111111111,36.800555555555555],[-121.91666666666667,36.833333333333336],[-121.9413888888889,36.90972222222222],[-121.95,36.93333333333333],[-121.9713888888889,36.99861111111111],[-121.98333333333333,37.016666666666666],[-122.00416666666666,37.08222222222223],[-122.03666666666666,37.165277777777774],[-122.06666666666666,37.25],[-122.09555555555555,37.315555555555555],[-122.1,37.333333333333336],[-122.09944444444444,37.39222222222222],[-122.1111111111111,37.46388888888889],[-122.16000000000001,37.521388888888886],[-122.16666666666667,37.53333333333333],[-122.22305555555556,37.55472222222222],[-122.23333333333333,37.56666666666667],[-122.28027777777778,37.57888888888889],[-122.32194444444444,37.59638888888889],[-122.33333333333333,37.6]]}
}
