{
  "id": 2048425757,
  "type": "Feature",
  "properties": {
    "geom:area": 0,
    "geom:bbox": "-122.544110,37.127470,-121.245560,37.668040",
    "geom:latitude": 37.386336977012256,
    "geom:longitude": -121.98752919497598,
    "src:alt_label": "swim-takeoff",
    "src:geom": "swim",
    "swim:elevations": [
      152,
      432,
      1094,
      1219,
      2259,
      2733,
      3484,
      3933,
      4073,
      4613,
      4902,
      5231,
      5746,
      5873,
      6184,
      6522,
      6853,
      6880,
      7398,
      7559,
      7955,
      8065,
      8096,
      8323,
      8579,
      8785,
      8931
    ],
    "swim:geom": "takeoff",
    "swim:timestamps": [
      1790256485,
      1790256512,
      1790256582,
      1790256596,
      1790256669,
      1790256695,
      1790256736,
      1790256772,
      1790256802,
      1790256834,
      1790256854,
      1790256884,
      1790256922,
      1790256932,
      1790256958,
      1790256982,
      1790257017,
      1790257020,
      1790257065,
      1790257085,
      1790257135,
      1790257151,
      1790257157,
      1790257187,
      1790257225,
      1790257263,
      1790257283
    ],
    "wof:geomhash": "6a89449a90626cda0483742e84fbdaaf",
    "wof:id": 2048425757,
    "wof:repo": "sfomuseum-data-flights-2026-09"
  },
  "bbox": [
    -122.54411,
    37.12747,
    -121.24556,
    37.66804
  ],
  "geometry": {"type":"LineString","coordinates":[[-122.38736,37.62394],[-122.41162,37.63472],[-122.49185,37.66798],[-122.51068,37.66804],[-122.54348,37.59069],[-122.54411,37.55779],[-122.50055,37.52058],[-122.43766,37.50659],[-122.37798,37.49322],[-122.30866,37.47789],[-122.26594,37.46834],[-122.20006,37.45344],[-122.1123,37.43326],[-122.08954,37.42804],[-122.03008,37.40835],[-121.97595,37.38619],[-121.89734,37.35414],[-121.89053,37.35137],[-121.78647,37.30994],[-121.74186,37.2924],[-121.62354,37.24557],[-121.58315,37.22983],[-121.57076,37.22488],[-121.49782,37.19604],[-121.40399,37.15819],[-121.30056,37.13518],[-121.24556,37.12747]]}
}
