{
  "id": 2048275785,
  "type": "Feature",
  "properties": {
    "geom:area": 0,
    "geom:bbox": "-122.363100,37.490680,-121.242980,37.615380",
    "geom:latitude": 37.54728778802001,
    "geom:longitude": -121.80798854243001,
    "src:alt_label": "swim-approach",
    "src:geom": "swim",
    "swim:elevations": [
      4779,
      4362,
      4269,
      3804,
      3647,
      3474,
      3398,
      3121,
      3066,
      2829,
      2652,
      2616,
      2460,
      2301,
      2101,
      2003,
      1872,
      1829,
      1829,
      1829,
      1628,
      1353,
      1215,
      899,
      806,
      723,
      662,
      490,
      367,
      301,
      47,
      0
    ],
    "swim:geom": "approach",
    "swim:timestamps": [
      1788768911,
      1788768950,
      1788768961,
      1788769008,
      1788769047,
      1788769072,
      1788769084,
      1788769120,
      1788769126,
      1788769163,
      1788769189,
      1788769204,
      1788769252,
      1788769270,
      1788769312,
      1788769345,
      1788769369,
      1788769402,
      1788769418,
      1788769430,
      1788769460,
      1788769491,
      1788769511,
      1788769555,
      1788769574,
      1788769591,
      1788769604,
      1788769634,
      1788769665,
      1788769681,
      1788769738,
      1788769754
    ],
    "wof:geomhash": "3de30e25f5024d0f39ac2534016e079b",
    "wof:id": 2048275785,
    "wof:repo": "sfomuseum-data-flights-2026-09"
  },
  "bbox": [
    -122.3631,
    37.49068,
    -121.24298,
    37.61538
  ],
  "geometry": {"type":"LineString","coordinates":[[-121.24298,37.59538],[-121.31973,37.58585],[-121.34156,37.5835],[-121.42907,37.57336],[-121.49988,37.56533],[-121.54166,37.56057],[-121.56181,37.5582],[-121.62002,37.55129],[-121.62977,37.54972],[-121.68744,37.53553],[-121.72907,37.52572],[-121.75203,37.52028],[-121.82107,37.50379],[-121.84494,37.49808],[-121.90107,37.49068],[-121.94214,37.4926],[-121.97154,37.49348],[-122.01011,37.50115],[-122.02793,37.50724],[-122.04162,37.512],[-122.0743,37.52286],[-122.10989,37.53404],[-122.13205,37.5412],[-122.18103,37.55701],[-122.20088,37.5634],[-122.2188,37.56921],[-122.23232,37.57366],[-122.26253,37.58351],[-122.29002,37.59145],[-122.3041,37.59555],[-122.35195,37.61134],[-122.3631,37.61538]]}
}
