{
  "id": 2048433837,
  "type": "Feature",
  "properties": {
    "geom:area": 0,
    "geom:bbox": "-122.543940,36.730970,-121.454030,37.668710",
    "geom:latitude": 37.215805011307104,
    "geom:longitude": -122.07418723579505,
    "src:alt_label": "swim-takeoff",
    "src:geom": "swim",
    "swim:elevations": [
      152,
      472,
      1011,
      1214,
      1274,
      1409,
      1637,
      1974,
      2599,
      3353,
      3416,
      3505,
      3777,
      4022,
      4290,
      4382,
      4678,
      5029,
      5237,
      5490,
      5790,
      6179,
      6317,
      6726,
      6867,
      7099,
      7558,
      7748,
      7977,
      8221,
      8322
    ],
    "swim:geom": "takeoff",
    "swim:timestamps": [
      1790344935,
      1790344956,
      1790345004,
      1790345034,
      1790345041,
      1790345058,
      1790345078,
      1790345103,
      1790345142,
      1790345216,
      1790345224,
      1790345233,
      1790345268,
      1790345299,
      1790345327,
      1790345337,
      1790345364,
      1790345396,
      1790345411,
      1790345436,
      1790345466,
      1790345508,
      1790345523,
      1790345568,
      1790345582,
      1790345611,
      1790345666,
      1790345689,
      1790345716,
      1790345748,
      1790345763
    ],
    "wof:geomhash": "660506fd7d3f6bb940867bcc1dfb2452",
    "wof:id": 2048433837,
    "wof:repo": "sfomuseum-data-flights-2026-09"
  },
  "bbox": [
    -122.54394,
    36.73097,
    -121.45403,
    37.66871
  ],
  "geometry": {"type":"LineString","coordinates":[[-122.39392,37.62897],[-122.41246,37.63646],[-122.45578,37.65415],[-122.48751,37.66678],[-122.49685,37.66871],[-122.51929,37.66658],[-122.54065,37.6505],[-122.54394,37.61835],[-122.51855,37.57136],[-122.4629,37.48216],[-122.45181,37.4728],[-122.43929,37.46374],[-122.38565,37.42463],[-122.33437,37.38706],[-122.28688,37.35234],[-122.27016,37.33999],[-122.22203,37.30441],[-122.16655,37.26323],[-122.13798,37.24203],[-122.0939,37.20928],[-122.03746,37.16728],[-121.9602,37.10987],[-121.93144,37.08842],[-121.84367,37.02299],[-121.8155,37.002],[-121.75896,36.95968],[-121.65006,36.87796],[-121.60413,36.84424],[-121.54984,36.80262],[-121.4843,36.75322],[-121.45403,36.73097]]}
}
