{
  "id": 2048251413,
  "type": "Feature",
  "properties": {
    "geom:area": 0,
    "geom:bbox": "-122.539400,36.727820,-121.306510,37.667370",
    "geom:latitude": 37.20352154447913,
    "geom:longitude": -122.00197350837784,
    "src:alt_label": "swim-takeoff",
    "src:geom": "swim",
    "swim:elevations": [
      302,
      421,
      561,
      995,
      1098,
      1667,
      1833,
      2157,
      2731,
      3123,
      3381,
      3763,
      3830,
      4043,
      4232,
      4551,
      4663,
      5052,
      5270,
      5530,
      5678,
      5941,
      6092,
      6374,
      6487,
      6852,
      6880,
      7133,
      7226,
      7515,
      7560,
      7745
    ],
    "swim:geom": "takeoff",
    "swim:timestamps": [
      1788527543,
      1788527556,
      1788527585,
      1788527635,
      1788527650,
      1788527697,
      1788527709,
      1788527732,
      1788527778,
      1788527816,
      1788527841,
      1788527872,
      1788527881,
      1788527936,
      1788527964,
      1788527997,
      1788528008,
      1788528054,
      1788528084,
      1788528116,
      1788528135,
      1788528169,
      1788528190,
      1788528233,
      1788528247,
      1788528298,
      1788528302,
      1788528346,
      1788528361,
      1788528413,
      1788528422,
      1788528464
    ],
    "wof:geomhash": "9e668180a823413425b85731bb606abb",
    "wof:id": 2048251413,
    "wof:repo": "sfomuseum-data-flights-2026-09"
  },
  "bbox": [
    -122.5394,
    36.72782,
    -121.30651,
    37.66737
  ],
  "geometry": {"type":"LineString","coordinates":[[-122.39516,37.62968],[-122.40629,37.6343],[-122.43261,37.64522],[-122.49162,37.66737],[-122.51274,37.66671],[-122.5394,37.62002],[-122.5318,37.60447],[-122.51738,37.57718],[-122.48962,37.52142],[-122.45507,37.47779],[-122.42111,37.45583],[-122.37765,37.42784],[-122.36518,37.4198],[-122.28025,37.36485],[-122.23413,37.33515],[-122.17772,37.29865],[-122.15823,37.28606],[-122.07941,37.23485],[-122.02482,37.19929],[-121.9676,37.16208],[-121.9331,37.13964],[-121.87177,37.09949],[-121.83293,37.07413],[-121.75312,37.02179],[-121.72715,37.00477],[-121.63111,36.94164],[-121.6235,36.93665],[-121.53878,36.88075],[-121.50984,36.86167],[-121.40893,36.795],[-121.39043,36.78277],[-121.30651,36.72782]]}
}
