{
  "id": 2048232409,
  "type": "Feature",
  "properties": {
    "geom:area": 0,
    "geom:bbox": "-122.752810,37.370670,-122.111760,38.423890",
    "geom:latitude": 37.79154761733642,
    "geom:longitude": -122.46112376654011,
    "src:alt_label": "swim-approach",
    "src:geom": "swim",
    "swim:elevations": [
      7590,
      7405,
      7118,
      6709,
      6527,
      6275,
      5872,
      5392,
      5107,
      4730,
      4653,
      4449,
      3905,
      3557,
      3522,
      3422,
      3353,
      3353,
      3221,
      3112,
      2861,
      2723,
      2492,
      2160,
      1838,
      1831,
      1829,
      1812,
      1603,
      1539,
      1260,
      1219,
      1219,
      1147,
      1008,
      916,
      864,
      770,
      682,
      520,
      429,
      308,
      238,
      80,
      0
    ],
    "swim:geom": "approach",
    "swim:timestamps": [
      1788338541,
      1788338559,
      1788338587,
      1788338628,
      1788338648,
      1788338673,
      1788338716,
      1788338756,
      1788338781,
      1788338815,
      1788338821,
      1788338850,
      1788338906,
      1788338936,
      1788338941,
      1788338981,
      1788339018,
      1788339059,
      1788339085,
      1788339100,
      1788339136,
      1788339160,
      1788339190,
      1788339222,
      1788339261,
      1788339274,
      1788339306,
      1788339349,
      1788339387,
      1788339397,
      1788339441,
      1788339475,
      1788339501,
      1788339534,
      1788339554,
      1788339579,
      1788339608,
      1788339627,
      1788339650,
      1788339681,
      1788339705,
      1788339741,
      1788339762,
      1788339806,
      1788339821
    ],
    "wof:geomhash": "3d4f4104498e934813ac3519ab71359f",
    "wof:id": 2048232409,
    "wof:repo": "sfomuseum-data-flights-2026-09"
  },
  "bbox": [
    -122.75281,
    37.37067,
    -122.11176,
    38.42389
  ],
  "geometry": {"type":"LineString","coordinates":[[-122.56286,38.42389],[-122.58707,38.40023],[-122.6272,38.36111],[-122.68297,38.3068],[-122.71091,38.27959],[-122.74308,38.24625],[-122.75281,38.17308],[-122.73304,38.1045],[-122.72011,38.06194],[-122.70228,38.00182],[-122.69935,37.99196],[-122.68535,37.94335],[-122.62974,37.85818],[-122.58772,37.81868],[-122.57994,37.81145],[-122.5278,37.76278],[-122.48538,37.7225],[-122.43986,37.67959],[-122.4095,37.651],[-122.39282,37.63524],[-122.35597,37.59575],[-122.34161,37.56635],[-122.32194,37.53013],[-122.29968,37.49364],[-122.27262,37.44965],[-122.2698,37.43462],[-122.2817,37.40148],[-122.24911,37.37067],[-122.20193,37.38791],[-122.19186,37.39411],[-122.14552,37.4236],[-122.12536,37.45613],[-122.11176,37.48032],[-122.12276,37.50804],[-122.13816,37.51867],[-122.16251,37.52907],[-122.18949,37.54051],[-122.20736,37.54824],[-122.22933,37.55745],[-122.25789,37.5694],[-122.27713,37.57764],[-122.30213,37.58804],[-122.31744,37.59451],[-122.34848,37.60751],[-122.35984,37.61221]]}
}
