{
  "id": 2048288259,
  "type": "Feature",
  "properties": {
    "geom:area": 0,
    "geom:bbox": "-122.408460,37.627450,-121.257730,38.116680",
    "geom:latitude": 37.8770785186686,
    "geom:longitude": -121.84368520212634,
    "src:alt_label": "swim-takeoff",
    "src:geom": "swim",
    "swim:elevations": [
      238,
      520,
      908,
      1024,
      1241,
      1349,
      1836,
      2175,
      2430,
      2577,
      3132,
      3300,
      3439,
      3497,
      3550,
      3956,
      4079,
      4619,
      4709,
      5228,
      5540,
      5583,
      5926,
      6235,
      6328
    ],
    "swim:geom": "takeoff",
    "swim:timestamps": [
      1788877733,
      1788877758,
      1788877793,
      1788877818,
      1788877852,
      1788877867,
      1788877912,
      1788877942,
      1788877973,
      1788877986,
      1788878034,
      1788878065,
      1788878094,
      1788878111,
      1788878119,
      1788878157,
      1788878171,
      1788878217,
      1788878222,
      1788878273,
      1788878308,
      1788878314,
      1788878355,
      1788878394,
      1788878407
    ],
    "wof:geomhash": "93cbdde5bfb562037051e43fa642b01b",
    "wof:id": 2048288259,
    "wof:repo": "sfomuseum-data-flights-2026-09"
  },
  "bbox": [
    -122.40846,
    37.62745,
    -121.25773,
    38.11668
  ],
  "geometry": {"type":"LineString","coordinates":[[-122.39598,37.62745],[-122.40846,37.64466],[-122.38368,37.66324],[-122.35779,37.67021],[-122.31637,37.68333],[-122.29685,37.68983],[-122.233,37.71105],[-122.18914,37.73067],[-122.14341,37.75369],[-122.12311,37.76262],[-122.04658,37.79457],[-121.99353,37.81659],[-121.93782,37.83951],[-121.90594,37.85265],[-121.88954,37.85938],[-121.80802,37.89281],[-121.77979,37.90437],[-121.67927,37.94549],[-121.66945,37.94952],[-121.55979,37.99425],[-121.48294,38.02547],[-121.4708,38.03043],[-121.37908,38.0676],[-121.2879,38.10447],[-121.25773,38.11668]]}
}
