{
  "id": 2048425465,
  "type": "Feature",
  "properties": {
    "geom:area": 0,
    "geom:bbox": "-126.830278,37.631389,-122.400000,37.847500",
    "geom:latitude": 37.774563602526676,
    "geom:longitude": -124.61118581024841,
    "src:alt_label": "swim-path",
    "src:geom": "swim",
    "swim:altitudes": [
      "006",
      "009",
      "021",
      "024",
      "033",
      "045",
      "054",
      "070",
      "090",
      "101",
      "121",
      "137",
      "152",
      "160C",
      "166",
      "175C",
      "182",
      "189C",
      "196",
      "202C",
      "207",
      "215C",
      "221",
      "227C",
      "231",
      "236C",
      "241",
      "246C",
      "249",
      "254C",
      "259",
      "263C",
      "267",
      "270C",
      "273",
      "276C",
      "281",
      "286C",
      "289",
      "291C",
      "295",
      "303",
      "312",
      "319C",
      "320",
      "320C",
      "320",
      "320C",
      "320C"
    ],
    "swim:geom": "path",
    "swim:speeds": [
      189,
      190,
      190,
      209,
      264,
      300,
      348,
      358,
      363,
      393,
      394,
      398,
      406,
      410,
      418,
      430,
      423,
      420,
      429,
      430,
      436,
      440,
      439,
      440,
      443,
      450,
      452,
      460,
      459,
      460,
      465,
      470,
      468,
      480,
      479,
      490,
      483,
      490,
      483,
      490,
      488,
      491,
      487,
      485,
      480,
      483,
      480,
      482,
      481
    ],
    "swim:timestamps": [
      1790236523,
      1790236541,
      1790236559,
      1790236602,
      1790236662,
      1790236722,
      1790236782,
      1790236842,
      1790236902,
      1790236962,
      1790237022,
      1790237082,
      1790237142,
      1790237173,
      1790237202,
      1790237233,
      1790237262,
      1790237293,
      1790237322,
      1790237353,
      1790237382,
      1790237413,
      1790237442,
      1790237473,
      1790237502,
      1790237533,
      1790237562,
      1790237594,
      1790237622,
      1790237653,
      1790237682,
      1790237714,
      1790237742,
      1790237774,
      1790237802,
      1790237834,
      1790237862,
      1790237894,
      1790237922,
      1790237954,
      1790237982,
      1790238042,
      1790238102,
      1790238162,
      1790238194,
      1790238222,
      1790238255,
      1790238282,
      1790238342
    ],
    "wof:geomhash": "ede1762f30390df3e29e2cdd08ce8c4b",
    "wof:id": 2048425465,
    "wof:repo": "sfomuseum-data-flights-2026-09"
  },
  "bbox": [
    -126.83027777777778,
    37.63138888888889,
    -122.4,
    37.847500000000004
  ],
  "geometry": {"type":"LineString","coordinates":[[-122.4,37.63333333333333],[-122.40694444444445,37.63138888888889],[-122.43333333333334,37.65],[-122.46694444444445,37.65861111111111],[-122.54972222222221,37.67805555555555],[-122.65138888888889,37.68388888888889],[-122.76888888888888,37.691111111111105],[-122.89500000000001,37.698611111111106],[-123.02416666666666,37.70611111111111],[-123.1613888888889,37.71388888888889],[-123.29888888888888,37.72166666666667],[-123.44,37.72916666666667],[-123.58166666666666,37.736666666666665],[-123.65,37.733333333333334],[-123.7275,37.74444444444445],[-123.8,37.733333333333334],[-123.87694444444443,37.75194444444445],[-123.95,37.75],[-124.0286111111111,37.75944444444445],[-124.1,37.75],[-124.17861111111111,37.766666666666666],[-124.26666666666667,37.766666666666666],[-124.33555555555554,37.77388888888889],[-124.41666666666667,37.766666666666666],[-124.49,37.78111111111111],[-124.56666666666666,37.78333333333333],[-124.65083333333334,37.78805555555555],[-124.73333333333333,37.78333333333333],[-124.8111111111111,37.794999999999995],[-124.9,37.78333333333333],[-124.97638888888889,37.801944444444445],[-125.06666666666666,37.8],[-125.13833333333334,37.80833333333333],[-125.23333333333333,37.8],[-125.30666666666666,37.81472222222222],[-125.4,37.81666666666667],[-125.47583333333334,37.821111111111115],[-125.56666666666666,37.81666666666667],[-125.64722222222223,37.827222222222225],[-125.73333333333333,37.81666666666667],[-125.81916666666666,37.83305555555556],[-125.99194444444444,37.836666666666666],[-126.16083333333334,37.83888888888889],[-126.32527777777777,37.84138888888889],[-126.41666666666667,37.833333333333336],[-126.49305555555556,37.843611111111116],[-126.58333333333333,37.833333333333336],[-126.66333333333334,37.845555555555556],[-126.83027777777778,37.847500000000004]]}
}
