{
  "id": 2048306405,
  "type": "Feature",
  "properties": {
    "geom:area": 0,
    "geom:bbox": "-122.362730,36.725990,-121.881210,37.613900",
    "geom:latitude": 37.225650701334374,
    "geom:longitude": -122.11369494674068,
    "src:alt_label": "swim-approach",
    "src:geom": "swim",
    "swim:elevations": [
      5908,
      5495,
      5063,
      4765,
      4669,
      4516,
      4216,
      3999,
      3564,
      3334,
      3156,
      2945,
      2895,
      2577,
      2476,
      2396,
      2091,
      1973,
      1829,
      1829,
      1734,
      1458,
      1248,
      1215,
      1071,
      917,
      943,
      851,
      712,
      554,
      499,
      337,
      220,
      187,
      89,
      178
    ],
    "swim:geom": "approach",
    "swim:timestamps": [
      1789164075,
      1789164110,
      1789164147,
      1789164177,
      1789164189,
      1789164212,
      1789164254,
      1789164285,
      1789164327,
      1789164349,
      1789164375,
      1789164416,
      1789164428,
      1789164476,
      1789164500,
      1789164516,
      1789164569,
      1789164589,
      1789164621,
      1789164656,
      1789164680,
      1789164710,
      1789164737,
      1789164752,
      1789164787,
      1789164828,
      1789164864,
      1789164888,
      1789164916,
      1789164951,
      1789164963,
      1789165012,
      1789165045,
      1789165054,
      1789165083,
      1789165113
    ],
    "wof:geomhash": "f7a3a512cedb18f9d7fe3dd05c0a2519",
    "wof:id": 2048306405,
    "wof:repo": "sfomuseum-data-flights-2026-09"
  },
  "bbox": [
    -122.36273,
    36.72599,
    -121.88121,
    37.6139
  ],
  "geometry": {"type":"LineString","coordinates":[[-121.88121,36.72599],[-121.90534,36.78192],[-121.92275,36.84433],[-121.9358,36.89202],[-121.94088,36.91053],[-121.95032,36.94382],[-121.97179,37.00012],[-121.98672,37.03856],[-122.0075,37.08923],[-122.01747,37.11683],[-122.04098,37.14367],[-122.08486,37.17753],[-122.09709,37.18697],[-122.14655,37.2246],[-122.17117,37.24316],[-122.18693,37.25511],[-122.23939,37.29479],[-122.25922,37.30987],[-122.28592,37.33669],[-122.26904,37.3699],[-122.23928,37.38173],[-122.20849,37.40258],[-122.1924,37.42868],[-122.18351,37.44302],[-122.16348,37.47488],[-122.15013,37.50984],[-122.17206,37.53232],[-122.19304,37.54211],[-122.2174,37.55251],[-122.24772,37.56526],[-122.25793,37.56952],[-122.2926,37.5841],[-122.31541,37.5937],[-122.32167,37.59632],[-122.34192,37.60477],[-122.36273,37.6139]]}
}
