{
  "id": 2048435443,
  "type": "Feature",
  "properties": {
    "geom:area": 0,
    "geom:bbox": "-119.479444,38.417778,-87.938611,42.563333",
    "geom:latitude": 41.038090187762904,
    "geom:longitude": -103.65747258763335,
    "src:alt_label": "swim-path",
    "src:geom": "swim",
    "swim:altitudes": [
      "316",
      "317",
      "327",
      "327",
      "330C",
      "330C",
      "330C",
      "330C",
      "330C",
      "331C",
      "330C",
      "330C",
      "330C",
      "330C",
      "330C",
      "331C",
      "330C",
      "330C",
      "330C",
      "330C",
      "330C",
      "330C",
      "330C",
      "330C",
      "330C",
      "330C",
      "330C",
      "330C",
      "330C",
      "330C",
      "330C",
      "330C",
      "330C",
      "330C",
      "330C",
      "330C",
      "330C",
      "330C",
      "330C",
      "330C",
      "330C",
      "330C",
      "330C",
      "330C",
      "330C",
      "330C",
      "330C",
      "331C",
      "330C",
      "330C",
      "330C",
      "330C",
      "330C",
      "330C",
      "330C",
      "330C",
      "330C",
      "331C",
      "330C",
      "330C",
      "330C",
      "330C",
      "330",
      "334",
      "337",
      "344",
      "347",
      "350C",
      "350C",
      "350C",
      "350C",
      "350C",
      "350C",
      "350C",
      "350C",
      "350C",
      "350C",
      "350C",
      "350C",
      "350C",
      "350C",
      "350C",
      "350C",
      "350C",
      "350C",
      "350C",
      "350C",
      "350C",
      "350C",
      "350C",
      "350C",
      "350C",
      "350C",
      "350C",
      "350C",
      "350C",
      "350C",
      "350C",
      "350C",
      "350C",
      "350C",
      "350C",
      "350C",
      "350C",
      "350C",
      "350C",
      "350C",
      "350C",
      "350C",
      "350C",
      "350C",
      "350C",
      "350C",
      "350C",
      "350C",
      "350C",
      "350C",
      "350C",
      "350C",
      "350C",
      "350C",
      "350C",
      "350C",
      "350C",
      "350C",
      "350C",
      "350C",
      "350C",
      "350C",
      "350C",
      "350C",
      "350C",
      "351C",
      "350C",
      "350C",
      "349C",
      "350C",
      "349C",
      "350C",
      "349C",
      "350C",
      "349C",
      "350C",
      "350C",
      "350C",
      "350C",
      "350C",
      "350C",
      "350C",
      "350C",
      "350C",
      "350C",
      "350C",
      "350C",
      "350C",
      "350C",
      "350C",
      "350C",
      "350C",
      "350C",
      "350C",
      "350C",
      "350C",
      "350C",
      "350C",
      "350C",
      "350C",
      "350C",
      "350C",
      "350C",
      "343",
      "341",
      "334",
      "332C",
      "330C",
      "330C",
      "330C",
      "330C",
      "330C",
      "330C",
      "330C",
      "330C",
      "330C",
      "330C",
      "330C",
      "330C",
      "330C",
      "330C",
      "330C",
      "330C",
      "330C",
      "331C",
      "330C",
      "330C",
      "330C",
      "330C",
      "330C",
      "330C",
      "330C",
      "330C",
      "330C",
      "330C",
      "330C",
      "330C",
      "330C",
      "330C",
      "330C",
      "330C",
      "330C",
      "330C",
      "330C",
      "330C",
      "330C",
      "330C",
      "330C",
      "330C",
      "330C",
      "330C",
      "330C",
      "330C",
      "330C",
      "330C",
      "330C",
      "330C",
      "330C",
      "330C",
      "330C",
      "330C",
      "330C",
      "330C",
      "330C",
      "330",
      "330",
      "330",
      "330",
      "330",
      "330",
      "330",
      "330",
      "330",
      "330",
      "321",
      "311",
      "286",
      "266",
      "248",
      "227",
      "209",
      "192",
      "175",
      "163",
      "154",
      "139",
      "136",
      "125",
      "123",
      "113",
      "111",
      "110",
      "110",
      "105",
      "102",
      "088",
      "084",
      "070",
      "058",
      "056",
      "050",
      "050",
      "050",
      "050",
      "046",
      "043",
      "036",
      "033",
      "024",
      "023",
      "016",
      "015",
      "009",
      "009"
    ],
    "swim:geom": "path",
    "swim:speeds": [
      509,
      510,
      511,
      512,
      509,
      502,
      504,
      501,
      500,
      503,
      501,
      501,
      502,
      502,
      504,
      504,
      505,
      505,
      505,
      505,
      505,
      506,
      506,
      506,
      506,
      506,
      506,
      507,
      507,
      508,
      508,
      508,
      509,
      509,
      509,
      508,
      508,
      507,
      506,
      505,
      502,
      500,
      497,
      495,
      494,
      493,
      493,
      493,
      492,
      491,
      489,
      487,
      485,
      484,
      483,
      483,
      484,
      484,
      484,
      483,
      483,
      483,
      483,
      482,
      483,
      483,
      482,
      482,
      482,
      483,
      483,
      483,
      483,
      483,
      483,
      484,
      484,
      484,
      484,
      484,
      484,
      484,
      484,
      483,
      483,
      483,
      482,
      482,
      481,
      481,
      481,
      481,
      481,
      481,
      481,
      481,
      481,
      481,
      481,
      481,
      481,
      481,
      482,
      481,
      481,
      481,
      481,
      482,
      482,
      481,
      480,
      478,
      478,
      478,
      482,
      483,
      481,
      477,
      473,
      477,
      483,
      485,
      480,
      474,
      479,
      482,
      483,
      482,
      480,
      480,
      481,
      483,
      486,
      485,
      487,
      486,
      487,
      486,
      486,
      486,
      487,
      486,
      489,
      487,
      493,
      491,
      495,
      492,
      497,
      493,
      500,
      503,
      501,
      497,
      502,
      498,
      491,
      490,
      486,
      487,
      488,
      489,
      482,
      481,
      480,
      480,
      478,
      477,
      474,
      473,
      473,
      473,
      473,
      472,
      472,
      473,
      474,
      474,
      474,
      476,
      477,
      478,
      470,
      468,
      468,
      470,
      472,
      472,
      469,
      468,
      469,
      470,
      469,
      468,
      467,
      466,
      472,
      473,
      480,
      474,
      478,
      475,
      477,
      476,
      476,
      475,
      474,
      473,
      471,
      469,
      468,
      468,
      467,
      466,
      466,
      465,
      466,
      466,
      467,
      469,
      469,
      479,
      481,
      482,
      483,
      484,
      484,
      486,
      486,
      488,
      488,
      490,
      490,
      491,
      491,
      491,
      490,
      490,
      489,
      490,
      490,
      491,
      493,
      492,
      469,
      444,
      426,
      403,
      394,
      387,
      376,
      374,
      373,
      371,
      352,
      343,
      288,
      291,
      290,
      290,
      287,
      289,
      285,
      288,
      280,
      272,
      274,
      265,
      268,
      226,
      228,
      219,
      218,
      206,
      204,
      175,
      175,
      130,
      134,
      129,
      132
    ],
    "swim:timestamps": [
      1790403980,
      1790403993,
      1790404040,
      1790404053,
      1790404113,
      1790404160,
      1790404173,
      1790404220,
      1790404233,
      1790404340,
      1790404400,
      1790404413,
      1790404460,
      1790404473,
      1790404520,
      1790404533,
      1790404580,
      1790404593,
      1790404640,
      1790404653,
      1790404713,
      1790404773,
      1790404820,
      1790404833,
      1790404881,
      1790404894,
      1790404941,
      1790404954,
      1790405001,
      1790405014,
      1790405061,
      1790405074,
      1790405121,
      1790405134,
      1790405194,
      1790405254,
      1790405314,
      1790405374,
      1790405434,
      1790405494,
      1790405554,
      1790405614,
      1790405674,
      1790405734,
      1790405794,
      1790405854,
      1790405914,
      1790405974,
      1790406034,
      1790406094,
      1790406155,
      1790406215,
      1790406275,
      1790406335,
      1790406395,
      1790406455,
      1790406515,
      1790406575,
      1790406635,
      1790406695,
      1790406725,
      1790406755,
      1790406785,
      1790406815,
      1790406845,
      1790406875,
      1790406905,
      1790406935,
      1790406965,
      1790406995,
      1790407025,
      1790407055,
      1790407085,
      1790407115,
      1790407145,
      1790407175,
      1790407205,
      1790407235,
      1790407266,
      1790407295,
      1790407326,
      1790407355,
      1790407386,
      1790407415,
      1790407446,
      1790407475,
      1790407506,
      1790407536,
      1790407566,
      1790407596,
      1790407626,
      1790407656,
      1790407686,
      1790407716,
      1790407746,
      1790407776,
      1790407806,
      1790407836,
      1790407866,
      1790407896,
      1790407926,
      1790407956,
      1790407986,
      1790408016,
      1790408046,
      1790408076,
      1790408106,
      1790408286,
      1790408406,
      1790408526,
      1790408646,
      1790408706,
      1790408767,
      1790408827,
      1790408887,
      1790408947,
      1790409007,
      1790409067,
      1790409127,
      1790409187,
      1790409247,
      1790409307,
      1790409367,
      1790409427,
      1790409487,
      1790409547,
      1790409607,
      1790409667,
      1790409727,
      1790409787,
      1790409847,
      1790409907,
      1790409967,
      1790409988,
      1790410027,
      1790410048,
      1790410087,
      1790410108,
      1790410147,
      1790410168,
      1790410207,
      1790410228,
      1790410267,
      1790410288,
      1790410327,
      1790410348,
      1790410388,
      1790410408,
      1790410448,
      1790410468,
      1790410508,
      1790410528,
      1790410568,
      1790410588,
      1790410628,
      1790410648,
      1790410688,
      1790410708,
      1790410748,
      1790410768,
      1790410808,
      1790410828,
      1790410868,
      1790410888,
      1790410928,
      1790410949,
      1790410988,
      1790411009,
      1790411048,
      1790411069,
      1790411108,
      1790411129,
      1790411168,
      1790411189,
      1790411228,
      1790411249,
      1790411288,
      1790411309,
      1790411369,
      1790411429,
      1790411489,
      1790411549,
      1790411609,
      1790411669,
      1790411729,
      1790411789,
      1790411849,
      1790411909,
      1790411969,
      1790412029,
      1790412089,
      1790412149,
      1790412209,
      1790412269,
      1790412329,
      1790412389,
      1790412449,
      1790412509,
      1790412556,
      1790412569,
      1790412616,
      1790412629,
      1790412678,
      1790412689,
      1790412738,
      1790412749,
      1790412798,
      1790412810,
      1790412870,
      1790412930,
      1790412978,
      1790412990,
      1790413039,
      1790413050,
      1790413096,
      1790413110,
      1790413156,
      1790413170,
      1790413218,
      1790413278,
      1790413290,
      1790413336,
      1790413350,
      1790413396,
      1790413410,
      1790413458,
      1790413470,
      1790413516,
      1790413530,
      1790413576,
      1790413590,
      1790413637,
      1790413650,
      1790413710,
      1790413757,
      1790413770,
      1790413816,
      1790413830,
      1790413876,
      1790413890,
      1790413936,
      1790413999,
      1790414057,
      1790414119,
      1790414178,
      1790414239,
      1790414299,
      1790414356,
      1790414419,
      1790414478,
      1790414502,
      1790414539,
      1790414574,
      1790414599,
      1790414634,
      1790414659,
      1790414694,
      1790414719,
      1790414754,
      1790414779,
      1790414814,
      1790414837,
      1790414881,
      1790414897,
      1790414958,
      1790415007,
      1790415019,
      1790415061,
      1790415080,
      1790415121,
      1790415140,
      1790415181,
      1790415199,
      1790415235,
      1790415257,
      1790415307,
      1790415318,
      1790415367,
      1790415378,
      1790415427,
      1790415438
    ],
    "wof:geomhash": "587babca45f2285150aaf391077c3010",
    "wof:id": 2048435443,
    "wof:repo": "sfomuseum-data-flights-2026-09"
  },
  "bbox": [
    -119.47944444444444,
    38.41777777777777,
    -87.93861111111111,
    42.56333333333333
  ],
  "geometry": {"type":"LineString","coordinates":[[-119.47944444444444,38.41777777777777],[-119.44361111111111,38.42111111111111],[-119.30138888888888,38.44083333333333],[-119.26666666666667,38.44444444444444],[-119.09055555555555,38.46611111111111],[-118.91777777777779,38.48916666666667],[-118.91638888888889,38.488055555555555],[-118.74444444444444,38.510555555555555],[-118.74361111111111,38.51027777777778],[-118.39222222222223,38.55305555555555],[-118.21861111111112,38.573888888888895],[-118.20472222222223,38.57555555555556],[-118.06138888888889,38.592222222222226],[-118.02805555555555,38.596111111111114],[-117.88277777777778,38.613055555555555],[-117.84944444444444,38.61694444444444],[-117.70527777777778,38.63333333333333],[-117.67027777777778,38.6375],[-117.52666666666667,38.65361111111111],[-117.49138888888889,38.6575],[-117.31194444444444,38.677499999999995],[-117.13444444444445,38.70722222222223],[-116.99111111111111,38.731388888888894],[-116.95944444444444,38.73694444444445],[-116.81416666666667,38.76111111111111],[-116.78222222222222,38.766666666666666],[-116.63555555555556,38.79111111111111],[-116.60333333333332,38.796388888888885],[-116.4588888888889,38.82027777777778],[-116.42416666666666,38.825833333333335],[-116.27944444444444,38.849444444444444],[-116.24722222222222,38.85472222222222],[-116.12249999999999,38.875],[-116.06833333333333,38.88361111111111],[-115.88972222222223,38.9125],[-115.71222222222222,38.94027777777777],[-115.53555555555555,38.96805555555556],[-115.35833333333333,38.995555555555555],[-115.17222222222223,39.02388888888889],[-114.99638888888889,39.050555555555555],[-114.82,39.07694444444445],[-114.64416666666668,39.10305555555556],[-114.47166666666666,39.12833333333333],[-114.29722222222222,39.153888888888886],[-114.12555555555555,39.17833333333333],[-113.95333333333333,39.20305555555556],[-113.7786111111111,39.2275],[-113.60527777777777,39.25138888888889],[-113.43,39.275555555555556],[-113.25833333333334,39.29888888888889],[-113.08638888888889,39.32694444444445],[-112.91777777777779,39.35444444444445],[-112.74916666666667,39.38166666666667],[-112.58916666666666,39.4075],[-112.41944444444445,39.43444444444444],[-112.25083333333333,39.46083333333333],[-112.08166666666666,39.487500000000004],[-111.91777777777779,39.52972222222222],[-111.75805555555556,39.58694444444445],[-111.60166666666666,39.643055555555556],[-111.53083333333333,39.66833333333333],[-111.44500000000001,39.69888888888889],[-111.37305555555555,39.72416666666667],[-111.28805555555556,39.75416666666667],[-111.21611111111112,39.779444444444444],[-111.11972222222222,39.81333333333333],[-111.05666666666666,39.83555555555556],[-110.96000000000001,39.86944444444445],[-110.89666666666668,39.891666666666666],[-110.80111111111111,39.92472222222222],[-110.73833333333333,39.946666666666665],[-110.64111111111112,39.98027777777778],[-110.58027777777778,40.00111111111111],[-110.48277777777778,40.03472222222222],[-110.41805555555555,40.05694444444444],[-110.32194444444444,40.08972222222222],[-110.25916666666667,40.111111111111114],[-110.16222222222223,40.14416666666666],[-110.09805555555555,40.16583333333333],[-110.00055555555555,40.19888888888889],[-109.93833333333333,40.219722222222224],[-109.83777777777777,40.25055555555556],[-109.77083333333333,40.265277777777776],[-109.66972222222223,40.286944444444444],[-109.60055555555554,40.30166666666666],[-109.49972222222222,40.323055555555555],[-109.43333333333334,40.33694444444445],[-109.32944444444443,40.35861111111111],[-109.2625,40.37277777777778],[-109.16222222222223,40.39361111111111],[-109.09277777777777,40.407777777777774],[-108.9925,40.42861111111111],[-108.92361111111111,40.44277777777778],[-108.83916666666666,40.46],[-108.755,40.47694444444445],[-108.67972222222222,40.492222222222225],[-108.585,40.51138888888889],[-108.51194444444444,40.52611111111111],[-108.41250000000001,40.54611111111111],[-108.34305555555555,40.559999999999995],[-108.24361111111111,40.57972222222222],[-108.17305555555556,40.593611111111116],[-108.08583333333333,40.61083333333333],[-108.00333333333333,40.62694444444445],[-107.91666666666667,40.64388888888889],[-107.81083333333333,40.66444444444444],[-107.71916666666667,40.68222222222222],[-107.21805555555555,40.77777777777778],[-106.86861111111111,40.84305555555556],[-106.535,40.90416666666667],[-106.19416666666667,40.96555555555556],[-106.02111111111111,40.99611111111111],[-105.84972222222221,41.029444444444444],[-105.67805555555556,41.06305555555555],[-105.50638888888889,41.09638888888889],[-105.335,41.12916666666667],[-105.165,41.16138888888889],[-104.99638888888889,41.19333333333333],[-104.82722222222222,41.225],[-104.65694444444445,41.256388888888885],[-104.48416666666667,41.288333333333334],[-104.31,41.32],[-104.1388888888889,41.350833333333334],[-103.96972222222223,41.38111111111111],[-103.80027777777778,41.410555555555554],[-103.6261111111111,41.440555555555555],[-103.45194444444445,41.47027777777778],[-103.27666666666667,41.499722222222225],[-103.10555555555555,41.52833333333333],[-102.93333333333334,41.55694444444444],[-102.76,41.58527777777778],[-102.585,41.61361111111111],[-102.39694444444446,41.64388888888889],[-102.32388888888889,41.661944444444444],[-102.2213888888889,41.67194444444444],[-102.14694444444446,41.69166666666666],[-102.04222222222222,41.7],[-101.96944444444445,41.71805555555556],[-101.86694444444444,41.727222222222224],[-101.79277777777777,41.74444444444445],[-101.6875,41.755],[-101.61472222222221,41.77194444444444],[-101.51,41.78194444444444],[-101.43416666666667,41.79861111111111],[-101.32805555555555,41.809444444444445],[-101.25333333333333,41.82527777777778],[-101.1463888888889,41.83638888888889],[-101.07305555555556,41.846944444444446],[-100.96083333333334,41.86388888888889],[-100.89111111111112,41.87416666666667],[-100.77638888888889,41.89055555555556],[-100.705,41.901111111111106],[-100.5925,41.91694444444444],[-100.52333333333333,41.92666666666666],[-100.40916666666668,41.94305555555555],[-100.37694444444443,41.9475],[-100.22888888888889,41.968333333333334],[-100.19194444444445,41.973333333333336],[-100.05277777777778,41.99277777777778],[-100.01472222222222,41.99805555555556],[-99.87305555555555,42.02333333333333],[-99.835,42.030277777777776],[-99.69861111111112,42.05472222222222],[-99.66277777777778,42.06111111111111],[-99.52333333333333,42.086111111111116],[-99.48722222222223,42.09277777777778],[-99.34861111111111,42.117222222222225],[-99.31277777777777,42.12361111111111],[-99.17611111111111,42.1475],[-99.14055555555557,42.153888888888886],[-99.005,42.177499999999995],[-98.96888888888888,42.183611111111105],[-98.83111111111111,42.2075],[-98.79555555555555,42.21361111111111],[-98.65972222222223,42.236666666666665],[-98.62388888888889,42.24277777777778],[-98.48416666666667,42.26638888888889],[-98.44833333333334,42.2725],[-98.27277777777778,42.301944444444445],[-98.09972222222221,42.330555555555556],[-97.9225,42.359722222222224],[-97.74194444444444,42.388888888888886],[-97.56861111111111,42.41694444444444],[-97.39944444444446,42.44361111111111],[-97.2275,42.47083333333334],[-97.05416666666666,42.49777777777778],[-96.8775,42.525],[-96.70138888888889,42.54222222222222],[-96.52694444444444,42.54527777777778],[-96.34916666666666,42.54861111111111],[-96.17444444444445,42.551111111111105],[-95.995,42.55361111111111],[-95.82083333333333,42.55583333333333],[-95.64277777777778,42.55777777777777],[-95.46916666666667,42.559444444444445],[-95.29166666666667,42.56083333333333],[-95.11444444444444,42.56166666666666],[-94.935,42.5625],[-94.81722222222221,42.562777777777775],[-94.75583333333333,42.56305555555555],[-94.63694444444445,42.56305555555555],[-94.57666666666667,42.56333333333333],[-94.46138888888889,42.56333333333333],[-94.38777777777779,42.56333333333333],[-94.28111111111112,42.56305555555555],[-94.21027777777778,42.56305555555555],[-94.10499999999999,42.562777777777775],[-94.03333333333333,42.56222222222222],[-93.85527777777777,42.56083333333333],[-93.68166666666667,42.55833333333333],[-93.57722222222222,42.55694444444444],[-93.5075,42.55583333333333],[-93.40361111111112,42.55416666666667],[-93.33416666666666,42.55305555555555],[-93.22694444444444,42.551111111111105],[-93.15722222222223,42.55],[-93.0525,42.54805555555556],[-92.9825,42.54666666666667],[-92.87722222222222,42.54472222222222],[-92.70083333333334,42.54083333333333],[-92.62805555555555,42.53916666666667],[-92.52194444444444,42.53666666666666],[-92.44805555555556,42.535],[-92.34055555555555,42.532222222222224],[-92.26638888888888,42.530277777777776],[-92.15722222222223,42.527499999999996],[-92.08416666666666,42.525277777777774],[-91.94083333333333,42.521388888888886],[-91.90361111111112,42.52027777777778],[-91.7575,42.51583333333333],[-91.72194444444445,42.514722222222225],[-91.5775,42.51027777777778],[-91.54055555555556,42.50888888888889],[-91.35555555555555,42.50277777777778],[-91.21055555555556,42.49777777777778],[-91.17361111111111,42.49666666666667],[-91.03083333333333,42.49138888888889],[-90.99111111111111,42.49],[-90.8461111111111,42.48444444444444],[-90.80916666666667,42.48305555555556],[-90.66305555555556,42.477222222222224],[-90.4786111111111,42.469722222222224],[-90.29388888888889,42.46194444444445],[-90.10722222222222,42.453611111111115],[-89.93138888888889,42.44583333333333],[-89.77,42.43805555555555],[-89.61027777777777,42.430277777777775],[-89.45722222222223,42.4225],[-89.31222222222222,42.415277777777774],[-89.16527777777779,42.4075],[-89.08333333333333,42.4],[-89.0261111111111,42.4],[-88.91666666666667,42.4],[-88.88861111111112,42.39222222222222],[-88.78333333333333,42.38333333333333],[-88.75694444444444,42.385],[-88.66666666666667,42.38333333333333],[-88.64666666666668,42.37722222222222],[-88.56666666666666,42.36666666666667],[-88.53916666666666,42.363055555555555],[-88.45,42.35],[-88.435,42.34805555555556],[-88.38333333333334,42.28333333333333],[-88.37805555555555,42.27222222222222],[-88.34277777777777,42.19944444444444],[-88.31666666666666,42.13333333333333],[-88.30833333333334,42.12694444444445],[-88.28333333333333,42.06666666666667],[-88.27555555555556,42.05777777777777],[-88.25,42.016666666666666],[-88.24583333333334,41.99527777777778],[-88.2,41.96666666666667],[-88.1825,41.96555555555556],[-88.13333333333334,41.96666666666667],[-88.10555555555555,41.96527777777778],[-88.05,41.96666666666667],[-88.03805555555556,41.96555555555556],[-88,41.96666666666667],[-87.9863888888889,41.96555555555556],[-87.95,41.96666666666667],[-87.93861111111111,41.96555555555556]]}
}
