{
  "id": 2048435443,
  "type": "Feature",
  "properties": {
    "geom:area": 0,
    "geom:bbox": "-122.397480,37.623440,-121.249870,38.164910",
    "geom:latitude": 37.989518262507474,
    "geom:longitude": -121.9389886298858,
    "src:alt_label": "swim-takeoff",
    "src:geom": "swim",
    "swim:elevations": [
      152,
      725,
      1110,
      1339,
      1360,
      1424,
      1754,
      2065,
      2336,
      2890,
      3372,
      3536,
      3649,
      3795,
      4383,
      4707,
      5047,
      5682,
      5961,
      6226,
      6294,
      6356,
      6587,
      6756,
      6927
    ],
    "swim:geom": "takeoff",
    "swim:timestamps": [
      1790377347,
      1790377390,
      1790377430,
      1790377467,
      1790377470,
      1790377480,
      1790377527,
      1790377554,
      1790377579,
      1790377620,
      1790377674,
      1790377707,
      1790377732,
      1790377755,
      1790377816,
      1790377861,
      1790377895,
      1790377967,
      1790378005,
      1790378038,
      1790378047,
      1790378057,
      1790378087,
      1790378113,
      1790378143
    ],
    "wof:geomhash": "8bff16486d2cdc434e097adc2d960852",
    "wof:id": 2048435443,
    "wof:repo": "sfomuseum-data-flights-2026-09"
  },
  "bbox": [
    -122.39748,
    37.62344,
    -121.24987,
    38.16491
  ],
  "geometry": {"type":"LineString","coordinates":[[-122.38653,37.62344],[-122.39748,37.65207],[-122.37364,37.67955],[-122.34882,37.70867],[-122.34669,37.71131],[-122.33965,37.72085],[-122.34879,37.77503],[-122.36681,37.80737],[-122.38268,37.83872],[-122.38514,37.89414],[-122.3329,37.9514],[-122.26994,37.96439],[-122.21985,37.97428],[-122.17069,37.98399],[-122.03727,38.01032],[-121.93378,38.03088],[-121.85415,38.04676],[-121.68484,38.08023],[-121.59101,38.09861],[-121.51032,38.11439],[-121.48826,38.11868],[-121.46542,38.12315],[-121.39035,38.13774],[-121.32478,38.15046],[-121.24987,38.16491]]}
}
