{
  "id": 2048450029,
  "type": "Feature",
  "properties": {
    "geom:area": 0,
    "geom:bbox": "-122.510833,37.626944,-87.329444,46.807500",
    "geom:latitude": 44.219078425416974,
    "geom:longitude": -105.52640294322435,
    "src:alt_label": "swim-path",
    "src:geom": "swim",
    "swim:altitudes": [
      "007",
      "023",
      "036",
      "055",
      "075",
      "095",
      "109",
      "131",
      "148",
      "162",
      "176",
      "198",
      "212",
      "224",
      "236",
      "247",
      "257",
      "262",
      "267",
      "279",
      "291",
      "305",
      "313",
      "316",
      "322",
      "325",
      "330",
      "330",
      "332",
      "332",
      "335",
      "337",
      "339",
      "342",
      "345",
      "347",
      "349C",
      "350C",
      "350C",
      "350C",
      "350C",
      "350C",
      "350C",
      "350C",
      "350C",
      "350C",
      "350C",
      "350C",
      "350C",
      "350C",
      "350C",
      "350C",
      "350C",
      "350C",
      "350C",
      "350C",
      "350C",
      "350C",
      "350C",
      "350C",
      "350C",
      "350C",
      "350C",
      "350C",
      "350C",
      "350C",
      "350C",
      "350C",
      "350C",
      "350C",
      "350C",
      "350C",
      "350C",
      "350C",
      "350C",
      "350C",
      "350C",
      "350C",
      "350C",
      "350C",
      "350C",
      "350C",
      "350C",
      "350C",
      "350C",
      "350C",
      "350C",
      "350C",
      "350C",
      "350C",
      "350C",
      "350C",
      "350C",
      "350C",
      "350C",
      "350C",
      "350C",
      "350C",
      "350C",
      "350C",
      "350C",
      "350C",
      "350C",
      "350C",
      "350C",
      "350C",
      "350C",
      "350C",
      "350C",
      "350C",
      "350C",
      "350C",
      "350C",
      "350C",
      "350C",
      "350C",
      "350C",
      "350C",
      "350C",
      "350C",
      "350C",
      "350C",
      "350C",
      "350C",
      "350C",
      "350C",
      "350C",
      "350C",
      "350C",
      "350C",
      "350C",
      "350C",
      "350C",
      "350C",
      "350C",
      "350C",
      "350C",
      "350C",
      "350C",
      "350C",
      "350C",
      "350C",
      "350C",
      "350C",
      "350C",
      "350C",
      "350C",
      "350C",
      "350C",
      "350C",
      "350C",
      "350C",
      "350C",
      "350C",
      "350C",
      "350C",
      "350C",
      "350C",
      "350C",
      "350C",
      "350C",
      "350C",
      "350C",
      "350C",
      "350C",
      "350C",
      "350C",
      "350C",
      "350C",
      "350C",
      "350C",
      "350C",
      "350C",
      "350C",
      "350C",
      "350C",
      "350C",
      "350C",
      "350C",
      "350C",
      "350C",
      "350C",
      "350C",
      "350C",
      "350C",
      "350C",
      "350C",
      "350C",
      "350C",
      "350C",
      "350C",
      "350C",
      "350C",
      "350C",
      "350C",
      "350C",
      "350C",
      "350C",
      "350C",
      "350C",
      "350C",
      "350C",
      "350C",
      "350C",
      "350C",
      "350C",
      "350C",
      "350C",
      "350C",
      "350C",
      "350C",
      "350C",
      "350C",
      "350C",
      "350C",
      "350C",
      "350C",
      "350C",
      "350C",
      "350C",
      "350C",
      "350C",
      "350C",
      "350C",
      "350C",
      "350C"
    ],
    "swim:geom": "path",
    "swim:speeds": [
      154,
      177,
      230,
      269,
      287,
      298,
      327,
      336,
      331,
      346,
      366,
      370,
      379,
      400,
      403,
      409,
      417,
      439,
      463,
      476,
      475,
      470,
      466,
      464,
      466,
      465,
      465,
      464,
      469,
      467,
      475,
      477,
      480,
      478,
      480,
      479,
      480,
      479,
      481,
      482,
      494,
      497,
      502,
      505,
      512,
      514,
      523,
      523,
      523,
      523,
      522,
      522,
      521,
      521,
      520,
      520,
      519,
      519,
      517,
      517,
      517,
      518,
      518,
      519,
      520,
      521,
      522,
      523,
      523,
      523,
      522,
      522,
      521,
      521,
      519,
      518,
      516,
      514,
      513,
      512,
      511,
      511,
      512,
      512,
      513,
      513,
      512,
      507,
      506,
      506,
      505,
      505,
      505,
      507,
      508,
      509,
      509,
      509,
      507,
      503,
      504,
      506,
      505,
      506,
      509,
      508,
      507,
      505,
      504,
      504,
      503,
      500,
      499,
      498,
      502,
      503,
      503,
      503,
      503,
      502,
      501,
      502,
      504,
      509,
      510,
      509,
      509,
      508,
      510,
      511,
      510,
      510,
      511,
      510,
      509,
      512,
      514,
      522,
      509,
      509,
      509,
      509,
      509,
      509,
      509,
      509,
      510,
      511,
      511,
      511,
      512,
      511,
      510,
      510,
      510,
      510,
      511,
      511,
      510,
      509,
      509,
      508,
      509,
      510,
      512,
      513,
      512,
      512,
      511,
      510,
      509,
      508,
      507,
      506,
      505,
      504,
      503,
      500,
      494,
      494,
      495,
      495,
      493,
      494,
      492,
      489,
      489,
      488,
      485,
      485,
      485,
      486,
      484,
      478,
      477,
      482,
      483,
      484,
      484,
      485,
      485,
      483,
      480,
      479,
      481,
      480,
      479,
      478,
      477,
      474,
      474,
      473,
      471,
      469,
      468,
      469,
      469,
      469,
      469,
      469,
      473,
      473,
      471,
      469,
      469,
      469
    ],
    "swim:timestamps": [
      1790522213,
      1790522273,
      1790522333,
      1790522393,
      1790522453,
      1790522513,
      1790522573,
      1790522633,
      1790522693,
      1790522754,
      1790522814,
      1790522874,
      1790522934,
      1790522994,
      1790523054,
      1790523114,
      1790523174,
      1790523234,
      1790523294,
      1790523354,
      1790523414,
      1790523474,
      1790523535,
      1790523559,
      1790523595,
      1790523619,
      1790523655,
      1790523679,
      1790523715,
      1790523740,
      1790523775,
      1790523800,
      1790523835,
      1790523860,
      1790523895,
      1790523920,
      1790523955,
      1790523980,
      1790524015,
      1790524040,
      1790524075,
      1790524100,
      1790524135,
      1790524160,
      1790524195,
      1790524220,
      1790524256,
      1790524280,
      1790524316,
      1790524340,
      1790524376,
      1790524400,
      1790524436,
      1790524461,
      1790524496,
      1790524521,
      1790524556,
      1790524581,
      1790524616,
      1790524641,
      1790524676,
      1790524701,
      1790524736,
      1790524761,
      1790524796,
      1790524821,
      1790524856,
      1790524881,
      1790524916,
      1790524941,
      1790525001,
      1790525061,
      1790525121,
      1790525181,
      1790525242,
      1790525302,
      1790525422,
      1790525482,
      1790525542,
      1790525602,
      1790525662,
      1790525722,
      1790525782,
      1790525842,
      1790525903,
      1790526023,
      1790526083,
      1790526263,
      1790526323,
      1790526383,
      1790526443,
      1790526503,
      1790526563,
      1790526623,
      1790526684,
      1790526744,
      1790526804,
      1790526864,
      1790526924,
      1790526984,
      1790527044,
      1790527104,
      1790527164,
      1790527224,
      1790527284,
      1790527344,
      1790527405,
      1790527465,
      1790527525,
      1790527585,
      1790527645,
      1790527705,
      1790527765,
      1790527825,
      1790527885,
      1790527945,
      1790528005,
      1790528065,
      1790528126,
      1790528186,
      1790528246,
      1790528306,
      1790528366,
      1790528426,
      1790528486,
      1790528546,
      1790528606,
      1790528666,
      1790528726,
      1790528786,
      1790528846,
      1790528907,
      1790528967,
      1790529027,
      1790529087,
      1790529147,
      1790529207,
      1790529265,
      1790529325,
      1790529385,
      1790529445,
      1790529505,
      1790529566,
      1790529626,
      1790529686,
      1790529746,
      1790529806,
      1790529866,
      1790529926,
      1790529986,
      1790530046,
      1790530106,
      1790530166,
      1790530226,
      1790530287,
      1790530347,
      1790530407,
      1790530467,
      1790530527,
      1790530587,
      1790530647,
      1790530707,
      1790530767,
      1790530827,
      1790530887,
      1790530947,
      1790531007,
      1790531068,
      1790531128,
      1790531188,
      1790531248,
      1790531308,
      1790531368,
      1790531428,
      1790531488,
      1790531548,
      1790531608,
      1790531668,
      1790531728,
      1790531789,
      1790531849,
      1790531909,
      1790531969,
      1790532029,
      1790532089,
      1790532149,
      1790532209,
      1790532269,
      1790532329,
      1790532389,
      1790532449,
      1790532509,
      1790532570,
      1790532630,
      1790532690,
      1790532750,
      1790532810,
      1790532870,
      1790532930,
      1790532990,
      1790533050,
      1790533110,
      1790533170,
      1790533231,
      1790533291,
      1790533351,
      1790533411,
      1790533471,
      1790533531,
      1790533591,
      1790533651,
      1790533711,
      1790533771,
      1790533831,
      1790533891,
      1790533951,
      1790534012,
      1790534072,
      1790534132,
      1790534192,
      1790534264,
      1790534324,
      1790534384,
      1790534444,
      1790534504,
      1790534564
    ],
    "wof:geomhash": "a1f2b749eeecf4ce55ca7a1579dff18e",
    "wof:id": 2048450029,
    "wof:repo": "sfomuseum-data-flights-2026-09"
  },
  "bbox": [
    -122.51083333333334,
    37.62694444444445,
    -87.32944444444443,
    46.8075
  ],
  "geometry": {"type":"LineString","coordinates":[[-122.3938888888889,37.62694444444445],[-122.44611111111111,37.64944444444444],[-122.51083333333334,37.67805555555555],[-122.48555555555555,37.73166666666667],[-122.38833333333334,37.74305555555556],[-122.31222222222222,37.7975],[-122.2363888888889,37.86277777777778],[-122.15555555555557,37.93222222222222],[-122.0761111111111,38],[-121.99388888888889,38.07],[-121.9063888888889,38.14472222222222],[-121.81611111111111,38.221111111111114],[-121.73222222222222,38.29194444444444],[-121.63472222222222,38.37388888888889],[-121.53416666666666,38.45388888888889],[-121.41888888888889,38.525],[-121.2961111111111,38.599722222222226],[-121.17083333333333,38.67611111111111],[-121.03916666666666,38.75555555555555],[-120.90527777777778,38.83638888888889],[-120.77222222222223,38.91583333333333],[-120.63861111111112,38.99583333333334],[-120.50805555555556,39.07361111111111],[-120.46611111111112,39.097500000000004],[-120.37444444444444,39.152499999999996],[-120.33277777777778,39.174166666666665],[-120.2388888888889,39.226111111111116],[-120.19638888888889,39.2475],[-120.10138888888888,39.30083333333333],[-120.05749999999999,39.32194444444445],[-119.97166666666666,39.37083333333334],[-119.91611111111112,39.399166666666666],[-119.83027777777778,39.446666666666665],[-119.77361111111111,39.475],[-119.6863888888889,39.52305555555555],[-119.63166666666666,39.55138888888889],[-119.54444444444444,39.59861111111111],[-119.48861111111111,39.62694444444445],[-119.40111111111112,39.674166666666665],[-119.34333333333333,39.70472222222222],[-119.2525,39.7525],[-119.19361111111111,39.78333333333333],[-119.10111111111111,39.831944444444446],[-119.04027777777777,39.86333333333334],[-118.9475,39.91166666666666],[-118.88694444444445,39.94333333333333],[-118.78999999999999,39.993611111111115],[-118.7275,40.02583333333333],[-118.63083333333333,40.07555555555556],[-118.56888888888888,40.1075],[-118.47472222222223,40.15555555555555],[-118.41527777777779,40.18611111111111],[-118.31555555555555,40.23722222222222],[-118.25805555555556,40.26611111111111],[-118.15944444444445,40.316111111111105],[-118.09972222222221,40.34666666666667],[-118,40.39694444444444],[-117.94194444444445,40.42611111111111],[-117.84583333333333,40.474444444444444],[-117.78388888888888,40.50555555555555],[-117.68805555555556,40.55333333333333],[-117.62472222222222,40.585],[-117.52777777777777,40.63333333333333],[-117.46694444444445,40.663333333333334],[-117.36749999999999,40.71277777777778],[-117.30333333333333,40.744166666666665],[-117.20361111111112,40.79333333333333],[-117.14083333333333,40.82416666666667],[-117.04055555555556,40.873333333333335],[-116.97916666666667,40.90333333333333],[-116.81611111111111,40.98277777777778],[-116.65361111111112,41.061388888888885],[-116.49194444444444,41.13916666666667],[-116.33083333333333,41.21638888888889],[-116.17027777777778,41.29277777777778],[-116.00583333333333,41.37083333333334],[-115.68416666666667,41.52194444444444],[-115.5225,41.597500000000004],[-115.36277777777777,41.67166666666667],[-115.2,41.74666666666667],[-115.04027777777777,41.82],[-114.87666666666667,41.89472222222222],[-114.71555555555555,41.967777777777776],[-114.54944444444445,42.04277777777778],[-114.37444444444444,42.12138888888889],[-114.04444444444444,42.26833333333333],[-113.87916666666666,42.34138888888889],[-113.38694444444445,42.55638888888888],[-113.22222222222223,42.6275],[-113.05638888888889,42.698611111111106],[-112.90861111111111,42.76166666666666],[-112.74472222222222,42.831388888888895],[-112.58055555555555,42.902499999999996],[-112.415,42.976111111111116],[-112.25055555555555,43.04833333333333],[-112.08444444444444,43.12111111111111],[-111.91805555555555,43.19361111111111],[-111.75277777777778,43.265277777777776],[-111.58583333333333,43.33722222222222],[-111.42305555555556,43.40694444444444],[-111.25777777777778,43.4775],[-111.08972222222222,43.54861111111111],[-110.92472222222223,43.61805555555556],[-110.75833333333334,43.687777777777775],[-110.5886111111111,43.75833333333333],[-110.41888888888889,43.828611111111115],[-110.25194444444445,43.89722222222222],[-110.08555555555554,43.96527777777778],[-109.9175,44.03333333333333],[-109.7461111111111,44.10194444444445],[-109.5436111111111,44.1825],[-109.40583333333333,44.23694444444445],[-109.23083333333334,44.30555555555555],[-109.06444444444445,44.37083333333334],[-108.89083333333333,44.43805555555555],[-108.72055555555556,44.50388888888889],[-108.54638888888888,44.57055555555556],[-108.37555555555555,44.635555555555555],[-108.2025,44.70111111111111],[-108.03,44.76611111111111],[-107.83888888888889,44.837500000000006],[-107.665,44.90222222222222],[-107.48916666666666,44.967222222222226],[-107.31277777777777,45.031666666666666],[-107.13305555555554,45.09722222222222],[-106.95444444444445,45.161944444444444],[-106.77694444444444,45.225833333333334],[-106.59805555555555,45.28972222222222],[-106.41777777777779,45.353611111111114],[-106.23861111111111,45.416666666666664],[-106.0586111111111,45.47972222222222],[-105.86861111111111,45.525555555555556],[-105.6738888888889,45.56333333333333],[-105.47833333333334,45.60111111111111],[-105.28527777777778,45.63777777777778],[-105.08916666666666,45.67472222222222],[-104.88944444444445,45.711666666666666],[-104.71388888888889,45.7425],[-104.525,45.77861111111111],[-104.32972222222222,45.81388888888888],[-104.10027777777778,45.85472222222222],[-103.90333333333334,45.88944444444444],[-103.70972222222223,45.92333333333333],[-103.51277777777777,45.95722222222223],[-103.315,45.990833333333335],[-103.11666666666666,46.02444444444444],[-102.91666666666667,46.05777777777777],[-102.71833333333333,46.09027777777778],[-102.52805555555555,46.12138888888889],[-102.32444444444444,46.15416666666667],[-102.12472222222222,46.18583333333333],[-101.93555555555555,46.21555555555556],[-101.73583333333333,46.24666666666667],[-101.53722222222223,46.276944444444446],[-101.33555555555554,46.3075],[-101.13527777777779,46.337500000000006],[-100.93555555555555,46.36694444444444],[-100.73277777777778,46.396388888888886],[-100.53305555555555,46.42527777777777],[-100.3325,46.453611111111115],[-100.13111111111111,46.481944444444444],[-99.93055555555556,46.50611111111111],[-99.72583333333334,46.525277777777774],[-99.52111111111111,46.54416666666666],[-99.31722222222221,46.5625],[-99.10888888888888,46.580555555555556],[-98.90583333333333,46.59805555555556],[-98.69972222222222,46.61555555555556],[-98.49555555555555,46.632222222222225],[-98.29277777777777,46.64833333333333],[-98.08944444444444,46.66416666666667],[-97.88805555555557,46.67972222222222],[-97.68611111111112,46.69472222222222],[-97.48416666666667,46.70944444444445],[-97.28444444444445,46.72361111111111],[-97.08222222222221,46.73777777777778],[-96.88027777777778,46.75138888888889],[-96.67888888888889,46.75805555555556],[-96.47944444444444,46.763888888888886],[-96.28138888888888,46.769444444444446],[-96.08138888888888,46.77444444444444],[-95.88055555555555,46.77916666666667],[-95.68944444444445,46.783055555555556],[-95.48972222222223,46.78722222222222],[-95.29222222222222,46.79055555555556],[-95.09472222222222,46.79388888888889],[-94.89944444444446,46.79666666666667],[-94.70333333333333,46.799166666666665],[-94.50694444444444,46.80138888888889],[-94.31222222222222,46.80333333333333],[-94.15444444444445,46.80444444444444],[-93.95916666666668,46.80583333333333],[-93.68722222222223,46.80694444444444],[-93.49555555555555,46.8075],[-93.30388888888889,46.8075],[-93.11,46.8075],[-92.95277777777778,46.80694444444444],[-92.71944444444445,46.80611111111111],[-92.52583333333334,46.80472222222222],[-92.33055555555555,46.80333333333333],[-92.17444444444445,46.801944444444445],[-91.94083333333333,46.797777777777775],[-91.74888888888889,46.794444444444444],[-91.55555555555556,46.79055555555556],[-91.36194444444443,46.78666666666666],[-91.16694444444445,46.782222222222224],[-91.03833333333333,46.778888888888886],[-90.80583333333333,46.772777777777776],[-90.61222222222221,46.7675],[-90.42083333333333,46.761944444444445],[-90.22833333333334,46.755833333333335],[-90.03611111111111,46.74944444444444],[-89.84694444444445,46.74277777777778],[-89.65722222222223,46.736111111111114],[-89.46916666666667,46.72888888888889],[-89.27638888888889,46.72138888888889],[-89.0886111111111,46.71361111111111],[-88.8963888888889,46.70527777777778],[-88.70527777777778,46.696666666666665],[-88.51583333333333,46.68805555555555],[-88.28583333333333,46.676944444444445],[-88.09472222222222,46.6675],[-87.90444444444445,46.6575],[-87.715,46.6475],[-87.55749999999999,46.638888888888886],[-87.32944444444443,46.62583333333333]]}
}
