{
  "id": 2048284231,
  "type": "Feature",
  "properties": {
    "geom:area": 0,
    "geom:bbox": "-122.347110,37.491650,-121.253330,37.609270",
    "geom:latitude": 37.54592169005164,
    "geom:longitude": -121.80490093863553,
    "src:alt_label": "swim-approach",
    "src:geom": "swim",
    "swim:elevations": [
      4820,
      4409,
      4052,
      3826,
      3477,
      3201,
      3076,
      3025,
      2684,
      2530,
      2440,
      2345,
      2133,
      1950,
      1814,
      1653,
      1466,
      1297,
      1036,
      1006,
      685,
      658,
      472,
      282,
      137,
      75
    ],
    "swim:geom": "approach",
    "swim:timestamps": [
      1788890214,
      1788890244,
      1788890277,
      1788890300,
      1788890337,
      1788890365,
      1788890397,
      1788890411,
      1788890458,
      1788890478,
      1788890502,
      1788890537,
      1788890567,
      1788890607,
      1788890638,
      1788890660,
      1788890692,
      1788890716,
      1788890757,
      1788890761,
      1788890816,
      1788890820,
      1788890860,
      1788890900,
      1788890938,
      1788890951
    ],
    "wof:geomhash": "59bdf8f47999cbe5de83a609094094b7",
    "wof:id": 2048284231,
    "wof:repo": "sfomuseum-data-flights-2026-09"
  },
  "bbox": [
    -122.34711,
    37.49165,
    -121.25333,
    37.60927
  ],
  "geometry": {"type":"LineString","coordinates":[[-121.25333,37.59404],[-121.31209,37.58704],[-121.37697,37.57975],[-121.42073,37.5746],[-121.49276,37.56621],[-121.54729,37.55987],[-121.6056,37.553],[-121.63095,37.54922],[-121.71089,37.53021],[-121.74325,37.52246],[-121.78319,37.51309],[-121.83549,37.50038],[-121.88038,37.49165],[-121.94219,37.49253],[-121.99121,37.49605],[-122.02289,37.50604],[-122.06804,37.52063],[-122.10123,37.53145],[-122.15639,37.5493],[-122.1616,37.55093],[-122.22719,37.57223],[-122.23162,37.57364],[-122.27145,37.58617],[-122.30647,37.59595],[-122.33684,37.60485],[-122.34711,37.60927]]}
}
