{
  "id": 2048436503,
  "type": "Feature",
  "properties": {
    "geom:area": 0,
    "geom:bbox": "-122.381667,37.492778,-87.850000,42.157500",
    "geom:latitude": 40.047089440811284,
    "geom:longitude": -105.11474008472514,
    "src:alt_label": "swim-path",
    "src:geom": "swim",
    "swim:altitudes": [
      "030",
      "035",
      "044",
      "050",
      "062",
      "087",
      "110",
      "118",
      "121",
      "141",
      "156",
      "171",
      "175",
      "183",
      "186",
      "199",
      "202",
      "217",
      "233",
      "247",
      "260",
      "269",
      "278",
      "288",
      "291",
      "300",
      "304",
      "314",
      "324",
      "326",
      "333",
      "336",
      "345",
      "354",
      "360C",
      "360C",
      "360C",
      "360C",
      "360C",
      "360C",
      "360C",
      "360C",
      "360C",
      "360C",
      "360C",
      "361C",
      "360C",
      "360C",
      "360C",
      "360C",
      "360C",
      "360C",
      "360C",
      "360C",
      "360C",
      "360C",
      "360C",
      "360C",
      "360C",
      "360C",
      "360C",
      "360C",
      "360C",
      "360C",
      "360C",
      "359C",
      "360C",
      "360C",
      "360C",
      "360C",
      "360C",
      "360C",
      "360C",
      "360C",
      "360C",
      "360C",
      "360C",
      "360C",
      "360C",
      "360C",
      "360C",
      "360C",
      "360C",
      "360C",
      "360C",
      "360C",
      "360C",
      "360C",
      "360C",
      "360C",
      "360C",
      "360C",
      "360C",
      "360C",
      "360C",
      "360C",
      "360C",
      "360C",
      "360C",
      "360C",
      "360C",
      "360C",
      "360C",
      "360C",
      "360C",
      "360C",
      "360C",
      "360C",
      "360C",
      "360C",
      "360C",
      "360C",
      "360C",
      "360C",
      "360C",
      "360C",
      "360C",
      "360C",
      "360C",
      "360C",
      "361C",
      "361C",
      "360C",
      "360C",
      "360C",
      "360C",
      "360C",
      "360C",
      "360C",
      "360C",
      "361C",
      "361C",
      "361C",
      "360C",
      "360C",
      "360C",
      "360C",
      "360C",
      "360C",
      "360C",
      "360C",
      "360C",
      "360C",
      "360C",
      "360C",
      "360C",
      "360C",
      "361C",
      "360C",
      "360C",
      "360C",
      "360C",
      "360C",
      "360C",
      "360C",
      "360C",
      "360C",
      "360C",
      "360C",
      "360C",
      "360C",
      "360C",
      "360C",
      "360C",
      "360C",
      "360C",
      "360C",
      "360C",
      "360C",
      "360C",
      "360C",
      "360C",
      "360C",
      "360C",
      "360C",
      "360C",
      "361C",
      "360C",
      "360C",
      "360C",
      "360C",
      "360C",
      "360C",
      "360C",
      "360C",
      "360C",
      "360C",
      "360C",
      "360C",
      "360C",
      "360C",
      "360C",
      "360C",
      "360C",
      "360C",
      "360C",
      "360C",
      "361C",
      "360C",
      "360C",
      "360C",
      "360C",
      "360C",
      "360C",
      "360C",
      "360C",
      "360C",
      "360C",
      "360C",
      "361C",
      "361C",
      "360C",
      "360C",
      "360C",
      "360C",
      "360C",
      "360C",
      "360C",
      "360C",
      "360C",
      "360C",
      "360C",
      "360C",
      "360C",
      "360C",
      "360C",
      "360C",
      "360C",
      "360C",
      "360C",
      "360C",
      "360C",
      "360C",
      "360C",
      "360C",
      "360C",
      "360C",
      "360C",
      "360C",
      "360C",
      "360C",
      "360C",
      "360C",
      "360C",
      "361C",
      "361C",
      "361C",
      "360C",
      "360C",
      "360C",
      "360C",
      "360C",
      "360C",
      "360C",
      "360C",
      "360C",
      "360C",
      "360C",
      "360C",
      "361C",
      "360C",
      "360C",
      "360C",
      "360C",
      "360C",
      "360C",
      "360C",
      "360C",
      "360C",
      "360C",
      "360C",
      "360C",
      "360C",
      "360C",
      "360C",
      "360C",
      "360C",
      "360C",
      "360C",
      "360C",
      "360C",
      "360C",
      "360C",
      "360C",
      "360C",
      "360C",
      "360C",
      "360C",
      "360C",
      "360C",
      "360C",
      "360C",
      "360C",
      "360C",
      "360C",
      "360C",
      "360C",
      "360C",
      "360C",
      "360C",
      "360C",
      "360C",
      "360C",
      "360C",
      "360C",
      "360C",
      "360C",
      "360C",
      "360C",
      "360C",
      "360C",
      "360C",
      "360C",
      "360C",
      "360C",
      "360C",
      "360C",
      "360C",
      "360",
      "360",
      "360",
      "357",
      "348",
      "338",
      "309",
      "281",
      "260",
      "255",
      "238",
      "235",
      "217",
      "213",
      "194",
      "189",
      "173",
      "170",
      "156",
      "151",
      "136",
      "132",
      "120",
      "118",
      "108",
      "103",
      "093",
      "091",
      "085",
      "082C",
      "076",
      "072",
      "067",
      "063",
      "060",
      "060",
      "052",
      "045",
      "032",
      "030",
      "024",
      "021",
      "014",
      "011",
      "006",
      "004",
      "80"
    ],
    "swim:geom": "path",
    "swim:speeds": [
      200,
      226,
      268,
      277,
      280,
      289,
      295,
      298,
      354,
      377,
      391,
      384,
      398,
      396,
      410,
      427,
      414,
      420,
      427,
      430,
      434,
      435,
      444,
      440,
      441,
      441,
      442,
      439,
      439,
      437,
      436,
      436,
      436,
      429,
      429,
      428,
      427,
      426,
      426,
      431,
      433,
      434,
      435,
      437,
      439,
      441,
      441,
      441,
      441,
      440,
      440,
      439,
      440,
      444,
      447,
      442,
      439,
      437,
      435,
      433,
      431,
      429,
      427,
      423,
      420,
      418,
      418,
      417,
      408,
      404,
      403,
      402,
      402,
      403,
      404,
      404,
      406,
      404,
      406,
      405,
      406,
      405,
      405,
      405,
      405,
      405,
      406,
      405,
      406,
      406,
      406,
      406,
      406,
      407,
      407,
      407,
      408,
      408,
      409,
      409,
      410,
      410,
      412,
      412,
      413,
      413,
      414,
      414,
      416,
      416,
      418,
      424,
      419,
      426,
      418,
      419,
      423,
      420,
      429,
      424,
      433,
      428,
      434,
      430,
      429,
      430,
      427,
      430,
      427,
      430,
      429,
      430,
      430,
      430,
      430,
      430,
      430,
      431,
      429,
      431,
      428,
      431,
      427,
      430,
      428,
      430,
      428,
      430,
      428,
      430,
      427,
      430,
      427,
      428,
      426,
      426,
      426,
      426,
      426,
      426,
      425,
      426,
      424,
      426,
      423,
      426,
      424,
      426,
      426,
      426,
      427,
      426,
      428,
      426,
      429,
      429,
      429,
      429,
      429,
      429,
      427,
      425,
      423,
      422,
      421,
      421,
      420,
      419,
      423,
      421,
      423,
      421,
      422,
      422,
      422,
      422,
      423,
      422,
      422,
      422,
      420,
      422,
      419,
      421,
      419,
      420,
      420,
      422,
      423,
      424,
      424,
      424,
      424,
      423,
      422,
      423,
      424,
      425,
      426,
      426,
      426,
      426,
      427,
      427,
      427,
      427,
      427,
      427,
      428,
      428,
      429,
      430,
      431,
      432,
      428,
      427,
      427,
      429,
      427,
      425,
      424,
      424,
      425,
      426,
      428,
      429,
      430,
      430,
      429,
      429,
      428,
      429,
      429,
      429,
      430,
      430,
      426,
      426,
      426,
      426,
      424,
      420,
      418,
      417,
      418,
      419,
      420,
      420,
      421,
      422,
      421,
      421,
      421,
      422,
      422,
      423,
      424,
      426,
      425,
      427,
      428,
      429,
      428,
      429,
      429,
      429,
      429,
      429,
      429,
      429,
      429,
      428,
      429,
      428,
      428,
      428,
      427,
      428,
      428,
      429,
      429,
      430,
      430,
      431,
      431,
      431,
      431,
      430,
      430,
      429,
      429,
      428,
      427,
      427,
      427,
      427,
      426,
      424,
      428,
      429,
      431,
      432,
      408,
      404,
      405,
      407,
      403,
      405,
      389,
      385,
      367,
      369,
      361,
      365,
      352,
      354,
      344,
      347,
      337,
      340,
      326,
      318,
      287,
      289,
      281,
      281,
      248,
      251,
      254,
      249,
      251,
      249,
      252,
      249,
      230,
      231,
      227,
      222,
      195,
      191,
      171,
      160,
      138,
      141,
      131
    ],
    "swim:timestamps": [
      1790423921,
      1790423954,
      1790423981,
      1790424014,
      1790424074,
      1790424134,
      1790424194,
      1790424244,
      1790424252,
      1790424312,
      1790424372,
      1790424421,
      1790424432,
      1790424482,
      1790424492,
      1790424542,
      1790424552,
      1790424612,
      1790424672,
      1790424732,
      1790424792,
      1790424853,
      1790424900,
      1790424960,
      1790424973,
      1790425021,
      1790425033,
      1790425093,
      1790425141,
      1790425153,
      1790425201,
      1790425213,
      1790425261,
      1790425333,
      1790425393,
      1790425454,
      1790425513,
      1790425573,
      1790425633,
      1790425693,
      1790425753,
      1790425814,
      1790425873,
      1790425933,
      1790425994,
      1790426054,
      1790426114,
      1790426174,
      1790426235,
      1790426294,
      1790426355,
      1790426415,
      1790426474,
      1790426535,
      1790426595,
      1790426655,
      1790426714,
      1790426774,
      1790426834,
      1790426895,
      1790426955,
      1790427015,
      1790427075,
      1790427135,
      1790427195,
      1790427255,
      1790427315,
      1790427375,
      1790427435,
      1790427495,
      1790427555,
      1790427615,
      1790427675,
      1790427736,
      1790427856,
      1790427916,
      1790427951,
      1790427976,
      1790428011,
      1790428036,
      1790428071,
      1790428096,
      1790428131,
      1790428156,
      1790428191,
      1790428216,
      1790428251,
      1790428276,
      1790428311,
      1790428336,
      1790428371,
      1790428396,
      1790428431,
      1790428456,
      1790428491,
      1790428517,
      1790428552,
      1790428577,
      1790428612,
      1790428637,
      1790428672,
      1790428697,
      1790428732,
      1790428757,
      1790428792,
      1790428817,
      1790428852,
      1790428877,
      1790428912,
      1790428937,
      1790428972,
      1790428997,
      1790429032,
      1790429057,
      1790429092,
      1790429152,
      1790429212,
      1790429241,
      1790429272,
      1790429301,
      1790429332,
      1790429361,
      1790429392,
      1790429421,
      1790429453,
      1790429481,
      1790429513,
      1790429541,
      1790429573,
      1790429601,
      1790429633,
      1790429661,
      1790429693,
      1790429721,
      1790429753,
      1790429781,
      1790429813,
      1790429842,
      1790429873,
      1790429902,
      1790429933,
      1790429962,
      1790429993,
      1790430022,
      1790430053,
      1790430082,
      1790430113,
      1790430142,
      1790430174,
      1790430202,
      1790430234,
      1790430262,
      1790430294,
      1790430322,
      1790430354,
      1790430382,
      1790430414,
      1790430442,
      1790430474,
      1790430502,
      1790430534,
      1790430562,
      1790430594,
      1790430622,
      1790430654,
      1790430682,
      1790430714,
      1790430743,
      1790430774,
      1790430803,
      1790430834,
      1790430863,
      1790430895,
      1790430923,
      1790430955,
      1790430983,
      1790431015,
      1790431043,
      1790431075,
      1790431103,
      1790431135,
      1790431163,
      1790431195,
      1790431223,
      1790431255,
      1790431283,
      1790431315,
      1790431343,
      1790431375,
      1790431403,
      1790431435,
      1790431463,
      1790431495,
      1790431523,
      1790431555,
      1790431584,
      1790431615,
      1790431644,
      1790431676,
      1790431704,
      1790431736,
      1790431764,
      1790431796,
      1790431824,
      1790431856,
      1790431884,
      1790431916,
      1790431944,
      1790431976,
      1790432004,
      1790432036,
      1790432064,
      1790432096,
      1790432124,
      1790432156,
      1790432184,
      1790432216,
      1790432244,
      1790432276,
      1790432304,
      1790432336,
      1790432365,
      1790432397,
      1790432425,
      1790432457,
      1790432485,
      1790432517,
      1790432545,
      1790432577,
      1790432605,
      1790432637,
      1790432665,
      1790432697,
      1790432725,
      1790432757,
      1790432785,
      1790432817,
      1790432845,
      1790432877,
      1790432905,
      1790432937,
      1790432965,
      1790432997,
      1790433025,
      1790433057,
      1790433085,
      1790433118,
      1790433146,
      1790433206,
      1790433266,
      1790433326,
      1790433386,
      1790433446,
      1790433506,
      1790433566,
      1790433626,
      1790433686,
      1790433746,
      1790433806,
      1790433867,
      1790433927,
      1790433987,
      1790434047,
      1790434107,
      1790434167,
      1790434227,
      1790434287,
      1790434347,
      1790434407,
      1790434467,
      1790434527,
      1790434587,
      1790434648,
      1790434708,
      1790434768,
      1790434828,
      1790434888,
      1790434948,
      1790434955,
      1790435015,
      1790435068,
      1790435128,
      1790435135,
      1790435195,
      1790435248,
      1790435255,
      1790435308,
      1790435315,
      1790435375,
      1790435429,
      1790435435,
      1790435489,
      1790435495,
      1790435555,
      1790435609,
      1790435615,
      1790435669,
      1790435729,
      1790435736,
      1790435789,
      1790435796,
      1790435856,
      1790435909,
      1790435916,
      1790435969,
      1790435976,
      1790436036,
      1790436089,
      1790436096,
      1790436150,
      1790436156,
      1790436216,
      1790436276,
      1790436336,
      1790436396,
      1790436456,
      1790436517,
      1790436577,
      1790436637,
      1790436697,
      1790436757,
      1790436817,
      1790436877,
      1790436937,
      1790436997,
      1790437057,
      1790437100,
      1790437117,
      1790437160,
      1790437177,
      1790437220,
      1790437238,
      1790437280,
      1790437298,
      1790437340,
      1790437358,
      1790437395,
      1790437418,
      1790437460,
      1790437478,
      1790437515,
      1790437538,
      1790437575,
      1790437598,
      1790437640,
      1790437658,
      1790437700,
      1790437718,
      1790437755,
      1790437778,
      1790437815,
      1790437838,
      1790437875,
      1790437898,
      1790437935,
      1790437959,
      1790437995,
      1790438019,
      1790438055,
      1790438079,
      1790438115,
      1790438139,
      1790438175,
      1790438199,
      1790438259
    ],
    "wof:geomhash": "d523a2f81effd2b56efe95bbd3cc33f8",
    "wof:id": 2048436503,
    "wof:repo": "sfomuseum-data-flights-2026-09"
  },
  "bbox": [
    -122.38166666666666,
    37.49277777777778,
    -87.85,
    42.1575
  ],
  "geometry": {"type":"LineString","coordinates":[[-87.85,42.016666666666666],[-87.87055555555555,42.035555555555554],[-87.9,42.06666666666667],[-87.94222222222223,42.08888888888889],[-88.02361111111111,42.136944444444445],[-88.12305555555555,42.1575],[-88.2125,42.11194444444445],[-88.28888888888889,42.07055555555556],[-88.31527777777778,42.05833333333333],[-88.42944444444444,41.99805555555556],[-88.54666666666667,41.93611111111111],[-88.63694444444445,41.885],[-88.66861111111112,41.87138888888889],[-88.75972222222222,41.81916666666667],[-88.78722222222223,41.80833333333333],[-88.9075,41.78472222222222],[-88.935,41.78111111111111],[-89.09138888888889,41.76083333333333],[-89.24027777777778,41.722500000000004],[-89.38305555555554,41.669999999999995],[-89.52805555555555,41.61638888888889],[-89.68166666666667,41.587500000000006],[-89.80138888888888,41.5825],[-89.96472222222222,41.57611111111112],[-90.00777777777778,41.57611111111112],[-90.12944444444443,41.571111111111115],[-90.17083333333333,41.57027777777778],[-90.33111111111111,41.564166666666665],[-90.45222222222222,41.55888888888889],[-90.49111111111111,41.558055555555555],[-90.61277777777777,41.552499999999995],[-90.64527777777778,41.551944444444445],[-90.77416666666666,41.54527777777778],[-90.96111111111111,41.53861111111111],[-91.08833333333332,41.532222222222224],[-91.27722222222222,41.52444444444444],[-91.43555555555555,41.51694444444444],[-91.5925,41.50888888888889],[-91.77,41.5],[-91.93083333333334,41.49166666666667],[-92.0911111111111,41.48388888888889],[-92.23472222222222,41.47638888888889],[-92.41333333333334,41.46638888888889],[-92.57527777777777,41.45722222222223],[-92.73722222222223,41.44777777777777],[-92.86527777777778,41.44027777777777],[-93.06194444444444,41.42833333333333],[-93.22111111111111,41.41833333333333],[-93.38444444444445,41.407777777777774],[-93.54583333333333,41.39722222222222],[-93.705,41.38666666666666],[-93.86694444444444,41.37555555555556],[-94.02833333333334,41.36416666666667],[-94.15861111111111,41.355000000000004],[-94.3561111111111,41.340833333333336],[-94.52027777777778,41.328611111111115],[-94.67416666666666,41.31722222222223],[-94.83305555555555,41.305],[-94.99083333333333,41.29277777777778],[-95.14722222222223,41.280277777777776],[-95.30555555555556,41.2675],[-95.46222222222222,41.25472222222222],[-95.61999999999999,41.24138888888889],[-95.7825,41.2275],[-95.93472222222222,41.214444444444446],[-96.08749999999999,41.20666666666667],[-96.2425,41.19888888888889],[-96.39361111111111,41.19083333333333],[-96.54472222222222,41.18277777777777],[-96.6913888888889,41.17472222222222],[-96.84055555555555,41.166666666666664],[-96.9875,41.158055555555556],[-97.13611111111112,41.14972222222222],[-97.28333333333333,41.14083333333333],[-97.57888888888888,41.12305555555555],[-97.7286111111111,41.11361111111111],[-97.81472222222222,41.10805555555556],[-97.84666666666666,41.10611111111111],[-97.965,41.098333333333336],[-98.02388888888889,41.09444444444445],[-98.11472222222221,41.08861111111111],[-98.17444444444445,41.08444444444444],[-98.26277777777777,41.078611111111115],[-98.32333333333332,41.07416666666667],[-98.41027777777778,41.068333333333335],[-98.46972222222223,41.064166666666665],[-98.56,41.05777777777777],[-98.61722222222221,41.05361111111111],[-98.71027777777778,41.04694444444444],[-98.76444444444445,41.043055555555554],[-98.84833333333333,41.036944444444444],[-98.91527777777779,41.03194444444444],[-98.99638888888889,41.02583333333333],[-99.06388888888888,41.020833333333336],[-99.16722222222222,41.01305555555555],[-99.22638888888889,41.00833333333333],[-99.31583333333333,41.00138888888889],[-99.37666666666667,40.99666666666667],[-99.46722222222222,40.989444444444445],[-99.5286111111111,40.984722222222224],[-99.58805555555556,40.97972222222222],[-99.67916666666667,40.972500000000004],[-99.76777777777778,40.96527777777778],[-99.83,40.96027777777778],[-99.89833333333334,40.95472222222222],[-99.97944444444444,40.94777777777777],[-100.04861111111111,40.94194444444444],[-100.13472222222222,40.93472222222222],[-100.20083333333334,40.928888888888885],[-100.28277777777778,40.92194444444444],[-100.35472222222222,40.91555555555556],[-100.43805555555556,40.909166666666664],[-100.50722222222223,40.90222222222222],[-100.59305555555555,40.89972222222222],[-100.65527777777778,40.88916666666667],[-100.83083333333333,40.87305555555555],[-100.98388888888888,40.85916666666667],[-101.03777777777778,40.855000000000004],[-101.14027777777778,40.844722222222224],[-101.19361111111111,40.84138888888889],[-101.29833333333333,40.82972222222222],[-101.35305555555556,40.82638888888889],[-101.45583333333333,40.81472222222222],[-101.51027777777777,40.809999999999995],[-101.61,40.79944444444444],[-101.66638888888889,40.79388888888889],[-101.76333333333334,40.78444444444444],[-101.82111111111111,40.77777777777778],[-101.92,40.76861111111111],[-101.97722222222222,40.76166666666666],[-102.0761111111111,40.75277777777778],[-102.13305555555554,40.745555555555555],[-102.23222222222222,40.736666666666665],[-102.28999999999999,40.72944444444445],[-102.38694444444445,40.720555555555556],[-102.44666666666667,40.71333333333334],[-102.54305555555555,40.70388888888889],[-102.60194444444444,40.696666666666665],[-102.6975,40.6875],[-102.75777777777778,40.67972222222222],[-102.8536111111111,40.67055555555555],[-102.91194444444444,40.66277777777778],[-103.00666666666666,40.65361111111111],[-103.06694444444445,40.64527777777778],[-103.16111111111111,40.63638888888889],[-103.2225,40.628055555555555],[-103.31416666666667,40.619166666666665],[-103.37694444444443,40.611111111111114],[-103.47055555555556,40.60138888888889],[-103.53111111111112,40.593611111111116],[-103.62388888888889,40.58361111111111],[-103.68444444444445,40.57611111111112],[-103.77694444444444,40.56583333333333],[-103.83583333333333,40.558611111111105],[-103.92944444444444,40.547777777777775],[-103.98666666666666,40.54055555555556],[-104.08194444444445,40.529444444444444],[-104.13944444444445,40.52166666666667],[-104.23416666666667,40.51111111111111],[-104.29305555555555,40.50333333333333],[-104.38666666666667,40.492222222222225],[-104.44500000000001,40.48416666666667],[-104.53861111111111,40.47361111111111],[-104.60027777777778,40.46527777777778],[-104.68944444444445,40.45472222222222],[-104.7575,40.44555555555555],[-104.8411111111111,40.43555555555555],[-104.90694444444445,40.42583333333333],[-104.99388888888889,40.41583333333333],[-105.06083333333333,40.406666666666666],[-105.14666666666668,40.39611111111111],[-105.21527777777779,40.38722222222222],[-105.29944444444445,40.376111111111115],[-105.36888888888888,40.36638888888889],[-105.45333333333333,40.35583333333334],[-105.52333333333333,40.34583333333334],[-105.60555555555555,40.33555555555556],[-105.6763888888889,40.324444444444445],[-105.75861111111111,40.315],[-105.83,40.30416666666667],[-105.91166666666668,40.29416666666666],[-105.98055555555555,40.284166666666664],[-106.0611111111111,40.27361111111111],[-106.13138888888888,40.263333333333335],[-106.22055555555556,40.25138888888889],[-106.27888888888889,40.2425],[-106.37194444444444,40.230000000000004],[-106.43111111111112,40.22166666666667],[-106.52888888888889,40.20777777777778],[-106.58333333333333,40.19888888888889],[-106.67805555555556,40.186388888888885],[-106.73277777777778,40.17805555555555],[-106.83027777777778,40.16416666666667],[-106.88388888888889,40.155833333333334],[-106.97916666666667,40.1425],[-107.03388888888888,40.13333333333333],[-107.13388888888889,40.11972222222222],[-107.18361111111112,40.11138888888889],[-107.27416666666666,40.098888888888894],[-107.33222222222221,40.08916666666667],[-107.42083333333333,40.07666666666667],[-107.48138888888889,40.066111111111105],[-107.56916666666666,40.05416666666667],[-107.62916666666666,40.04472222222222],[-107.71777777777778,40.03138888888889],[-107.77694444444444,40.021388888888886],[-107.86777777777777,40.00805555555556],[-107.92972222222222,39.99861111111111],[-108.01916666666666,39.98444444444444],[-108.0786111111111,39.97527777777778],[-108.16916666666667,39.961111111111116],[-108.22916666666667,39.95138888888889],[-108.31833333333333,39.93722222222222],[-108.37888888888888,39.927499999999995],[-108.46583333333334,39.91361111111111],[-108.52972222222222,39.90333333333333],[-108.61583333333333,39.88944444444444],[-108.70527777777778,39.875],[-108.76583333333333,39.865],[-108.85527777777777,39.85055555555556],[-108.91250000000001,39.84111111111111],[-109.00361111111111,39.82611111111112],[-109.06166666666667,39.81638888888889],[-109.1525,39.80138888888889],[-109.21111111111111,39.79138888888889],[-109.29972222222221,39.77638888888889],[-109.36,39.76638888888889],[-109.45222222222222,39.75083333333333],[-109.54027777777777,39.73583333333333],[-109.60277777777777,39.725],[-109.6913888888889,39.71],[-109.75416666666666,39.69916666666666],[-109.84527777777777,39.68333333333333],[-109.90555555555557,39.672777777777775],[-109.99472222222222,39.657222222222224],[-110.05361111111111,39.64694444444444],[-110.14305555555556,39.63111111111111],[-110.20416666666667,39.62027777777778],[-110.2936111111111,39.60444444444445],[-110.35305555555556,39.59388888888889],[-110.44277777777778,39.57777777777778],[-110.5025,39.56722222222223],[-110.59138888888889,39.551111111111105],[-110.65166666666667,39.540277777777774],[-110.74138888888889,39.52388888888889],[-110.80138888888888,39.51305555555555],[-110.89194444444445,39.49666666666667],[-110.95444444444445,39.485],[-111.10249999999999,39.4575],[-111.25138888888888,39.43],[-111.39416666666668,39.403055555555554],[-111.54333333333334,39.375],[-111.69166666666668,39.34666666666667],[-111.84083333333332,39.31805555555556],[-111.99277777777777,39.28861111111111],[-112.14111111111112,39.25944444444445],[-112.29888888888888,39.22833333333333],[-112.44611111111111,39.19944444444444],[-112.59472222222222,39.16972222222222],[-112.74222222222222,39.140277777777776],[-112.88527777777779,39.11138888888889],[-113.03055555555555,39.08166666666667],[-113.17277777777778,39.052499999999995],[-113.31555555555555,39.02305555555555],[-113.46000000000001,38.99305555555556],[-113.6061111111111,38.96277777777778],[-113.74972222222222,38.93222222222222],[-113.8938888888889,38.901944444444446],[-114.03833333333333,38.87111111111111],[-114.18194444444445,38.84027777777778],[-114.32472222222222,38.809444444444445],[-114.46916666666667,38.778055555555554],[-114.61333333333333,38.74638888888889],[-114.75805555555556,38.714444444444446],[-114.90472222222223,38.68611111111111],[-115.05055555555555,38.65861111111111],[-115.19666666666667,38.63111111111111],[-115.34333333333333,38.60333333333333],[-115.36944444444444,38.59805555555556],[-115.5175,38.571111111111115],[-115.63527777777779,38.5475],[-115.78138888888888,38.51888888888889],[-115.81361111111111,38.51305555555555],[-115.96055555555556,38.48416666666667],[-116.0775,38.461111111111116],[-116.10944444444443,38.45472222222222],[-116.22444444444444,38.43194444444444],[-116.25555555555556,38.42583333333333],[-116.40166666666667,38.39666666666667],[-116.51833333333333,38.37305555555555],[-116.55027777777778,38.36666666666667],[-116.665,38.343611111111116],[-116.69583333333334,38.33722222222222],[-116.84166666666667,38.3075],[-116.95722222222223,38.28388888888889],[-116.98722222222223,38.277499999999996],[-117.10138888888888,38.25388888888889],[-117.27194444444444,38.218611111111116],[-117.27722222222222,38.2175],[-117.41444444444446,38.18861111111111],[-117.42361111111111,38.18666666666666],[-117.56305555555555,38.157222222222224],[-117.70777777777778,38.12638888888889],[-117.70916666666668,38.126111111111115],[-117.8561111111111,38.094722222222224],[-117.85499999999999,38.095],[-118.00194444444445,38.06333333333333],[-118.14750000000001,38.031666666666666],[-118.14750000000001,38.031666666666666],[-118.28861111111111,38.00111111111111],[-118.2936111111111,37.999722222222225],[-118.4375,37.968333333333334],[-118.58111111111111,37.936388888888885],[-118.72722222222222,37.903888888888886],[-118.8736111111111,37.88333333333333],[-119.02833333333334,37.86555555555556],[-119.17555555555556,37.84861111111111],[-119.32166666666666,37.831388888888895],[-119.4713888888889,37.81361111111111],[-119.62083333333332,37.795833333333334],[-119.77083333333333,37.77777777777778],[-119.92222222222223,37.75944444444445],[-120.06611111111111,37.74166666666667],[-120.20444444444445,37.724444444444444],[-120.34666666666666,37.70666666666667],[-120.4875,37.68944444444444],[-120.6,37.68333333333333],[-120.62888888888888,37.67333333333333],[-120.73333333333333,37.666666666666664],[-120.76527777777778,37.65694444444444],[-120.86666666666666,37.65],[-120.89250000000001,37.641666666666666],[-121,37.63333333333333],[-121.01916666666666,37.62583333333333],[-121.11666666666666,37.61666666666667],[-121.14111111111112,37.60944444444445],[-121.21666666666667,37.6],[-121.26055555555556,37.593333333333334],[-121.35,37.583333333333336],[-121.37638888888888,37.580000000000005],[-121.45,37.56666666666667],[-121.4888888888889,37.566944444444445],[-121.56666666666666,37.56666666666667],[-121.59194444444444,37.55472222222222],[-121.66666666666667,37.55],[-121.68361111111112,37.536944444444444],[-121.75,37.516666666666666],[-121.76888888888888,37.516666666666666],[-121.83333333333333,37.5],[-121.85305555555556,37.49638888888889],[-121.91666666666667,37.5],[-121.93805555555556,37.49277777777778],[-122,37.5],[-122.02333333333333,37.506388888888885],[-122.08333333333333,37.516666666666666],[-122.09833333333333,37.53055555555555],[-122.15,37.55],[-122.17222222222223,37.55444444444444],[-122.21666666666667,37.56666666666667],[-122.235,37.57472222222223],[-122.28333333333333,37.583333333333336],[-122.29166666666667,37.591944444444444],[-122.31666666666666,37.6],[-122.33749999999999,37.605555555555554],[-122.38166666666666,37.62361111111111]]}
}
