{
  "id": 2048245813,
  "type": "Feature",
  "properties": {
    "geom:area": 0,
    "geom:bbox": "-122.404870,37.633540,-121.290600,37.957290",
    "geom:latitude": 37.82866860583967,
    "geom:longitude": -121.86617456474045,
    "src:alt_label": "swim-takeoff",
    "src:geom": "swim",
    "swim:elevations": [
      278,
      333,
      747,
      945,
      1164,
      1455,
      1488,
      2221,
      2736,
      2932,
      3087,
      3473,
      3665,
      3724,
      3868,
      4200,
      4667,
      4979,
      5233,
      5468,
      5770,
      5808,
      5946,
      6230
    ],
    "swim:geom": "takeoff",
    "swim:timestamps": [
      1788446516,
      1788446520,
      1788446558,
      1788446573,
      1788446604,
      1788446637,
      1788446640,
      1788446689,
      1788446727,
      1788446741,
      1788446752,
      1788446782,
      1788446816,
      1788446830,
      1788446855,
      1788446881,
      1788446933,
      1788446960,
      1788446988,
      1788447012,
      1788447053,
      1788447060,
      1788447079,
      1788447114
    ],
    "wof:geomhash": "8b2fde41f768d2f25408074a9cbbbf6c",
    "wof:id": 2048245813,
    "wof:repo": "sfomuseum-data-flights-2026-09"
  },
  "bbox": [
    -122.40487,
    37.63354,
    -121.2906,
    37.95729
  ],
  "geometry": {"type":"LineString","coordinates":[[-122.40196,37.63354],[-122.40487,37.63592],[-122.3967,37.66448],[-122.3794,37.66831],[-122.34075,37.67691],[-122.29423,37.69211],[-122.2897,37.69363],[-122.21381,37.71854],[-122.15763,37.74685],[-122.13632,37.75798],[-122.11837,37.76727],[-122.07154,37.79156],[-122.01313,37.81974],[-121.98463,37.82878],[-121.93025,37.8398],[-121.86903,37.85133],[-121.74769,37.87385],[-121.68091,37.88609],[-121.61307,37.89863],[-121.55258,37.90968],[-121.45123,37.92832],[-121.43419,37.93143],[-121.38332,37.94057],[-121.2906,37.95729]]}
}
