{
  "id": 2048333973,
  "type": "Feature",
  "properties": {
    "date:cessation_lower": "2026-09-15",
    "date:cessation_upper": "2026-09-15",
    "date:inception_lower": "1970-01-01",
    "date:inception_upper": "1970-01-01",
    "edtf:cessation": "2026-09-14T17:53:09-07:00",
    "edtf:inception": "1970-01-01T00:00:00Z",
    "flysfo:actual_timestamp": -1,
    "flysfo:airline": "DL",
    "flysfo:date": "2026-09-14",
    "flysfo:estimated_timestamp": -1,
    "flysfo:event": "A",
    "flysfo:flight_number": "DL2919",
    "flysfo:gate": "",
    "flysfo:journey": "BOS-SFO",
    "flysfo:scheduled_timestamp": 1789370520,
    "flysfo:timestamp": 1789370520,
    "geom:area": 0,
    "geom:bbox": "-122.370943,37.617990,-71.014750,42.362322",
    "geom:latitude": 39.990156,
    "geom:longitude": -96.6928465,
    "iata:airline": "DL",
    "icao:aircraft": "A21N",
    "icao:airline": "DAL",
    "lbl:latitude": 37.61799,
    "lbl:longitude": -122.370943,
    "sfomuseum:aircraft_id": 1377564297,
    "sfomuseum:airline_id": 1159284261,
    "sfomuseum:arrival_id": 102527513,
    "sfomuseum:departure_id": 102530741,
    "sfomuseum:flight_id": "20260914-A-DAL-2919",
    "sfomuseum:flight_number": [
      "DAL2919",
      "DL2919"
    ],
    "sfomuseum:placetype": "flight",
    "src:geom": "flysfo",
    "src:geom_alt": [
      "swim-approach"
    ],
    "swim:tail_number": "N538DN",
    "wof:belongsto": [],
    "wof:country": "US",
    "wof:created": 1789488311,
    "wof:geomhash": "9cccd37636918a32bc446a92e7ba93ba",
    "wof:hierarchy": [
      {
        "custom_id": 2048333973,
        "flight_id": 2048333973
      }
    ],
    "wof:id": 2048333973,
    "wof:involves": [
      1377564297,
      102527513,
      102530741,
      1159284261
    ],
    "wof:lastmodified": 1789489111,
    "wof:name": "DL2919 (BOS-SFO)",
    "wof:parent_id": -1,
    "wof:placetype": "custom",
    "wof:placetype_alt": [
      "flight"
    ],
    "wof:repo": "sfomuseum-data-flights-2026-09",
    "wof:superseded_by": [],
    "wof:supersedes": []
  },
  "bbox": [
    -122.370943,
    37.61799,
    -71.01475,
    42.362322
  ],
  "geometry": {"type":"MultiPoint","coordinates":[[-71.01475,42.362322],[-122.370943,37.61799]]}
}
