{
  "id": 2048318053,
  "type": "Feature",
  "properties": {
    "geom:area": 0,
    "geom:bbox": "-122.355040,37.491880,-121.288510,37.612580",
    "geom:latitude": 37.5449154388139,
    "geom:longitude": -121.82647338975606,
    "src:alt_label": "swim-approach",
    "src:geom": "swim",
    "swim:elevations": [
      4243,
      3920,
      3830,
      3595,
      3244,
      3140,
      3076,
      2863,
      2796,
      2611,
      2424,
      2246,
      2129,
      2043,
      1778,
      1582,
      1431,
      1269,
      1050,
      924,
      752,
      603,
      531,
      398,
      237,
      100,
      76
    ],
    "swim:geom": "approach",
    "swim:timestamps": [
      1789206409,
      1789206446,
      1789206458,
      1789206486,
      1789206529,
      1789206552,
      1789206577,
      1789206626,
      1789206641,
      1789206675,
      1789206709,
      1789206738,
      1789206759,
      1789206782,
      1789206839,
      1789206866,
      1789206887,
      1789206907,
      1789206953,
      1789206984,
      1789207013,
      1789207044,
      1789207057,
      1789207083,
      1789207126,
      1789207159,
      1789207176
    ],
    "wof:geomhash": "1be26e50c36e06cc9967232a563fedb4",
    "wof:id": 2048318053,
    "wof:repo": "sfomuseum-data-flights-2026-09"
  },
  "bbox": [
    -122.35504,
    37.49188,
    -121.28851,
    37.61258
  ],
  "geometry": {"type":"LineString","coordinates":[[-121.28851,37.58934],[-121.36016,37.58153],[-121.382,37.57912],[-121.43333,37.5733],[-121.51364,37.56394],[-121.55572,37.55893],[-121.59779,37.55399],[-121.67743,37.5381],[-121.6999,37.53291],[-121.75198,37.52036],[-121.80368,37.50806],[-121.84644,37.49775],[-121.87646,37.49193],[-121.91047,37.49188],[-121.99208,37.4963],[-122.03081,37.50844],[-122.05956,37.51783],[-122.08757,37.52705],[-122.14452,37.54559],[-122.17858,37.55656],[-122.21122,37.56711],[-122.24308,37.57744],[-122.25674,37.58175],[-122.28132,37.58894],[-122.31692,37.599],[-122.34282,37.60758],[-122.35504,37.61258]]}
}
