{
  "id": 2048467811,
  "type": "Feature",
  "properties": {
    "geom:area": 0,
    "geom:bbox": "-119.703333,34.964444,-80.952778,39.893056",
    "geom:latitude": 38.42533604218784,
    "geom:longitude": -99.97406359342486,
    "src:alt_label": "swim-path",
    "src:geom": "swim",
    "swim:altitudes": [
      "291",
      "294",
      "305",
      "309C",
      "310C",
      "310C",
      "310C",
      "310C",
      "310C",
      "310C",
      "310C",
      "310C",
      "310C",
      "310C",
      "310C",
      "310C",
      "310C",
      "310C",
      "310C",
      "310C",
      "310C",
      "310C",
      "310C",
      "310C",
      "310C",
      "311C",
      "310C",
      "310C",
      "310C",
      "310C",
      "310C",
      "310C",
      "310C",
      "310C",
      "310C",
      "310C",
      "310C",
      "310C",
      "310C",
      "310C",
      "310C",
      "310C",
      "310C",
      "310C",
      "310C",
      "310C",
      "310C",
      "310C",
      "310C",
      "310C",
      "310C",
      "310C",
      "310C",
      "310C",
      "310C",
      "310C",
      "310C",
      "310C",
      "310C",
      "310C",
      "330C",
      "330C",
      "330C",
      "330C",
      "330C",
      "330C",
      "330",
      "329",
      "327",
      "322",
      "313",
      "307",
      "298",
      "293",
      "284",
      "278",
      "269",
      "264",
      "255",
      "251C",
      "250C",
      "250C",
      "250C",
      "250C",
      "250C",
      "250C",
      "250C",
      "250C",
      "250C",
      "250C",
      "250C",
      "250C",
      "250C",
      "250C",
      "250C",
      "250C",
      "250C",
      "250C",
      "250C",
      "250C",
      "250C",
      "250C",
      "250C",
      "250C",
      "250C",
      "250C",
      "250C",
      "250C",
      "250C",
      "250C",
      "250C",
      "250C",
      "250C",
      "250C",
      "250C",
      "250C",
      "250C",
      "250C",
      "250C",
      "250C",
      "250C",
      "250C",
      "250C",
      "250C",
      "250C",
      "251C",
      "251C",
      "250C",
      "250C",
      "250C",
      "250C",
      "251C",
      "250C",
      "250C",
      "250C",
      "250C",
      "250C",
      "250C",
      "249C",
      "250C",
      "250C",
      "251C",
      "251C",
      "250C",
      "250C",
      "250C",
      "250C",
      "250C",
      "251C",
      "250C",
      "250C",
      "250C",
      "250C",
      "250C",
      "250C",
      "250C",
      "250C",
      "250C",
      "250C",
      "250C",
      "250C",
      "250C",
      "250C",
      "250C",
      "250C",
      "250C",
      "250C",
      "250C",
      "250C",
      "250C",
      "250C",
      "250C",
      "250C",
      "250C",
      "250C",
      "251C",
      "260",
      "270C",
      "270C",
      "270C",
      "270C",
      "270C",
      "270C",
      "270C",
      "270C",
      "270C",
      "270C",
      "270C",
      "270C",
      "271C",
      "271C",
      "271C",
      "270C",
      "270C",
      "270C",
      "270C",
      "270C",
      "270C",
      "270C",
      "270C",
      "270",
      "277",
      "281",
      "286",
      "289",
      "294",
      "299",
      "305",
      "309C",
      "310C",
      "310C",
      "310C",
      "310C",
      "310C",
      "310C",
      "310C",
      "310C",
      "310C",
      "310C",
      "310C",
      "310C",
      "310C",
      "310C",
      "310C",
      "310C",
      "310C",
      "310C",
      "310C",
      "310C",
      "310C",
      "310C",
      "310C",
      "310C",
      "310C",
      "310C",
      "310C",
      "310C",
      "310C",
      "310C",
      "310C",
      "310C",
      "310C",
      "310C",
      "310C",
      "310C",
      "310C",
      "311C",
      "311C",
      "311C",
      "310C",
      "310C",
      "310C",
      "310C",
      "310C",
      "310C",
      "310C",
      "310C",
      "310C",
      "310C",
      "310C",
      "310C",
      "310C",
      "310C",
      "310C",
      "310C",
      "310C",
      "310C",
      "310C",
      "310C",
      "310C",
      "310C",
      "310C",
      "310C",
      "310C",
      "310C",
      "310C",
      "310C",
      "310C",
      "310C",
      "310C",
      "310C",
      "310C",
      "310C",
      "310C",
      "310C",
      "310C",
      "310C",
      "310C",
      "310C",
      "310C",
      "310C",
      "310C",
      "310C",
      "310C",
      "310C",
      "310C",
      "311C",
      "310C",
      "310C",
      "310C",
      "310C",
      "310C",
      "310C",
      "310",
      "300",
      "290C",
      "290C",
      "290C",
      "290",
      "282",
      "273",
      "262",
      "253",
      "243",
      "233",
      "223",
      "213",
      "203",
      "194",
      "193",
      "184",
      "184",
      "169",
      "169",
      "156",
      "156",
      "136",
      "137",
      "121",
      "119",
      "106",
      "104",
      "100",
      "090",
      "079",
      "065",
      "054",
      "050",
      "050",
      "044",
      "038",
      "036",
      "028",
      "026",
      "018",
      "009"
    ],
    "swim:geom": "path",
    "swim:speeds": [
      442,
      441,
      440,
      440,
      440,
      444,
      441,
      449,
      446,
      452,
      451,
      453,
      452,
      453,
      453,
      454,
      453,
      453,
      452,
      451,
      449,
      449,
      449,
      449,
      450,
      450,
      449,
      448,
      448,
      447,
      446,
      446,
      446,
      445,
      445,
      445,
      445,
      445,
      445,
      445,
      445,
      446,
      447,
      447,
      447,
      445,
      442,
      439,
      437,
      436,
      435,
      434,
      433,
      431,
      429,
      427,
      427,
      428,
      431,
      434,
      451,
      465,
      463,
      461,
      456,
      456,
      455,
      455,
      452,
      452,
      452,
      451,
      451,
      450,
      451,
      452,
      452,
      453,
      453,
      452,
      455,
      456,
      457,
      457,
      456,
      455,
      452,
      451,
      449,
      449,
      448,
      448,
      448,
      449,
      449,
      449,
      450,
      451,
      451,
      452,
      452,
      452,
      452,
      452,
      452,
      452,
      452,
      453,
      455,
      456,
      457,
      458,
      461,
      463,
      465,
      467,
      470,
      472,
      475,
      475,
      476,
      476,
      476,
      476,
      476,
      478,
      478,
      477,
      477,
      477,
      482,
      485,
      486,
      487,
      488,
      489,
      489,
      492,
      491,
      492,
      498,
      502,
      503,
      502,
      500,
      496,
      496,
      497,
      498,
      497,
      494,
      491,
      490,
      490,
      488,
      487,
      486,
      486,
      488,
      489,
      490,
      492,
      492,
      491,
      491,
      489,
      490,
      490,
      483,
      486,
      493,
      495,
      496,
      497,
      499,
      501,
      502,
      499,
      499,
      502,
      503,
      504,
      504,
      504,
      504,
      506,
      504,
      508,
      508,
      510,
      508,
      510,
      508,
      509,
      508,
      508,
      508,
      507,
      507,
      506,
      505,
      505,
      503,
      500,
      501,
      495,
      495,
      500,
      491,
      492,
      491,
      493,
      494,
      494,
      494,
      493,
      493,
      493,
      493,
      493,
      494,
      494,
      494,
      495,
      495,
      496,
      496,
      497,
      497,
      498,
      495,
      498,
      499,
      497,
      499,
      500,
      501,
      502,
      502,
      503,
      501,
      503,
      504,
      505,
      506,
      507,
      508,
      508,
      508,
      508,
      507,
      506,
      505,
      505,
      504,
      504,
      505,
      504,
      506,
      504,
      500,
      503,
      499,
      502,
      501,
      501,
      500,
      500,
      500,
      499,
      498,
      498,
      497,
      497,
      496,
      497,
      496,
      496,
      495,
      495,
      494,
      494,
      494,
      494,
      493,
      493,
      492,
      492,
      491,
      490,
      490,
      490,
      491,
      491,
      492,
      492,
      491,
      487,
      486,
      487,
      487,
      487,
      485,
      484,
      460,
      435,
      428,
      409,
      396,
      394,
      381,
      382,
      377,
      368,
      364,
      364,
      363,
      360,
      350,
      354,
      353,
      353,
      347,
      351,
      333,
      337,
      320,
      325,
      317,
      320,
      310,
      312,
      275,
      254,
      246,
      243,
      234,
      227,
      216,
      190,
      187,
      187,
      185,
      186,
      167,
      159
    ],
    "swim:timestamps": [
      1790751253,
      1790751283,
      1790751373,
      1790751403,
      1790751433,
      1790751463,
      1790751493,
      1790751523,
      1790751553,
      1790751583,
      1790751613,
      1790751643,
      1790751674,
      1790751703,
      1790751763,
      1790751794,
      1790751823,
      1790751854,
      1790751883,
      1790751914,
      1790752034,
      1790752063,
      1790752094,
      1790752123,
      1790752154,
      1790752183,
      1790752214,
      1790752243,
      1790752274,
      1790752303,
      1790752334,
      1790752363,
      1790752394,
      1790752423,
      1790752454,
      1790752483,
      1790752514,
      1790752543,
      1790752574,
      1790752603,
      1790752634,
      1790752694,
      1790752754,
      1790752814,
      1790752874,
      1790752934,
      1790752994,
      1790753054,
      1790753114,
      1790753174,
      1790753234,
      1790753294,
      1790753354,
      1790753414,
      1790753474,
      1790753534,
      1790753595,
      1790753655,
      1790753715,
      1790753775,
      1790754135,
      1790754391,
      1790754435,
      1790754451,
      1790754495,
      1790754511,
      1790754555,
      1790754571,
      1790754615,
      1790754631,
      1790754675,
      1790754691,
      1790754735,
      1790754751,
      1790754795,
      1790754811,
      1790754855,
      1790754871,
      1790754915,
      1790754932,
      1790754975,
      1790754992,
      1790755035,
      1790755052,
      1790755095,
      1790755112,
      1790755155,
      1790755172,
      1790755215,
      1790755232,
      1790755275,
      1790755292,
      1790755335,
      1790755352,
      1790755395,
      1790755412,
      1790755455,
      1790755472,
      1790755516,
      1790755532,
      1790755576,
      1790755592,
      1790755636,
      1790755652,
      1790755696,
      1790755712,
      1790755772,
      1790755832,
      1790755892,
      1790755952,
      1790756012,
      1790756072,
      1790756132,
      1790756192,
      1790756252,
      1790756312,
      1790756372,
      1790756432,
      1790756492,
      1790756552,
      1790756612,
      1790756672,
      1790756732,
      1790756792,
      1790756852,
      1790756912,
      1790756972,
      1790757033,
      1790757093,
      1790757153,
      1790757213,
      1790757273,
      1790757333,
      1790757393,
      1790757453,
      1790757513,
      1790757573,
      1790757636,
      1790757694,
      1790757753,
      1790757813,
      1790757873,
      1790757933,
      1790757993,
      1790758057,
      1790758113,
      1790758173,
      1790758233,
      1790758293,
      1790758353,
      1790758413,
      1790758475,
      1790758533,
      1790758593,
      1790758653,
      1790758713,
      1790758773,
      1790758833,
      1790758893,
      1790758953,
      1790759013,
      1790759076,
      1790759136,
      1790759195,
      1790759257,
      1790759317,
      1790759375,
      1790759436,
      1790759496,
      1790759555,
      1790759617,
      1790759675,
      1790759736,
      1790759796,
      1790759856,
      1790759916,
      1790759976,
      1790760038,
      1790760097,
      1790760157,
      1790760218,
      1790760278,
      1790760336,
      1790760397,
      1790760457,
      1790760518,
      1790760553,
      1790760578,
      1790760614,
      1790760637,
      1790760674,
      1790760697,
      1790760734,
      1790760758,
      1790760794,
      1790760818,
      1790760854,
      1790760877,
      1790760914,
      1790760937,
      1790760997,
      1790761034,
      1790761057,
      1790761094,
      1790761119,
      1790761154,
      1790761177,
      1790761214,
      1790761238,
      1790761274,
      1790761298,
      1790761334,
      1790761359,
      1790761394,
      1790761419,
      1790761454,
      1790761479,
      1790761514,
      1790761538,
      1790761574,
      1790761599,
      1790761634,
      1790761659,
      1790761694,
      1790761717,
      1790761754,
      1790761778,
      1790761814,
      1790761838,
      1790761874,
      1790761890,
      1790761898,
      1790761934,
      1790761950,
      1790761958,
      1790761994,
      1790762019,
      1790762054,
      1790762077,
      1790762114,
      1790762131,
      1790762139,
      1790762174,
      1790762197,
      1790762234,
      1790762258,
      1790762294,
      1790762311,
      1790762355,
      1790762371,
      1790762415,
      1790762439,
      1790762475,
      1790762492,
      1790762535,
      1790762560,
      1790762609,
      1790762655,
      1790762671,
      1790762715,
      1790762731,
      1790762775,
      1790762791,
      1790762835,
      1790762853,
      1790762895,
      1790762913,
      1790762955,
      1790762973,
      1790763033,
      1790763075,
      1790763093,
      1790763135,
      1790763153,
      1790763195,
      1790763213,
      1790763255,
      1790763272,
      1790763315,
      1790763333,
      1790763375,
      1790763393,
      1790763435,
      1790763453,
      1790763495,
      1790763513,
      1790763555,
      1790763573,
      1790763615,
      1790763633,
      1790763675,
      1790763690,
      1790763735,
      1790763750,
      1790763812,
      1790763872,
      1790763930,
      1790763991,
      1790764051,
      1790764111,
      1790764171,
      1790764231,
      1790764291,
      1790764351,
      1790764411,
      1790764471,
      1790764531,
      1790764591,
      1790764652,
      1790764712,
      1790764772,
      1790764836,
      1790764893,
      1790764953,
      1790765013,
      1790765073,
      1790765133,
      1790765193,
      1790765244,
      1790765253,
      1790765304,
      1790765313,
      1790765364,
      1790765373,
      1790765424,
      1790765434,
      1790765485,
      1790765494,
      1790765545,
      1790765554,
      1790765605,
      1790765614,
      1790765665,
      1790765734,
      1790765785,
      1790765854,
      1790765914,
      1790765959,
      1790765974,
      1790766034,
      1790766079,
      1790766094,
      1790766140,
      1790766155,
      1790766206,
      1790766275
    ],
    "wof:geomhash": "127f50a662ea6d0feec7e7bd4a3d9028",
    "wof:id": 2048467811,
    "wof:repo": "sfomuseum-data-flights-2026-09"
  },
  "bbox": [
    -119.70333333333333,
    34.964444444444446,
    -80.95277777777778,
    39.893055555555556
  ],
  "geometry": {"type":"LineString","coordinates":[[-119.70333333333333,38.38777777777778],[-119.62777777777777,38.39888888888889],[-119.39833333333334,38.42833333333333],[-119.30694444444444,38.44027777777777],[-119.24416666666667,38.44694444444444],[-119.15083333333334,38.46],[-119.08833333333332,38.466944444444444],[-118.99555555555555,38.47944444444445],[-118.93111111111112,38.48722222222222],[-118.83555555555554,38.49944444444444],[-118.77333333333333,38.50611111111111],[-118.67972222222222,38.51833333333333],[-118.61472222222221,38.52611111111111],[-118.5213888888889,38.53777777777778],[-118.36333333333333,38.556666666666665],[-118.29472222222222,38.565],[-118.20583333333333,38.57527777777778],[-118.13555555555556,38.58361111111111],[-118.04388888888889,38.59444444444445],[-117.97833333333334,38.60194444444445],[-117.66027777777778,38.63861111111111],[-117.59416666666667,38.64611111111111],[-117.50305555555556,38.656388888888884],[-117.43722222222223,38.663888888888884],[-117.34277777777777,38.674166666666665],[-117.2775,38.68277777777777],[-117.18583333333333,38.698611111111106],[-117.12166666666666,38.70944444444445],[-117.02916666666667,38.72527777777778],[-116.965,38.736111111111114],[-116.875,38.75138888888889],[-116.8086111111111,38.7625],[-116.74944444444445,38.7725],[-116.655,38.78805555555555],[-116.56305555555555,38.80333333333333],[-116.49861111111112,38.81388888888888],[-116.40833333333335,38.828611111111115],[-116.34416666666667,38.839444444444446],[-116.25333333333333,38.85388888888889],[-116.19777777777779,38.863055555555555],[-116.09666666666666,38.879444444444445],[-115.93944444444445,38.90472222222222],[-115.78111111111112,38.92972222222222],[-115.62555555555555,38.95416666666667],[-115.47111111111111,38.97833333333333],[-115.33,39.000277777777775],[-115.17694444444444,39.02361111111111],[-115.02472222222222,39.04666666666667],[-114.87138888888889,39.069722222222225],[-114.72055555555556,39.092222222222226],[-114.56833333333333,39.11472222222223],[-114.41638888888889,39.13666666666666],[-114.26416666666667,39.15861111111111],[-114.11305555555555,39.180277777777775],[-113.96138888888889,39.20166666666667],[-113.81361111111111,39.222500000000004],[-113.66166666666668,39.243611111111115],[-113.51138888888889,39.26444444444444],[-113.35888888888888,39.28527777777778],[-113.20277777777778,39.30638888888888],[-112.27194444444444,39.425555555555555],[-111.5411111111111,39.51361111111111],[-111.42083333333333,39.527499999999996],[-111.37888888888888,39.5325],[-111.25972222222222,39.54611111111111],[-111.21805555555555,39.55083333333333],[-111.11916666666666,39.56222222222222],[-111.05694444444444,39.56916666666667],[-110.95944444444444,39.58027777777778],[-110.89611111111111,39.58722222222222],[-110.79916666666666,39.59805555555556],[-110.73527777777778,39.60416666666667],[-110.63972222222223,39.61],[-110.57527777777777,39.61416666666667],[-110.47638888888889,39.62027777777778],[-110.41361111111112,39.62388888888889],[-110.31388888888888,39.63],[-110.24916666666667,39.63361111111111],[-110.15277777777779,39.63916666666667],[-110.08833333333332,39.64277777777778],[-109.9875,39.64833333333333],[-109.92416666666666,39.651944444444446],[-109.82277777777777,39.6575],[-109.76055555555556,39.66083333333333],[-109.65944444444445,39.66638888888889],[-109.5961111111111,39.669444444444444],[-109.4975,39.67472222222222],[-109.43611111111112,39.67777777777778],[-109.33749999999999,39.68277777777777],[-109.27416666666666,39.68583333333333],[-109.17722222222223,39.690555555555555],[-109.11472222222221,39.69361111111111],[-109.01694444444445,39.69833333333333],[-108.95111111111112,39.70138888888889],[-108.85111111111111,39.70583333333334],[-108.82,39.70722222222223],[-108.68138888888889,39.71333333333334],[-108.64916666666667,39.71472222222223],[-108.51666666666667,39.720555555555556],[-108.48361111111112,39.721944444444446],[-108.35249999999999,39.7275],[-108.32166666666666,39.728611111111114],[-108.18972222222223,39.73388888888889],[-108.14333333333335,39.73583333333333],[-108.02805555555555,39.74027777777778],[-107.98055555555555,39.742222222222225],[-107.82111111111111,39.74805555555556],[-107.65611111111112,39.75416666666667],[-107.50333333333333,39.75944444444445],[-107.33833333333332,39.765],[-107.17361111111111,39.77027777777778],[-107.00166666666667,39.775555555555556],[-106.83027777777778,39.78055555555555],[-106.66333333333334,39.78527777777778],[-106.49027777777778,39.79138888888889],[-106.32444444444444,39.801944444444445],[-106.15472222222223,39.81222222222222],[-105.98305555555555,39.822500000000005],[-105.81083333333333,39.8325],[-105.64,39.842222222222226],[-105.46722222222222,39.85166666666667],[-105.29666666666667,39.861111111111114],[-105.1236111111111,39.87],[-104.95027777777779,39.87888888888889],[-104.77666666666667,39.8875],[-104.60166666666666,39.893055555555556],[-104.42805555555556,39.884166666666665],[-104.25444444444445,39.874722222222225],[-104.11722222222221,39.86694444444444],[-103.94527777777778,39.85722222222223],[-103.77027777777778,39.846944444444446],[-103.595,39.83638888888889],[-103.41972222222223,39.82555555555556],[-103.24305555555556,39.81444444444444],[-103.06861111111111,39.80305555555555],[-102.89027777777778,39.79111111111111],[-102.71583333333334,39.776944444444446],[-102.52972222222222,39.74888888888889],[-102.33611111111111,39.72222222222222],[-102.19333333333334,39.70027777777778],[-101.98111111111112,39.66861111111111],[-101.80444444444444,39.64194444444444],[-101.62666666666667,39.614444444444445],[-101.45138888888889,39.58722222222222],[-101.29583333333333,39.5625],[-101.10527777777777,39.532777777777774],[-100.92861111111111,39.50472222222222],[-100.75666666666666,39.47666666666667],[-100.58166666666666,39.448055555555555],[-100.40805555555556,39.419444444444444],[-100.23722222222223,39.39111111111111],[-100.07972222222222,39.364444444444445],[-99.89444444444445,39.333333333333336],[-99.7238888888889,39.303888888888885],[-99.55527777777777,39.27472222222222],[-99.38666666666667,39.24527777777778],[-99.21611111111112,39.21527777777778],[-99.04694444444445,39.18527777777778],[-98.87138888888889,39.153888888888886],[-98.69861111111112,39.1225],[-98.5286111111111,39.09138888888889],[-98.36888888888888,39.06027777777778],[-98.20583333333333,39.00805555555556],[-98.04472222222222,38.955000000000005],[-97.88388888888889,38.902499999999996],[-97.7063888888889,38.845555555555556],[-97.53583333333333,38.81805555555556],[-97.3825,38.78944444444444],[-97.23555555555555,38.721111111111114],[-97.07222222222222,38.67666666666666],[-96.90833333333335,38.626666666666665],[-96.73527777777778,38.571111111111115],[-96.57333333333332,38.519999999999996],[-96.40416666666667,38.484722222222224],[-96.22888888888889,38.46638888888889],[-96.05388888888889,38.448055555555555],[-95.87833333333333,38.42916666666667],[-95.705,38.410555555555554],[-95.53055555555555,38.39138888888889],[-95.3561111111111,38.37222222222222],[-95.17944444444444,38.352222222222224],[-95.00305555555556,38.33222222222223],[-94.8286111111111,38.31222222222222],[-94.65361111111112,38.291666666666664],[-94.47888888888889,38.270833333333336],[-94.30222222222221,38.24777777777778],[-94.18083333333334,38.23888888888889],[-94.12305555555555,38.22416666666667],[-94.0025,38.21388888888889],[-93.96333333333334,38.2025],[-93.825,38.189166666666665],[-93.7875,38.178888888888885],[-93.64805555555556,38.16416666666667],[-93.61194444444443,38.15472222222222],[-93.47277777777778,38.13583333333333],[-93.43361111111112,38.13],[-93.29722222222222,38.11194444444445],[-93.25833333333334,38.10527777777778],[-93.12249999999999,38.08722222222222],[-93.08277777777778,38.08027777777778],[-92.90861111111111,38.055277777777775],[-92.77305555555556,38.03666666666666],[-92.71666666666667,38.027499999999996],[-92.60194444444444,38.01111111111111],[-92.54444444444444,38.00222222222222],[-92.46722222222222,37.99055555555556],[-92.37388888888889,37.97694444444445],[-92.26805555555555,37.961666666666666],[-92.20722222222223,37.95194444444445],[-92.10638888888889,37.93722222222222],[-92.03611111111111,37.92583333333333],[-91.93138888888889,37.91],[-91.86305555555555,37.89944444444444],[-91.75833333333334,37.88333333333333],[-91.69361111111111,37.873333333333335],[-91.58916666666666,37.856944444444444],[-91.52472222222222,37.846944444444446],[-91.42055555555557,37.830555555555556],[-91.3536111111111,37.819722222222225],[-91.24916666666667,37.80333333333333],[-91.18444444444445,37.793055555555554],[-91.07916666666667,37.77611111111111],[-91.02027777777778,37.76638888888889],[-90.9088888888889,37.748333333333335],[-90.85111111111111,37.73916666666667],[-90.73666666666666,37.72027777777778],[-90.68194444444445,37.71138888888889],[-90.56777777777778,37.692499999999995],[-90.51083333333334,37.683055555555555],[-90.39444444444445,37.66361111111111],[-90.37249999999999,37.66027777777778],[-90.33999999999999,37.65472222222222],[-90.2238888888889,37.635],[-90.205,37.63138888888889],[-90.1713888888889,37.626111111111115],[-90.05111111111111,37.60583333333334],[-89.99861111111112,37.59666666666667],[-89.87888888888888,37.57611111111112],[-89.82694444444444,37.56722222222223],[-89.705,37.54611111111111],[-89.69,37.54361111111111],[-89.65555555555557,37.5375],[-89.53305555555555,37.51611111111111],[-89.48388888888888,37.5075],[-89.37249999999999,37.48777777777778],[-89.30833333333334,37.4775],[-89.19833333333334,37.46],[-89.13694444444445,37.45],[-89.02444444444444,37.431666666666665],[-88.96527777777779,37.42194444444444],[-88.85194444444444,37.403055555555554],[-88.78194444444445,37.391666666666666],[-88.67944444444444,37.37444444444444],[-88.64500000000001,37.368611111111115],[-88.50805555555556,37.345555555555556],[-88.43694444444445,37.33361111111111],[-88.3025,37.31083333333333],[-88.16250000000001,37.28638888888889],[-88.1275,37.282222222222224],[-87.99333333333334,37.256388888888885],[-87.95916666666668,37.250277777777775],[-87.82055555555556,37.22527777777778],[-87.78805555555556,37.22],[-87.65166666666667,37.19472222222222],[-87.61694444444444,37.18944444444444],[-87.48055555555555,37.16361111111111],[-87.44722222222222,37.158055555555556],[-87.31222222222222,37.1325],[-87.27805555555555,37.12722222222222],[-87.10972222222222,37.095555555555556],[-86.97527777777778,37.069722222222225],[-86.94083333333333,37.064166666666665],[-86.80527777777777,37.0375],[-86.77305555555556,37.031666666666666],[-86.63861111111112,37.005833333333335],[-86.60499999999999,37.000277777777775],[-86.46972222222223,36.973333333333336],[-86.43666666666667,36.966944444444444],[-86.30222222222221,36.94],[-86.26861111111111,36.933055555555555],[-86.1363888888889,36.90611111111111],[-86.10416666666666,36.89944444444444],[-85.9713888888889,36.871944444444445],[-85.93666666666667,36.86472222222223],[-85.80333333333333,36.83722222222222],[-85.77194444444444,36.830555555555556],[-85.63861111111112,36.80277777777778],[-85.60805555555555,36.796388888888885],[-85.47500000000001,36.76833333333333],[-85.42694444444444,36.75805555555556],[-85.32638888888889,36.736666666666665],[-85.26027777777777,36.72277777777778],[-85.16027777777778,36.70111111111111],[-85.09527777777777,36.68722222222222],[-84.93111111111112,36.651944444444446],[-84.76666666666667,36.61611111111111],[-84.63305555555554,36.58694444444445],[-84.45472222222223,36.544999999999995],[-84.32111111111111,36.490833333333335],[-84.19083333333333,36.406666666666666],[-84.06277777777777,36.31666666666667],[-83.93527777777778,36.22694444444445],[-83.80916666666667,36.13777777777778],[-83.685,36.04944444444444],[-83.56527777777778,35.96388888888889],[-83.43277777777779,35.8925],[-83.295,35.85583333333334],[-83.15805555555556,35.825],[-83.03055555555555,35.79666666666667],[-82.9,35.76722222222222],[-82.7761111111111,35.739444444444445],[-82.65055555555556,35.711111111111116],[-82.52444444444444,35.6825],[-82.40361111111112,35.65472222222222],[-82.285,35.62722222222222],[-82.16666666666667,35.6],[-82.04888888888888,35.57083333333334],[-81.9375,35.530833333333334],[-81.83305555555555,35.49138888888889],[-81.82888888888888,35.49166666666667],[-81.7225,35.453611111111115],[-81.71972222222223,35.45194444444445],[-81.60972222222222,35.41777777777777],[-81.60916666666667,35.41777777777777],[-81.50305555555556,35.3875],[-81.50138888888888,35.38722222222222],[-81.3963888888889,35.35722222222223],[-81.39694444444446,35.35777777777778],[-81.29527777777777,35.328611111111115],[-81.27722222222222,35.32361111111111],[-81.19416666666667,35.29972222222222],[-81.17777777777778,35.29527777777778],[-81.10111111111111,35.27222222222222],[-81.06722222222221,35.202222222222225],[-81.06138888888889,35.14333333333333],[-81.05499999999999,35.06638888888889],[-81.04944444444445,35.0025],[-81.02027777777778,34.964444444444446],[-81.00138888888888,34.965],[-80.96111111111111,35.001666666666665],[-80.95333333333333,35.0375],[-80.95277777777778,35.051111111111105],[-80.9575,35.089444444444446],[-80.95694444444445,35.102222222222224],[-80.96166666666667,35.14361111111111],[-80.96472222222222,35.19472222222222]]}
}
