{
  "id": 2048394579,
  "type": "Feature",
  "properties": {
    "geom:area": 0,
    "geom:bbox": "-122.355370,37.428180,-121.243960,37.612770",
    "geom:latitude": 37.53440963274219,
    "geom:longitude": -121.80952628692175,
    "src:alt_label": "swim-approach",
    "src:geom": "swim",
    "swim:elevations": [
      4462,
      4413,
      4142,
      3932,
      3760,
      3641,
      3360,
      3181,
      3027,
      3026,
      2956,
      2832,
      2771,
      2739,
      2657,
      2592,
      2521,
      2453,
      2409,
      2295,
      2130,
      1997,
      1766,
      1572,
      1459,
      1195,
      1131,
      982,
      740,
      698,
      568,
      342,
      210,
      103,
      36
    ],
    "swim:geom": "approach",
    "swim:timestamps": [
      1789984978,
      1789984985,
      1789985035,
      1789985062,
      1789985087,
      1789985103,
      1789985139,
      1789985165,
      1789985194,
      1789985225,
      1789985263,
      1789985309,
      1789985331,
      1789985366,
      1789985394,
      1789985426,
      1789985453,
      1789985475,
      1789985501,
      1789985528,
      1789985563,
      1789985590,
      1789985619,
      1789985650,
      1789985673,
      1789985725,
      1789985735,
      1789985768,
      1789985816,
      1789985823,
      1789985850,
      1789985905,
      1789985937,
      1789985967,
      1789985985
    ],
    "wof:geomhash": "1857a36754e62e5510d04bffcd1e9154",
    "wof:id": 2048394579,
    "wof:repo": "sfomuseum-data-flights-2026-09"
  },
  "bbox": [
    -122.35537,
    37.42818,
    -121.24396,
    37.61277
  ],
  "geometry": {"type":"LineString","coordinates":[[-121.24396,37.5953],[-121.25714,37.59355],[-121.34257,37.58336],[-121.38726,37.57843],[-121.4279,37.5738],[-121.45439,37.57075],[-121.51072,37.56413],[-121.54864,37.55971],[-121.59153,37.55462],[-121.63572,37.55034],[-121.69025,37.56166],[-121.75614,37.57533],[-121.78832,37.57406],[-121.81131,37.54252],[-121.80785,37.51205],[-121.81099,37.47872],[-121.82201,37.44979],[-121.84044,37.43133],[-121.87647,37.42818],[-121.91542,37.4315],[-121.96173,37.44584],[-121.99514,37.45967],[-122.03048,37.47562],[-122.0652,37.49058],[-122.0877,37.50001],[-122.13882,37.52167],[-122.148,37.52548],[-122.17917,37.53865],[-122.22417,37.55759],[-122.23018,37.56013],[-122.25479,37.57051],[-122.29617,37.58794],[-122.32058,37.59823],[-122.34245,37.60741],[-122.35537,37.61277]]}
}
