{
  "id": 2048460999,
  "type": "Feature",
  "properties": {
    "geom:area": 0,
    "geom:bbox": "-122.400000,32.861111,-96.833333,38.338611",
    "geom:latitude": 35.914511610672776,
    "geom:longitude": -109.44759110126806,
    "src:alt_label": "swim-path",
    "src:geom": "swim",
    "swim:altitudes": [
      "021",
      "047",
      "053",
      "077",
      "087",
      "111",
      "115",
      "144",
      "178",
      "206",
      "231",
      "253",
      "280",
      "302",
      "312",
      "312",
      "297",
      "290C",
      "290C",
      "290C",
      "290C",
      "290C",
      "290C",
      "290C",
      "290C",
      "290C",
      "290C",
      "290C",
      "290C",
      "290C",
      "290C",
      "290C",
      "290C",
      "290C",
      "290C",
      "290C",
      "290C",
      "290C",
      "290C",
      "290C",
      "290C",
      "290C",
      "290C",
      "290C",
      "290C",
      "290C",
      "290C",
      "290C",
      "290C",
      "290C",
      "290C",
      "290C",
      "290C",
      "290C",
      "290C",
      "290",
      "290",
      "290",
      "303",
      "308C",
      "310C",
      "310C",
      "310C",
      "310C",
      "310C",
      "310C",
      "310C",
      "310C",
      "310C",
      "310C",
      "319",
      "323",
      "337",
      "350C",
      "350C",
      "350C",
      "350C",
      "350C",
      "350C",
      "350C",
      "350C",
      "350C",
      "350C",
      "350C",
      "350C",
      "350C",
      "350C",
      "350C",
      "350C",
      "350C",
      "350C",
      "350C",
      "350C",
      "350C",
      "350C",
      "350C",
      "350C",
      "350C",
      "350C",
      "350C",
      "350C",
      "350C",
      "350C",
      "350C",
      "350C",
      "350C",
      "350C",
      "350C",
      "350C",
      "350C",
      "350C",
      "350C",
      "350C",
      "350",
      "352",
      "359",
      "369C",
      "370C",
      "370C",
      "370C",
      "370C",
      "370C",
      "370C",
      "370C",
      "370C",
      "370C",
      "370C",
      "370C",
      "370C",
      "370C",
      "370C",
      "370C",
      "370C",
      "370C",
      "370C",
      "370C",
      "370C",
      "370C",
      "370C",
      "370C",
      "370C",
      "370C",
      "370C",
      "370C",
      "370C",
      "370C",
      "370C",
      "370C",
      "370C",
      "370C",
      "370C",
      "370C",
      "370C",
      "370",
      "357",
      "339",
      "316",
      "310C",
      "310C",
      "310C",
      "310C",
      "310C",
      "310C",
      "310C",
      "310C",
      "310C",
      "310C",
      "310C",
      "310C",
      "310C",
      "310C",
      "310C",
      "310C",
      "310C",
      "310C",
      "310C",
      "310C",
      "310C",
      "310C",
      "310C",
      "310C",
      "310C",
      "310C",
      "310C",
      "310C",
      "310C",
      "310C",
      "310C",
      "310C",
      "310",
      "310",
      "310",
      "310",
      "309",
      "301",
      "288",
      "281",
      "270C",
      "270C",
      "270C",
      "270C",
      "270C",
      "270C",
      "270C",
      "270C",
      "270C",
      "270C",
      "270C",
      "270C",
      "270",
      "260",
      "252",
      "245",
      "239C",
      "230",
      "223",
      "205",
      "180",
      "163",
      "157",
      "148",
      "128",
      "121",
      "111",
      "110",
      "110",
      "110",
      "108",
      "101",
      "094",
      "079",
      "073",
      "062",
      "057",
      "046",
      "041",
      "040",
      "040",
      "040",
      "040",
      "040",
      "040",
      "040",
      "040",
      "040",
      "040",
      "030",
      "030",
      "023",
      "020",
      "019",
      "019",
      "018",
      "013",
      "011",
      "006"
    ],
    "swim:geom": "path",
    "swim:speeds": [
      158,
      206,
      222,
      272,
      270,
      300,
      313,
      351,
      367,
      382,
      395,
      406,
      407,
      396,
      418,
      446,
      431,
      429,
      435,
      441,
      435,
      442,
      443,
      445,
      448,
      452,
      455,
      456,
      457,
      458,
      459,
      461,
      462,
      477,
      484,
      492,
      492,
      493,
      494,
      494,
      494,
      493,
      493,
      492,
      492,
      491,
      490,
      489,
      488,
      488,
      487,
      487,
      486,
      486,
      486,
      486,
      483,
      480,
      474,
      469,
      456,
      455,
      455,
      455,
      455,
      457,
      457,
      483,
      490,
      494,
      498,
      498,
      498,
      495,
      494,
      495,
      497,
      503,
      496,
      495,
      493,
      492,
      515,
      532,
      533,
      534,
      534,
      533,
      531,
      531,
      532,
      534,
      542,
      536,
      540,
      537,
      536,
      539,
      536,
      535,
      534,
      532,
      531,
      530,
      529,
      526,
      525,
      522,
      522,
      521,
      520,
      520,
      519,
      520,
      518,
      528,
      534,
      535,
      536,
      537,
      538,
      538,
      540,
      539,
      540,
      540,
      540,
      540,
      540,
      540,
      541,
      541,
      541,
      541,
      541,
      540,
      541,
      540,
      540,
      539,
      538,
      538,
      538,
      539,
      539,
      539,
      540,
      541,
      541,
      542,
      541,
      542,
      542,
      542,
      543,
      533,
      507,
      510,
      510,
      510,
      502,
      500,
      499,
      500,
      501,
      501,
      502,
      503,
      503,
      503,
      503,
      503,
      502,
      502,
      501,
      501,
      501,
      501,
      501,
      501,
      501,
      500,
      500,
      500,
      500,
      500,
      500,
      500,
      500,
      499,
      499,
      498,
      498,
      497,
      495,
      491,
      483,
      483,
      493,
      494,
      493,
      492,
      492,
      492,
      492,
      493,
      493,
      495,
      497,
      499,
      500,
      490,
      475,
      461,
      455,
      448,
      438,
      419,
      404,
      402,
      389,
      384,
      370,
      359,
      358,
      349,
      309,
      306,
      308,
      308,
      308,
      305,
      297,
      288,
      279,
      273,
      270,
      270,
      265,
      262,
      263,
      264,
      262,
      259,
      260,
      258,
      257,
      257,
      246,
      243,
      207,
      176,
      170,
      136,
      122,
      124
    ],
    "swim:timestamps": [
      1790621746,
      1790621806,
      1790621824,
      1790621866,
      1790621884,
      1790621926,
      1790621944,
      1790622004,
      1790622064,
      1790622124,
      1790622184,
      1790622244,
      1790622304,
      1790622364,
      1790622424,
      1790622485,
      1790622545,
      1790622605,
      1790622652,
      1790622665,
      1790622712,
      1790622725,
      1790622785,
      1790622832,
      1790622845,
      1790622905,
      1790622965,
      1790623013,
      1790623025,
      1790623073,
      1790623085,
      1790623133,
      1790623146,
      1790623193,
      1790623206,
      1790623253,
      1790623266,
      1790623313,
      1790623326,
      1790623386,
      1790623433,
      1790623446,
      1790623506,
      1790623553,
      1790623566,
      1790623614,
      1790623626,
      1790623686,
      1790623734,
      1790623746,
      1790623794,
      1790623806,
      1790623854,
      1790623867,
      1790623915,
      1790623927,
      1790623975,
      1790623987,
      1790624035,
      1790624047,
      1790624107,
      1790624155,
      1790624167,
      1790624215,
      1790624227,
      1790624275,
      1790624287,
      1790624335,
      1790624347,
      1790624395,
      1790624455,
      1790624467,
      1790624516,
      1790624576,
      1790624636,
      1790624696,
      1790624756,
      1790624816,
      1790624876,
      1790624936,
      1790624996,
      1790625056,
      1790625116,
      1790625177,
      1790625237,
      1790625297,
      1790625357,
      1790625417,
      1790625477,
      1790625537,
      1790625597,
      1790625657,
      1790625708,
      1790625717,
      1790625768,
      1790625778,
      1790625821,
      1790625828,
      1790625838,
      1790625888,
      1790625895,
      1790625948,
      1790625955,
      1790626008,
      1790626015,
      1790626061,
      1790626075,
      1790626128,
      1790626135,
      1790626181,
      1790626195,
      1790626241,
      1790626255,
      1790626302,
      1790626315,
      1790626368,
      1790626422,
      1790626482,
      1790626542,
      1790626609,
      1790626669,
      1790626722,
      1790626789,
      1790626842,
      1790626909,
      1790626969,
      1790627029,
      1790627083,
      1790627143,
      1790627210,
      1790627270,
      1790627323,
      1790627390,
      1790627450,
      1790627510,
      1790627563,
      1790627623,
      1790627684,
      1790627744,
      1790627804,
      1790627864,
      1790627924,
      1790627984,
      1790628044,
      1790628104,
      1790628164,
      1790628224,
      1790628284,
      1790628344,
      1790628405,
      1790628465,
      1790628525,
      1790628585,
      1790628645,
      1790628705,
      1790628765,
      1790628825,
      1790628849,
      1790628885,
      1790628909,
      1790628945,
      1790628969,
      1790629005,
      1790629029,
      1790629066,
      1790629090,
      1790629126,
      1790629150,
      1790629186,
      1790629210,
      1790629246,
      1790629270,
      1790629306,
      1790629330,
      1790629366,
      1790629426,
      1790629450,
      1790629486,
      1790629510,
      1790629546,
      1790629570,
      1790629606,
      1790629630,
      1790629666,
      1790629690,
      1790629727,
      1790629750,
      1790629787,
      1790629811,
      1790629847,
      1790629871,
      1790629907,
      1790629931,
      1790629967,
      1790629991,
      1790630027,
      1790630051,
      1790630087,
      1790630111,
      1790630147,
      1790630171,
      1790630207,
      1790630231,
      1790630267,
      1790630291,
      1790630327,
      1790630351,
      1790630411,
      1790630471,
      1790630532,
      1790630592,
      1790630652,
      1790630712,
      1790630772,
      1790630832,
      1790630892,
      1790630952,
      1790631012,
      1790631053,
      1790631072,
      1790631089,
      1790631132,
      1790631156,
      1790631192,
      1790631210,
      1790631253,
      1790631313,
      1790631330,
      1790631373,
      1790631390,
      1790631433,
      1790631450,
      1790631493,
      1790631509,
      1790631553,
      1790631570,
      1790631613,
      1790631630,
      1790631673,
      1790631690,
      1790631733,
      1790631750,
      1790631793,
      1790631810,
      1790631853,
      1790631864,
      1790631913,
      1790631930,
      1790631974,
      1790631990,
      1790632034,
      1790632094,
      1790632110,
      1790632154,
      1790632170,
      1790632214
    ],
    "wof:geomhash": "aa7655bf989b3b385b142ed6f0529f59",
    "wof:id": 2048460999,
    "wof:repo": "sfomuseum-data-flights-2026-09"
  },
  "bbox": [
    -122.4,
    32.861111111111114,
    -96.83333333333333,
    38.33861111111111
  ],
  "geometry": {"type":"LineString","coordinates":[[-122.4,37.63333333333333],[-122.36666666666666,37.666666666666664],[-122.34722222222221,37.67361111111111],[-122.28333333333333,37.7],[-122.26138888888889,37.7025],[-122.2,37.733333333333334],[-122.17083333333333,37.73972222222222],[-122.06916666666666,37.79277777777778],[-121.95472222222223,37.836111111111116],[-121.8236111111111,37.86],[-121.68861111111111,37.88444444444444],[-121.5586111111111,37.90833333333333],[-121.42083333333333,37.933611111111105],[-121.2863888888889,37.95805555555556],[-121.14694444444446,37.983333333333334],[-120.99583333333334,38.00805555555556],[-120.84638888888888,38.030277777777776],[-120.70027777777779,38.05305555555555],[-120.5936111111111,38.06944444444445],[-120.5475,38.07611111111112],[-120.44333333333334,38.094166666666666],[-120.39583333333334,38.10194444444445],[-120.24444444444444,38.13027777777778],[-120.13444444444445,38.150555555555556],[-120.08944444444444,38.15972222222222],[-119.93611111111112,38.191111111111105],[-119.77805555555555,38.22416666666667],[-119.66444444444446,38.24777777777778],[-119.6211111111111,38.25666666666667],[-119.50583333333333,38.281666666666666],[-119.46305555555556,38.29111111111111],[-119.34694444444445,38.31638888888889],[-119.30972222222222,38.324444444444445],[-119.185,38.33861111111111],[-119.14250000000001,38.33166666666667],[-119.02833333333334,38.284166666666664],[-118.99083333333333,38.26638888888889],[-118.87694444444443,38.21222222222222],[-118.81194444444444,38.18111111111111],[-118.66944444444445,38.11277777777778],[-118.58166666666666,38.07055555555556],[-118.52277777777778,38.04222222222222],[-118.37305555555555,37.97],[-118.285,37.92722222222222],[-118.22722222222222,37.899166666666666],[-118.14055555555557,37.856944444444444],[-118.08055555555555,37.8275],[-117.93583333333333,37.75666666666667],[-117.82027777777778,37.69972222222222],[-117.79138888888889,37.68555555555555],[-117.67694444444444,37.62888888888889],[-117.64861111111112,37.61472222222223],[-117.53555555555555,37.55888888888889],[-117.50583333333333,37.54388888888889],[-117.39194444444445,37.48722222222222],[-117.36194444444443,37.47222222222222],[-117.26,37.406388888888884],[-117.23833333333333,37.38361111111111],[-117.16472222222222,37.2975],[-117.14583333333334,37.275555555555556],[-117.05916666666667,37.17222222222222],[-116.9875,37.08694444444445],[-116.97111111111111,37.0675],[-116.9,36.98277777777778],[-116.88194444444444,36.96138888888889],[-116.81138888888889,36.87722222222222],[-116.79222222222222,36.85444444444445],[-116.70138888888889,36.781666666666666],[-116.67083333333333,36.76833333333333],[-116.54916666666666,36.717777777777776],[-116.39611111111111,36.65416666666667],[-116.36277777777777,36.640277777777776],[-116.24444444444444,36.59055555555556],[-116.0925,36.52611111111111],[-115.94250000000001,36.462500000000006],[-115.81083333333333,36.406388888888884],[-115.65777777777778,36.340833333333336],[-115.48833333333333,36.26583333333333],[-115.3536111111111,36.18194444444444],[-115.2213888888889,36.098888888888894],[-115.08527777777778,36.015277777777776],[-114.95083333333334,35.93444444444444],[-114.79888888888888,35.8725],[-114.61805555555554,35.86666666666667],[-114.43416666666667,35.8675],[-114.25166666666667,35.86833333333333],[-114.06972222222223,35.868611111111115],[-113.8888888888889,35.868611111111115],[-113.7088888888889,35.86833333333333],[-113.53083333333333,35.8675],[-113.35055555555554,35.86666666666667],[-113.16444444444446,35.86555555555556],[-113.00638888888889,35.864444444444445],[-112.9775,35.86416666666667],[-112.82277777777777,35.862500000000004],[-112.79472222222222,35.862500000000004],[-112.65305555555557,35.86083333333333],[-112.64083333333333,35.86083333333333],[-112.60722222222222,35.86027777777778],[-112.4588888888889,35.85861111111111],[-112.42694444444444,35.85805555555556],[-112.28194444444445,35.85611111111111],[-112.24444444444444,35.855555555555554],[-112.09916666666666,35.85333333333333],[-112.06333333333333,35.85277777777778],[-111.92694444444444,35.85055555555556],[-111.88555555555556,35.849722222222226],[-111.745,35.84722222222222],[-111.70944444444444,35.84666666666667],[-111.57194444444444,35.84388888888889],[-111.53083333333333,35.84305555555556],[-111.39555555555556,35.84],[-111.3561111111111,35.83916666666667],[-111.21888888888888,35.836111111111116],[-111.18166666666667,35.83527777777778],[-111.0325,35.83166666666667],[-110.86611111111111,35.827222222222225],[-110.68305555555555,35.822500000000005],[-110.49638888888889,35.81722222222223],[-110.30166666666666,35.81111111111111],[-110.11805555555554,35.80555555555555],[-109.94388888888889,35.79972222222222],[-109.71444444444445,35.791666666666664],[-109.57583333333334,35.78666666666666],[-109.34388888888888,35.77777777777778],[-109.15972222222223,35.77055555555555],[-109.00416666666666,35.76416666666667],[-108.82055555555556,35.756388888888885],[-108.63527777777779,35.74805555555556],[-108.44888888888889,35.73972222222222],[-108.26611111111112,35.73111111111111],[-108.08055555555555,35.721944444444446],[-107.89722222222223,35.71277777777778],[-107.71111111111111,35.70305555555556],[-107.52944444444444,35.69333333333333],[-107.38,35.68555555555555],[-107.19583333333334,35.69],[-106.98,35.69444444444444],[-106.79305555555555,35.698611111111106],[-106.60749999999999,35.690555555555555],[-106.42305555555556,35.67861111111111],[-106.24138888888889,35.66555555555556],[-106.08666666666666,35.653888888888886],[-105.9038888888889,35.63972222222222],[-105.69527777777778,35.62305555555555],[-105.53722222222223,35.61027777777778],[-105.34472222222222,35.59444444444445],[-105.16111111111111,35.57916666666667],[-104.97611111111111,35.56333333333333],[-104.79444444444444,35.5475],[-104.60916666666667,35.53111111111111],[-104.42305555555556,35.51444444444444],[-104.23833333333333,35.4975],[-104.05222222222221,35.480000000000004],[-103.86638888888888,35.46222222222222],[-103.68333333333334,35.44472222222222],[-103.50972222222222,35.42777777777778],[-103.43166666666667,35.419999999999995],[-103.33749999999999,35.410555555555554],[-103.25777777777778,35.402499999999996],[-103.16583333333334,35.39333333333333],[-103.08999999999999,35.385555555555555],[-102.99888888888889,35.37638888888889],[-102.9225,35.368611111111115],[-102.82972222222222,35.35861111111111],[-102.75138888888888,35.35055555555556],[-102.66000000000001,35.340833333333336],[-102.58222222222221,35.3325],[-102.51333333333334,35.32527777777778],[-102.41388888888889,35.31444444444444],[-102.31222222222222,35.30361111111111],[-102.245,35.29611111111111],[-102.17527777777778,35.28861111111111],[-102.07472222222222,35.277499999999996],[-101.97361111111111,35.26611111111111],[-101.81555555555555,35.248333333333335],[-101.73972222222223,35.23916666666667],[-101.64833333333334,35.216944444444444],[-101.59027777777777,35.19777777777777],[-101.48472222222222,35.16027777777778],[-101.43694444444445,35.14333333333333],[-101.33083333333333,35.105555555555554],[-101.28388888888888,35.08861111111111],[-101.18666666666667,35.053888888888885],[-101.12666666666667,35.0325],[-101.0325,34.99888888888889],[-100.97277777777778,34.9775],[-100.87805555555555,34.94333333333333],[-100.81666666666666,34.921388888888885],[-100.72222222222223,34.88722222222222],[-100.65027777777779,34.861111111111114],[-100.56944444444444,34.83166666666667],[-100.51055555555556,34.81027777777778],[-100.41694444444445,34.77638888888889],[-100.35694444444444,34.754444444444445],[-100.25277777777778,34.71611111111111],[-100.20805555555556,34.69972222222222],[-100.10527777777777,34.661944444444444],[-100.0475,34.64055555555556],[-99.95333333333333,34.605555555555554],[-99.8888888888889,34.58166666666667],[-99.80222222222221,34.54944444444444],[-99.7363888888889,34.525],[-99.65333333333334,34.494166666666665],[-99.5936111111111,34.47166666666667],[-99.50027777777778,34.43666666666666],[-99.44333333333334,34.414722222222224],[-99.29555555555555,34.34777777777778],[-99.14111111111112,34.27361111111111],[-99.00583333333333,34.20861111111111],[-98.86083333333333,34.138333333333335],[-98.72083333333333,34.061388888888885],[-98.59916666666666,33.973055555555554],[-98.48583333333333,33.88805555555555],[-98.36861111111111,33.80722222222222],[-98.22833333333334,33.76416666666667],[-98.08666666666666,33.74805555555556],[-97.94166666666668,33.73166666666667],[-97.85,33.7],[-97.8236111111111,33.68611111111111],[-97.78333333333333,33.666666666666664],[-97.71861111111112,33.6175],[-97.68333333333334,33.6],[-97.62916666666666,33.55833333333333],[-97.6,33.53333333333333],[-97.5363888888889,33.49722222222222],[-97.44916666666667,33.45111111111111],[-97.41666666666667,33.45],[-97.34583333333333,33.44583333333333],[-97.31666666666666,33.45],[-97.24388888888889,33.442499999999995],[-97.21666666666667,33.43333333333333],[-97.14,33.43833333333333],[-97.11666666666666,33.43333333333333],[-97.04722222222222,33.43444444444444],[-97.01666666666667,33.43333333333333],[-96.96694444444445,33.41722222222222],[-96.93333333333334,33.4],[-96.9,33.373333333333335],[-96.88333333333334,33.35],[-96.85972222222222,33.30972222222222],[-96.85,33.28333333333333],[-96.8411111111111,33.24],[-96.83333333333333,33.21666666666667],[-96.84416666666667,33.168055555555554],[-96.85,33.15],[-96.86611111111111,33.09388888888889],[-96.86666666666666,33.083333333333336],[-96.8875,33.02833333333333],[-96.9,33.016666666666666],[-96.90777777777778,32.968333333333334],[-96.92,32.918055555555554],[-96.91666666666667,32.9],[-96.89194444444445,32.8875],[-96.88333333333334,32.88333333333333],[-96.86138888888888,32.861111111111114]]}
}
