{
  "id": 2048462557,
  "type": "Feature",
  "properties": {
    "geom:area": 0,
    "geom:bbox": "-122.398900,37.629500,-121.287660,38.512860",
    "geom:latitude": 38.042839323522685,
    "geom:longitude": -121.92586995702267,
    "src:alt_label": "swim-takeoff",
    "src:geom": "swim",
    "swim:elevations": [
      351,
      502,
      739,
      1231,
      1425,
      1448,
      1987,
      2274,
      2428,
      3340,
      3563,
      3688,
      3728,
      4049,
      4453,
      4698,
      5020,
      5336,
      5515,
      5748,
      5831,
      6100,
      6419,
      6611,
      6695,
      6900,
      7054,
      7085,
      332,
      785,
      1129,
      1272,
      1550,
      1967,
      2476,
      2860,
      3374,
      3445,
      3681,
      3817,
      4043,
      4181,
      4366,
      4680,
      4892,
      5072,
      5512,
      5741,
      5781,
      6049,
      6217,
      6527,
      6618,
      6786,
      6973,
      7229
    ],
    "swim:geom": "takeoff",
    "swim:timestamps": [
      1790583027,
      1790583041,
      1790583064,
      1790583114,
      1790583147,
      1790583150,
      1790583195,
      1790583213,
      1790583223,
      1790583309,
      1790583354,
      1790583383,
      1790583390,
      1790583418,
      1790583448,
      1790583471,
      1790583500,
      1790583533,
      1790583551,
      1790583576,
      1790583588,
      1790583619,
      1790583657,
      1790583688,
      1790583708,
      1790583741,
      1790583775,
      1790583780,
      1790660720,
      1790660751,
      1790660783,
      1790660803,
      1790660846,
      1790660872,
      1790660904,
      1790660927,
      1790660968,
      1790660982,
      1790661025,
      1790661051,
      1790661079,
      1790661091,
      1790661111,
      1790661144,
      1790661165,
      1790661181,
      1790661229,
      1790661256,
      1790661262,
      1790661287,
      1790661314,
      1790661356,
      1790661368,
      1790661401,
      1790661428,
      1790661464
    ],
    "wof:geomhash": "16d85ac6091dc592a0f4e359ef9f4262",
    "wof:id": 2048462557,
    "wof:repo": "sfomuseum-data-flights-2026-09"
  },
  "bbox": [
    -122.3989,
    37.6295,
    -121.28766,
    38.51286
  ],
  "geometry": {"type":"LineString","coordinates":[[-122.39539,37.6295],[-122.3989,37.6392],[-122.38563,37.65231],[-122.33915,37.6691],[-122.30893,37.69019],[-122.30625,37.6931],[-122.26356,37.73542],[-122.24589,37.75294],[-122.23603,37.76281],[-122.14761,37.85215],[-122.09187,37.90804],[-122.05218,37.94763],[-122.0424,37.95743],[-122.00333,37.99646],[-121.95909,38.04053],[-121.92603,38.07349],[-121.88464,38.11463],[-121.83623,38.16273],[-121.81029,38.18841],[-121.77365,38.22477],[-121.75533,38.24296],[-121.7089,38.28892],[-121.65262,38.34442],[-121.60625,38.39017],[-121.57641,38.41949],[-121.51751,38.46443],[-121.44881,38.50652],[-121.4386,38.51286],[-122.3593,37.6366],[-122.34052,37.65252],[-122.32107,37.66947],[-122.30968,37.68337],[-122.32503,37.7264],[-122.3406,37.75493],[-122.35976,37.79236],[-122.37347,37.8196],[-122.386,37.87104],[-122.38512,37.88996],[-122.34809,37.94488],[-122.29462,37.95888],[-122.2332,37.97073],[-122.20572,37.97622],[-122.16041,37.98534],[-122.08528,38.00048],[-122.0362,38.0101],[-121.99708,38.01801],[-121.88306,38.04105],[-121.81757,38.05405],[-121.80288,38.05696],[-121.74083,38.06927],[-121.67432,38.08234],[-121.56862,38.10304],[-121.53811,38.10901],[-121.45315,38.12554],[-121.38254,38.13924],[-121.28766,38.15753]]}
}
