{
  "id": 2048404315,
  "type": "Feature",
  "properties": {
    "geom:area": 0,
    "geom:bbox": "-122.353460,37.491360,-121.270270,37.611950",
    "geom:latitude": 37.54562374756851,
    "geom:longitude": -121.81661735165562,
    "src:alt_label": "swim-approach",
    "src:geom": "swim",
    "swim:elevations": [
      4848,
      4376,
      4210,
      3950,
      3779,
      3497,
      3360,
      3168,
      2983,
      2802,
      2604,
      2554,
      2398,
      2132,
      2040,
      1932,
      1871,
      1739,
      1494,
      1354,
      1308,
      1097,
      981,
      957,
      868,
      701,
      577,
      488,
      352,
      213,
      94,
      29
    ],
    "swim:geom": "approach",
    "swim:timestamps": [
      1790112284,
      1790112327,
      1790112346,
      1790112377,
      1790112406,
      1790112445,
      1790112469,
      1790112502,
      1790112536,
      1790112565,
      1790112596,
      1790112607,
      1790112637,
      1790112685,
      1790112709,
      1790112736,
      1790112757,
      1790112784,
      1790112835,
      1790112866,
      1790112878,
      1790112921,
      1790112954,
      1790112960,
      1790112981,
      1790113018,
      1790113045,
      1790113075,
      1790113105,
      1790113136,
      1790113166,
      1790113178
    ],
    "wof:geomhash": "1d94c382719ca536ae1b3e7363a3dc7b",
    "wof:id": 2048404315,
    "wof:repo": "sfomuseum-data-flights-2026-09"
  },
  "bbox": [
    -122.35346,
    37.49136,
    -121.27027,
    37.61195
  ],
  "geometry": {"type":"LineString","coordinates":[[-121.27027,37.59165],[-121.34694,37.58331],[-121.38105,37.57952],[-121.4357,37.57309],[-121.48517,37.56706],[-121.54793,37.55977],[-121.58508,37.55548],[-121.63408,37.54874],[-121.68,37.5376],[-121.72153,37.52777],[-121.76347,37.51762],[-121.77841,37.51403],[-121.81797,37.50449],[-121.88159,37.49136],[-121.91461,37.49206],[-121.94723,37.49285],[-121.97209,37.49347],[-122.00307,37.49947],[-122.05682,37.51715],[-122.08779,37.52692],[-122.09926,37.53063],[-122.13788,37.54335],[-122.16784,37.553],[-122.17322,37.55474],[-122.19212,37.56089],[-122.22536,37.57174],[-122.24937,37.57958],[-122.27557,37.58711],[-122.29956,37.59409],[-122.3224,37.60101],[-122.3444,37.60818],[-122.35346,37.61195]]}
}
