{
  "id": 2048407643,
  "type": "Feature",
  "properties": {
    "geom:area": 0,
    "geom:bbox": "-123.497060,37.627200,-122.395130,37.730340",
    "geom:latitude": 37.698226112018666,
    "geom:longitude": -122.94187854697499,
    "src:alt_label": "swim-takeoff",
    "src:geom": "swim",
    "swim:elevations": [
      192,
      455,
      757,
      1049,
      1359,
      1801,
      2146,
      2958,
      3309,
      3505,
      3599,
      4049,
      4225,
      4818,
      5220,
      5519,
      5855,
      6272,
      6508,
      6596
    ],
    "swim:geom": "takeoff",
    "swim:timestamps": [
      1790082079,
      1790082097,
      1790082136,
      1790082168,
      1790082193,
      1790082230,
      1790082254,
      1790082313,
      1790082354,
      1790082386,
      1790082403,
      1790082442,
      1790082454,
      1790082498,
      1790082535,
      1790082561,
      1790082591,
      1790082625,
      1790082651,
      1790082661
    ],
    "wof:geomhash": "fadd0c0889b43c689987b6a853ffda0e",
    "wof:id": 2048407643,
    "wof:repo": "sfomuseum-data-flights-2026-09"
  },
  "bbox": [
    -123.49706,
    37.6272,
    -122.39513,
    37.73034
  ],
  "geometry": {"type":"LineString","coordinates":[[-122.39513,37.6272],[-122.41201,37.63458],[-122.4526,37.65238],[-122.49388,37.6702],[-122.53064,37.67654],[-122.58949,37.68021],[-122.62812,37.68232],[-122.72548,37.68816],[-122.79689,37.69248],[-122.86061,37.69622],[-122.89677,37.69838],[-122.98313,37.70345],[-123.01082,37.70507],[-123.11037,37.71077],[-123.19621,37.71564],[-123.25788,37.71884],[-123.3284,37.7224],[-123.41034,37.72653],[-123.47344,37.72953],[-123.49706,37.73034]]}
}
