{
  "id": 2048348103,
  "type": "Feature",
  "properties": {
    "geom:area": 0,
    "geom:bbox": "-122.546370,37.319190,-121.253160,37.667260",
    "geom:latitude": 37.4272403603468,
    "geom:longitude": -122.00056847428253,
    "src:alt_label": "swim-takeoff",
    "src:geom": "swim",
    "swim:elevations": [
      244,
      623,
      1210,
      1249,
      1661,
      2021,
      2547,
      2940,
      3414,
      3773,
      4418,
      4948,
      5317,
      5749,
      5960,
      6435,
      6741,
      7061,
      7393,
      7921,
      8262,
      8630,
      8778,
      9382,
      9449,
      9449,
      9449,
      9449
    ],
    "swim:geom": "takeoff",
    "swim:timestamps": [
      1789512971,
      1789512997,
      1789513044,
      1789513050,
      1789513076,
      1789513102,
      1789513133,
      1789513154,
      1789513185,
      1789513211,
      1789513252,
      1789513288,
      1789513315,
      1789513348,
      1789513361,
      1789513399,
      1789513425,
      1789513454,
      1789513481,
      1789513526,
      1789513554,
      1789513579,
      1789513591,
      1789513645,
      1789513673,
      1789513700,
      1789513735,
      1789513747
    ],
    "wof:geomhash": "6435b46e3f18f3c48d1a6f2b408beb38",
    "wof:id": 2048348103,
    "wof:repo": "sfomuseum-data-flights-2026-09"
  },
  "bbox": [
    -122.54637,
    37.31919,
    -121.25316,
    37.66726
  ],
  "geometry": {"type":"LineString","coordinates":[[-122.38614,37.62339],[-122.40643,37.63206],[-122.44486,37.64856],[-122.45195,37.65171],[-122.48268,37.66527],[-122.51936,37.66726],[-122.54637,37.6364],[-122.53698,37.60865],[-122.51554,37.56757],[-122.49495,37.52957],[-122.44006,37.48208],[-122.36432,37.46889],[-122.30623,37.45747],[-122.23372,37.4421],[-122.20516,37.43556],[-122.12011,37.4154],[-122.05842,37.40098],[-121.99101,37.38667],[-121.92554,37.37291],[-121.81338,37.34781],[-121.74329,37.33233],[-121.6797,37.32223],[-121.64949,37.32079],[-121.51198,37.32115],[-121.44123,37.32059],[-121.37277,37.31958],[-121.28359,37.31928],[-121.25316,37.31919]]}
}
