{
  "id": 2048326739,
  "type": "Feature",
  "properties": {
    "geom:area": 0,
    "geom:bbox": "-122.341630,37.491140,-121.277470,37.607210",
    "geom:latitude": 37.54455333033482,
    "geom:longitude": -121.81398013848771,
    "src:alt_label": "swim-approach",
    "src:geom": "swim",
    "swim:elevations": [
      4901,
      4362,
      4042,
      3776,
      3489,
      3303,
      3228,
      3044,
      2869,
      2802,
      2601,
      2512,
      2314,
      2123,
      2039,
      1908,
      1751,
      1569,
      1374,
      1204,
      1090,
      911,
      853,
      646,
      578,
      372,
      276,
      217,
      115
    ],
    "swim:geom": "approach",
    "swim:timestamps": [
      1789288811,
      1789288856,
      1789288888,
      1789288915,
      1789288946,
      1789288970,
      1789289002,
      1789289030,
      1789289055,
      1789289065,
      1789289094,
      1789289124,
      1789289157,
      1789289187,
      1789289205,
      1789289239,
      1789289274,
      1789289302,
      1789289337,
      1789289366,
      1789289383,
      1789289418,
      1789289437,
      1789289475,
      1789289491,
      1789289543,
      1789289573,
      1789289587,
      1789289621
    ],
    "wof:geomhash": "b7b5d18c1c11968078307386dfe566fc",
    "wof:id": 2048326739,
    "wof:repo": "sfomuseum-data-flights-2026-09"
  },
  "bbox": [
    -122.34163,
    37.49114,
    -121.27747,
    37.60721
  ],
  "geometry": {"type":"LineString","coordinates":[[-121.27747,37.5909],[-121.36142,37.5816],[-121.4196,37.57472],[-121.46716,37.56909],[-121.52265,37.56269],[-121.56539,37.55771],[-121.61831,37.5515],[-121.65952,37.54245],[-121.6975,37.53337],[-121.71155,37.53008],[-121.75505,37.51971],[-121.79761,37.50951],[-121.84193,37.49889],[-121.88336,37.49114],[-121.90858,37.49176],[-121.95592,37.49299],[-122.00398,37.49974],[-122.04052,37.51154],[-122.0855,37.52642],[-122.11986,37.53749],[-122.14076,37.54423],[-122.17848,37.55641],[-122.19617,37.56219],[-122.23209,37.5738],[-122.24639,37.57835],[-122.28756,37.5907],[-122.30799,37.59682],[-122.31841,37.59985],[-122.34163,37.60721]]}
}
