{
  "id": 2048430379,
  "type": "Feature",
  "properties": {
    "geom:area": 0,
    "geom:bbox": "-122.853640,37.446230,-122.123170,38.519280",
    "geom:latitude": 37.85128238233581,
    "geom:longitude": -122.51572935631162,
    "src:alt_label": "swim-approach",
    "src:geom": "swim",
    "swim:elevations": [
      7498,
      7415,
      6954,
      6748,
      6246,
      5869,
      5754,
      5352,
      5193,
      4970,
      4624,
      4270,
      4064,
      3678,
      3473,
      3414,
      3326,
      3214,
      2896,
      2738,
      2276,
      2250,
      1852,
      1754,
      1702,
      1548,
      1491,
      1367,
      1218,
      1219,
      1058,
      1005,
      979,
      793,
      747,
      536,
      483,
      420,
      333,
      216,
      189,
      89
    ],
    "swim:geom": "approach",
    "swim:timestamps": [
      1790345816,
      1790345823,
      1790345874,
      1790345894,
      1790345948,
      1790345991,
      1790346004,
      1790346047,
      1790346064,
      1790346092,
      1790346139,
      1790346177,
      1790346206,
      1790346261,
      1790346297,
      1790346321,
      1790346345,
      1790346363,
      1790346396,
      1790346410,
      1790346446,
      1790346450,
      1790346505,
      1790346529,
      1790346544,
      1790346588,
      1790346604,
      1790346618,
      1790346656,
      1790346667,
      1790346712,
      1790346724,
      1790346728,
      1790346772,
      1790346780,
      1790346830,
      1790346843,
      1790346860,
      1790346888,
      1790346926,
      1790346936,
      1790346970
    ],
    "wof:geomhash": "49639af706ccff49dd1253060ff84285",
    "wof:id": 2048430379,
    "wof:repo": "sfomuseum-data-flights-2026-09"
  },
  "bbox": [
    -122.85364,
    37.44623,
    -122.12317,
    38.51928
  ],
  "geometry": {"type":"LineString","coordinates":[[-122.85364,38.51928],[-122.84963,38.50548],[-122.82247,38.41287],[-122.81165,38.37608],[-122.78333,38.2795],[-122.76141,38.20468],[-122.75503,38.18266],[-122.73348,38.10852],[-122.72547,38.08072],[-122.7116,38.033],[-122.68933,37.95608],[-122.66938,37.89745],[-122.63109,37.86022],[-122.55856,37.79164],[-122.51309,37.74843],[-122.48401,37.72099],[-122.45695,37.69564],[-122.4367,37.67667],[-122.40033,37.64238],[-122.38588,37.62872],[-122.34992,37.58958],[-122.34717,37.58465],[-122.30307,37.5219],[-122.27449,37.50127],[-122.2566,37.48811],[-122.20344,37.45626],[-122.1831,37.44939],[-122.16437,37.44623],[-122.12814,37.471],[-122.12317,37.48176],[-122.14709,37.52026],[-122.15939,37.52703],[-122.16345,37.52899],[-122.20505,37.5473],[-122.2124,37.55038],[-122.25647,37.56896],[-122.26629,37.57308],[-122.27877,37.57828],[-122.29671,37.58587],[-122.32047,37.59591],[-122.32639,37.5983],[-122.34683,37.60687]]}
}
