{
  "id": 2048308519,
  "type": "Feature",
  "properties": {
    "geom:area": 0,
    "geom:bbox": "-122.363350,36.731110,-121.885430,37.613530",
    "geom:latitude": 37.21804954066852,
    "geom:longitude": -122.07316147853962,
    "src:alt_label": "swim-approach",
    "src:geom": "swim",
    "swim:elevations": [
      5290,
      5077,
      4604,
      4421,
      4019,
      3843,
      3457,
      3198,
      3102,
      2917,
      2857,
      2466,
      2438,
      2312,
      2166,
      1647,
      1273,
      1100,
      1040,
      945,
      945,
      791,
      773,
      571,
      455,
      364,
      244,
      151,
      92,
      212
    ],
    "swim:geom": "approach",
    "swim:timestamps": [
      1789152227,
      1789152250,
      1789152296,
      1789152315,
      1789152355,
      1789152373,
      1789152412,
      1789152446,
      1789152474,
      1789152505,
      1789152514,
      1789152566,
      1789152597,
      1789152627,
      1789152639,
      1789152685,
      1789152718,
      1789152747,
      1789152761,
      1789152808,
      1789152822,
      1789152863,
      1789152872,
      1789152918,
      1789152948,
      1789152975,
      1789153007,
      1789153045,
      1789153060,
      1789153088
    ],
    "wof:geomhash": "7761e998508f09ac181c47e778d717b0",
    "wof:id": 2048308519,
    "wof:repo": "sfomuseum-data-flights-2026-09"
  },
  "bbox": [
    -122.36335,
    36.73111,
    -121.88543,
    37.61353
  ],
  "geometry": {"type":"LineString","coordinates":[[-121.88543,36.73111],[-121.90104,36.76562],[-121.9214,36.84034],[-121.92959,36.86998],[-121.94704,36.93206],[-121.95563,36.95958],[-121.97848,37.0175],[-121.9977,37.06704],[-122.01247,37.10516],[-122.02793,37.14477],[-122.03257,37.15649],[-122.05909,37.22371],[-122.07412,37.26198],[-122.08903,37.30024],[-122.09475,37.31476],[-122.11659,37.36969],[-122.13138,37.40947],[-122.14264,37.4445],[-122.14783,37.46034],[-122.16455,37.50908],[-122.16912,37.52247],[-122.20036,37.54502],[-122.20843,37.54858],[-122.24813,37.5654],[-122.27168,37.57532],[-122.29006,37.58305],[-122.31037,37.59156],[-122.33566,37.60205],[-122.34505,37.60605],[-122.36335,37.61353]]}
}
