{
  "id": 2048458069,
  "type": "Feature",
  "properties": {
    "geom:area": 0,
    "geom:bbox": "-122.842250,37.394610,-122.069850,38.479740",
    "geom:latitude": 37.79084695001858,
    "geom:longitude": -122.46997912463368,
    "src:alt_label": "swim-approach",
    "src:geom": "swim",
    "swim:elevations": [
      7004,
      6729,
      6522,
      6394,
      6212,
      5968,
      5775,
      5482,
      5272,
      4975,
      4759,
      4655,
      4353,
      4023,
      3695,
      3482,
      3353,
      3353,
      3353,
      3353,
      3353,
      3353,
      3310,
      3178,
      2921,
      2725,
      2620,
      2478,
      2290,
      2033,
      1789,
      1607,
      1342,
      1219,
      1185,
      974,
      966,
      823,
      799,
      724,
      616,
      593,
      423,
      258,
      192,
      38,
      108
    ],
    "swim:geom": "approach",
    "swim:timestamps": [
      1790584489,
      1790584516,
      1790584537,
      1790584551,
      1790584570,
      1790584594,
      1790584615,
      1790584644,
      1790584667,
      1790584702,
      1790584729,
      1790584741,
      1790584780,
      1790584813,
      1790584845,
      1790584876,
      1790584916,
      1790584947,
      1790584961,
      1790584980,
      1790585008,
      1790585023,
      1790585056,
      1790585074,
      1790585107,
      1790585157,
      1790585182,
      1790585207,
      1790585235,
      1790585272,
      1790585304,
      1790585328,
      1790585359,
      1790585389,
      1790585406,
      1790585449,
      1790585453,
      1790585484,
      1790585499,
      1790585531,
      1790585552,
      1790585559,
      1790585595,
      1790585635,
      1790585654,
      1790585696,
      1790585700
    ],
    "wof:geomhash": "a52274edd0fafcdea2f64aded6150326",
    "wof:id": 2048458069,
    "wof:repo": "sfomuseum-data-flights-2026-09"
  },
  "bbox": [
    -122.84225,
    37.39461,
    -122.06985,
    38.47974
  ],
  "geometry": {"type":"LineString","coordinates":[[-122.84225,38.47974],[-122.82524,38.42089],[-122.81264,38.37782],[-122.80437,38.34961],[-122.79284,38.31064],[-122.77791,38.25969],[-122.76533,38.21702],[-122.74872,38.15924],[-122.73556,38.1149],[-122.71582,38.04796],[-122.70217,38.00011],[-122.69596,37.9784],[-122.67512,37.91309],[-122.63731,37.86563],[-122.59401,37.82474],[-122.55186,37.78516],[-122.50214,37.73774],[-122.4656,37.70316],[-122.44959,37.68825],[-122.42706,37.66731],[-122.39494,37.63736],[-122.37769,37.62109],[-122.3442,37.58061],[-122.33221,37.55646],[-122.31013,37.51285],[-122.27206,37.45044],[-122.24919,37.42561],[-122.21456,37.41549],[-122.17775,37.40657],[-122.1281,37.39461],[-122.09076,37.40625],[-122.07763,37.42803],[-122.06985,37.45798],[-122.091,37.48303],[-122.10068,37.49715],[-122.13906,37.51917],[-122.14297,37.5209],[-122.17345,37.5339],[-122.18791,37.54003],[-122.21872,37.55308],[-122.23904,37.56175],[-122.24594,37.56447],[-122.27748,37.57769],[-122.3096,37.59128],[-122.32488,37.59769],[-122.35785,37.61148],[-122.36089,37.61266]]}
}
