{
  "id": 2048324269,
  "type": "Feature",
  "properties": {
    "date:inception_lower": "2026-09-13",
    "date:inception_upper": "2026-09-13",
    "edtf:cessation": "",
    "edtf:inception": "2026-09-13",
    "flysfo:actual_timestamp": -1,
    "flysfo:airline": "AS",
    "flysfo:base_airline": "",
    "flysfo:base_flight_number": "6998",
    "flysfo:date": "2026-09-13",
    "flysfo:estimated_timestamp": 1789347900,
    "flysfo:event": "A",
    "flysfo:flight_number": "AS5277",
    "flysfo:gate": "A6",
    "flysfo:journey": "LHR-SFO",
    "flysfo:scheduled_timestamp": 1789346400,
    "flysfo:timestamp": 1789347900,
    "geom:area": 0,
    "geom:bbox": "-122.370943,37.617990,-0.450443,51.470087",
    "geom:latitude": 44.5440385,
    "geom:longitude": -61.410693,
    "iata:airline": "AS",
    "iata:base_airline": "",
    "icao:airline": "ASA",
    "icao:base_airline": "AAL",
    "lbl:latitude": 37.612674,
    "lbl:longitude": -122.389174,
    "sfomuseum:airline_id": 1159283813,
    "sfomuseum:arrival_id": 102527513,
    "sfomuseum:base_flight_id": "20260913-A-AAL-6998",
    "sfomuseum:departure_id": 102556703,
    "sfomuseum:flight_id": "20260913-A-ASA-5277",
    "sfomuseum:flight_number": [
      "ASA5277",
      "AS5277"
    ],
    "sfomuseum:placetype": "flight",
    "src:geom": "flysfo",
    "wof:belongsto": [
      1947304067,
      102527513,
      1947304073,
      102191575,
      85633793,
      102087579,
      85922583,
      554784711,
      85688637,
      1947304085,
      1947304069,
      102085387
    ],
    "wof:country": "US",
    "wof:created": 1789401882,
    "wof:geomhash": "c7bf5337358552a3a60caed0c1e9ea63",
    "wof:hierarchy": [
      {
        "building_id": 1947304067,
        "campus_id": 102527513,
        "concourse_id": 1947304073,
        "continent_id": 102191575,
        "country_id": 85633793,
        "county_id": 102087579,
        "custom_id": 2048324269,
        "flight_id": 2048324269,
        "locality_id": 85922583,
        "postalcode_id": 554784711,
        "region_id": 85688637,
        "venue_id": 1947304085,
        "wing_id": 1947304069
      },
      {
        "building_id": 1947304067,
        "campus_id": 102527513,
        "concourse_id": 1947304073,
        "continent_id": 102191575,
        "country_id": 85633793,
        "county_id": 102085387,
        "custom_id": 2048324269,
        "flight_id": 2048324269,
        "region_id": 85688637,
        "venue_id": 1947304085,
        "wing_id": 1947304069
      }
    ],
    "wof:id": 2048324269,
    "wof:involves": [
      102527513,
      102556703,
      1159283813,
      1947304085,
      1159283849
    ],
    "wof:lastmodified": 1789401882,
    "wof:name": "AS5277 (LHR-SFO)",
    "wof:parent_id": 1947304085,
    "wof:placetype": "custom",
    "wof:placetype_alt": [
      "flight"
    ],
    "wof:repo": "sfomuseum-data-flights-2026-09",
    "wof:superseded_by": [],
    "wof:supersedes": []
  },
  "bbox": [
    -122.370943,
    37.61799,
    -0.450443,
    51.470087
  ],
  "geometry": {"type":"MultiPoint","coordinates":[[-0.450443,51.470087],[-122.370943,37.61799]]}
}
