{
  "id": 2048335419,
  "type": "Feature",
  "properties": {
    "geom:area": 0,
    "geom:bbox": "-122.360810,37.491670,-121.271380,37.615690",
    "geom:latitude": 37.545997459967545,
    "geom:longitude": -121.82109671619415,
    "src:alt_label": "swim-approach",
    "src:geom": "swim",
    "swim:elevations": [
      4543,
      4413,
      4327,
      4195,
      3984,
      3854,
      3591,
      3355,
      3150,
      3119,
      2716,
      2449,
      2409,
      2143,
      2035,
      1929,
      1831,
      1762,
      1529,
      1321,
      1189,
      917,
      915,
      914,
      793,
      678,
      550,
      542,
      512,
      366,
      357,
      207,
      136,
      113
    ],
    "swim:geom": "approach",
    "swim:timestamps": [
      1789406750,
      1789406776,
      1789406796,
      1789406823,
      1789406868,
      1789406884,
      1789406925,
      1789406961,
      1789406996,
      1789407001,
      1789407051,
      1789407087,
      1789407093,
      1789407142,
      1789407162,
      1789407177,
      1789407206,
      1789407232,
      1789407255,
      1789407277,
      1789407301,
      1789407358,
      1789407361,
      1789407372,
      1789407418,
      1789407443,
      1789407477,
      1789407480,
      1789407500,
      1789407537,
      1789407542,
      1789407586,
      1789407601,
      1789407639
    ],
    "wof:geomhash": "860a180291ce8a570bbf7066951fde90",
    "wof:id": 2048335419,
    "wof:repo": "sfomuseum-data-flights-2026-09"
  },
  "bbox": [
    -122.36081,
    37.49167,
    -121.27138,
    37.61569
  ],
  "geometry": {"type":"LineString","coordinates":[[-121.27138,37.59133],[-121.32265,37.58528],[-121.35852,37.58144],[-121.40694,37.57598],[-121.48065,37.56741],[-121.50479,37.56461],[-121.56731,37.55732],[-121.62197,37.55093],[-121.67222,37.53923],[-121.67904,37.53761],[-121.75083,37.52057],[-121.80051,37.50878],[-121.80874,37.50686],[-121.87452,37.49167],[-121.90318,37.49175],[-121.92388,37.49242],[-121.96399,37.49347],[-121.99814,37.49827],[-122.02811,37.50802],[-122.05687,37.51712],[-122.08714,37.52683],[-122.14913,37.54722],[-122.15176,37.54805],[-122.16108,37.55104],[-122.20108,37.56392],[-122.22012,37.56999],[-122.24466,37.57791],[-122.24682,37.57861],[-122.26016,37.58293],[-122.28737,37.59089],[-122.29088,37.59193],[-122.32344,37.60138],[-122.33437,37.60457],[-122.36081,37.61569]]}
}
