{
  "id": 2048250327,
  "type": "Feature",
  "properties": {
    "geom:area": 0,
    "geom:bbox": "-122.706920,37.439190,-122.110800,38.483120",
    "geom:latitude": 37.8190917530277,
    "geom:longitude": -122.47135627196118,
    "src:alt_label": "swim-approach",
    "src:geom": "swim",
    "swim:elevations": [
      7559,
      7473,
      7109,
      6764,
      6238,
      5730,
      5567,
      5218,
      4857,
      4651,
      4395,
      4225,
      3996,
      3649,
      3476,
      3377,
      3328,
      3353,
      3109,
      2719,
      2466,
      2225,
      2195,
      1727,
      1512,
      1280,
      1222,
      1219,
      1219,
      1219,
      1066,
      975,
      674,
      632,
      421,
      372,
      267,
      122,
      39,
      117
    ],
    "swim:geom": "approach",
    "swim:timestamps": [
      1788530518,
      1788530535,
      1788530565,
      1788530594,
      1788530643,
      1788530694,
      1788530709,
      1788530741,
      1788530777,
      1788530796,
      1788530824,
      1788530874,
      1788530897,
      1788530934,
      1788530958,
      1788530996,
      1788531011,
      1788531067,
      1788531092,
      1788531136,
      1788531174,
      1788531208,
      1788531211,
      1788531262,
      1788531292,
      1788531325,
      1788531334,
      1788531385,
      1788531404,
      1788531428,
      1788531456,
      1788531483,
      1788531534,
      1788531544,
      1788531595,
      1788531606,
      1788531644,
      1788531687,
      1788531709,
      1788531721
    ],
    "wof:geomhash": "81e1d7afce842bb7fc99f33c155eb50a",
    "wof:id": 2048250327,
    "wof:repo": "sfomuseum-data-flights-2026-09"
  },
  "bbox": [
    -122.70692,
    37.43919,
    -122.1108,
    38.48312
  ],
  "geometry": {"type":"LineString","coordinates":[[-122.69535,38.48312],[-122.70213,38.45367],[-122.70692,38.4021],[-122.70398,38.35247],[-122.69739,38.26997],[-122.69179,38.18691],[-122.6903,38.16262],[-122.68729,38.11052],[-122.68327,38.05125],[-122.68082,38.0186],[-122.67773,37.97436],[-122.66447,37.89596],[-122.63777,37.86489],[-122.58793,37.81839],[-122.55513,37.78817],[-122.50768,37.74373],[-122.48985,37.72692],[-122.42413,37.66195],[-122.39511,37.63722],[-122.35166,37.58826],[-122.32913,37.54248],[-122.30875,37.50775],[-122.30656,37.50428],[-122.25522,37.46901],[-122.21509,37.45573],[-122.17392,37.44266],[-122.16206,37.43919],[-122.1108,37.46467],[-122.11246,37.48545],[-122.12893,37.50636],[-122.15225,37.52524],[-122.1789,37.53519],[-122.2253,37.5553],[-122.23388,37.55908],[-122.27614,37.57701],[-122.28424,37.58039],[-122.30991,37.59127],[-122.33872,37.60339],[-122.35347,37.60968],[-122.36055,37.6127]]}
}
