{
  "id": 2048426507,
  "type": "Feature",
  "properties": {
    "geom:area": 0,
    "geom:bbox": "-122.402250,37.625440,-121.243750,37.991190",
    "geom:latitude": 37.933851780123824,
    "geom:longitude": -121.9335650879064,
    "src:alt_label": "swim-takeoff",
    "src:geom": "swim",
    "swim:elevations": [
      122,
      304,
      807,
      1070,
      1230,
      1522,
      1890,
      2331,
      2520,
      3403,
      3730,
      4123,
      4570,
      4872,
      5328,
      5524,
      5863,
      6046,
      6203,
      6267,
      6470,
      6701,
      6981,
      7099
    ],
    "swim:geom": "takeoff",
    "swim:timestamps": [
      1790295748,
      1790295761,
      1790295800,
      1790295831,
      1790295861,
      1790295894,
      1790295920,
      1790295957,
      1790295974,
      1790296075,
      1790296117,
      1790296153,
      1790296198,
      1790296222,
      1790296283,
      1790296301,
      1790296340,
      1790296364,
      1790296381,
      1790296399,
      1790296430,
      1790296457,
      1790296495,
      1790296510
    ],
    "wof:geomhash": "989c1ab816369fa00cc5279bd019986f",
    "wof:id": 2048426507,
    "wof:repo": "sfomuseum-data-flights-2026-09"
  },
  "bbox": [
    -122.40225,
    37.62544,
    -121.24375,
    37.99119
  ],
  "geometry": {"type":"LineString","coordinates":[[-122.39069,37.62544],[-122.40225,37.63101],[-122.39645,37.65967],[-122.37384,37.68314],[-122.34964,37.71088],[-122.3405,37.75029],[-122.35513,37.78101],[-122.37732,37.8256],[-122.38466,37.84747],[-122.30058,37.95938],[-122.21237,37.97488],[-122.13219,37.98726],[-122.02822,37.98803],[-121.97229,37.98822],[-121.82729,37.99002],[-121.78283,37.98995],[-121.68685,37.99025],[-121.62581,37.99073],[-121.58102,37.99069],[-121.53439,37.99055],[-121.45477,37.99075],[-121.384,37.99093],[-121.28495,37.99119],[-121.24375,37.99111]]}
}
