{
  "id": 2048435815,
  "type": "Feature",
  "properties": {
    "geom:area": 0,
    "geom:bbox": "-122.400000,37.633333,-82.866944,43.417222",
    "geom:latitude": 41.10000191601168,
    "geom:longitude": -102.72552598792326,
    "src:alt_label": "swim-path",
    "src:geom": "swim",
    "swim:altitudes": [
      "006",
      "033",
      "039",
      "050",
      "072",
      "098",
      "114",
      "132",
      "154",
      "173",
      "190",
      "207",
      "222",
      "235",
      "249",
      "264",
      "271",
      "276",
      "281",
      "287",
      "294",
      "299",
      "307",
      "315",
      "324",
      "331",
      "338",
      "343",
      "347",
      "350C",
      "350C",
      "350C",
      "350C",
      "350C",
      "350C",
      "350C",
      "350C",
      "350C",
      "350C",
      "350C",
      "350C",
      "350C",
      "350C",
      "350C",
      "350C",
      "350C",
      "350C",
      "350C",
      "350C",
      "350C",
      "350C",
      "350C",
      "350C",
      "350C",
      "350C",
      "350C",
      "350C",
      "350C",
      "350C",
      "350C",
      "350C",
      "350C",
      "350C",
      "350C",
      "350C",
      "350C",
      "350C",
      "350C",
      "350C",
      "350C",
      "350C",
      "350C",
      "350C",
      "350C",
      "350C",
      "350C",
      "350C",
      "350C",
      "350C",
      "350C",
      "350C",
      "350C",
      "350C",
      "350C",
      "350C",
      "350C",
      "350C",
      "350C",
      "350C",
      "350C",
      "350C",
      "350C",
      "350C",
      "350C",
      "350C",
      "350C",
      "350C",
      "350C",
      "350C",
      "350C",
      "350C",
      "350C",
      "350C",
      "350C",
      "350C",
      "350C",
      "350C",
      "350C",
      "350C",
      "350C",
      "350C",
      "350C",
      "350C",
      "350C",
      "350C",
      "350C",
      "350C",
      "350C",
      "350C",
      "350C",
      "350C",
      "350C",
      "350C",
      "350C",
      "350C",
      "350C",
      "350C",
      "350C",
      "350C",
      "350C",
      "350C",
      "350C",
      "350C",
      "350C",
      "350C",
      "350C",
      "350C",
      "350C",
      "350C",
      "350C",
      "350C",
      "350C",
      "350C",
      "350C",
      "350C",
      "350C",
      "350C",
      "350C",
      "350C",
      "350C",
      "350C",
      "350C",
      "350C",
      "350C",
      "350C",
      "350C",
      "350C",
      "350C",
      "350C",
      "350C",
      "350C",
      "350C",
      "350C",
      "350C",
      "350C",
      "350C",
      "350C",
      "350C",
      "350C",
      "350C",
      "350C",
      "350C",
      "350C",
      "350C",
      "350C",
      "350C",
      "350C",
      "350C",
      "350C",
      "350C",
      "350C",
      "350C",
      "350C",
      "350C",
      "350C",
      "350C",
      "350C",
      "350C",
      "350C",
      "350C",
      "350C",
      "350C",
      "350C",
      "350C",
      "350C",
      "350C",
      "350C",
      "350C",
      "350C",
      "350C",
      "350C",
      "350C",
      "350",
      "350",
      "356",
      "359",
      "360",
      "367",
      "370C",
      "370C",
      "370C",
      "370C",
      "370C",
      "370C",
      "370C",
      "370C",
      "370C",
      "370C",
      "370C",
      "370C",
      "370C",
      "370C",
      "370C",
      "370C",
      "370C",
      "370C",
      "370C",
      "370C",
      "370C",
      "370C",
      "370C",
      "370C",
      "370C",
      "370C",
      "370C",
      "370C",
      "370C",
      "370C",
      "370C",
      "370C",
      "370C",
      "370C",
      "370C",
      "370C",
      "370C",
      "370C",
      "370C",
      "370C",
      "370C",
      "370C",
      "370C",
      "370C",
      "370C",
      "370C",
      "370C",
      "370C",
      "370C",
      "370C",
      "370C",
      "370C",
      "370C",
      "370C",
      "370C",
      "370C",
      "370C",
      "370C",
      "370C",
      "370C",
      "370C",
      "370C",
      "370C",
      "370C",
      "370C",
      "370C",
      "370C",
      "370C",
      "370C",
      "370C",
      "370C",
      "370C",
      "370C",
      "370C",
      "370C",
      "370C",
      "370C",
      "370C",
      "370C",
      "370C",
      "370C",
      "370C",
      "370C",
      "370C",
      "370C",
      "370C",
      "370C",
      "370C",
      "370C",
      "370C",
      "370C",
      "370C",
      "370C",
      "370C",
      "370C",
      "370C",
      "370C",
      "370C",
      "370C",
      "370C",
      "370C",
      "370C",
      "370C",
      "370C",
      "370C",
      "370C",
      "370C",
      "370C",
      "370C",
      "370C",
      "370C",
      "370C",
      "370C",
      "370C",
      "370C",
      "370C",
      "370C",
      "370C",
      "370C",
      "370C",
      "366",
      "356",
      "346",
      "336",
      "327",
      "317"
    ],
    "swim:geom": "path",
    "swim:speeds": [
      180,
      192,
      217,
      247,
      291,
      307,
      352,
      388,
      408,
      422,
      434,
      444,
      454,
      465,
      475,
      479,
      484,
      482,
      484,
      490,
      491,
      491,
      492,
      491,
      488,
      478,
      476,
      470,
      471,
      470,
      471,
      480,
      481,
      486,
      485,
      486,
      488,
      490,
      489,
      493,
      495,
      494,
      495,
      494,
      494,
      493,
      494,
      493,
      494,
      493,
      494,
      494,
      494,
      494,
      494,
      494,
      494,
      495,
      495,
      495,
      495,
      495,
      494,
      494,
      493,
      493,
      492,
      492,
      491,
      491,
      489,
      489,
      488,
      487,
      486,
      486,
      487,
      486,
      486,
      484,
      480,
      479,
      478,
      477,
      477,
      477,
      476,
      476,
      476,
      477,
      479,
      478,
      479,
      479,
      479,
      479,
      479,
      478,
      478,
      477,
      476,
      475,
      474,
      473,
      472,
      471,
      470,
      470,
      469,
      469,
      469,
      469,
      469,
      469,
      469,
      469,
      470,
      469,
      470,
      470,
      470,
      470,
      470,
      470,
      470,
      471,
      471,
      471,
      471,
      471,
      471,
      471,
      472,
      474,
      479,
      482,
      483,
      485,
      487,
      490,
      491,
      493,
      494,
      497,
      500,
      502,
      504,
      506,
      507,
      507,
      508,
      509,
      505,
      504,
      503,
      501,
      499,
      497,
      495,
      494,
      495,
      496,
      497,
      497,
      497,
      498,
      497,
      500,
      498,
      501,
      498,
      501,
      499,
      502,
      499,
      501,
      499,
      500,
      499,
      498,
      495,
      497,
      495,
      497,
      495,
      497,
      493,
      497,
      494,
      496,
      495,
      496,
      495,
      496,
      495,
      496,
      495,
      495,
      495,
      495,
      495,
      495,
      495,
      495,
      496,
      496,
      497,
      497,
      498,
      499,
      505,
      507,
      508,
      508,
      509,
      509,
      509,
      509,
      508,
      507,
      506,
      506,
      507,
      510,
      511,
      511,
      512,
      511,
      512,
      511,
      513,
      512,
      513,
      512,
      514,
      513,
      514,
      514,
      515,
      515,
      515,
      516,
      516,
      516,
      517,
      517,
      517,
      518,
      519,
      520,
      522,
      522,
      523,
      522,
      522,
      522,
      522,
      522,
      522,
      522,
      522,
      522,
      522,
      522,
      521,
      522,
      522,
      521,
      521,
      520,
      519,
      519,
      518,
      517,
      516,
      516,
      515,
      514,
      514,
      513,
      513,
      513,
      513,
      513,
      513,
      513,
      513,
      513,
      513,
      512,
      512,
      512,
      510,
      508,
      507,
      505,
      505,
      505,
      506,
      507,
      508,
      511,
      508,
      509,
      506,
      508,
      504,
      506,
      504,
      505,
      504,
      505,
      506,
      506,
      507,
      506,
      507,
      507,
      508,
      508,
      508,
      509,
      508,
      508,
      508,
      508,
      508,
      508,
      508,
      511,
      514,
      515,
      515,
      514
    ],
    "swim:timestamps": [
      1790350351,
      1790350424,
      1790350435,
      1790350484,
      1790350544,
      1790350604,
      1790350664,
      1790350724,
      1790350784,
      1790350844,
      1790350904,
      1790350965,
      1790351025,
      1790351085,
      1790351145,
      1790351205,
      1790351235,
      1790351265,
      1790351295,
      1790351325,
      1790351356,
      1790351385,
      1790351416,
      1790351445,
      1790351476,
      1790351505,
      1790351536,
      1790351565,
      1790351596,
      1790351626,
      1790351656,
      1790351686,
      1790351716,
      1790351746,
      1790351776,
      1790351806,
      1790351836,
      1790351866,
      1790351896,
      1790351926,
      1790351956,
      1790351986,
      1790352016,
      1790352046,
      1790352077,
      1790352106,
      1790352137,
      1790352166,
      1790352197,
      1790352226,
      1790352286,
      1790352317,
      1790352347,
      1790352377,
      1790352407,
      1790352437,
      1790352467,
      1790352497,
      1790352527,
      1790352557,
      1790352587,
      1790352617,
      1790352647,
      1790352677,
      1790352707,
      1790352737,
      1790352767,
      1790352797,
      1790352827,
      1790352858,
      1790352918,
      1790352978,
      1790353038,
      1790353098,
      1790353158,
      1790353218,
      1790353278,
      1790353338,
      1790353398,
      1790353518,
      1790353699,
      1790353759,
      1790353879,
      1790354059,
      1790354119,
      1790354179,
      1790354239,
      1790354300,
      1790354360,
      1790354420,
      1790354461,
      1790354480,
      1790354521,
      1790354540,
      1790354600,
      1790354641,
      1790354660,
      1790354701,
      1790354720,
      1790354761,
      1790354821,
      1790354840,
      1790354881,
      1790354900,
      1790354941,
      1790354960,
      1790355001,
      1790355020,
      1790355061,
      1790355080,
      1790355121,
      1790355141,
      1790355182,
      1790355201,
      1790355242,
      1790355261,
      1790355302,
      1790355321,
      1790355362,
      1790355381,
      1790355422,
      1790355441,
      1790355482,
      1790355501,
      1790355542,
      1790355561,
      1790355602,
      1790355621,
      1790355662,
      1790355681,
      1790355722,
      1790355741,
      1790355782,
      1790355842,
      1790355902,
      1790355975,
      1790356035,
      1790356095,
      1790356155,
      1790356215,
      1790356275,
      1790356335,
      1790356395,
      1790356455,
      1790356515,
      1790356575,
      1790356635,
      1790356696,
      1790356756,
      1790356816,
      1790356876,
      1790356936,
      1790356996,
      1790357056,
      1790357116,
      1790357176,
      1790357236,
      1790357296,
      1790357356,
      1790357417,
      1790357477,
      1790357537,
      1790357597,
      1790357657,
      1790357707,
      1790357717,
      1790357767,
      1790357777,
      1790357827,
      1790357849,
      1790357887,
      1790357909,
      1790357947,
      1790357969,
      1790358007,
      1790358029,
      1790358067,
      1790358089,
      1790358127,
      1790358149,
      1790358187,
      1790358210,
      1790358247,
      1790358270,
      1790358307,
      1790358330,
      1790358368,
      1790358390,
      1790358428,
      1790358450,
      1790358488,
      1790358510,
      1790358548,
      1790358570,
      1790358608,
      1790358630,
      1790358668,
      1790358690,
      1790358728,
      1790358750,
      1790358788,
      1790358810,
      1790358848,
      1790358871,
      1790358908,
      1790358931,
      1790358968,
      1790359028,
      1790359089,
      1790359149,
      1790359269,
      1790359329,
      1790359389,
      1790359449,
      1790359509,
      1790359569,
      1790359629,
      1790359689,
      1790359749,
      1790359810,
      1790359870,
      1790359930,
      1790359990,
      1790360050,
      1790360110,
      1790360135,
      1790360170,
      1790360195,
      1790360230,
      1790360255,
      1790360290,
      1790360316,
      1790360350,
      1790360376,
      1790360410,
      1790360436,
      1790360470,
      1790360496,
      1790360530,
      1790360556,
      1790360591,
      1790360616,
      1790360651,
      1790360676,
      1790360711,
      1790360736,
      1790360771,
      1790360796,
      1790360831,
      1790360856,
      1790360891,
      1790360917,
      1790360951,
      1790360977,
      1790361011,
      1790361037,
      1790361071,
      1790361097,
      1790361131,
      1790361157,
      1790361191,
      1790361217,
      1790361251,
      1790361277,
      1790361312,
      1790361337,
      1790361372,
      1790361397,
      1790361432,
      1790361458,
      1790361492,
      1790361518,
      1790361552,
      1790361578,
      1790361612,
      1790361638,
      1790361672,
      1790361698,
      1790361732,
      1790361758,
      1790361792,
      1790361818,
      1790361852,
      1790361878,
      1790361912,
      1790361938,
      1790361972,
      1790361999,
      1790362032,
      1790362059,
      1790362093,
      1790362119,
      1790362179,
      1790362239,
      1790362299,
      1790362371,
      1790362431,
      1790362491,
      1790362552,
      1790362612,
      1790362672,
      1790362683,
      1790362732,
      1790362743,
      1790362792,
      1790362803,
      1790362912,
      1790362923,
      1790362972,
      1790362983,
      1790363032,
      1790363043,
      1790363093,
      1790363103,
      1790363153,
      1790363163,
      1790363213,
      1790363224,
      1790363273,
      1790363284,
      1790363333,
      1790363344,
      1790363393,
      1790363404,
      1790363453,
      1790363464,
      1790363513,
      1790363524,
      1790363584,
      1790363644,
      1790363704,
      1790363764,
      1790363825,
      1790363885
    ],
    "wof:geomhash": "e8ae5d18a53d9baf8927e72a85bffe53",
    "wof:id": 2048435815,
    "wof:repo": "sfomuseum-data-flights-2026-09"
  },
  "bbox": [
    -122.4,
    37.63333333333333,
    -82.86694444444444,
    43.41722222222222
  ],
  "geometry": {"type":"LineString","coordinates":[[-122.4,37.63333333333333],[-122.38472222222222,37.663888888888884],[-122.36666666666666,37.666666666666664],[-122.31222222222222,37.68694444444444],[-122.21944444444445,37.71611111111111],[-122.13,37.76138888888889],[-122.0325,37.81166666666666],[-121.91222222222223,37.86277777777778],[-121.76916666666666,37.919444444444444],[-121.63527777777779,37.97222222222222],[-121.49944444444445,38.02583333333333],[-121.36027777777777,38.08027777777778],[-121.2175,38.135555555555555],[-121.07249999999999,38.191111111111105],[-120.90833333333335,38.223888888888894],[-120.74444444444444,38.2475],[-120.6563888888889,38.25972222222222],[-120.57388888888889,38.271388888888886],[-120.48694444444445,38.282777777777774],[-120.4038888888889,38.29472222222222],[-120.315,38.30555555555555],[-120.23277777777778,38.31805555555556],[-120.14277777777778,38.32833333333333],[-120.06305555555555,38.34111111111111],[-119.97555555555556,38.352222222222224],[-119.89777777777779,38.36333333333334],[-119.81055555555555,38.373333333333335],[-119.73361111111112,38.385],[-119.64833333333334,38.39361111111111],[-119.56833333333333,38.406666666666666],[-119.48472222222222,38.41722222222222],[-119.38333333333334,38.43055555555555],[-119.315,38.43861111111111],[-119.21194444444444,38.4525],[-119.14472222222223,38.46027777777778],[-119.04416666666667,38.473333333333336],[-118.97416666666666,38.48111111111111],[-118.87027777777777,38.49527777777778],[-118.80361111111111,38.50333333333333],[-118.70027777777779,38.51638888888889],[-118.63055555555555,38.52444444444444],[-118.52666666666667,38.53722222222222],[-118.46166666666667,38.544999999999995],[-118.35472222222222,38.55777777777777],[-118.26333333333334,38.56861111111112],[-118.18305555555555,38.57805555555556],[-118.09055555555555,38.58888888888889],[-118.01611111111112,38.59777777777778],[-117.91388888888889,38.609722222222224],[-117.84083333333332,38.61805555555556],[-117.66638888888889,38.63805555555555],[-117.60055555555554,38.64472222222222],[-117.49027777777778,38.656666666666666],[-117.4238888888889,38.66416666666667],[-117.31805555555555,38.67611111111111],[-117.25027777777778,38.68722222222222],[-117.1438888888889,38.705555555555556],[-117.07527777777777,38.717222222222226],[-116.97111111111111,38.735],[-116.9038888888889,38.74638888888889],[-116.79805555555555,38.763888888888886],[-116.72916666666667,38.775555555555556],[-116.62416666666665,38.79277777777778],[-116.55666666666666,38.80416666666667],[-116.4525,38.821111111111115],[-116.3875,38.831944444444446],[-116.28138888888888,38.849444444444444],[-116.21333333333334,38.86055555555556],[-116.1086111111111,38.87722222222222],[-116.04305555555555,38.88777777777778],[-115.87194444444444,38.915277777777774],[-115.70166666666667,38.94194444444444],[-115.53166666666667,38.968333333333334],[-115.36194444444443,38.995],[-115.19222222222223,39.02111111111111],[-115.02277777777778,39.04666666666667],[-114.85249999999999,39.07222222222222],[-114.68055555555556,39.09777777777778],[-114.51027777777777,39.12277777777778],[-114.17111111111112,39.17194444444444],[-113.66638888888889,39.24305555555556],[-113.49555555555555,39.266666666666666],[-113.16166666666668,39.31472222222222],[-112.65805555555556,39.39833333333333],[-112.46777777777778,39.42916666666667],[-112.30138888888888,39.45583333333334],[-112.13361111111112,39.48277777777778],[-111.96694444444445,39.50888888888889],[-111.79972222222221,39.535],[-111.63361111111112,39.56055555555555],[-111.51555555555555,39.578611111111115],[-111.46416666666667,39.58638888888889],[-111.34666666666666,39.60416666666667],[-111.29666666666667,39.611666666666665],[-111.1275,39.63722222222222],[-111.02722222222222,39.65222222222222],[-110.95805555555556,39.6625],[-110.85916666666667,39.676944444444445],[-110.79055555555556,39.68694444444444],[-110.69277777777778,39.70111111111111],[-110.525,39.72527777777778],[-110.45722222222223,39.735],[-110.35888888888888,39.74916666666667],[-110.29055555555556,39.75861111111111],[-110.19111111111111,39.7725],[-110.12388888888889,39.782222222222224],[-110.02638888888889,39.79416666666666],[-109.95583333333333,39.801944444444445],[-109.85916666666667,39.8125],[-109.79055555555556,39.82],[-109.69333333333334,39.830555555555556],[-109.62249999999999,39.838055555555556],[-109.52472222222222,39.848333333333336],[-109.45722222222223,39.855555555555554],[-109.35694444444444,39.86638888888889],[-109.28861111111111,39.873333333333335],[-109.16388888888889,39.88638888888889],[-109.12194444444444,39.89055555555556],[-109.02666666666667,39.900277777777774],[-108.95361111111112,39.907777777777774],[-108.82388888888889,39.920833333333334],[-108.78833333333333,39.92444444444444],[-108.68583333333333,39.93444444444444],[-108.6236111111111,39.940555555555555],[-108.51722222222222,39.950833333333335],[-108.45055555555555,39.95722222222223],[-108.35138888888888,39.966944444444444],[-108.28305555555555,39.973333333333336],[-108.18277777777779,39.98277777777778],[-108.11416666666666,39.989444444444445],[-107.97833333333334,40.00611111111111],[-107.94555555555556,40.01361111111111],[-107.81638888888888,40.04555555555555],[-107.65222222222222,40.08583333333333],[-107.4875,40.126666666666665],[-107.32055555555556,40.16722222222222],[-107.15055555555556,40.208333333333336],[-106.97638888888889,40.250277777777775],[-106.80611111111111,40.29083333333333],[-106.6375,40.33083333333334],[-106.45777777777778,40.37277777777778],[-106.28277777777778,40.41361111111111],[-106.12027777777777,40.45111111111111],[-105.94472222222223,40.49138888888889],[-105.77,40.53111111111111],[-105.59083333333332,40.57166666666667],[-105.415,40.612500000000004],[-105.23861111111111,40.66166666666666],[-105.06555555555555,40.70916666666667],[-104.89055555555557,40.75694444444444],[-104.715,40.80472222222222],[-104.53888888888889,40.852222222222224],[-104.36388888888888,40.900277777777774],[-104.19222222222223,40.950833333333335],[-104.00083333333333,41.005833333333335],[-103.82888888888888,41.05472222222222],[-103.65861111111111,41.10277777777778],[-103.48833333333333,41.15083333333333],[-103.31944444444444,41.19777777777777],[-103.14833333333334,41.24527777777778],[-102.97777777777777,41.29222222222222],[-102.80472222222222,41.339444444444446],[-102.63444444444445,41.38583333333333],[-102.45111111111112,41.43527777777778],[-102.32833333333333,41.47527777777778],[-102.27833333333334,41.48166666666667],[-102.15361111111112,41.52027777777778],[-102.10249999999999,41.52833333333333],[-101.97722222222222,41.565555555555555],[-101.92611111111111,41.57472222222223],[-101.80138888888888,41.613055555555555],[-101.71444444444445,41.63027777777778],[-101.62444444444444,41.65833333333333],[-101.53777777777778,41.67638888888889],[-101.44888888888889,41.70472222222222],[-101.3611111111111,41.721944444444446],[-101.27333333333333,41.74944444444444],[-101.1863888888889,41.76638888888889],[-101.09694444444445,41.793055555555554],[-101.0461111111111,41.80222222222222],[-100.9238888888889,41.8325],[-100.83472222222221,41.85388888888889],[-100.74888888888889,41.874722222222225],[-100.65833333333335,41.896388888888886],[-100.57305555555556,41.91722222222222],[-100.48277777777778,41.93861111111111],[-100.39805555555556,41.95888888888889],[-100.30694444444444,41.980555555555554],[-100.21972222222223,42.00083333333333],[-100.12944444444443,42.02222222222222],[-100.04027777777777,42.043055555555554],[-99.95305555555557,42.06361111111111],[-99.86333333333333,42.084722222222226],[-99.77527777777777,42.10527777777778],[-99.68777777777778,42.125277777777775],[-99.61305555555555,42.1425],[-99.50805555555556,42.16694444444444],[-99.4375,42.183055555555555],[-99.3325,42.20666666666667],[-99.25888888888889,42.223333333333336],[-99.14888888888889,42.24805555555556],[-99.07916666666667,42.263888888888886],[-98.97055555555556,42.288333333333334],[-98.90166666666667,42.30361111111111],[-98.79222222222222,42.32777777777778],[-98.72500000000001,42.34277777777778],[-98.61416666666666,42.36694444444444],[-98.4325,42.406666666666666],[-98.25138888888888,42.44611111111111],[-98.07083333333333,42.484722222222224],[-97.70916666666668,42.52444444444444],[-97.52027777777778,42.54416666666666],[-97.33,42.56361111111111],[-97.14027777777778,42.5825],[-96.95083333333334,42.60138888888889],[-96.76,42.62027777777778],[-96.56833333333333,42.638333333333335],[-96.37805555555555,42.65611111111111],[-96.18972222222223,42.67333333333333],[-96,42.690555555555555],[-95.80916666666667,42.7075],[-95.59833333333333,42.726111111111116],[-95.40555555555557,42.74194444444444],[-95.21388888888889,42.75833333333333],[-95.0225,42.77388888888889],[-94.95361111111112,42.78],[-94.82972222222222,42.78916666666667],[-94.76138888888889,42.79361111111111],[-94.63722222222223,42.80444444444444],[-94.56888888888888,42.81027777777778],[-94.45444444444445,42.818333333333335],[-94.38777777777779,42.823055555555555],[-94.26,42.83277777777778],[-94.18444444444445,42.83833333333334],[-94.0675,42.84666666666667],[-93.99083333333333,42.8525],[-93.875,42.86055555555556],[-93.7961111111111,42.86611111111111],[-93.68111111111112,42.87416666666667],[-93.60222222222221,42.87972222222222],[-93.48722222222223,42.88722222222222],[-93.40694444444445,42.89277777777778],[-93.29138888888889,42.900277777777774],[-93.21555555555555,42.905277777777776],[-93.09583333333333,42.91277777777778],[-93.02,42.91777777777777],[-92.90166666666667,42.925],[-92.82305555555556,42.93],[-92.7038888888889,42.93722222222222],[-92.62555555555555,42.94194444444444],[-92.50666666666666,42.94888888888889],[-92.42805555555556,42.95333333333333],[-92.30888888888889,42.96],[-92.23027777777779,42.96472222222223],[-92.10916666666667,42.971111111111114],[-92.03083333333333,42.97555555555556],[-91.91166666666668,42.981944444444444],[-91.83194444444445,42.986111111111114],[-91.71138888888889,42.9925],[-91.63333333333334,42.99638888888889],[-91.51083333333334,43.0025],[-91.43083333333334,43.00666666666667],[-91.31166666666667,43.01222222222222],[-91.23222222222222,43.01722222222222],[-91.1111111111111,43.025277777777774],[-91.035,43.03],[-90.91472222222222,43.0375],[-90.83611111111111,43.04222222222222],[-90.71722222222222,43.049166666666665],[-90.64,43.05361111111111],[-90.52277777777778,43.059999999999995],[-90.44361111111111,43.06444444444444],[-90.32833333333333,43.07083333333334],[-90.24944444444445,43.075],[-90.16638888888889,43.07944444444445],[-90.05666666666666,43.08527777777778],[-89.97333333333333,43.08972222222222],[-89.86277777777777,43.09527777777778],[-89.77805555555555,43.099722222222226],[-89.66916666666667,43.105000000000004],[-89.5936111111111,43.108333333333334],[-89.47500000000001,43.114444444444445],[-89.4,43.11944444444445],[-89.27972222222222,43.123333333333335],[-89.20611111111111,43.12722222222222],[-89.08749999999999,43.13194444444444],[-88.9738888888889,43.13638888888889],[-88.89444444444445,43.140277777777776],[-88.78138888888888,43.14388888888889],[-88.70138888888889,43.14833333333333],[-88.58944444444444,43.151111111111106],[-88.51055555555556,43.155833333333334],[-88.31944444444444,43.16305555555555],[-88.13222222222221,43.16972222222222],[-87.94055555555556,43.17611111111111],[-87.71277777777777,43.18333333333333],[-87.52222222222223,43.18944444444444],[-87.33277777777778,43.195277777777775],[-87.14472222222223,43.20027777777778],[-86.95,43.20527777777778],[-86.7575,43.21],[-86.71944444444445,43.21083333333333],[-86.56416666666667,43.21416666666667],[-86.52694444444444,43.21527777777778],[-86.37027777777777,43.218611111111116],[-86.34083333333332,43.219166666666666],[-85.98416666666667,43.22555555555556],[-85.94611111111111,43.226111111111116],[-85.78972222222222,43.22833333333333],[-85.75055555555555,43.22888888888889],[-85.59472222222222,43.23083333333334],[-85.55916666666667,43.231388888888894],[-85.40138888888889,43.233333333333334],[-85.36638888888888,43.23388888888889],[-85.20583333333333,43.23555555555556],[-85.1725,43.236111111111114],[-85.01472222222222,43.237500000000004],[-84.9775,43.23777777777778],[-84.82166666666666,43.23888888888889],[-84.78166666666667,43.23916666666667],[-84.62666666666667,43.24],[-84.58833333333332,43.2425],[-84.43527777777778,43.259166666666665],[-84.39694444444446,43.263333333333335],[-84.24361111111111,43.27972222222222],[-84.2063888888889,43.28361111111111],[-84.05805555555555,43.29944444444444],[-84.01638888888888,43.30361111111111],[-83.845,43.321111111111115],[-83.64833333333334,43.34138888888889],[-83.45416666666667,43.36083333333333],[-83.25722222222223,43.38],[-83.06361111111111,43.39861111111111],[-82.86694444444444,43.41722222222222]]}
}
