{
  "id": 2048239733,
  "type": "Feature",
  "properties": {
    "date:inception_lower": "2026-09-03",
    "date:inception_upper": "2026-09-03",
    "edtf:cessation": "",
    "edtf:inception": "2026-09-03",
    "flysfo:actual_timestamp": -1,
    "flysfo:airline": "LH",
    "flysfo:base_airline": "",
    "flysfo:base_flight_number": "4211",
    "flysfo:date": "2026-09-03",
    "flysfo:estimated_timestamp": 1788492960,
    "flysfo:event": "A",
    "flysfo:flight_number": "LH8595",
    "flysfo:gate": "F5",
    "flysfo:journey": "PSP-SFO",
    "flysfo:scheduled_timestamp": 1788491400,
    "flysfo:timestamp": 1788492960,
    "geom:area": 0,
    "geom:bbox": "-122.370943,33.824619,-116.506042,37.617990",
    "geom:latitude": 35.7213045,
    "geom:longitude": -119.4384925,
    "iata:airline": "LH",
    "iata:base_airline": "",
    "icao:airline": "DLH",
    "icao:base_airline": "ACA",
    "lbl:latitude": 37.620164,
    "lbl:longitude": -122.387194,
    "sfomuseum:airline_id": 1159286015,
    "sfomuseum:arrival_id": 102527513,
    "sfomuseum:base_flight_id": "20260903-A-ACA-4211",
    "sfomuseum:departure_id": 102533591,
    "sfomuseum:flight_id": "20260903-A-DLH-8595",
    "sfomuseum:flight_number": [
      "DLH8595",
      "LH8595"
    ],
    "sfomuseum:placetype": "flight",
    "src:geom": "flysfo",
    "wof:belongsto": [
      1914600839,
      102527513,
      1914600845,
      102191575,
      85633793,
      102087579,
      85922583,
      554784711,
      85688637,
      1930457221,
      1914600841,
      102085387
    ],
    "wof:country": "US",
    "wof:created": 1788537922,
    "wof:geomhash": "a35a6e87f0ae0f1f716f88067ee31aa3",
    "wof:hierarchy": [
      {
        "building_id": 1914600839,
        "campus_id": 102527513,
        "concourse_id": 1914600845,
        "continent_id": 102191575,
        "country_id": 85633793,
        "county_id": 102087579,
        "custom_id": 2048239733,
        "flight_id": 2048239733,
        "locality_id": 85922583,
        "postalcode_id": 554784711,
        "region_id": 85688637,
        "venue_id": 1930457221,
        "wing_id": 1914600841
      },
      {
        "building_id": 1914600839,
        "campus_id": 102527513,
        "concourse_id": 1914600845,
        "continent_id": 102191575,
        "country_id": 85633793,
        "county_id": 102085387,
        "custom_id": 2048239733,
        "flight_id": 2048239733,
        "region_id": 85688637,
        "venue_id": 1930457221,
        "wing_id": 1914600841
      }
    ],
    "wof:id": 2048239733,
    "wof:involves": [
      102527513,
      102533591,
      1159286015,
      1930457221,
      1159283597
    ],
    "wof:lastmodified": 1788537922,
    "wof:name": "LH8595 (PSP-SFO)",
    "wof:parent_id": 1930457221,
    "wof:placetype": "custom",
    "wof:placetype_alt": [
      "flight"
    ],
    "wof:repo": "sfomuseum-data-flights-2026-09",
    "wof:superseded_by": [],
    "wof:supersedes": []
  },
  "bbox": [
    -122.370943,
    33.824619,
    -116.506042,
    37.61799
  ],
  "geometry": {"type":"MultiPoint","coordinates":[[-116.506042,33.824619],[-122.370943,37.61799]]}
}
