{
  "id": 2048344073,
  "type": "Feature",
  "properties": {
    "geom:area": 0,
    "geom:bbox": "-123.484230,36.849050,-122.156980,37.613450",
    "geom:latitude": 37.25437640004816,
    "geom:longitude": -122.74686222450178,
    "src:alt_label": "swim-approach",
    "src:geom": "swim",
    "swim:elevations": [
      6576,
      6249,
      6018,
      5623,
      5440,
      5079,
      4876,
      4625,
      4391,
      4289,
      4055,
      3705,
      3248,
      3141,
      3048,
      3048,
      3048,
      3019,
      2964,
      2795,
      2662,
      2500,
      2433,
      2186,
      2092,
      1937,
      1725,
      1512,
      1267,
      1192,
      913,
      858,
      681,
      586,
      395,
      313,
      208,
      0,
      0
    ],
    "swim:geom": "approach",
    "swim:timestamps": [
      1789502662,
      1789502695,
      1789502718,
      1789502757,
      1789502776,
      1789502812,
      1789502834,
      1789502858,
      1789502882,
      1789502894,
      1789502918,
      1789502953,
      1789502996,
      1789503008,
      1789503037,
      1789503085,
      1789503110,
      1789503128,
      1789503159,
      1789503202,
      1789503225,
      1789503256,
      1789503270,
      1789503328,
      1789503355,
      1789503388,
      1789503410,
      1789503430,
      1789503473,
      1789503483,
      1789503538,
      1789503555,
      1789503593,
      1789503612,
      1789503651,
      1789503672,
      1789503704,
      1789503748,
      1789503753
    ],
    "wof:geomhash": "a0f44611658ef482c624f3b026703806",
    "wof:id": 2048344073,
    "wof:repo": "sfomuseum-data-flights-2026-09"
  },
  "bbox": [
    -123.48423,
    36.84905,
    -122.15698,
    37.61345
  ],
  "geometry": {"type":"LineString","coordinates":[[-123.48423,36.84905],[-123.42109,36.89022],[-123.37898,36.91915],[-123.30902,36.96528],[-123.27493,36.98762],[-123.21116,37.02967],[-123.17312,37.05475],[-123.13143,37.08204],[-123.09074,37.10889],[-123.07063,37.12219],[-123.03178,37.14758],[-122.97301,37.18601],[-122.90408,37.23104],[-122.8854,37.24317],[-122.8354,37.26379],[-122.74288,37.28586],[-122.69492,37.29704],[-122.66169,37.30476],[-122.60722,37.31726],[-122.53581,37.33389],[-122.49795,37.34275],[-122.44773,37.35438],[-122.42583,37.3593],[-122.33452,37.38025],[-122.29343,37.38956],[-122.24968,37.40678],[-122.22356,37.42225],[-122.20023,37.43615],[-122.16023,37.47045],[-122.15698,37.48111],[-122.17173,37.53128],[-122.18852,37.54031],[-122.22649,37.55625],[-122.24544,37.56418],[-122.28055,37.57907],[-122.29692,37.58593],[-122.32196,37.59636],[-122.35803,37.61158],[-122.36209,37.61345]]}
}
