{
  "id": 2048452937,
  "type": "Feature",
  "properties": {
    "geom:area": 0,
    "geom:bbox": "-122.406460,37.633490,-121.244450,38.425990",
    "geom:latitude": 38.09044341123246,
    "geom:longitude": -121.92339183640415,
    "src:alt_label": "swim-takeoff",
    "src:geom": "swim",
    "swim:elevations": [
      437,
      492,
      1229,
      2022,
      2412,
      2979,
      3341,
      3395,
      4291,
      4600,
      4944,
      5212,
      5655,
      5876,
      6198,
      6366,
      6826,
      7086,
      7325,
      7395,
      7539,
      7868,
      8181,
      8244,
      8428
    ],
    "swim:geom": "takeoff",
    "swim:timestamps": [
      1790552966,
      1790552972,
      1790553051,
      1790553107,
      1790553134,
      1790553170,
      1790553213,
      1790553225,
      1790553297,
      1790553324,
      1790553354,
      1790553380,
      1790553416,
      1790553440,
      1790553473,
      1790553488,
      1790553533,
      1790553560,
      1790553591,
      1790553601,
      1790553627,
      1790553667,
      1790553715,
      1790553730,
      1790553765
    ],
    "wof:geomhash": "d890d87ea5385a863b728dcc64aa5f98",
    "wof:id": 2048452937,
    "wof:repo": "sfomuseum-data-flights-2026-09"
  },
  "bbox": [
    -122.40646,
    37.63349,
    -121.24445,
    38.42599
  ],
  "geometry": {"type":"LineString","coordinates":[[-122.40415,37.63349],[-122.40646,37.63779],[-122.3599,37.69805],[-122.34555,37.76073],[-122.36147,37.7922],[-122.3817,37.83516],[-122.38495,37.89436],[-122.38274,37.91267],[-122.27232,37.98584],[-122.2197,38.00737],[-122.15938,38.03115],[-122.10656,38.05206],[-122.03118,38.08195],[-121.97997,38.10221],[-121.90819,38.13127],[-121.87519,38.14441],[-121.77417,38.18467],[-121.71328,38.20848],[-121.64427,38.23622],[-121.61976,38.24591],[-121.55971,38.26993],[-121.46563,38.30616],[-121.35414,38.35785],[-121.32225,38.37823],[-121.24445,38.42599]]}
}
