{
  "id": 2048347145,
  "type": "Feature",
  "properties": {
    "geom:area": 0,
    "geom:bbox": "-122.408140,37.623940,-121.453780,38.503450",
    "geom:latitude": 38.111019647528686,
    "geom:longitude": -122.03123547398424,
    "src:alt_label": "swim-takeoff",
    "src:geom": "swim",
    "swim:elevations": [
      122,
      499,
      703,
      787,
      922,
      1397,
      1812,
      2229,
      2423,
      3028,
      3178,
      3416,
      3635,
      3758,
      4072,
      4354,
      4524,
      4957,
      5123,
      5256,
      5644,
      5905,
      6119,
      6267,
      6557,
      6623,
      6859,
      7006
    ],
    "swim:geom": "takeoff",
    "swim:timestamps": [
      1789511604,
      1789511634,
      1789511667,
      1789511689,
      1789511706,
      1789511745,
      1789511779,
      1789511811,
      1789511823,
      1789511877,
      1789511893,
      1789511923,
      1789511962,
      1789511985,
      1789512024,
      1789512055,
      1789512070,
      1789512118,
      1789512139,
      1789512155,
      1789512197,
      1789512233,
      1789512263,
      1789512284,
      1789512324,
      1789512333,
      1789512371,
      1789512392
    ],
    "wof:geomhash": "46581ac3fbbd1cfcd46c192a64afe948",
    "wof:id": 2048347145,
    "wof:repo": "sfomuseum-data-flights-2026-09"
  },
  "bbox": [
    -122.40814,
    37.62394,
    -121.45378,
    38.50345
  ],
  "geometry": {"type":"LineString","coordinates":[[-122.38753,37.62394],[-122.40814,37.63942],[-122.39349,37.66631],[-122.37512,37.68477],[-122.35895,37.70069],[-122.33725,37.74448],[-122.35583,37.78392],[-122.37534,37.82261],[-122.38254,37.8369],[-122.38487,37.90728],[-122.38257,37.92926],[-122.35143,37.96325],[-122.28942,37.99922],[-122.25185,38.02136],[-122.18248,38.06358],[-122.1258,38.09824],[-122.09827,38.11498],[-122.00974,38.16883],[-121.96871,38.19359],[-121.93905,38.21149],[-121.85641,38.26127],[-121.7848,38.30443],[-121.72403,38.3409],[-121.68088,38.36678],[-121.59726,38.41669],[-121.5782,38.42801],[-121.49843,38.47599],[-121.45378,38.50345]]}
}
