{
  "id": 2048303809,
  "type": "Feature",
  "properties": {
    "geom:area": 0,
    "geom:bbox": "-122.397950,37.623940,-121.460400,38.499290",
    "geom:latitude": 38.045698966897234,
    "geom:longitude": -121.92546307915063,
    "src:alt_label": "swim-takeoff",
    "src:geom": "swim",
    "swim:elevations": [
      183,
      398,
      885,
      977,
      1222,
      1474,
      1622,
      2169,
      2295,
      2691,
      3126,
      3256,
      3414,
      3767,
      3889,
      4294,
      4548,
      4932,
      5046,
      5251,
      5364,
      5736,
      5904,
      6140,
      6332,
      6560,
      6613,
      6798
    ],
    "swim:geom": "takeoff",
    "swim:timestamps": [
      1789065536,
      1789065551,
      1789065596,
      1789065605,
      1789065638,
      1789065674,
      1789065703,
      1789065746,
      1789065757,
      1789065794,
      1789065830,
      1789065856,
      1789065886,
      1789065927,
      1789065938,
      1789065978,
      1789066010,
      1789066046,
      1789066058,
      1789066082,
      1789066095,
      1789066129,
      1789066149,
      1789066178,
      1789066209,
      1789066238,
      1789066245,
      1789066269
    ],
    "wof:geomhash": "50d83572852ecc973a5e1e33bc0c23ae",
    "wof:id": 2048303809,
    "wof:repo": "sfomuseum-data-flights-2026-09"
  },
  "bbox": [
    -122.39795,
    37.62394,
    -121.4604,
    38.49929
  ],
  "geometry": {"type":"LineString","coordinates":[[-122.38731,37.62394],[-122.39795,37.63065],[-122.37861,37.65705],[-122.36974,37.6603],[-122.33449,37.67243],[-122.29182,37.68842],[-122.25075,37.70396],[-122.19451,37.73996],[-122.18267,37.75301],[-122.14518,37.79424],[-122.10692,37.83663],[-122.07682,37.87022],[-122.04001,37.9108],[-121.98573,37.97065],[-121.97108,37.98671],[-121.91666,38.04655],[-121.87307,38.09428],[-121.82062,38.15162],[-121.80442,38.16928],[-121.76943,38.20741],[-121.7505,38.228],[-121.69907,38.28404],[-121.67057,38.31501],[-121.62611,38.36346],[-121.57837,38.41518],[-121.52773,38.45836],[-121.51279,38.46751],[-121.4604,38.49929]]}
}
