{
  "id": 2048287385,
  "type": "Feature",
  "properties": {
    "geom:area": 0,
    "geom:bbox": "-122.403560,37.625080,-121.434710,38.514690",
    "geom:latitude": 38.05295803069586,
    "geom:longitude": -121.9186967153208,
    "src:alt_label": "swim-takeoff",
    "src:geom": "swim",
    "swim:elevations": [
      196,
      414,
      672,
      765,
      952,
      1209,
      1574,
      1841,
      2201,
      2600,
      2851,
      3202,
      3329,
      3446,
      3637,
      3975,
      4213,
      4464,
      4748,
      5063,
      5323,
      5441,
      5726,
      5875,
      6059,
      6388,
      6544
    ],
    "swim:geom": "takeoff",
    "swim:timestamps": [
      1788900468,
      1788900487,
      1788900537,
      1788900558,
      1788900592,
      1788900617,
      1788900654,
      1788900678,
      1788900707,
      1788900739,
      1788900767,
      1788900807,
      1788900836,
      1788900858,
      1788900888,
      1788900926,
      1788900950,
      1788900978,
      1788901008,
      1788901036,
      1788901073,
      1788901091,
      1788901130,
      1788901148,
      1788901175,
      1788901225,
      1788901251
    ],
    "wof:geomhash": "8af595ec63ba12481c160605cf40d89b",
    "wof:id": 2048287385,
    "wof:repo": "sfomuseum-data-flights-2026-09"
  },
  "bbox": [
    -122.40356,
    37.62508,
    -121.43471,
    38.51469
  ],
  "geometry": {"type":"LineString","coordinates":[[-122.39019,37.62508],[-122.40356,37.63335],[-122.38311,37.66461],[-122.35897,37.67191],[-122.31482,37.68505],[-122.2791,37.69623],[-122.22319,37.71437],[-122.19568,37.73617],[-122.16808,37.76854],[-122.13697,37.80394],[-122.10942,37.83446],[-122.06741,37.88062],[-122.0349,37.91649],[-122.00896,37.94504],[-121.97046,37.98745],[-121.92211,38.04043],[-121.88977,38.0759],[-121.85277,38.11654],[-121.81225,38.16091],[-121.77338,38.20317],[-121.72271,38.25841],[-121.69837,38.28487],[-121.64291,38.34509],[-121.61683,38.37334],[-121.57791,38.41552],[-121.48697,38.48281],[-121.43471,38.51469]]}
}
