{
  "id": 2048458119,
  "type": "Feature",
  "properties": {
    "geom:area": 0,
    "geom:bbox": "-122.350000,37.531944,-122.085000,37.641944",
    "geom:latitude": 37.5777386725364,
    "geom:longitude": -122.1900627053821,
    "src:alt_label": "swim-path",
    "src:geom": "swim",
    "swim:altitudes": [
      "059",
      "042",
      "040",
      "029",
      "024",
      "024",
      "018",
      "010",
      "002",
      "002"
    ],
    "swim:geom": "path",
    "swim:speeds": [
      232,
      234,
      215,
      190,
      180,
      180,
      180,
      144,
      144,
      141
    ],
    "swim:timestamps": [
      1790648452,
      1790648512,
      1790648572,
      1790648632,
      1790648692,
      1790648700,
      1790648753,
      1790648813,
      1790648873,
      1790648880
    ],
    "wof:geomhash": "3e296f968d0c4759d65866f1a88e7343",
    "wof:id": 2048458119,
    "wof:repo": "sfomuseum-data-flights-2026-09"
  },
  "bbox": [
    -122.35,
    37.53194444444444,
    -122.085,
    37.64194444444444
  ],
  "geometry": {"type":"LineString","coordinates":[[-122.18333333333334,37.64194444444444],[-122.11333333333333,37.608333333333334],[-122.085,37.55722222222222],[-122.13944444444445,37.53194444444444],[-122.1975,37.546388888888885],[-122.2,37.55],[-122.25277777777778,37.569722222222225],[-122.30111111111111,37.58972222222222],[-122.34555555555555,37.60861111111111],[-122.35,37.61666666666667]]}
}
