{
  "id": 2048322905,
  "type": "Feature",
  "properties": {
    "geom:area": 0,
    "geom:bbox": "-122.352060,37.491620,-121.265100,37.609000",
    "geom:latitude": 37.54518186055307,
    "geom:longitude": -121.81352373761852,
    "src:alt_label": "swim-approach",
    "src:geom": "swim",
    "swim:elevations": [
      4730,
      4446,
      4375,
      3845,
      3715,
      3508,
      3416,
      3340,
      2977,
      2655,
      2532,
      2373,
      2203,
      2099,
      1912,
      1833,
      1510,
      1332,
      1200,
      977,
      913,
      798,
      766,
      586,
      442,
      301,
      189,
      93,
      61
    ],
    "swim:geom": "approach",
    "swim:timestamps": [
      1789338238,
      1789338266,
      1789338275,
      1789338327,
      1789338341,
      1789338371,
      1789338396,
      1789338421,
      1789338470,
      1789338508,
      1789338535,
      1789338564,
      1789338587,
      1789338610,
      1789338649,
      1789338661,
      1789338706,
      1789338731,
      1789338752,
      1789338788,
      1789338835,
      1789338868,
      1789338877,
      1789338907,
      1789338958,
      1789338986,
      1789339018,
      1789339043,
      1789339054
    ],
    "wof:geomhash": "dca4e36f414d5c39514128c4a8f950c1",
    "wof:id": 2048322905,
    "wof:repo": "sfomuseum-data-flights-2026-09"
  },
  "bbox": [
    -122.35206,
    37.49162,
    -121.2651,
    37.609
  ],
  "geometry": {"type":"LineString","coordinates":[[-121.2651,37.59312],[-121.32164,37.58616],[-121.33989,37.58415],[-121.44438,37.57237],[-121.47162,37.56923],[-121.53097,37.56217],[-121.5762,37.55679],[-121.61865,37.55171],[-121.69953,37.53305],[-121.7595,37.51888],[-121.80177,37.50869],[-121.8459,37.49805],[-121.88005,37.49162],[-121.91356,37.49211],[-121.96668,37.49346],[-121.98191,37.49428],[-122.03508,37.51036],[-122.06138,37.51863],[-122.08378,37.52575],[-122.12052,37.53777],[-122.16648,37.55274],[-122.19741,37.56279],[-122.20573,37.56542],[-122.23429,37.56881],[-122.27909,37.57865],[-122.3014,37.58776],[-122.32516,37.59772],[-122.34405,37.60565],[-122.35206,37.609]]}
}
