{
  "id": 2048232363,
  "type": "Feature",
  "properties": {
    "geom:area": 0,
    "geom:bbox": "-122.625740,37.364830,-121.273440,37.686070",
    "geom:latitude": 37.511119032728956,
    "geom:longitude": -122.1016214521273,
    "src:alt_label": "swim-approach",
    "src:geom": "swim",
    "swim:elevations": [
      5161,
      4890,
      4777,
      4385,
      4180,
      3964,
      3926,
      3751,
      3610,
      3244,
      3160,
      3048,
      3048,
      3048,
      3048,
      3048,
      3006,
      2759,
      2609,
      2309,
      2187,
      2073,
      1978,
      1945,
      1723,
      1522,
      1332,
      1262,
      1123,
      935,
      913,
      635,
      517,
      410,
      337,
      185,
      14,
      0,
      395,
      509,
      817,
      914,
      1094,
      1673,
      1828,
      1829,
      1829,
      1829,
      1829,
      1829,
      1829,
      1829,
      1829,
      1829,
      1829,
      1829,
      1829,
      1829,
      1829,
      1829,
      1829,
      1829,
      1680,
      1582,
      1397,
      1310,
      1215,
      1175,
      1065
    ],
    "swim:geom": "approach",
    "swim:timestamps": [
      1788361887,
      1788361915,
      1788361926,
      1788361972,
      1788362008,
      1788362036,
      1788362045,
      1788362089,
      1788362115,
      1788362156,
      1788362164,
      1788362218,
      1788362239,
      1788362274,
      1788362278,
      1788362281,
      1788362297,
      1788362330,
      1788362353,
      1788362394,
      1788362415,
      1788362455,
      1788362478,
      1788362490,
      1788362538,
      1788362576,
      1788362601,
      1788362611,
      1788362636,
      1788362666,
      1788362670,
      1788362727,
      1788362751,
      1788362776,
      1788362791,
      1788362835,
      1788362877,
      1788362908,
      1788362931,
      1788362937,
      1788362960,
      1788362978,
      1788363017,
      1788363055,
      1788363085,
      1788363094,
      1788363109,
      1788363136,
      1788363163,
      1788363183,
      1788363217,
      1788363261,
      1788363298,
      1788363316,
      1788363354,
      1788363385,
      1788363414,
      1788363428,
      1788363470,
      1788363490,
      1788363536,
      1788363561,
      1788363592,
      1788363608,
      1788363634,
      1788363664,
      1788363694,
      1788363737,
      1788363777
    ],
    "wof:geomhash": "9c85c17d5236e1fe26c61f32c37783dc",
    "wof:id": 2048232363,
    "wof:repo": "sfomuseum-data-flights-2026-09"
  },
  "bbox": [
    -122.62574,
    37.36483,
    -121.27344,
    37.68607
  ],
  "geometry": {"type":"LineString","coordinates":[[-121.27344,37.5912],[-121.32059,37.58577],[-121.33993,37.58363],[-121.41955,37.57454],[-121.47946,37.56757],[-121.52428,37.56235],[-121.53999,37.56055],[-121.60543,37.55286],[-121.63866,37.54731],[-121.69094,37.55043],[-121.70076,37.55431],[-121.7689,37.56525],[-121.78591,37.54725],[-121.80223,37.51159],[-121.80414,37.50673],[-121.80503,37.50336],[-121.80626,37.48573],[-121.80593,37.44963],[-121.8134,37.42515],[-121.85945,37.40979],[-121.88634,37.41679],[-121.93609,37.43547],[-121.96355,37.44729],[-121.97824,37.45354],[-122.03514,37.47777],[-122.07934,37.4964],[-122.1081,37.5085],[-122.11996,37.51359],[-122.14725,37.52517],[-122.18044,37.5392],[-122.18462,37.54098],[-122.24036,37.56442],[-122.26306,37.57405],[-122.28342,37.58248],[-122.29425,37.58707],[-122.32636,37.60058],[-122.35685,37.61344],[-122.37797,37.62222],[-122.39495,37.62949],[-122.40025,37.63176],[-122.41895,37.64024],[-122.43445,37.64716],[-122.48044,37.66686],[-122.53449,37.68607],[-122.57763,37.67455],[-122.58554,37.6659],[-122.59293,37.64758],[-122.60123,37.61525],[-122.60916,37.58453],[-122.61515,37.56135],[-122.62574,37.52147],[-122.62338,37.47154],[-122.58144,37.44018],[-122.56183,37.42625],[-122.51954,37.39628],[-122.48144,37.38047],[-122.44154,37.38233],[-122.42232,37.37944],[-122.36543,37.36955],[-122.33848,37.36483],[-122.27564,37.3661],[-122.24291,37.37421],[-122.202,37.38403],[-122.18231,37.38888],[-122.15035,37.40112],[-122.12962,37.42772],[-122.1111,37.45315],[-122.09685,37.48947],[-122.12966,37.51473]]}
}
