{
  "id": 2048248277,
  "type": "Feature",
  "properties": {
    "geom:area": 0,
    "geom:bbox": "-122.355950,37.492380,-121.258730,37.613080",
    "geom:latitude": 37.546161205886484,
    "geom:longitude": -121.81221937180199,
    "src:alt_label": "swim-approach",
    "src:geom": "swim",
    "swim:elevations": [
      4695,
      4589,
      4037,
      3959,
      3830,
      3665,
      3186,
      3093,
      3078,
      2813,
      2654,
      2467,
      2316,
      2193,
      2131,
      2033,
      1937,
      1828,
      1820,
      1657,
      1483,
      1401,
      1241,
      1037,
      915,
      825,
      584,
      510,
      421,
      242,
      134,
      0
    ],
    "swim:geom": "approach",
    "swim:timestamps": [
      1788560513,
      1788560522,
      1788560577,
      1788560586,
      1788560597,
      1788560614,
      1788560663,
      1788560696,
      1788560705,
      1788560755,
      1788560782,
      1788560813,
      1788560848,
      1788560866,
      1788560883,
      1788560928,
      1788560938,
      1788560960,
      1788560981,
      1788561005,
      1788561032,
      1788561041,
      1788561076,
      1788561117,
      1788561140,
      1788561158,
      1788561205,
      1788561224,
      1788561242,
      1788561293,
      1788561320,
      1788561345
    ],
    "wof:geomhash": "02084b9ab0ab711ee32d4e239926993f",
    "wof:id": 2048248277,
    "wof:repo": "sfomuseum-data-flights-2026-09"
  },
  "bbox": [
    -122.35595,
    37.49238,
    -121.25873,
    37.61308
  ],
  "geometry": {"type":"LineString","coordinates":[[-121.25873,37.59275],[-121.27549,37.59059],[-121.37833,37.57956],[-121.3938,37.57771],[-121.41612,37.57521],[-121.44792,37.57129],[-121.53894,37.56092],[-121.59806,37.5539],[-121.61314,37.55212],[-121.69049,37.53514],[-121.73063,37.52551],[-121.77603,37.51461],[-121.82452,37.50298],[-121.84817,37.49732],[-121.8721,37.49238],[-121.93333,37.49241],[-121.94546,37.49275],[-121.97502,37.49364],[-122.00142,37.49896],[-122.02965,37.50816],[-122.06145,37.51845],[-122.07197,37.52189],[-122.11056,37.53453],[-122.15554,37.54895],[-122.1807,37.55716],[-122.20013,37.56346],[-122.24612,37.57833],[-122.26282,37.58356],[-122.27722,37.58768],[-122.31558,37.59905],[-122.33684,37.6055],[-122.35595,37.61308]]}
}
