{
  "id": 2048431283,
  "type": "Feature",
  "properties": {
    "geom:area": 0,
    "geom:bbox": "-122.331667,35.876944,-115.180000,37.700000",
    "geom:latitude": 37.1689564121985,
    "geom:longitude": -118.58421572476833,
    "src:alt_label": "swim-path",
    "src:geom": "swim",
    "swim:altitudes": [
      "042",
      "058",
      "062",
      "079",
      "088",
      "105",
      "115",
      "132",
      "155",
      "171",
      "189",
      "209",
      "229",
      "243",
      "257",
      "276",
      "289",
      "301",
      "311",
      "311",
      "320",
      "321",
      "332",
      "345",
      "345",
      "356",
      "360C",
      "360C",
      "360C",
      "360C",
      "360C",
      "360C",
      "360C",
      "360C",
      "360C",
      "360C",
      "360C",
      "360C",
      "360C",
      "360C",
      "360C",
      "360C",
      "360C",
      "360C",
      "360C",
      "360C",
      "360C",
      "360C",
      "360C",
      "360C",
      "360C",
      "360C",
      "360C",
      "360C",
      "360C",
      "360C",
      "360C",
      "360C",
      "360C",
      "360C",
      "360",
      "360",
      "360",
      "340",
      "311",
      "295",
      "290",
      "272",
      "267",
      "245",
      "227",
      "206",
      "190",
      "170",
      "165",
      "152",
      "148",
      "132",
      "124",
      "109",
      "106",
      "097",
      "093",
      "085",
      "084",
      "079",
      "077",
      "070",
      "070",
      "067",
      "063",
      "058",
      "054",
      "046",
      "043",
      "033",
      "026",
      "023",
      "016",
      "013",
      "008",
      "005"
    ],
    "swim:geom": "path",
    "swim:speeds": [
      218,
      224,
      250,
      271,
      271,
      275,
      286,
      295,
      318,
      349,
      366,
      374,
      385,
      397,
      409,
      413,
      421,
      431,
      440,
      440,
      449,
      449,
      455,
      455,
      455,
      453,
      451,
      451,
      450,
      450,
      450,
      449,
      450,
      449,
      449,
      449,
      450,
      450,
      434,
      434,
      430,
      430,
      428,
      428,
      427,
      428,
      428,
      428,
      428,
      426,
      426,
      425,
      425,
      424,
      424,
      424,
      423,
      422,
      423,
      424,
      426,
      427,
      427,
      426,
      426,
      421,
      425,
      420,
      420,
      406,
      380,
      368,
      357,
      350,
      351,
      323,
      319,
      296,
      262,
      234,
      233,
      229,
      231,
      227,
      230,
      226,
      228,
      230,
      228,
      223,
      227,
      226,
      227,
      220,
      224,
      207,
      181,
      185,
      174,
      172,
      152,
      152
    ],
    "swim:timestamps": [
      1790363488,
      1790363530,
      1790363548,
      1790363590,
      1790363608,
      1790363650,
      1790363668,
      1790363710,
      1790363770,
      1790363830,
      1790363890,
      1790363951,
      1790364011,
      1790364071,
      1790364131,
      1790364191,
      1790364251,
      1790364311,
      1790364365,
      1790364371,
      1790364425,
      1790364431,
      1790364491,
      1790364545,
      1790364552,
      1790364612,
      1790364665,
      1790364672,
      1790364725,
      1790364732,
      1790364786,
      1790364792,
      1790364846,
      1790364852,
      1790364906,
      1790364912,
      1790364966,
      1790364972,
      1790365026,
      1790365032,
      1790365086,
      1790365092,
      1790365146,
      1790365153,
      1790365213,
      1790365266,
      1790365273,
      1790365326,
      1790365333,
      1790365386,
      1790365393,
      1790365447,
      1790365453,
      1790365507,
      1790365513,
      1790365573,
      1790365627,
      1790365687,
      1790365747,
      1790365807,
      1790365867,
      1790365927,
      1790365987,
      1790366048,
      1790366108,
      1790366151,
      1790366168,
      1790366210,
      1790366228,
      1790366288,
      1790366348,
      1790366408,
      1790366451,
      1790366511,
      1790366528,
      1790366571,
      1790366588,
      1790366648,
      1790366691,
      1790366750,
      1790366769,
      1790366810,
      1790366829,
      1790366870,
      1790366889,
      1790366930,
      1790366949,
      1790366990,
      1790367009,
      1790367050,
      1790367069,
      1790367111,
      1790367129,
      1790367171,
      1790367189,
      1790367249,
      1790367292,
      1790367309,
      1790367351,
      1790367370,
      1790367411,
      1790367430
    ],
    "wof:geomhash": "efa68206a0c503630ed3eb755cced197",
    "wof:id": 2048431283,
    "wof:repo": "sfomuseum-data-flights-2026-09"
  },
  "bbox": [
    -122.33166666666666,
    35.87694444444445,
    -115.18,
    37.7
  ],
  "geometry": {"type":"LineString","coordinates":[[-115.18,36.13527777777778],[-115.22777777777777,36.12],[-115.25361111111111,36.113055555555555],[-115.30805555555555,36.09055555555556],[-115.33138888888888,36.07194444444445],[-115.37138888888889,36.03583333333333],[-115.39472222222223,36.013888888888886],[-115.43972222222223,35.975833333333334],[-115.5175,35.90833333333333],[-115.62305555555555,35.87694444444445],[-115.74805555555555,35.88472222222222],[-115.87444444444444,35.89194444444444],[-115.9888888888889,35.93666666666666],[-116.07472222222222,36.005833333333335],[-116.16777777777779,36.08083333333334],[-116.27666666666667,36.16888888888889],[-116.36277777777777,36.26166666666666],[-116.45027777777779,36.35888888888889],[-116.535,36.4525],[-116.53972222222222,36.45777777777778],[-116.62805555555555,36.55555555555555],[-116.62805555555555,36.55555555555555],[-116.72166666666666,36.65861111111111],[-116.81472222222222,36.76027777777778],[-116.81472222222222,36.76027777777778],[-116.9075,36.86194444444445],[-117.00055555555555,36.963055555555556],[-116.99888888888889,36.96138888888889],[-117.0925,37.062777777777775],[-117.0925,37.062777777777775],[-117.18555555555555,37.16361111111111],[-117.18555555555555,37.16361111111111],[-117.27888888888889,37.26416666666667],[-117.27888888888889,37.26416666666667],[-117.3775,37.361666666666665],[-117.3775,37.361666666666665],[-117.48194444444445,37.45888888888889],[-117.48055555555555,37.4575],[-117.61999999999999,37.5025],[-117.61999999999999,37.5025],[-117.76888888888888,37.514722222222225],[-117.76888888888888,37.514722222222225],[-117.91833333333334,37.526666666666664],[-117.91805555555555,37.526666666666664],[-118.06777777777778,37.53861111111111],[-118.21638888888889,37.55],[-118.21638888888889,37.55],[-118.36749999999999,37.56166666666666],[-118.35805555555555,37.56111111111111],[-118.51444444444445,37.57277777777778],[-118.50444444444445,37.57222222222222],[-118.66055555555556,37.58388888888889],[-118.66055555555556,37.58388888888889],[-118.81083333333333,37.594722222222224],[-118.80805555555555,37.59444444444445],[-118.95666666666666,37.60527777777778],[-119.09027777777777,37.614444444444445],[-119.2375,37.625],[-119.38666666666667,37.635],[-119.53666666666666,37.644999999999996],[-119.68444444444445,37.65472222222222],[-119.83388888888888,37.66416666666667],[-119.98333333333333,37.67361111111111],[-120.13305555555554,37.68277777777777],[-120.2825,37.69194444444444],[-120.4,37.7],[-120.42944444444444,37.69611111111111],[-120.55,37.68333333333333],[-120.575,37.67944444444444],[-120.7175,37.6625],[-120.85027777777778,37.64666666666667],[-120.9786111111111,37.63111111111111],[-121.08333333333333,37.61666666666667],[-121.2,37.6],[-121.23055555555555,37.59722222222222],[-121.31666666666666,37.583333333333336],[-121.34305555555555,37.58361111111111],[-121.44694444444445,37.57166666666667],[-121.51666666666667,37.56666666666667],[-121.6,37.55],[-121.62333333333332,37.55083333333333],[-121.68333333333334,37.53333333333333],[-121.69944444444445,37.533055555555556],[-121.73333333333333,37.5],[-121.74944444444445,37.48888888888889],[-121.78333333333333,37.45],[-121.79916666666666,37.44611111111111],[-121.85,37.46666666666667],[-121.875,37.465],[-121.93333333333334,37.483333333333334],[-121.95,37.48444444444444],[-122,37.5],[-122.02388888888889,37.506388888888885],[-122.08333333333333,37.516666666666666],[-122.09583333333333,37.52972222222222],[-122.16472222222222,37.551944444444445],[-122.2,37.56666666666667],[-122.22472222222223,37.57138888888889],[-122.26666666666667,37.583333333333336],[-122.27972222222222,37.58833333333334],[-122.31666666666666,37.6],[-122.33166666666666,37.603611111111114]]}
}
