{
  "id": 2048470903,
  "type": "Feature",
  "properties": {
    "geom:area": 0,
    "geom:bbox": "-122.466667,34.197500,-118.350278,37.716667",
    "geom:latitude": 35.84582975389431,
    "geom:longitude": -120.56990160776647,
    "src:alt_label": "swim-path",
    "src:geom": "swim",
    "swim:altitudes": [
      "007",
      "013",
      "038",
      "042",
      "063",
      "070",
      "097",
      "103",
      "120",
      "127",
      "152",
      "158",
      "180",
      "187",
      "190",
      "211",
      "236",
      "260",
      "270C",
      "270C",
      "270C",
      "270C",
      "270C",
      "270C",
      "270C",
      "270C",
      "270C",
      "270C",
      "270C",
      "270C",
      "270C",
      "270C",
      "270C",
      "270",
      "270",
      "270",
      "264",
      "254",
      "232",
      "202",
      "189",
      "165",
      "143",
      "124",
      "122",
      "119",
      "117",
      "112",
      "107",
      "099",
      "094",
      "084",
      "082",
      "079",
      "074",
      "066",
      "062",
      "058",
      "056",
      "052",
      "048",
      "041",
      "037",
      "031",
      "028",
      "023",
      "020",
      "015",
      "012",
      "008",
      "007"
    ],
    "swim:geom": "path",
    "swim:speeds": [
      163,
      165,
      168,
      191,
      273,
      284,
      312,
      314,
      374,
      371,
      378,
      380,
      396,
      396,
      410,
      413,
      429,
      437,
      447,
      450,
      450,
      450,
      450,
      450,
      451,
      453,
      454,
      455,
      458,
      459,
      460,
      461,
      462,
      464,
      465,
      467,
      468,
      467,
      449,
      457,
      456,
      436,
      404,
      379,
      375,
      333,
      317,
      314,
      312,
      317,
      314,
      315,
      306,
      270,
      263,
      243,
      232,
      214,
      214,
      202,
      206,
      200,
      192,
      167,
      166,
      143,
      148,
      149,
      148,
      137,
      134
    ],
    "swim:timestamps": [
      1790703312,
      1790703335,
      1790703372,
      1790703395,
      1790703432,
      1790703455,
      1790703492,
      1790703515,
      1790703552,
      1790703575,
      1790703613,
      1790703635,
      1790703672,
      1790703696,
      1790703756,
      1790703816,
      1790703876,
      1790703936,
      1790703996,
      1790704056,
      1790704116,
      1790704176,
      1790704236,
      1790704296,
      1790704356,
      1790704417,
      1790704480,
      1790704537,
      1790704597,
      1790704657,
      1790704717,
      1790704777,
      1790704837,
      1790704897,
      1790704957,
      1790705017,
      1790705078,
      1790705138,
      1790705198,
      1790705258,
      1790705318,
      1790705378,
      1790705438,
      1790705475,
      1790705502,
      1790705529,
      1790705562,
      1790705589,
      1790705622,
      1790705649,
      1790705682,
      1790705710,
      1790705742,
      1790705770,
      1790705803,
      1790705830,
      1790705863,
      1790705889,
      1790705923,
      1790705950,
      1790705983,
      1790706010,
      1790706043,
      1790706070,
      1790706103,
      1790706130,
      1790706163,
      1790706190,
      1790706223,
      1790706250,
      1790706283
    ],
    "wof:geomhash": "e7853557f0037fd6a4a7f1b7d9947554",
    "wof:id": 2048470903,
    "wof:repo": "sfomuseum-data-flights-2026-09"
  },
  "bbox": [
    -122.46666666666667,
    34.1975,
    -118.35027777777778,
    37.71666666666667
  ],
  "geometry": {"type":"LineString","coordinates":[[-122.36666666666666,37.63333333333333],[-122.36388888888888,37.64472222222222],[-122.36666666666666,37.68333333333333],[-122.36388888888888,37.69222222222222],[-122.41666666666667,37.71666666666667],[-122.43722222222223,37.71],[-122.46666666666667,37.65],[-122.46138888888889,37.62861111111111],[-122.45,37.55],[-122.43972222222223,37.53194444444444],[-122.36666666666666,37.46666666666667],[-122.35055555555554,37.4525],[-122.28333333333333,37.38333333333333],[-122.25916666666667,37.370555555555555],[-122.16416666666667,37.28638888888889],[-122.06638888888888,37.20166666666667],[-121.96638888888889,37.111666666666665],[-121.86583333333333,37.021388888888886],[-121.76222222222222,36.92833333333333],[-121.6588888888889,36.835],[-121.55166666666666,36.73833333333334],[-121.44833333333334,36.64472222222222],[-121.34583333333333,36.551111111111105],[-121.24361111111111,36.4575],[-121.14,36.36222222222222],[-121.04166666666667,36.26555555555556],[-120.94444444444444,36.17027777777778],[-120.84055555555555,36.06861111111112],[-120.74138888888889,35.971111111111114],[-120.64,35.87111111111111],[-120.53999999999999,35.77194444444444],[-120.43972222222223,35.67222222222222],[-120.33888888888889,35.57138888888889],[-120.23333333333333,35.471111111111114],[-120.1275,35.36972222222222],[-120.02305555555556,35.26861111111111],[-119.92,35.16861111111111],[-119.81861111111111,35.07],[-119.71944444444445,34.973055555555554],[-119.6211111111111,34.87888888888889],[-119.50277777777778,34.79722222222222],[-119.38555555555556,34.719166666666666],[-119.27777777777777,34.64944444444444],[-119.2,34.61666666666667],[-119.17333333333333,34.59638888888889],[-119.11666666666666,34.56666666666667],[-119.07027777777778,34.55444444444444],[-119.01666666666667,34.516666666666666],[-119.00277777777778,34.49111111111111],[-118.96666666666667,34.45],[-118.94305555555556,34.41777777777777],[-118.9,34.36666666666667],[-118.88083333333333,34.34916666666667],[-118.83333333333333,34.31666666666667],[-118.81,34.30138888888889],[-118.76666666666667,34.28333333333333],[-118.74055555555556,34.26583333333333],[-118.7,34.25],[-118.67833333333334,34.23555555555556],[-118.63333333333334,34.21666666666667],[-118.62083333333332,34.205555555555556],[-118.58333333333333,34.2],[-118.55444444444444,34.20055555555556],[-118.51666666666667,34.2],[-118.49805555555555,34.19972222222222],[-118.46666666666667,34.2],[-118.44805555555556,34.19888888888889],[-118.41666666666667,34.2],[-118.39861111111112,34.19833333333333],[-118.36666666666666,34.2],[-118.35027777777778,34.1975]]}
}
