{
  "id": 2048391465,
  "type": "Feature",
  "properties": {
    "geom:area": 0,
    "geom:bbox": "-122.415170,37.627640,-121.279110,37.959150",
    "geom:latitude": 37.82681003943537,
    "geom:longitude": -121.87073762120245,
    "src:alt_label": "swim-takeoff",
    "src:geom": "swim",
    "swim:elevations": [
      122,
      321,
      486,
      559,
      1071,
      1326,
      1424,
      2120,
      2384,
      2839,
      3038,
      3350,
      3536,
      3678,
      3873,
      4034,
      4497,
      4595,
      5073,
      5254,
      5396,
      5626,
      5854,
      5956,
      6101
    ],
    "swim:geom": "takeoff",
    "swim:timestamps": [
      1789932864,
      1789932880,
      1789932895,
      1789932901,
      1789932942,
      1789932987,
      1789932998,
      1789933042,
      1789933062,
      1789933097,
      1789933117,
      1789933157,
      1789933192,
      1789933213,
      1789933248,
      1789933270,
      1789933314,
      1789933323,
      1789933361,
      1789933381,
      1789933396,
      1789933420,
      1789933456,
      1789933490,
      1789933510
    ],
    "wof:geomhash": "4912d85e0ebe3b0ccc0250c3d0981210",
    "wof:id": 2048391465,
    "wof:repo": "sfomuseum-data-flights-2026-09"
  },
  "bbox": [
    -122.41517,
    37.62764,
    -121.27911,
    37.95915
  ],
  "geometry": {"type":"LineString","coordinates":[[-122.396,37.62764],[-122.41031,37.63572],[-122.41517,37.64865],[-122.41373,37.65428],[-122.37366,37.67263],[-122.31466,37.6864],[-122.29821,37.69161],[-122.23234,37.71246],[-122.20344,37.72327],[-122.15483,37.7482],[-122.12706,37.76335],[-122.06703,37.79448],[-122.00761,37.8221],[-121.96566,37.83399],[-121.88788,37.84865],[-121.84077,37.8573],[-121.7398,37.87529],[-121.71914,37.87904],[-121.63017,37.89586],[-121.58576,37.90338],[-121.55153,37.90963],[-121.49623,37.91995],[-121.41175,37.93527],[-121.32756,37.9504],[-121.27911,37.95915]]}
}
