{
  "id": 2048228165,
  "type": "Feature",
  "properties": {
    "geom:area": 0,
    "geom:bbox": "-122.526540,37.627780,-122.022340,38.472440",
    "geom:latitude": 38.02372326093756,
    "geom:longitude": -122.30894233433185,
    "src:alt_label": "swim-takeoff",
    "src:geom": "swim",
    "swim:elevations": [
      213,
      581,
      906,
      1210,
      1451,
      1767,
      2339,
      2828,
      3230,
      3406,
      3817,
      3872,
      4224,
      5118,
      5549,
      5867,
      6141,
      6395,
      6581,
      7116,
      7230,
      7422
    ],
    "swim:geom": "takeoff",
    "swim:timestamps": [
      1788252567,
      1788252593,
      1788252618,
      1788252656,
      1788252681,
      1788252707,
      1788252743,
      1788252777,
      1788252804,
      1788252828,
      1788252867,
      1788252871,
      1788252900,
      1788252970,
      1788253009,
      1788253038,
      1788253063,
      1788253089,
      1788253110,
      1788253167,
      1788253180,
      1788253202
    ],
    "wof:geomhash": "3459fd4d0c50985e6547c9f58f067183",
    "wof:id": 2048228165,
    "wof:repo": "sfomuseum-data-flights-2026-09"
  },
  "bbox": [
    -122.52654,
    37.62778,
    -122.02234,
    38.47244
  ],
  "geometry": {"type":"LineString","coordinates":[[-122.39558,37.62778],[-122.41894,37.63795],[-122.44173,37.64743],[-122.47984,37.66367],[-122.50931,37.67869],[-122.52538,37.70855],[-122.52654,37.75609],[-122.51546,37.80143],[-122.47865,37.82305],[-122.43881,37.84043],[-122.3966,37.89665],[-122.39272,37.90279],[-122.36477,37.94744],[-122.29124,38.06097],[-122.24869,38.1266],[-122.21811,38.175],[-122.19009,38.2196],[-122.16089,38.26494],[-122.13578,38.30285],[-122.06656,38.40666],[-122.05014,38.43122],[-122.02234,38.47244]]}
}
