{
  "id": 2048286905,
  "type": "Feature",
  "properties": {
    "geom:area": 0,
    "geom:bbox": "-122.408330,37.625310,-121.611870,38.493890",
    "geom:latitude": 38.02894534278592,
    "geom:longitude": -121.99270984108927,
    "src:alt_label": "swim-takeoff",
    "src:geom": "swim",
    "swim:elevations": [
      122,
      378,
      697,
      1199,
      1296,
      1576,
      2000,
      2388,
      2554,
      3160,
      3354,
      3627,
      3662,
      4306,
      4399,
      5095,
      5151,
      5336,
      5568,
      6029,
      6315,
      6337,
      6691,
      7015,
      7124
    ],
    "swim:geom": "takeoff",
    "swim:timestamps": [
      1788878346,
      1788878370,
      1788878401,
      1788878454,
      1788878467,
      1788878501,
      1788878539,
      1788878573,
      1788878585,
      1788878637,
      1788878667,
      1788878697,
      1788878700,
      1788878753,
      1788878760,
      1788878813,
      1788878823,
      1788878859,
      1788878883,
      1788878935,
      1788878966,
      1788878970,
      1788879016,
      1788879056,
      1788879067
    ],
    "wof:geomhash": "ae4a5afe7eac66479f8430734ff8453f",
    "wof:id": 2048286905,
    "wof:repo": "sfomuseum-data-flights-2026-09"
  },
  "bbox": [
    -122.40833,
    37.62531,
    -121.61187,
    38.49389
  ],
  "geometry": {"type":"LineString","coordinates":[[-122.39078,37.62531],[-122.40833,37.63843],[-122.39357,37.66068],[-122.33786,37.67764],[-122.32116,37.68292],[-122.27571,37.69756],[-122.21985,37.71722],[-122.17871,37.75027],[-122.16626,37.76393],[-122.11252,37.82438],[-122.07784,37.86288],[-122.04168,37.9033],[-122.03803,37.90739],[-121.9716,37.98145],[-121.96268,37.99147],[-121.91842,38.07384],[-121.91112,38.09089],[-121.88434,38.15312],[-121.86612,38.19536],[-121.81702,38.28736],[-121.78442,38.34403],[-121.78036,38.35094],[-121.7179,38.43036],[-121.63498,38.48005],[-121.61187,38.49389]]}
}
