{
  "id": 2048364779,
  "type": "Feature",
  "properties": {
    "geom:area": 0,
    "geom:bbox": "-121.896290,38.208910,-121.456000,38.499960",
    "geom:latitude": 38.356867083153034,
    "geom:longitude": -121.67770814202673,
    "src:alt_label": "swim-takeoff",
    "src:geom": "swim",
    "swim:elevations": [
      5544,
      5821,
      5847,
      6164,
      6316,
      6510,
      6619,
      6807,
      6923
    ],
    "swim:geom": "takeoff",
    "swim:timestamps": [
      1789664272,
      1789664309,
      1789664312,
      1789664358,
      1789664379,
      1789664415,
      1789664430,
      1789664473,
      1789664495
    ],
    "wof:geomhash": "4a260723f4e542f3c65f084142cb89a4",
    "wof:id": 2048364779,
    "wof:repo": "sfomuseum-data-flights-2026-09"
  },
  "bbox": [
    -121.89629,
    38.20891,
    -121.456,
    38.49996
  ],
  "geometry": {"type":"LineString","coordinates":[[-121.89629,38.20891],[-121.83031,38.25412],[-121.82479,38.2579],[-121.73814,38.31692],[-121.6968,38.34503],[-121.62745,38.39233],[-121.59754,38.41269],[-121.50485,38.47139],[-121.456,38.49996]]}
}
