{
  "id": 2048396237,
  "type": "Feature",
  "properties": {
    "geom:area": 0,
    "geom:bbox": "-122.356900,37.491810,-121.255230,37.613270",
    "geom:latitude": 37.546554871389276,
    "geom:longitude": -121.81085383582798,
    "src:alt_label": "swim-approach",
    "src:geom": "swim",
    "swim:elevations": [
      4748,
      4355,
      4169,
      3835,
      3687,
      3461,
      3237,
      3014,
      2925,
      2496,
      2438,
      2410,
      2350,
      2137,
      2040,
      1889,
      1705,
      1378,
      1279,
      1166,
      916,
      847,
      701,
      558,
      396,
      286,
      155,
      96,
      0
    ],
    "swim:geom": "approach",
    "swim:timestamps": [
      1790025077,
      1790025116,
      1790025134,
      1790025177,
      1790025205,
      1790025237,
      1790025266,
      1790025298,
      1790025310,
      1790025358,
      1790025383,
      1790025416,
      1790025425,
      1790025461,
      1790025498,
      1790025520,
      1790025550,
      1790025584,
      1790025604,
      1790025633,
      1790025682,
      1790025713,
      1790025737,
      1790025766,
      1790025803,
      1790025831,
      1790025867,
      1790025889,
      1790025910
    ],
    "wof:geomhash": "2956396bb38da69651f9b072fe3f86fe",
    "wof:id": 2048396237,
    "wof:repo": "sfomuseum-data-flights-2026-09"
  },
  "bbox": [
    -122.3569,
    37.49181,
    -121.25523,
    37.61327
  ],
  "geometry": {"type":"LineString","coordinates":[[-121.25523,37.59383],[-121.32616,37.58527],[-121.35834,37.58172],[-121.43281,37.57328],[-121.48177,37.56755],[-121.53471,37.56131],[-121.58041,37.55603],[-121.63015,37.54948],[-121.64934,37.54494],[-121.7214,37.52765],[-121.75847,37.51886],[-121.80924,37.50661],[-121.82288,37.5033],[-121.8756,37.49181],[-121.9331,37.49278],[-121.96657,37.49345],[-122.00804,37.50148],[-122.05333,37.51644],[-122.07873,37.52485],[-122.11094,37.53496],[-122.16107,37.55075],[-122.19227,37.56093],[-122.21686,37.56895],[-122.24662,37.57824],[-122.28023,37.58892],[-122.30169,37.59527],[-122.32716,37.60261],[-122.34258,37.60771],[-122.3569,37.61327]]}
}
