{
  "id": 2048358107,
  "type": "Feature",
  "properties": {
    "geom:area": 0,
    "geom:bbox": "-122.355040,37.490810,-121.259500,37.612590",
    "geom:latitude": 37.54187647049536,
    "geom:longitude": -121.81421211187175,
    "src:alt_label": "swim-approach",
    "src:geom": "swim",
    "swim:elevations": [
      5044,
      4762,
      4568,
      4157,
      3865,
      3486,
      3438,
      3267,
      3058,
      2935,
      2863,
      2661,
      2353,
      2209,
      2134,
      2134,
      2008,
      1832,
      1738,
      1621,
      1368,
      1097,
      960,
      819,
      692,
      518,
      425,
      280,
      212,
      90,
      4
    ],
    "swim:geom": "approach",
    "swim:timestamps": [
      1789658779,
      1789658805,
      1789658824,
      1789658866,
      1789658895,
      1789658935,
      1789658950,
      1789658992,
      1789659016,
      1789659043,
      1789659064,
      1789659101,
      1789659145,
      1789659166,
      1789659202,
      1789659225,
      1789659259,
      1789659282,
      1789659318,
      1789659336,
      1789659360,
      1789659395,
      1789659415,
      1789659444,
      1789659467,
      1789659508,
      1789659526,
      1789659564,
      1789659587,
      1789659624,
      1789659637
    ],
    "wof:geomhash": "c2be2b372ae39e8ff4af0fc63c316b5c",
    "wof:id": 2048358107,
    "wof:repo": "sfomuseum-data-flights-2026-09"
  },
  "bbox": [
    -122.35504,
    37.49081,
    -121.2595,
    37.61259
  ],
  "geometry": {"type":"LineString","coordinates":[[-121.2595,37.59299],[-121.30739,37.58653],[-121.3425,37.58261],[-121.41779,37.57415],[-121.47018,37.56823],[-121.54149,37.55994],[-121.567,37.55697],[-121.6348,37.54813],[-121.67232,37.53928],[-121.71156,37.52974],[-121.7427,37.52208],[-121.79185,37.51036],[-121.85,37.49657],[-121.87793,37.49081],[-121.92617,37.49324],[-121.95878,37.49542],[-122.00445,37.49817],[-122.03532,37.49992],[-122.07816,37.50223],[-122.09807,37.50562],[-122.1222,37.51463],[-122.1582,37.52977],[-122.17763,37.53798],[-122.20523,37.54966],[-122.22768,37.55906],[-122.26424,37.5745],[-122.27941,37.58095],[-122.30624,37.59214],[-122.3219,37.59877],[-122.3463,37.60899],[-122.35504,37.61259]]}
}
