{
  "id": 2048294859,
  "type": "Feature",
  "properties": {
    "geom:area": 0,
    "geom:bbox": "-122.413230,37.633010,-121.267920,38.115930",
    "geom:latitude": 37.88106199348963,
    "geom:longitude": -121.85254935109378,
    "src:alt_label": "swim-takeoff",
    "src:geom": "swim",
    "swim:elevations": [
      341,
      658,
      811,
      1098,
      1186,
      1365,
      1695,
      2060,
      2422,
      2964,
      3106,
      3335,
      3472,
      3763,
      4385,
      4427,
      5087,
      5482,
      5578,
      6135,
      6571,
      6668,
      7124,
      7330
    ],
    "swim:geom": "takeoff",
    "swim:timestamps": [
      1788961851,
      1788961882,
      1788961900,
      1788961939,
      1788961959,
      1788961990,
      1788962020,
      1788962050,
      1788962080,
      1788962128,
      1788962140,
      1788962181,
      1788962205,
      1788962232,
      1788962278,
      1788962282,
      1788962330,
      1788962364,
      1788962372,
      1788962414,
      1788962450,
      1788962460,
      1788962502,
      1788962523
    ],
    "wof:geomhash": "e538c7f629231108c95efe057fea891d",
    "wof:id": 2048294859,
    "wof:repo": "sfomuseum-data-flights-2026-09"
  },
  "bbox": [
    -122.41323,
    37.63301,
    -121.26792,
    38.11593
  ],
  "geometry": {"type":"LineString","coordinates":[[-122.4053,37.63301],[-122.41323,37.6563],[-122.39894,37.66692],[-122.35704,37.6784],[-122.33179,37.68498],[-122.28779,37.69708],[-122.24348,37.70938],[-122.19776,37.72611],[-122.15587,37.74793],[-122.08956,37.78236],[-122.07214,37.79139],[-122.00841,37.8238],[-121.9649,37.84203],[-121.91255,37.86274],[-121.81984,37.8995],[-121.81155,37.90278],[-121.70987,37.94286],[-121.6357,37.97201],[-121.61803,37.97891],[-121.5237,38.01603],[-121.44109,38.04848],[-121.41846,38.05737],[-121.31749,38.09663],[-121.26792,38.11593]]}
}
