{
  "id": 2048480351,
  "type": "Feature",
  "properties": {
    "geom:area": 0,
    "geom:bbox": "-122.366667,37.375000,-89.036667,38.544722",
    "geom:latitude": 38.10598687745762,
    "geom:longitude": -105.73203310128648,
    "src:alt_label": "swim-path",
    "src:geom": "swim",
    "swim:altitudes": [
      "006",
      "023",
      "039",
      "057",
      "084",
      "109",
      "120",
      "139",
      "157",
      "176",
      "195",
      "211",
      "227",
      "244",
      "259",
      "273",
      "283",
      "292",
      "306",
      "319",
      "331",
      "341",
      "350C",
      "350C",
      "350C",
      "350C",
      "350C",
      "350C",
      "350C",
      "350C",
      "350C",
      "350C",
      "350C",
      "350C",
      "350C",
      "350C",
      "350C",
      "350C",
      "350C",
      "350C",
      "350C",
      "350C",
      "350C",
      "350C",
      "350C",
      "350C",
      "350C",
      "350C",
      "350C",
      "350C",
      "350C",
      "350C",
      "350C",
      "350C",
      "350C",
      "350C",
      "350C",
      "350C",
      "350C",
      "350C",
      "350C",
      "350C",
      "350C",
      "350C",
      "350C",
      "350C",
      "350C",
      "350C",
      "350C",
      "350C",
      "350C",
      "350C",
      "350C",
      "350C",
      "350C",
      "350C",
      "350C",
      "350C",
      "350C",
      "350C",
      "350C",
      "350C",
      "350C",
      "350C",
      "350C",
      "350C",
      "350C",
      "350C",
      "350C",
      "350C",
      "350C",
      "350C",
      "350C",
      "350C",
      "350C",
      "350C",
      "350C",
      "350C",
      "350C",
      "350C",
      "350",
      "350",
      "350",
      "350",
      "357",
      "363",
      "369C",
      "370C",
      "370C",
      "370C",
      "370C",
      "370C",
      "370C",
      "370C",
      "370C",
      "370C",
      "370C",
      "370C",
      "370C",
      "370C",
      "370C",
      "370C",
      "370C",
      "370C",
      "370C",
      "370C",
      "370C",
      "370C",
      "370C",
      "370C",
      "370C",
      "370C",
      "370C",
      "370C",
      "370C",
      "370C",
      "370C",
      "370C",
      "370C",
      "370C",
      "370C",
      "370C",
      "370C",
      "370C",
      "370C",
      "370C",
      "370C",
      "370C",
      "370C",
      "370C",
      "370C",
      "370C",
      "370C",
      "370C",
      "370C",
      "370C",
      "370C",
      "370C",
      "370C",
      "370C",
      "370C",
      "370C",
      "370C",
      "370C",
      "370C",
      "370C",
      "370C",
      "370C",
      "370C",
      "370C",
      "370C",
      "370C",
      "370C",
      "370C",
      "370C",
      "370C",
      "370C",
      "370C",
      "370C",
      "370C",
      "370C",
      "370C",
      "370C",
      "370C",
      "370C",
      "370C",
      "370C",
      "370C",
      "370C",
      "370C",
      "370C",
      "370C",
      "370C",
      "370C",
      "370C",
      "370C",
      "370C",
      "370C",
      "370C",
      "370C",
      "370C",
      "370C",
      "370C",
      "370C",
      "370C",
      "370C",
      "370C",
      "370C",
      "370C",
      "370C",
      "370C",
      "370C",
      "370C",
      "370C",
      "370C",
      "370C",
      "370C",
      "370C",
      "370C",
      "370C",
      "370C",
      "370C",
      "370C",
      "370C",
      "370C",
      "370C",
      "370C",
      "370C",
      "370",
      "370",
      "370",
      "365",
      "362",
      "355",
      "352",
      "346",
      "342",
      "336",
      "332C",
      "330C",
      "330C",
      "330C",
      "330C",
      "330C",
      "330C",
      "330C",
      "330",
      "325",
      "321"
    ],
    "swim:geom": "path",
    "swim:speeds": [
      180,
      184,
      212,
      272,
      281,
      291,
      346,
      371,
      386,
      394,
      401,
      415,
      427,
      433,
      447,
      461,
      468,
      477,
      486,
      486,
      482,
      482,
      481,
      481,
      482,
      481,
      480,
      480,
      480,
      479,
      477,
      477,
      477,
      477,
      476,
      475,
      474,
      473,
      472,
      472,
      472,
      472,
      472,
      472,
      471,
      470,
      470,
      471,
      472,
      474,
      473,
      472,
      470,
      469,
      467,
      466,
      464,
      464,
      464,
      464,
      464,
      465,
      464,
      463,
      461,
      456,
      455,
      456,
      455,
      455,
      454,
      454,
      457,
      459,
      458,
      457,
      453,
      451,
      450,
      447,
      447,
      446,
      445,
      446,
      446,
      445,
      445,
      445,
      445,
      445,
      445,
      445,
      446,
      446,
      446,
      445,
      442,
      439,
      436,
      433,
      432,
      431,
      430,
      428,
      428,
      430,
      436,
      442,
      444,
      446,
      449,
      453,
      456,
      457,
      458,
      460,
      461,
      465,
      467,
      469,
      471,
      471,
      470,
      470,
      470,
      470,
      469,
      470,
      468,
      470,
      468,
      470,
      469,
      475,
      472,
      473,
      474,
      473,
      476,
      478,
      482,
      483,
      487,
      488,
      488,
      489,
      489,
      489,
      489,
      489,
      489,
      489,
      489,
      488,
      489,
      488,
      488,
      488,
      490,
      490,
      490,
      490,
      491,
      491,
      492,
      492,
      493,
      493,
      493,
      494,
      494,
      494,
      495,
      496,
      498,
      499,
      500,
      501,
      501,
      501,
      500,
      498,
      497,
      497,
      496,
      496,
      494,
      493,
      492,
      492,
      488,
      490,
      489,
      490,
      491,
      490,
      491,
      490,
      490,
      490,
      489,
      489,
      489,
      495,
      489,
      494,
      490,
      493,
      491,
      493,
      492,
      492,
      492,
      492,
      492,
      492,
      492,
      492,
      491,
      490,
      489,
      489,
      488,
      487,
      486,
      486,
      485,
      485,
      485,
      486,
      486,
      486,
      479,
      473,
      472,
      470,
      470,
      469,
      469,
      469,
      468,
      468,
      468,
      467,
      467,
      467,
      467,
      467,
      472
    ],
    "swim:timestamps": [
      1790804092,
      1790804130,
      1790804190,
      1790804250,
      1790804310,
      1790804371,
      1790804431,
      1790804491,
      1790804551,
      1790804611,
      1790804671,
      1790804731,
      1790804791,
      1790804851,
      1790804935,
      1790804995,
      1790805052,
      1790805113,
      1790805173,
      1790805233,
      1790805296,
      1790805356,
      1790805413,
      1790805473,
      1790805536,
      1790805593,
      1790805653,
      1790805713,
      1790805773,
      1790805834,
      1790805954,
      1790806014,
      1790806077,
      1790806134,
      1790806194,
      1790806254,
      1790806314,
      1790806374,
      1790806438,
      1790806498,
      1790806554,
      1790806615,
      1790806675,
      1790806735,
      1790806795,
      1790806855,
      1790806915,
      1790806975,
      1790807035,
      1790807155,
      1790807215,
      1790807275,
      1790807336,
      1790807396,
      1790807456,
      1790807516,
      1790807576,
      1790807636,
      1790807696,
      1790807756,
      1790807816,
      1790807876,
      1790807996,
      1790808056,
      1790808117,
      1790808124,
      1790808184,
      1790808237,
      1790808244,
      1790808297,
      1790808305,
      1790808365,
      1790808417,
      1790808537,
      1790808557,
      1790808617,
      1790808677,
      1790808717,
      1790808737,
      1790808777,
      1790808797,
      1790808838,
      1790808857,
      1790808917,
      1790808958,
      1790809038,
      1790809078,
      1790809098,
      1790809138,
      1790809158,
      1790809198,
      1790809218,
      1790809258,
      1790809278,
      1790809318,
      1790809338,
      1790809398,
      1790809458,
      1790809518,
      1790809578,
      1790809638,
      1790809698,
      1790809759,
      1790809819,
      1790809879,
      1790809939,
      1790809999,
      1790810059,
      1790810119,
      1790810179,
      1790810239,
      1790810299,
      1790810359,
      1790810420,
      1790810480,
      1790810540,
      1790810600,
      1790810660,
      1790810720,
      1790810780,
      1790810840,
      1790810900,
      1790810960,
      1790811000,
      1790811020,
      1790811060,
      1790811080,
      1790811120,
      1790811141,
      1790811180,
      1790811201,
      1790811241,
      1790811261,
      1790811301,
      1790811321,
      1790811381,
      1790811421,
      1790811441,
      1790811481,
      1790811501,
      1790811541,
      1790811561,
      1790811601,
      1790811621,
      1790811661,
      1790811681,
      1790811741,
      1790811801,
      1790811841,
      1790811862,
      1790811901,
      1790811922,
      1790811962,
      1790811982,
      1790812022,
      1790812042,
      1790812082,
      1790812102,
      1790812142,
      1790812162,
      1790812202,
      1790812222,
      1790812262,
      1790812282,
      1790812322,
      1790812342,
      1790812382,
      1790812402,
      1790812442,
      1790812502,
      1790812562,
      1790812623,
      1790812683,
      1790812743,
      1790812863,
      1790812923,
      1790812983,
      1790813043,
      1790813103,
      1790813163,
      1790813223,
      1790813284,
      1790813344,
      1790813404,
      1790813464,
      1790813524,
      1790813584,
      1790813644,
      1790813704,
      1790813764,
      1790814512,
      1790814545,
      1790814572,
      1790814632,
      1790814666,
      1790814692,
      1790814726,
      1790814753,
      1790814786,
      1790814813,
      1790814846,
      1790814873,
      1790814906,
      1790814933,
      1790814966,
      1790814993,
      1790815026,
      1790815053,
      1790815086,
      1790815113,
      1790815146,
      1790815173,
      1790815206,
      1790815233,
      1790815266,
      1790815293,
      1790815326,
      1790815353,
      1790815386,
      1790815413,
      1790815447,
      1790815474,
      1790815507,
      1790815534,
      1790815567,
      1790815594,
      1790815654,
      1790815714,
      1790815747,
      1790815807,
      1790815834,
      1790815867,
      1790815894,
      1790815927,
      1790815954,
      1790815987,
      1790816014,
      1790816047,
      1790816074,
      1790816107,
      1790816134,
      1790816168,
      1790816194,
      1790816228,
      1790816255,
      1790816288,
      1790816315,
      1790816348,
      1790816375
    ],
    "wof:geomhash": "27efd6f1fc384fa5d86824aaf556141d",
    "wof:id": 2048480351,
    "wof:repo": "sfomuseum-data-flights-2026-09"
  },
  "bbox": [
    -122.36666666666666,
    37.375,
    -89.03666666666666,
    38.54472222222222
  ],
  "geometry": {"type":"LineString","coordinates":[[-122.36666666666666,37.63333333333333],[-122.33194444444445,37.655],[-122.27638888888889,37.68555555555555],[-122.20083333333334,37.725],[-122.11777777777777,37.7675],[-122.03222222222222,37.81194444444444],[-121.92444444444445,37.84138888888889],[-121.79777777777778,37.86472222222223],[-121.66722222222222,37.88861111111111],[-121.54416666666667,37.91138888888889],[-121.40777777777778,37.93611111111111],[-121.26666666666667,37.96194444444445],[-121.12027777777777,37.988055555555555],[-120.97166666666666,38.01138888888889],[-120.78777777777778,38.03194444444444],[-120.59583333333333,38.05444444444444],[-120.43833333333333,38.07138888888889],[-120.27083333333333,38.08972222222222],[-120.10083333333333,38.10888888888889],[-119.93194444444445,38.12722222222222],[-119.7575,38.14805555555556],[-119.58972222222222,38.16583333333333],[-119.42111111111112,38.181666666666665],[-119.26277777777777,38.19833333333333],[-119.06027777777777,38.22027777777778],[-118.9263888888889,38.233333333333334],[-118.7611111111111,38.249722222222225],[-118.55555555555556,38.27055555555555],[-118.39444444444445,38.28583333333333],[-118.22361111111111,38.30166666666666],[-117.88583333333334,38.333333333333336],[-117.71972222222223,38.34861111111111],[-117.5475,38.36388888888889],[-117.41666666666667,38.375],[-117.24527777777777,38.39],[-117.07638888888889,38.404444444444444],[-116.90805555555556,38.41833333333333],[-116.7388888888889,38.43194444444444],[-116.57055555555556,38.44555555555555],[-116.40472222222223,38.45861111111111],[-116.23944444444444,38.47138888888889],[-116.07166666666666,38.48416666666667],[-115.9063888888889,38.49638888888889],[-115.7388888888889,38.50833333333333],[-115.57444444444444,38.52027777777778],[-115.40611111111112,38.532222222222224],[-115.22583333333334,38.54472222222222],[-115.05916666666667,38.54388888888889],[-114.89333333333335,38.540277777777774],[-114.55555555555556,38.532777777777774],[-114.38805555555557,38.52861111111111],[-114.2225,38.524166666666666],[-114.05722222222222,38.51972222222222],[-113.89111111111112,38.514722222222225],[-113.72666666666667,38.50972222222222],[-113.56027777777777,38.504444444444445],[-113.39888888888889,38.49916666666667],[-113.23305555555555,38.49333333333333],[-113.06888888888888,38.48722222222222],[-112.90277777777779,38.48111111111111],[-112.73805555555556,38.474722222222226],[-112.57222222222222,38.46805555555556],[-112.24472222222222,38.45388888888889],[-112.08,38.446666666666665],[-111.91777777777779,38.439166666666665],[-111.91777777777779,38.43944444444444],[-111.75916666666667,38.431666666666665],[-111.62777777777777,38.425555555555555],[-111.5961111111111,38.42388888888889],[-111.46861111111112,38.4175],[-111.43777777777778,38.41583333333333],[-111.2775,38.4075],[-111.11333333333333,38.39888888888889],[-110.8025,38.38194444444444],[-110.73861111111111,38.37833333333333],[-110.57777777777777,38.369166666666665],[-110.42027777777778,38.359722222222224],[-110.32638888888889,38.35416666666667],[-110.26166666666667,38.35],[-110.16722222222222,38.34444444444445],[-110.10694444444444,38.34055555555556],[-110.01361111111112,38.334722222222226],[-109.95111111111112,38.33083333333334],[-109.7936111111111,38.32083333333334],[-109.70027777777779,38.31444444444444],[-109.48138888888889,38.3],[-109.38694444444445,38.29361111111111],[-109.3275,38.28944444444444],[-109.23111111111112,38.282777777777774],[-109.17055555555557,38.27833333333333],[-109.07583333333334,38.27166666666667],[-109.01444444444445,38.26722222222222],[-108.91888888888889,38.260555555555555],[-108.85722222222222,38.25611111111111],[-108.76416666666667,38.24916666666667],[-108.70222222222222,38.24444444444445],[-108.54861111111111,38.23305555555556],[-108.39500000000001,38.22138888888889],[-108.24527777777777,38.209722222222226],[-108.0936111111111,38.1975],[-107.94333333333334,38.18555555555555],[-107.79333333333334,38.17333333333333],[-107.64250000000001,38.16083333333333],[-107.49388888888889,38.14833333333333],[-107.34333333333333,38.135555555555555],[-107.19388888888889,38.12222222222222],[-107.04555555555555,38.10944444444445],[-106.88972222222223,38.09527777777778],[-106.72805555555556,38.09],[-106.57055555555556,38.08638888888889],[-106.41777777777779,38.08305555555556],[-106.2363888888889,38.07833333333333],[-106.0761111111111,38.07416666666667],[-105.91583333333334,38.069722222222225],[-105.75138888888888,38.066944444444445],[-105.59027777777777,38.07222222222222],[-105.42722222222223,38.07694444444445],[-105.2625,38.08166666666667],[-105.0975,38.08583333333333],[-104.93361111111112,38.09],[-104.76333333333334,38.09388888888889],[-104.59777777777778,38.097500000000004],[-104.43138888888889,38.100833333333334],[-104.36027777777777,38.10027777777778],[-104.26555555555555,38.10416666666667],[-104.16250000000001,38.10416666666667],[-104.09944444444444,38.1075],[-103.99861111111112,38.10722222222223],[-103.96916666666667,38.109722222222224],[-103.83472222222221,38.11],[-103.80138888888888,38.11194444444445],[-103.66944444444445,38.11194444444445],[-103.63388888888889,38.114444444444445],[-103.50277777777778,38.115833333333335],[-103.46694444444445,38.11638888888889],[-103.29916666666666,38.11833333333333],[-103.17,38.11972222222222],[-103.13083333333333,38.12],[-103,38.12111111111111],[-102.96416666666667,38.12138888888889],[-102.83027777777778,38.12222222222222],[-102.79527777777777,38.1225],[-102.66055555555556,38.12305555555555],[-102.62166666666666,38.123333333333335],[-102.48694444444445,38.12388888888889],[-102.44888888888889,38.12416666666667],[-102.27694444444444,38.124722222222225],[-102.07027777777778,38.124722222222225],[-101.96861111111112,38.124722222222225],[-101.89805555555556,38.12444444444444],[-101.79416666666667,38.12416666666667],[-101.72500000000001,38.12416666666667],[-101.625,38.12361111111111],[-101.55111111111111,38.123333333333335],[-101.45111111111112,38.12277777777778],[-101.38027777777778,38.1225],[-101.28055555555555,38.12166666666667],[-101.24138888888889,38.12138888888889],[-101.10416666666666,38.120555555555555],[-101.06694444444445,38.12027777777778],[-100.93222222222222,38.11888888888889],[-100.89305555555556,38.118611111111115],[-100.75694444444444,38.11694444444444],[-100.71916666666667,38.11666666666667],[-100.58166666666666,38.115],[-100.54305555555555,38.114444444444445],[-100.40611111111112,38.112500000000004],[-100.37166666666666,38.11222222222222],[-100.23305555555555,38.11],[-100.05916666666667,38.10722222222223],[-99.88416666666667,38.10388888888889],[-99.70916666666668,38.10055555555556],[-99.53416666666666,38.096944444444446],[-99.38833333333334,38.093611111111116],[-99.03916666666666,38.08527777777778],[-98.86222222222221,38.08027777777778],[-98.68416666666667,38.07527777777778],[-98.51027777777777,38.07],[-98.33138888888888,38.06472222222222],[-98.15472222222223,38.05888888888889],[-97.96527777777779,38.05222222222222],[-97.79194444444444,38.04611111111111],[-97.62583333333333,38.04],[-97.45055555555555,38.033055555555556],[-97.26888888888888,38.025555555555556],[-97.09694444444445,38.01833333333333],[-96.92194444444445,38.01083333333333],[-96.75027777777778,38.00333333333333],[-96.57722222222222,37.99527777777778],[-96.40527777777778,37.98722222222222],[-94.245,37.86472222222223],[-94.17277777777778,37.8575],[-94.07444444444444,37.85305555555556],[-93.90138888888889,37.84138888888889],[-93.82944444444443,37.83388888888889],[-93.73083333333334,37.82944444444445],[-93.65666666666667,37.82138888888889],[-93.55944444444444,37.816944444444445],[-93.4875,37.809444444444445],[-93.38944444444445,37.805],[-93.31583333333333,37.796388888888885],[-93.22,37.79277777777778],[-93.14583333333334,37.78361111111111],[-93.04555555555555,37.77583333333333],[-92.97583333333334,37.77027777777778],[-92.875,37.7625],[-92.76972222222223,37.75416666666667],[-92.70333333333333,37.74888888888889],[-92.62472222222222,37.7425],[-92.53333333333333,37.735],[-92.45527777777778,37.728611111111114],[-92.36361111111111,37.721111111111114],[-92.28111111111112,37.71416666666667],[-92.1975,37.70722222222223],[-92.11055555555555,37.69972222222222],[-92.02583333333334,37.692499999999995],[-91.92083333333333,37.68333333333333],[-91.85666666666665,37.67777777777778],[-91.75,37.66833333333333],[-91.68527777777778,37.6625],[-91.58083333333333,37.65333333333333],[-91.51694444444445,37.647777777777776],[-91.41166666666668,37.63805555555555],[-91.35055555555554,37.632222222222225],[-91.24333333333334,37.62222222222222],[-91.18166666666667,37.61638888888889],[-91.01388888888889,37.599444444444444],[-90.84555555555555,37.581388888888895],[-90.74055555555556,37.57],[-90.5625,37.55083333333333],[-90.50527777777778,37.54472222222222],[-90.39416666666668,37.5325],[-90.33666666666666,37.52611111111111],[-90.23111111111112,37.514722222222225],[-90.17416666666666,37.50833333333333],[-90.07138888888889,37.49666666666667],[-90.0111111111111,37.49],[-89.91527777777779,37.47888888888889],[-89.84972222222221,37.47138888888889],[-89.75111111111111,37.459722222222226],[-89.68833333333333,37.4525],[-89.58888888888889,37.44083333333333],[-89.525,37.433611111111105],[-89.4263888888889,37.42194444444444],[-89.36194444444443,37.41416666666667],[-89.26472222222222,37.402499999999996],[-89.20083333333334,37.39472222222222],[-89.10305555555556,37.38305555555556],[-89.03666666666666,37.375]]}
}
