{
  "id": 2048430865,
  "type": "Feature",
  "properties": {
    "geom:area": 0,
    "geom:bbox": "-156.400000,20.950000,-122.183333,37.617778",
    "geom:latitude": 28.839358748586168,
    "geom:longitude": -138.81734302700937,
    "src:alt_label": "swim-path",
    "src:geom": "swim",
    "swim:altitudes": [
      "020C",
      "041C",
      "063C",
      "086C",
      "104C",
      "115C",
      "149C",
      "165C",
      "179C",
      "190C",
      "201C",
      "211C",
      "224C",
      "231C",
      "239C",
      "248C",
      "256C",
      "262C",
      "267C",
      "273C",
      "279C",
      "284C",
      "291C",
      "299C",
      "306C",
      "313C",
      "320",
      "320",
      "320",
      "320",
      "320",
      "320",
      "320",
      "320",
      "320",
      "320",
      "320",
      "320",
      "320",
      "320",
      "350C",
      "350C",
      "350C",
      "350C",
      "350C",
      "350C",
      "350",
      "350",
      "350",
      "350",
      "349",
      "347C",
      "331",
      "327C",
      "311",
      "307C",
      "291",
      "287C",
      "270",
      "267C",
      "250",
      "247C",
      "230",
      "227C",
      "207C",
      "191",
      "173",
      "171",
      "151",
      "130",
      "112",
      "100",
      "100",
      "098",
      "086",
      "080",
      "080",
      "080",
      "076",
      "076",
      "065",
      "060",
      "056",
      "044",
      "036",
      "018",
      "012",
      "005",
      "100"
    ],
    "swim:geom": "path",
    "swim:speeds": [
      190,
      230,
      250,
      270,
      290,
      330,
      360,
      370,
      380,
      390,
      400,
      410,
      420,
      430,
      440,
      440,
      450,
      460,
      460,
      470,
      470,
      480,
      480,
      480,
      480,
      480,
      480,
      480,
      480,
      480,
      480,
      480,
      500,
      480,
      470,
      480,
      480,
      480,
      480,
      480,
      480,
      481,
      482,
      483,
      487,
      489,
      490,
      500,
      490,
      492,
      493,
      500,
      492,
      500,
      483,
      480,
      469,
      470,
      456,
      460,
      443,
      440,
      431,
      430,
      420,
      404,
      390,
      394,
      388,
      375,
      360,
      341,
      293,
      265,
      262,
      263,
      259,
      250,
      250,
      253,
      250,
      250,
      248,
      241,
      201,
      172,
      140,
      142,
      128
    ],
    "swim:timestamps": [
      1790374375,
      1790374435,
      1790374495,
      1790374555,
      1790374615,
      1790374675,
      1790374795,
      1790374855,
      1790374915,
      1790374976,
      1790375036,
      1790375096,
      1790375156,
      1790375216,
      1790375276,
      1790375336,
      1790375396,
      1790375456,
      1790375516,
      1790375576,
      1790375636,
      1790375696,
      1790375756,
      1790375816,
      1790375876,
      1790375937,
      1790375996,
      1790376056,
      1790376117,
      1790376177,
      1790376237,
      1790376297,
      1790376313,
      1790376357,
      1790376372,
      1790376417,
      1790376477,
      1790376537,
      1790376597,
      1790376632,
      1790388977,
      1790389037,
      1790389097,
      1790389157,
      1790389218,
      1790389278,
      1790389338,
      1790389345,
      1790389405,
      1790389458,
      1790389518,
      1790389525,
      1790389578,
      1790389585,
      1790389638,
      1790389645,
      1790389698,
      1790389705,
      1790389758,
      1790389765,
      1790389818,
      1790389825,
      1790389878,
      1790389885,
      1790389945,
      1790389999,
      1790390047,
      1790390059,
      1790390119,
      1790390174,
      1790390239,
      1790390300,
      1790390360,
      1790390414,
      1790390480,
      1790390539,
      1790390594,
      1790390654,
      1790390714,
      1790390720,
      1790390780,
      1790390840,
      1790390900,
      1790390960,
      1790391020,
      1790391080,
      1790391135,
      1790391200,
      1790391260
    ],
    "wof:geomhash": "026d94af46b166b824018ce40939b247",
    "wof:id": 2048430865,
    "wof:repo": "sfomuseum-data-flights-2026-09"
  },
  "bbox": [
    -156.4,
    20.95,
    -122.18333333333334,
    37.617777777777775
  ],
  "geometry": {"type":"LineString","coordinates":[[-156.4,20.95],[-156.35,21],[-156.28333333333333,21],[-156.2,21.016666666666666],[-156.11666666666667,21.033333333333335],[-156.03333333333333,21.066666666666666],[-155.81666666666666,21.116666666666667],[-155.71666666666667,21.133333333333333],[-155.6,21.166666666666668],[-155.5,21.2],[-155.38333333333333,21.233333333333334],[-155.26666666666668,21.283333333333335],[-155.15,21.316666666666666],[-155.03333333333333,21.35],[-154.9,21.4],[-154.78333333333333,21.433333333333334],[-154.66666666666666,21.483333333333334],[-154.53333333333333,21.516666666666666],[-154.4,21.566666666666666],[-154.26666666666668,21.6],[-154.13333333333333,21.65],[-154,21.683333333333334],[-153.86666666666667,21.733333333333334],[-153.73333333333332,21.766666666666666],[-153.58333333333334,21.816666666666666],[-153.45,21.85],[-153.31666666666666,21.9],[-153.18333333333334,21.933333333333334],[-153.05,21.983333333333334],[-152.9,22.033333333333335],[-152.76666666666668,22.066666666666666],[-152.63333333333333,22.116666666666667],[-152.61666666666667,22.133333333333333],[-152.5,22.15],[-152.48333333333332,22.166666666666668],[-152.38333333333333,22.183333333333334],[-152.23333333333332,22.233333333333334],[-152.08333333333334,22.266666666666666],[-151.95,22.316666666666666],[-151.85,22.333333333333332],[-125.25777777777778,35.39472222222222],[-125.18055555555556,35.51555555555556],[-125.10499999999999,35.63388888888889],[-125.02805555555555,35.75333333333333],[-124.90805555555556,35.848333333333336],[-124.78222222222222,35.9375],[-124.65555555555557,36.026944444444446],[-124.63333333333334,36.03333333333333],[-124.5,36.11666666666667],[-124.40055555555556,36.20611111111111],[-124.27222222222223,36.295833333333334],[-124.25,36.3],[-124.14361111111111,36.38527777777778],[-124.11666666666666,36.38333333333333],[-124.0175,36.47277777777778],[-123.98333333333333,36.483333333333334],[-123.89472222222223,36.5575],[-123.86666666666666,36.56666666666667],[-123.77555555555556,36.63944444444444],[-123.75,36.65],[-123.65805555555556,36.72027777777778],[-123.63333333333334,36.71666666666667],[-123.54583333333333,36.79694444444444],[-123.51666666666667,36.8],[-123.41666666666667,36.86666666666667],[-123.32833333333333,36.94472222222222],[-123.23333333333333,37.016666666666666],[-123.22444444444444,37.015],[-123.12222222222222,37.08416666666667],[-123.01666666666667,37.15],[-122.92555555555556,37.21611111111111],[-122.81666666666666,37.266666666666666],[-122.7,37.266666666666666],[-122.61666666666666,37.233333333333334],[-122.53333333333333,37.21666666666667],[-122.45583333333333,37.18861111111111],[-122.36666666666666,37.18333333333333],[-122.35,37.25],[-122.36666666666666,37.31666666666667],[-122.37166666666666,37.30638888888888],[-122.3761111111111,37.38],[-122.30333333333333,37.39666666666667],[-122.22833333333334,37.42111111111111],[-122.19861111111112,37.48388888888889],[-122.18333333333334,37.53972222222222],[-122.25,37.56666666666667],[-122.28333333333333,37.583333333333336],[-122.32888888888888,37.59916666666667],[-122.37305555555555,37.617777777777775]]}
}
