{
  "id": 2048433923,
  "type": "Feature",
  "properties": {
    "geom:area": 0,
    "geom:bbox": "-122.401680,37.630060,-121.253460,38.420260",
    "geom:latitude": 38.01401215964505,
    "geom:longitude": -121.83130054054305,
    "src:alt_label": "swim-takeoff",
    "src:geom": "swim",
    "swim:elevations": [
      274,
      721,
      849,
      1144,
      1415,
      1830,
      2135,
      2504,
      2700,
      3062,
      3259,
      3621,
      3665,
      3727,
      3902,
      4176,
      4349,
      4491,
      4782,
      4916,
      5178,
      5621,
      6022,
      6299,
      6541,
      6753,
      6936
    ],
    "swim:geom": "takeoff",
    "swim:timestamps": [
      1790349142,
      1790349178,
      1790349187,
      1790349226,
      1790349258,
      1790349287,
      1790349311,
      1790349348,
      1790349365,
      1790349395,
      1790349429,
      1790349476,
      1790349480,
      1790349484,
      1790349500,
      1790349524,
      1790349540,
      1790349553,
      1790349592,
      1790349607,
      1790349635,
      1790349679,
      1790349728,
      1790349764,
      1790349799,
      1790349833,
      1790349860
    ],
    "wof:geomhash": "600ff59618cdb346fb3b99e737d0ee5f",
    "wof:id": 2048433923,
    "wof:repo": "sfomuseum-data-flights-2026-09"
  },
  "bbox": [
    -122.40168,
    37.63006,
    -121.25346,
    38.42026
  ],
  "geometry": {"type":"LineString","coordinates":[[-122.39567,37.63006],[-122.40168,37.65784],[-122.39296,37.66338],[-122.3457,37.67529],[-122.2994,37.68922],[-122.25517,37.70365],[-122.22097,37.71947],[-122.17501,37.75345],[-122.15171,37.77111],[-122.11081,37.80153],[-122.06194,37.83836],[-121.98695,37.8944],[-121.97971,37.89978],[-121.97262,37.9051],[-121.94624,37.92478],[-121.90453,37.95627],[-121.87848,37.97601],[-121.85462,37.99358],[-121.78464,38.04486],[-121.75678,38.06506],[-121.70436,38.10345],[-121.62152,38.16499],[-121.52805,38.23421],[-121.4574,38.2863],[-121.38761,38.33703],[-121.31407,38.38275],[-121.25346,38.42026]]}
}
