{
  "id": 2048426763,
  "type": "Feature",
  "properties": {
    "geom:area": 0,
    "geom:bbox": "-123.325390,37.627060,-122.395170,38.502540",
    "geom:latitude": 38.023409907625734,
    "geom:longitude": -122.89351596047996,
    "src:alt_label": "swim-takeoff",
    "src:geom": "swim",
    "swim:elevations": [
      183,
      317,
      480,
      887,
      1024,
      1094,
      1279,
      1625,
      2056,
      2562,
      2937,
      3120,
      3300,
      3444,
      3790,
      4143,
      4196,
      4323,
      4616,
      5051,
      5254,
      5602,
      6083,
      6415,
      6919,
      7120
    ],
    "swim:geom": "takeoff",
    "swim:timestamps": [
      1790259025,
      1790259040,
      1790259053,
      1790259088,
      1790259109,
      1790259126,
      1790259151,
      1790259180,
      1790259215,
      1790259258,
      1790259290,
      1790259310,
      1790259353,
      1790259379,
      1790259411,
      1790259446,
      1790259451,
      1790259464,
      1790259491,
      1790259530,
      1790259547,
      1790259579,
      1790259626,
      1790259662,
      1790259718,
      1790259738
    ],
    "wof:geomhash": "236652eaf44b9c74460537fe55378b4b",
    "wof:id": 2048426763,
    "wof:repo": "sfomuseum-data-flights-2026-09"
  },
  "bbox": [
    -123.32539,
    37.62706,
    -122.39517,
    38.50254
  ],
  "geometry": {"type":"LineString","coordinates":[[-122.39517,37.62706],[-122.40994,37.6332],[-122.42316,37.63908],[-122.45838,37.65451],[-122.48067,37.66446],[-122.5007,37.67333],[-122.53091,37.69048],[-122.56663,37.71275],[-122.61336,37.73994],[-122.67172,37.77413],[-122.71626,37.80021],[-122.74336,37.81701],[-122.79561,37.87009],[-122.82637,37.90833],[-122.86744,37.95767],[-122.913,38.0119],[-122.91958,38.01981],[-122.9369,38.04053],[-122.97284,38.08343],[-123.02533,38.14637],[-123.04993,38.17579],[-123.09453,38.22899],[-123.16118,38.30835],[-123.21302,38.36998],[-123.29492,38.46708],[-123.32539,38.50254]]}
}
