{
  "id": 2048313919,
  "type": "Feature",
  "properties": {
    "geom:area": 0,
    "geom:bbox": "-122.402140,37.626940,-121.456440,38.518540",
    "geom:latitude": 38.11802362171611,
    "geom:longitude": -122.02388070948933,
    "src:alt_label": "swim-takeoff",
    "src:geom": "swim",
    "swim:elevations": [
      244,
      528,
      846,
      1246,
      1593,
      1894,
      2276,
      3075,
      3300,
      3490,
      3933,
      4222,
      4564,
      5078,
      5443,
      5923,
      6189,
      6424,
      7008,
      7010,
      7010,
      7010,
      7010,
      7010,
      7010,
      7010,
      7010,
      7010
    ],
    "swim:geom": "takeoff",
    "swim:timestamps": [
      1789167653,
      1789167671,
      1789167693,
      1789167733,
      1789167772,
      1789167790,
      1789167810,
      1789167858,
      1789167876,
      1789167897,
      1789167927,
      1789167948,
      1789167974,
      1789168013,
      1789168041,
      1789168072,
      1789168093,
      1789168112,
      1789168168,
      1789168190,
      1789168223,
      1789168256,
      1789168280,
      1789168313,
      1789168333,
      1789168373,
      1789168401,
      1789168414
    ],
    "wof:geomhash": "060e0fa9f4ffc2add02980fa0f655b99",
    "wof:id": 2048313919,
    "wof:repo": "sfomuseum-data-flights-2026-09"
  },
  "bbox": [
    -122.40214,
    37.62694,
    -121.45644,
    38.51854
  ],
  "geometry": {"type":"LineString","coordinates":[[-122.3945,37.62694],[-122.40214,37.63791],[-122.39243,37.65366],[-122.36861,37.68296],[-122.33982,37.72352],[-122.3392,37.74678],[-122.3507,37.77247],[-122.37937,37.8319],[-122.38548,37.85669],[-122.38504,37.88834],[-122.37545,37.93516],[-122.34634,37.96227],[-122.30227,37.98933],[-122.23341,38.03224],[-122.18309,38.06303],[-122.12653,38.09745],[-122.0884,38.12065],[-122.0541,38.14151],[-121.94643,38.20661],[-121.90281,38.23281],[-121.83744,38.27251],[-121.7688,38.31431],[-121.71888,38.34426],[-121.65109,38.38438],[-121.61001,38.40872],[-121.53042,38.46066],[-121.47964,38.5005],[-121.45644,38.51854]]}
}
