{
  "id": 2048374461,
  "type": "Feature",
  "properties": {
    "date:inception_lower": "2026-09-18",
    "date:inception_upper": "2026-09-18",
    "edtf:cessation": "",
    "edtf:inception": "2026-09-18",
    "flysfo:actual_timestamp": -1,
    "flysfo:airline": "UA",
    "flysfo:date": "2026-09-18",
    "flysfo:estimated_timestamp": 1789774200,
    "flysfo:event": "D",
    "flysfo:flight_number": "UA1758",
    "flysfo:gate": "",
    "flysfo:journey": "SFO-KOA",
    "flysfo:scheduled_timestamp": 1789755300,
    "flysfo:timestamp": 1789774200,
    "geom:area": 0,
    "geom:bbox": "-156.035060,19.732444,-122.370943,37.617990",
    "geom:latitude": 28.675217,
    "geom:longitude": -139.2030015,
    "iata:airline": "UA",
    "icao:airline": "UAL",
    "lbl:latitude": 37.61799,
    "lbl:longitude": -122.370943,
    "sfomuseum:airline_id": 1159285413,
    "sfomuseum:arrival_id": 102532939,
    "sfomuseum:departure_id": 102527513,
    "sfomuseum:flight_id": "20260918-D-UAL-1758",
    "sfomuseum:flight_number": [
      "UAL1758",
      "UA1758"
    ],
    "sfomuseum:placetype": "flight",
    "src:geom": "flysfo",
    "wof:belongsto": [],
    "wof:country": "US",
    "wof:created": 1789834580,
    "wof:geomhash": "ffd2c7b34797175c51fc3517b1c4b69d",
    "wof:hierarchy": [
      {
        "custom_id": 2048374461,
        "flight_id": 2048374461
      }
    ],
    "wof:id": 2048374461,
    "wof:involves": [
      102532939,
      102527513,
      1159285413,
      -1
    ],
    "wof:lastmodified": 1789834580,
    "wof:name": "UA1758 (SFO-KOA)",
    "wof:parent_id": -1,
    "wof:placetype": "custom",
    "wof:placetype_alt": [
      "flight"
    ],
    "wof:repo": "sfomuseum-data-flights-2026-09",
    "wof:superseded_by": [],
    "wof:supersedes": []
  },
  "bbox": [
    -156.03506,
    19.732444,
    -122.370943,
    37.61799
  ],
  "geometry": {"type":"MultiPoint","coordinates":[[-122.370943,37.61799],[-156.03506,19.732444]]}
}
