{
  "id": 2048290415,
  "type": "Feature",
  "properties": {
    "geom:area": 0,
    "geom:bbox": "-122.814480,37.541190,-122.066840,38.384780",
    "geom:latitude": 37.82459012893122,
    "geom:longitude": -122.46425522088053,
    "src:alt_label": "swim-approach",
    "src:geom": "swim",
    "swim:elevations": [
      7290,
      6895,
      6646,
      6473,
      5970,
      5647,
      5427,
      5296,
      4798,
      4506,
      4226,
      3888,
      3868,
      3567,
      3352,
      3353,
      3353,
      3270,
      3003,
      2811,
      2559,
      2474,
      2257,
      2224,
      2089,
      1791,
      1576,
      1448,
      1316,
      1097,
      974,
      883,
      787,
      664,
      553,
      530,
      303,
      184,
      44,
      0
    ],
    "swim:geom": "approach",
    "swim:timestamps": [
      1788980623,
      1788980662,
      1788980688,
      1788980705,
      1788980756,
      1788980788,
      1788980810,
      1788980824,
      1788980873,
      1788980901,
      1788980933,
      1788980967,
      1788980970,
      1788981008,
      1788981051,
      1788981060,
      1788981098,
      1788981124,
      1788981163,
      1788981199,
      1788981234,
      1788981245,
      1788981294,
      1788981308,
      1788981337,
      1788981385,
      1788981418,
      1788981438,
      1788981458,
      1788981498,
      1788981528,
      1788981561,
      1788981579,
      1788981601,
      1788981627,
      1788981630,
      1788981683,
      1788981711,
      1788981745,
      1788981754
    ],
    "wof:geomhash": "f13606bafae5a7559018825c8aba43c1",
    "wof:id": 2048290415,
    "wof:repo": "sfomuseum-data-flights-2026-09"
  },
  "bbox": [
    -122.81448,
    37.54119,
    -122.06684,
    38.38478
  ],
  "geometry": {"type":"LineString","coordinates":[[-122.81448,38.38478],[-122.7941,38.31602],[-122.78078,38.27047],[-122.77241,38.24179],[-122.74751,38.15628],[-122.73284,38.10539],[-122.72217,38.06859],[-122.71594,38.04717],[-122.69323,37.96904],[-122.68099,37.92628],[-122.6541,37.88157],[-122.61055,37.8401],[-122.6068,37.83653],[-122.56146,37.79291],[-122.51307,37.74788],[-122.50366,37.73915],[-122.45973,37.71189],[-122.42401,37.70256],[-122.3692,37.68836],[-122.3202,37.67527],[-122.27319,37.66271],[-122.25757,37.6586],[-122.19312,37.64125],[-122.17611,37.6366],[-122.14333,37.62666],[-122.10188,37.59598],[-122.07337,37.57404],[-122.06684,37.55711],[-122.07891,37.54119],[-122.12204,37.54225],[-122.15387,37.55023],[-122.18652,37.55888],[-122.20515,37.56511],[-122.2278,37.57248],[-122.25422,37.58092],[-122.25708,37.58183],[-122.3032,37.59528],[-122.32641,37.60206],[-122.35306,37.61182],[-122.3589,37.61425]]}
}
