{
  "id": 2048433845,
  "type": "Feature",
  "properties": {
    "date:cessation_lower": "1970-01-01",
    "date:cessation_upper": "1970-01-01",
    "date:inception_lower": "2026-09-25",
    "date:inception_upper": "2026-09-25",
    "edtf:cessation": "1970-01-01T00:00:00Z",
    "edtf:inception": "2026-09-25T13:55:17-07:00",
    "flysfo:actual_timestamp": -1,
    "flysfo:airline": "DL",
    "flysfo:base_airline": "",
    "flysfo:base_flight_number": "9899",
    "flysfo:date": "2026-09-25",
    "flysfo:estimated_timestamp": 1790394060,
    "flysfo:event": "D",
    "flysfo:flight_number": "DL2197",
    "flysfo:gate": "C9",
    "flysfo:journey": "SFO-LAX",
    "flysfo:scheduled_timestamp": 1790394060,
    "flysfo:timestamp": 1790394060,
    "geom:area": 0,
    "geom:bbox": "-122.370943,33.942593,-118.389510,37.617990",
    "geom:latitude": 35.780291500000004,
    "geom:longitude": -120.38022649999999,
    "iata:airline": "DL",
    "iata:base_airline": "",
    "icao:aircraft": "A21N",
    "icao:airline": "DAL",
    "icao:base_airline": "CAL",
    "lbl:latitude": 37.61799,
    "lbl:longitude": -122.370943,
    "sfomuseum:aircraft_id": 1377564297,
    "sfomuseum:airline_id": 1159284261,
    "sfomuseum:arrival_id": 102533795,
    "sfomuseum:base_flight_id": "20260925-D-CAL-9899",
    "sfomuseum:departure_id": 102527513,
    "sfomuseum:flight_id": "20260925-D-DAL-2197",
    "sfomuseum:flight_number": [
      "DAL2197",
      "DL2197"
    ],
    "sfomuseum:placetype": "flight",
    "src:geom": "flysfo",
    "src:geom_alt": [
      "swim-path",
      "swim-takeoff"
    ],
    "swim:tail_number": "N576DN",
    "wof:belongsto": [
      1763588121,
      102527513,
      1763588233,
      102191575,
      85633793,
      102087579,
      85922583,
      554784711,
      85688637,
      1763588251,
      1763588123,
      102085387
    ],
    "wof:country": "US",
    "wof:created": 1790439267,
    "wof:geomhash": "602be2a828e3460cadf44be5b1c2e36b",
    "wof:hierarchy": [
      {
        "building_id": 1763588121,
        "campus_id": 102527513,
        "concourse_id": 1763588233,
        "continent_id": 102191575,
        "country_id": 85633793,
        "county_id": 102087579,
        "custom_id": 2048433845,
        "flight_id": 2048433845,
        "locality_id": 85922583,
        "postalcode_id": 554784711,
        "region_id": 85688637,
        "venue_id": 1763588251,
        "wing_id": 1763588123
      },
      {
        "building_id": 1763588121,
        "campus_id": 102527513,
        "concourse_id": 1763588233,
        "continent_id": 102191575,
        "country_id": 85633793,
        "county_id": 102085387,
        "custom_id": 2048433845,
        "flight_id": 2048433845,
        "region_id": 85688637,
        "venue_id": 1763588251,
        "wing_id": 1763588123
      }
    ],
    "wof:id": 2048433845,
    "wof:involves": [
      1377564297,
      102533795,
      102527513,
      1159284261,
      1763588251,
      1159284153
    ],
    "wof:lastmodified": 1790439644,
    "wof:name": "DL2197 (SFO-LAX)",
    "wof:parent_id": 1763588251,
    "wof:placetype": "custom",
    "wof:placetype_alt": [
      "flight"
    ],
    "wof:repo": "sfomuseum-data-flights-2026-09",
    "wof:superseded_by": [],
    "wof:supersedes": []
  },
  "bbox": [
    -122.370943,
    33.942593,
    -118.38951,
    37.61799
  ],
  "geometry": {"type":"MultiPoint","coordinates":[[-122.370943,37.61799],[-118.38951,33.942593]]}
}
