{
  "id": 2048228067,
  "type": "Feature",
  "properties": {
    "geom:area": 0,
    "geom:bbox": "-122.558100,36.748510,-122.274200,37.666780",
    "geom:latitude": 37.21406990086779,
    "geom:longitude": -122.48985119841542,
    "src:alt_label": "swim-takeoff",
    "src:geom": "swim",
    "swim:elevations": [
      972,
      1331,
      1454,
      1896,
      2585,
      2901,
      3397,
      3767,
      4480,
      4620,
      5168,
      5792,
      5855,
      6277,
      6584,
      7201,
      7342,
      7570,
      8083,
      8113,
      8457,
      8748,
      8982,
      9273
    ],
    "swim:geom": "takeoff",
    "swim:timestamps": [
      1788282417,
      1788282446,
      1788282458,
      1788282490,
      1788282533,
      1788282549,
      1788282582,
      1788282612,
      1788282656,
      1788282663,
      1788282702,
      1788282748,
      1788282751,
      1788282786,
      1788282812,
      1788282865,
      1788282880,
      1788282902,
      1788282956,
      1788282961,
      1788282997,
      1788283029,
      1788283060,
      1788283100
    ],
    "wof:geomhash": "086fa5b17ba6a79a140e92c8ff394c4c",
    "wof:id": 2048228067,
    "wof:repo": "sfomuseum-data-flights-2026-09"
  },
  "bbox": [
    -122.5581,
    36.74851,
    -122.2742,
    37.66678
  ],
  "geometry": {"type":"LineString","coordinates":[[-122.43369,37.64339],[-122.46083,37.65557],[-122.47376,37.66136],[-122.51535,37.66678],[-122.54092,37.62371],[-122.53166,37.6038],[-122.52239,37.56165],[-122.525,37.51821],[-122.52952,37.45313],[-122.53042,37.44134],[-122.53526,37.38316],[-122.54068,37.31184],[-122.54114,37.3062],[-122.54554,37.25031],[-122.54844,37.20822],[-122.55501,37.12148],[-122.55697,37.0954],[-122.5581,37.05716],[-122.497,36.97113],[-122.49014,36.9643],[-122.43462,36.90893],[-122.38633,36.86089],[-122.33679,36.81148],[-122.2742,36.74851]]}
}
