{
  "id": 2048335473,
  "type": "Feature",
  "properties": {
    "geom:area": 0,
    "geom:bbox": "-123.461460,36.983540,-122.113700,37.614120",
    "geom:latitude": 37.297972774852795,
    "geom:longitude": -122.69266528605137,
    "src:alt_label": "swim-approach",
    "src:geom": "swim",
    "swim:elevations": [
      6018,
      5763,
      5508,
      5214,
      4901,
      4759,
      4300,
      4074,
      3675,
      3634,
      3130,
      3048,
      3048,
      3048,
      3048,
      3049,
      3046,
      3057,
      3049,
      2990,
      2792,
      2586,
      2454,
      2347,
      2135,
      1912,
      1885,
      1544,
      1335,
      1131,
      957,
      845,
      658,
      471,
      314,
      251,
      59,
      0
    ],
    "swim:geom": "approach",
    "swim:timestamps": [
      1789449867,
      1789449894,
      1789449919,
      1789449949,
      1789449979,
      1789449994,
      1789450042,
      1789450066,
      1789450108,
      1789450111,
      1789450162,
      1789450177,
      1789450198,
      1789450204,
      1789450247,
      1789450273,
      1789450300,
      1789450348,
      1789450378,
      1789450405,
      1789450432,
      1789450462,
      1789450495,
      1789450516,
      1789450547,
      1789450580,
      1789450592,
      1789450640,
      1789450673,
      1789450697,
      1789450725,
      1789450744,
      1789450779,
      1789450818,
      1789450854,
      1789450863,
      1789450909,
      1789450922
    ],
    "wof:geomhash": "28d46dfceb22f054de59208be4707d10",
    "wof:id": 2048335473,
    "wof:repo": "sfomuseum-data-flights-2026-09"
  },
  "bbox": [
    -123.46146,
    36.98354,
    -122.1137,
    37.61412
  ],
  "geometry": {"type":"LineString","coordinates":[[-123.46146,36.98354],[-123.40481,37.01037],[-123.35318,37.03474],[-123.29181,37.06286],[-123.23018,37.09119],[-123.20059,37.10462],[-123.10683,37.1471],[-123.06102,37.16786],[-122.98276,37.20369],[-122.97723,37.20617],[-122.88609,37.2475],[-122.85837,37.25789],[-122.81898,37.26771],[-122.80783,37.27026],[-122.7277,37.28938],[-122.67939,37.30061],[-122.62958,37.31217],[-122.54083,37.33274],[-122.48553,37.34554],[-122.43933,37.35618],[-122.39478,37.36655],[-122.34535,37.37774],[-122.2923,37.38991],[-122.26047,37.3972],[-122.21437,37.40774],[-122.1648,37.41908],[-122.14784,37.42474],[-122.1137,37.47186],[-122.12146,37.50584],[-122.14462,37.52427],[-122.17763,37.53768],[-122.19912,37.54696],[-122.23649,37.56279],[-122.27391,37.57846],[-122.30445,37.59137],[-122.31197,37.59453],[-122.34911,37.61015],[-122.35871,37.61412]]}
}
