{
  "id": 2048412973,
  "type": "Feature",
  "properties": {
    "geom:area": 0,
    "geom:bbox": "-122.362640,36.745520,-121.892490,37.612200",
    "geom:latitude": 37.224528576519,
    "geom:longitude": -122.07568288327934,
    "src:alt_label": "swim-approach",
    "src:geom": "swim",
    "swim:elevations": [
      5248,
      5005,
      4750,
      4461,
      4237,
      4164,
      4097,
      3903,
      3840,
      3686,
      3596,
      3406,
      3093,
      2837,
      2747,
      2505,
      2313,
      2238,
      2096,
      1795,
      1672,
      1463,
      1333,
      1131,
      1115,
      1067,
      782,
      651,
      548,
      424,
      339,
      151,
      146,
      0
    ],
    "swim:geom": "approach",
    "swim:timestamps": [
      1790193354,
      1790193384,
      1790193411,
      1790193443,
      1790193468,
      1790193476,
      1790193485,
      1790193508,
      1790193525,
      1790193554,
      1790193576,
      1790193608,
      1790193649,
      1790193686,
      1790193698,
      1790193737,
      1790193770,
      1790193792,
      1790193816,
      1790193863,
      1790193879,
      1790193909,
      1790193944,
      1790193983,
      1790193986,
      1790193996,
      1790194044,
      1790194068,
      1790194096,
      1790194120,
      1790194141,
      1790194196,
      1790194202,
      1790194242
    ],
    "wof:geomhash": "cb6e31580bc922d81c3817cb1d8877f3",
    "wof:id": 2048412973,
    "wof:repo": "sfomuseum-data-flights-2026-09"
  },
  "bbox": [
    -122.36264,
    36.74552,
    -121.89249,
    37.6122
  ],
  "geometry": {"type":"LineString","coordinates":[[-121.89249,36.74552],[-121.90814,36.79287],[-121.92047,36.83626],[-121.93459,36.88703],[-121.94552,36.9261],[-121.94869,36.93745],[-121.9532,36.95244],[-121.96648,36.98652],[-121.97618,37.01108],[-121.99231,37.05226],[-122.00339,37.08078],[-122.01799,37.11825],[-122.03601,37.16494],[-122.0523,37.20657],[-122.05748,37.21983],[-122.07457,37.26266],[-122.08938,37.30012],[-122.09883,37.32419],[-122.10834,37.34825],[-122.12487,37.39292],[-122.12988,37.40781],[-122.13931,37.43478],[-122.15041,37.46701],[-122.1622,37.50159],[-122.16309,37.50423],[-122.16615,37.51325],[-122.19961,37.54454],[-122.22374,37.55516],[-122.24954,37.56606],[-122.27142,37.57521],[-122.28795,37.58218],[-122.32939,37.59958],[-122.3334,37.60127],[-122.36264,37.6122]]}
}
