{
  "id": 2048456429,
  "type": "Feature",
  "properties": {
    "geom:area": 0,
    "geom:bbox": "-122.318889,33.650000,-84.450000,39.196944",
    "geom:latitude": 37.07584591998853,
    "geom:longitude": -103.36645007476297,
    "src:alt_label": "swim-path",
    "src:geom": "swim",
    "swim:altitudes": [
      "019",
      "030",
      "037",
      "045",
      "059",
      "069",
      "082",
      "104",
      "115",
      "125",
      "143",
      "160",
      "172",
      "189",
      "201",
      "214",
      "226",
      "238",
      "249",
      "257",
      "266",
      "276",
      "288",
      "297",
      "306",
      "314",
      "322",
      "329",
      "336",
      "340C",
      "340C",
      "340C",
      "340C",
      "340C",
      "340C",
      "340C",
      "340C",
      "340C",
      "340C",
      "340C",
      "340C",
      "340C",
      "340C",
      "340C",
      "340C",
      "340C",
      "340C",
      "340C",
      "340C",
      "340C",
      "340C",
      "340C",
      "340C",
      "340C",
      "340C",
      "340C",
      "340C",
      "340C",
      "340C",
      "340C",
      "340C",
      "340C",
      "340C",
      "340C",
      "340C",
      "340C",
      "340C",
      "340C",
      "340C",
      "340C",
      "340C",
      "340C",
      "340C",
      "340C",
      "340C",
      "340C",
      "340C",
      "340C",
      "340C",
      "340C",
      "340C",
      "340C",
      "340C",
      "340C",
      "340C",
      "340C",
      "340C",
      "340C",
      "340C",
      "340C",
      "340C",
      "340C",
      "340C",
      "340",
      "340",
      "347",
      "348",
      "351",
      "352",
      "356",
      "357",
      "360C",
      "360C",
      "360C",
      "360C",
      "360C",
      "360C",
      "360C",
      "360C",
      "360C",
      "360C",
      "360C",
      "360C",
      "360C",
      "360C",
      "360C",
      "360C",
      "360C",
      "360C",
      "360C",
      "360C",
      "360C",
      "360C",
      "360C",
      "360C",
      "360C",
      "360C",
      "360C",
      "360C",
      "360C",
      "360C",
      "360C",
      "360C",
      "360C",
      "360C",
      "360C",
      "360C",
      "360C",
      "360C",
      "360C",
      "360C",
      "360C",
      "360C",
      "360C",
      "360C",
      "360C",
      "360C",
      "360C",
      "360C",
      "360C",
      "360C",
      "360C",
      "360C",
      "360C",
      "360C",
      "360C",
      "360C",
      "360C",
      "360C",
      "360C",
      "360C",
      "360C",
      "360C",
      "360C",
      "360C",
      "360C",
      "360C",
      "360C",
      "360C",
      "360C",
      "360C",
      "360C",
      "360C",
      "360C",
      "360C",
      "360C",
      "360C",
      "360C",
      "360C",
      "360C",
      "360C",
      "360C",
      "360C",
      "360C",
      "360C",
      "360C",
      "360C",
      "360C",
      "360C",
      "360C",
      "360C",
      "360C",
      "360C",
      "360C",
      "360C",
      "360C",
      "360C",
      "360C",
      "360C",
      "360C",
      "360C",
      "360C",
      "360C",
      "360C",
      "360C",
      "360C",
      "360C",
      "360C",
      "360C",
      "360C",
      "360C",
      "360C",
      "360C",
      "360C",
      "360C",
      "360C",
      "360C",
      "360C",
      "360C",
      "360C",
      "360C",
      "360C",
      "360C",
      "360C",
      "360C",
      "360C",
      "360C",
      "360C",
      "360C",
      "360C",
      "360C",
      "360C",
      "360C",
      "360C",
      "360C",
      "360C",
      "360C",
      "360C",
      "360C",
      "360C",
      "360C",
      "360C",
      "360C",
      "360C",
      "360C",
      "360C",
      "360C",
      "360C",
      "360C",
      "360C",
      "360C",
      "360C",
      "360C",
      "360C",
      "360C",
      "360C",
      "360C",
      "360C",
      "360C",
      "360C",
      "360C",
      "360C",
      "360C",
      "360C",
      "360C",
      "360C",
      "360C",
      "360C",
      "360C",
      "360C",
      "360C",
      "360C",
      "360C",
      "360C",
      "360C",
      "360C",
      "360C",
      "360C",
      "360C",
      "360C",
      "360C",
      "360C",
      "360C",
      "360C",
      "360C",
      "360C",
      "360C",
      "360C",
      "360C",
      "360C",
      "360C",
      "360C",
      "360C",
      "360C",
      "360C",
      "360C",
      "360C",
      "360C",
      "360C",
      "360C",
      "360C",
      "360C",
      "360C",
      "360C",
      "360C",
      "360C",
      "360C",
      "360C",
      "360C",
      "360C",
      "360C",
      "360C",
      "360C",
      "360C",
      "360C",
      "360C",
      "360C",
      "360C",
      "360C",
      "360C",
      "360C",
      "360",
      "349",
      "324",
      "320",
      "320",
      "320",
      "320",
      "320",
      "320",
      "319",
      "304",
      "279",
      "259",
      "237",
      "216",
      "196",
      "176",
      "156",
      "137",
      "120",
      "108",
      "101",
      "090",
      "080",
      "070",
      "066",
      "052",
      "041",
      "033",
      "024",
      "015",
      "007"
    ],
    "swim:geom": "path",
    "swim:speeds": [
      168,
      214,
      242,
      268,
      272,
      285,
      284,
      293,
      337,
      379,
      389,
      400,
      409,
      421,
      431,
      437,
      443,
      449,
      455,
      463,
      472,
      475,
      475,
      474,
      473,
      474,
      473,
      472,
      471,
      470,
      471,
      472,
      472,
      471,
      470,
      470,
      469,
      468,
      467,
      466,
      464,
      462,
      461,
      460,
      461,
      460,
      460,
      459,
      459,
      460,
      458,
      460,
      458,
      457,
      457,
      457,
      457,
      457,
      457,
      457,
      457,
      456,
      456,
      458,
      457,
      459,
      457,
      460,
      458,
      461,
      458,
      462,
      455,
      462,
      459,
      463,
      472,
      463,
      460,
      464,
      462,
      464,
      463,
      465,
      464,
      459,
      454,
      453,
      452,
      451,
      451,
      449,
      450,
      447,
      446,
      440,
      440,
      438,
      439,
      438,
      438,
      437,
      438,
      436,
      436,
      435,
      434,
      434,
      434,
      434,
      434,
      434,
      435,
      434,
      434,
      435,
      435,
      437,
      439,
      440,
      441,
      441,
      440,
      440,
      439,
      436,
      432,
      430,
      428,
      428,
      427,
      427,
      426,
      426,
      426,
      426,
      427,
      427,
      428,
      429,
      429,
      427,
      427,
      426,
      426,
      426,
      426,
      426,
      426,
      426,
      428,
      427,
      433,
      429,
      427,
      427,
      425,
      425,
      423,
      423,
      423,
      423,
      423,
      423,
      423,
      423,
      424,
      424,
      424,
      424,
      424,
      424,
      425,
      425,
      425,
      425,
      426,
      425,
      425,
      425,
      426,
      426,
      426,
      426,
      426,
      426,
      426,
      427,
      428,
      429,
      430,
      429,
      426,
      424,
      422,
      420,
      419,
      416,
      415,
      416,
      414,
      417,
      415,
      419,
      416,
      420,
      417,
      420,
      417,
      421,
      417,
      418,
      422,
      418,
      423,
      419,
      424,
      423,
      427,
      425,
      428,
      426,
      428,
      426,
      428,
      426,
      428,
      426,
      427,
      427,
      426,
      427,
      425,
      426,
      423,
      425,
      421,
      422,
      419,
      421,
      417,
      418,
      417,
      418,
      418,
      416,
      417,
      418,
      418,
      419,
      423,
      423,
      426,
      427,
      427,
      428,
      429,
      429,
      430,
      430,
      430,
      430,
      430,
      430,
      430,
      430,
      430,
      430,
      429,
      428,
      428,
      426,
      425,
      426,
      429,
      424,
      421,
      419,
      416,
      414,
      412,
      411,
      410,
      408,
      408,
      407,
      407,
      405,
      391,
      386,
      382,
      382,
      382,
      383,
      385,
      389,
      397,
      403,
      405,
      409,
      410,
      420,
      424,
      427,
      429,
      428,
      428,
      435,
      439,
      442,
      444,
      446,
      448,
      450,
      463,
      466,
      467,
      442,
      429,
      430,
      424,
      420,
      417,
      447,
      458,
      455,
      452,
      445,
      438,
      436,
      436,
      439,
      442,
      441,
      432,
      406,
      386,
      399,
      378,
      363,
      352,
      294,
      258,
      261,
      254,
      247,
      209,
      207,
      206,
      198,
      183,
      172,
      139
    ],
    "swim:timestamps": [
      1790633799,
      1790633853,
      1790633888,
      1790633913,
      1790633948,
      1790633973,
      1790634009,
      1790634069,
      1790634129,
      1790634189,
      1790634249,
      1790634309,
      1790634369,
      1790634429,
      1790634489,
      1790634549,
      1790634609,
      1790634669,
      1790634730,
      1790634790,
      1790634850,
      1790634910,
      1790634970,
      1790635030,
      1790635090,
      1790635150,
      1790635210,
      1790635270,
      1790635330,
      1790635391,
      1790635451,
      1790635511,
      1790635571,
      1790635631,
      1790635692,
      1790635752,
      1790635812,
      1790635872,
      1790635932,
      1790635992,
      1790636052,
      1790636112,
      1790636172,
      1790636232,
      1790636292,
      1790636412,
      1790636473,
      1790636533,
      1790636593,
      1790636603,
      1790636653,
      1790636663,
      1790636723,
      1790636783,
      1790636833,
      1790636843,
      1790636893,
      1790636903,
      1790636953,
      1790636964,
      1790637013,
      1790637024,
      1790637084,
      1790637133,
      1790637144,
      1790637193,
      1790637204,
      1790637254,
      1790637264,
      1790637314,
      1790637324,
      1790637374,
      1790637384,
      1790637434,
      1790637444,
      1790637494,
      1790637504,
      1790637554,
      1790637564,
      1790637614,
      1790637625,
      1790637674,
      1790637685,
      1790637734,
      1790637745,
      1790637794,
      1790637805,
      1790637854,
      1790637865,
      1790637914,
      1790637925,
      1790637975,
      1790637985,
      1790638035,
      1790638045,
      1790638095,
      1790638105,
      1790638155,
      1790638165,
      1790638215,
      1790638225,
      1790638275,
      1790638285,
      1790638335,
      1790638346,
      1790638395,
      1790638406,
      1790638455,
      1790638466,
      1790638515,
      1790638526,
      1790638575,
      1790638586,
      1790638635,
      1790638646,
      1790638695,
      1790638706,
      1790638766,
      1790638826,
      1790638886,
      1790638946,
      1790639007,
      1790639067,
      1790639127,
      1790639187,
      1790639247,
      1790639307,
      1790639367,
      1790639427,
      1790639487,
      1790639547,
      1790639607,
      1790639668,
      1790639728,
      1790639788,
      1790639848,
      1790639908,
      1790639968,
      1790640028,
      1790640088,
      1790640148,
      1790640163,
      1790640223,
      1790640268,
      1790640284,
      1790640328,
      1790640344,
      1790640389,
      1790640404,
      1790640464,
      1790640509,
      1790640524,
      1790640584,
      1790640644,
      1790640689,
      1790640704,
      1790640749,
      1790640764,
      1790640809,
      1790640824,
      1790640869,
      1790640884,
      1790640944,
      1790640989,
      1790641005,
      1790641050,
      1790641065,
      1790641110,
      1790641125,
      1790641170,
      1790641185,
      1790641230,
      1790641245,
      1790641290,
      1790641305,
      1790641350,
      1790641365,
      1790641410,
      1790641425,
      1790641470,
      1790641485,
      1790641530,
      1790641545,
      1790641590,
      1790641605,
      1790641665,
      1790641726,
      1790641786,
      1790641846,
      1790641906,
      1790641966,
      1790642026,
      1790642086,
      1790642146,
      1790642206,
      1790642266,
      1790642326,
      1790642386,
      1790642447,
      1790642507,
      1790642517,
      1790642567,
      1790642577,
      1790642627,
      1790642637,
      1790642687,
      1790642697,
      1790642747,
      1790642757,
      1790642807,
      1790642817,
      1790642877,
      1790642927,
      1790642937,
      1790642987,
      1790642997,
      1790643047,
      1790643057,
      1790643107,
      1790643117,
      1790643168,
      1790643178,
      1790643228,
      1790643238,
      1790643288,
      1790643298,
      1790643348,
      1790643358,
      1790643408,
      1790643418,
      1790643468,
      1790643478,
      1790643528,
      1790643538,
      1790643588,
      1790643598,
      1790643648,
      1790643658,
      1790643708,
      1790643718,
      1790643768,
      1790643778,
      1790643828,
      1790643838,
      1790643899,
      1790643949,
      1790643959,
      1790644019,
      1790644069,
      1790644079,
      1790644129,
      1790644139,
      1790644199,
      1790644249,
      1790644259,
      1790644309,
      1790644319,
      1790644369,
      1790644379,
      1790644429,
      1790644439,
      1790644489,
      1790644549,
      1790644559,
      1790644609,
      1790644619,
      1790644670,
      1790644680,
      1790644740,
      1790644800,
      1790644860,
      1790644920,
      1790644980,
      1790645040,
      1790645100,
      1790645160,
      1790645220,
      1790645280,
      1790645340,
      1790645401,
      1790645521,
      1790645581,
      1790645641,
      1790645701,
      1790645761,
      1790645821,
      1790645881,
      1790645941,
      1790646001,
      1790646061,
      1790646121,
      1790646182,
      1790646242,
      1790646302,
      1790646362,
      1790646422,
      1790646482,
      1790646542,
      1790646602,
      1790646662,
      1790646722,
      1790646782,
      1790646842,
      1790646902,
      1790646962,
      1790647023,
      1790647082,
      1790647142,
      1790647203,
      1790647263,
      1790647323,
      1790647383,
      1790647443,
      1790647503,
      1790647624,
      1790647683,
      1790647743,
      1790647804,
      1790647863,
      1790647923,
      1790647984,
      1790648044,
      1790648104,
      1790648164,
      1790648224,
      1790648344,
      1790648404,
      1790648464,
      1790648584,
      1790648644,
      1790648663,
      1790648704,
      1790648765,
      1790648825,
      1790648885,
      1790648945,
      1790649005,
      1790649060,
      1790649125,
      1790649185,
      1790649245,
      1790649300,
      1790649360,
      1790649420,
      1790649480,
      1790649541,
      1790649606,
      1790649666,
      1790649726,
      1790649786,
      1790649846,
      1790649906,
      1790649966
    ],
    "wof:geomhash": "e24919dd190bc2cb4911c0fe99897e3d",
    "wof:id": 2048456429,
    "wof:repo": "sfomuseum-data-flights-2026-09"
  },
  "bbox": [
    -122.31888888888888,
    33.65,
    -84.45,
    39.19694444444444
  ],
  "geometry": {"type":"LineString","coordinates":[[-84.45,33.65],[-84.5,33.65],[-84.54305555555555,33.66222222222222],[-84.58333333333333,33.666666666666664],[-84.63055555555555,33.67805555555555],[-84.66666666666667,33.68333333333333],[-84.72527777777778,33.69361111111111],[-84.82027777777778,33.715833333333336],[-84.92333333333333,33.74388888888889],[-85.04055555555556,33.775277777777774],[-85.16416666666667,33.808055555555555],[-85.29638888888888,33.823055555555555],[-85.4063888888889,33.827222222222225],[-85.57416666666666,33.835],[-85.71638888888889,33.85722222222223],[-85.84222222222222,33.894444444444446],[-85.98166666666667,33.93555555555555],[-86.12555555555555,33.977222222222224],[-86.26888888888888,34.01833333333333],[-86.41777777777779,34.06083333333333],[-86.56722222222221,34.10333333333333],[-86.71805555555555,34.14611111111111],[-86.86861111111111,34.18861111111111],[-87.01972222222223,34.23083333333334],[-87.16888888888889,34.2725],[-87.31972222222223,34.314166666666665],[-87.47277777777778,34.35638888888889],[-87.63305555555554,34.400277777777774],[-87.78333333333333,34.44138888888889],[-87.93388888888889,34.48222222222223],[-88.08611111111111,34.52305555555555],[-88.23722222222223,34.56361111111111],[-88.39,34.60444444444445],[-88.53,34.64138888888889],[-88.67972222222222,34.68083333333333],[-88.83194444444445,34.72083333333334],[-88.98194444444445,34.76],[-89.13111111111111,34.79861111111111],[-89.28277777777778,34.83777777777778],[-89.42944444444444,34.875277777777775],[-89.57805555555555,34.91305555555555],[-89.72194444444445,34.94972222222222],[-89.86694444444444,34.986111111111114],[-90.01555555555555,35.019444444444446],[-90.16861111111112,35.04083333333333],[-90.47361111111111,35.08166666666667],[-90.62888888888888,35.1025],[-90.81194444444444,35.126666666666665],[-90.96527777777779,35.14666666666667],[-90.965,35.1475],[-91.11666666666666,35.16611111111111],[-91.11833333333333,35.16694444444444],[-91.27166666666666,35.18527777777778],[-91.42444444444445,35.20472222222222],[-91.57916666666667,35.224444444444444],[-91.57833333333333,35.224722222222226],[-91.70083333333334,35.239444444444445],[-91.72972222222222,35.243611111111115],[-91.88611111111112,35.26222222222222],[-91.88416666666667,35.26166666666666],[-92.03944444444444,35.280833333333334],[-92.03805555555556,35.28],[-92.19,35.29944444444444],[-92.34472222222222,35.31722222222223],[-92.34555555555555,35.316944444444445],[-92.50222222222222,35.33555555555556],[-92.49916666666667,35.33555555555556],[-92.6575,35.35333333333333],[-92.6538888888889,35.35305555555556],[-92.81166666666667,35.37111111111111],[-92.80749999999999,35.37111111111111],[-92.93805555555556,35.38527777777778],[-92.95666666666666,35.386944444444445],[-93.10833333333333,35.404444444444444],[-93.14194444444445,35.4075],[-93.26388888888889,35.42166666666667],[-93.29944444444445,35.425555555555555],[-93.42166666666667,35.43861111111111],[-93.45305555555557,35.44277777777778],[-93.57805555555555,35.455555555555556],[-93.61055555555555,35.45944444444445],[-93.73333333333333,35.47222222222222],[-93.76666666666667,35.476111111111116],[-93.89,35.48861111111111],[-93.9238888888889,35.49305555555556],[-94.04416666666667,35.518055555555556],[-94.06888888888888,35.527499999999996],[-94.18111111111112,35.57222222222222],[-94.21055555555556,35.58388888888889],[-94.31722222222221,35.62638888888889],[-94.34472222222222,35.63722222222222],[-94.45694444444445,35.681666666666665],[-94.48277777777778,35.69194444444444],[-94.59333333333333,35.73527777777778],[-94.62055555555555,35.74611111111111],[-94.72722222222222,35.78777777777778],[-94.75472222222223,35.79861111111111],[-94.86222222222221,35.84055555555556],[-94.89111111111112,35.85194444444445],[-94.99666666666667,35.89277777777778],[-95.02388888888889,35.90361111111111],[-95.13083333333333,35.94499999999999],[-95.16083333333334,35.95638888888889],[-95.26416666666667,35.99638888888889],[-95.29444444444444,36.007777777777775],[-95.39750000000001,36.0475],[-95.42972222222222,36.059999999999995],[-95.53305555555555,36.09916666666667],[-95.56361111111111,36.11083333333333],[-95.66777777777779,36.150555555555556],[-95.69805555555556,36.16222222222222],[-95.80472222222222,36.2025],[-95.8325,36.21361111111111],[-95.93694444444445,36.257222222222225],[-95.96638888888889,36.26916666666666],[-96.0736111111111,36.30722222222222],[-96.10444444444444,36.31527777777777],[-96.24805555555555,36.35138888888889],[-96.39222222222223,36.38666666666666],[-96.53722222222223,36.42166666666667],[-96.68277777777779,36.45638888888889],[-96.82777777777777,36.490833333333335],[-96.9738888888889,36.525555555555556],[-97.11694444444444,36.559444444444445],[-97.26166666666667,36.593333333333334],[-97.40611111111112,36.6275],[-97.55916666666667,36.663333333333334],[-97.7025,36.696666666666665],[-97.82222222222222,36.724722222222226],[-97.9675,36.75833333333333],[-98.10888888888888,36.79055555555556],[-98.27111111111111,36.8275],[-98.41472222222222,36.86],[-98.535,36.886944444444445],[-98.67833333333334,36.91916666666666],[-98.82083333333333,36.950833333333335],[-98.96333333333334,36.98222222222223],[-99.10694444444444,37.013888888888886],[-99.24861111111112,37.04472222222222],[-99.39194444444445,37.075833333333335],[-99.53694444444444,37.10722222222223],[-99.59472222222222,37.12],[-99.73694444444445,37.14944444444444],[-99.82055555555556,37.16777777777777],[-99.8786111111111,37.18083333333333],[-99.96583333333334,37.19833333333333],[-100.02166666666666,37.21055555555556],[-100.10944444444443,37.228611111111114],[-100.16611111111112,37.24027777777778],[-100.31027777777777,37.27027777777778],[-100.39666666666668,37.288333333333334],[-100.455,37.30027777777777],[-100.60222222222221,37.330555555555556],[-100.74722222222222,37.36],[-100.83138888888888,37.37722222222222],[-100.89250000000001,37.38944444444444],[-100.97666666666667,37.406388888888884],[-101.03694444444444,37.41833333333333],[-101.12249999999999,37.43555555555555],[-101.18111111111112,37.447222222222216],[-101.26527777777778,37.46388888888889],[-101.32527777777777,37.475833333333334],[-101.46833333333333,37.50416666666667],[-101.55138888888888,37.52027777777778],[-101.61333333333333,37.5325],[-101.69694444444445,37.54861111111111],[-101.75694444444444,37.56027777777778],[-101.84166666666667,37.57666666666667],[-101.90055555555556,37.588055555555556],[-101.98555555555555,37.60416666666667],[-102.04444444444444,37.61555555555556],[-102.12916666666666,37.63166666666667],[-102.1888888888889,37.643055555555556],[-102.27333333333333,37.65888888888889],[-102.33388888888888,37.67027777777778],[-102.41777777777779,37.68611111111111],[-102.47888888888889,37.6975],[-102.56333333333333,37.71416666666667],[-102.60472222222222,37.723055555555554],[-102.705,37.74388888888889],[-102.74833333333333,37.75277777777778],[-102.85249999999999,37.774166666666666],[-102.89444444444445,37.7825],[-102.99666666666667,37.80333333333333],[-103.03861111111111,37.81166666666666],[-103.18194444444445,37.84055555555556],[-103.32694444444444,37.86944444444445],[-103.47194444444445,37.89833333333333],[-103.61749999999999,37.926944444444445],[-103.76388888888889,37.955555555555556],[-103.91027777777778,37.98388888888889],[-104.08388888888888,38.01722222222222],[-104.22722222222222,38.04472222222222],[-104.36888888888888,38.07166666666667],[-104.51222222222222,38.09861111111111],[-104.65694444444445,38.12555555555556],[-104.79861111111111,38.151944444444446],[-104.9388888888889,38.17777777777778],[-105.0825,38.20416666666667],[-105.22527777777778,38.230000000000004],[-105.24111111111111,38.22694444444445],[-105.36944444444444,38.25611111111111],[-105.38555555555556,38.25361111111111],[-105.51416666666667,38.28194444444444],[-105.53055555555555,38.280833333333334],[-105.65777777777778,38.3075],[-105.67555555555556,38.30638888888888],[-105.80222222222221,38.33277777777778],[-105.82027777777778,38.331944444444446],[-105.94944444444445,38.35861111111111],[-105.96527777777779,38.35916666666667],[-106.11055555555555,38.384166666666665],[-106.23722222222223,38.40833333333333],[-106.25694444444444,38.40833333333333],[-106.38527777777779,38.433611111111105],[-106.4038888888889,38.433611111111105],[-106.53472222222221,38.45888888888889],[-106.55194444444444,38.45916666666667],[-106.68277777777779,38.48388888888889],[-106.70111111111112,38.483333333333334],[-106.83194444444445,38.50861111111111],[-106.85,38.50805555555556],[-106.98361111111112,38.53361111111111],[-106.99722222222222,38.534166666666664],[-107.13111111111111,38.55777777777777],[-107.14555555555556,38.55888888888889],[-107.26333333333334,38.57944444444445],[-107.29388888888889,38.583333333333336],[-107.41055555555556,38.60305555555556],[-107.44277777777778,38.606944444444444],[-107.55944444444444,38.62694444444445],[-107.59027777777777,38.63],[-107.70555555555556,38.65],[-107.73805555555556,38.652499999999996],[-107.85305555555556,38.67333333333333],[-107.88388888888889,38.67638888888889],[-107.99722222222222,38.69555555555555],[-108.02916666666667,38.69888888888889],[-108.14305555555556,38.71805555555556],[-108.17500000000001,38.721944444444446],[-108.28722222222223,38.74027777777778],[-108.31888888888888,38.74388888888889],[-108.43361111111112,38.7625],[-108.46416666666667,38.76611111111111],[-108.61083333333333,38.78805555555555],[-108.72444444444444,38.80611111111111],[-108.75583333333333,38.81083333333333],[-108.90333333333334,38.8325],[-109.01944444444445,38.849444444444444],[-109.05027777777778,38.85388888888889],[-109.16972222222223,38.87111111111111],[-109.19944444444445,38.87555555555556],[-109.35,38.89722222222222],[-109.47,38.91416666666667],[-109.50277777777778,38.91888888888889],[-109.62305555555555,38.93583333333333],[-109.65138888888889,38.939722222222215],[-109.7725,38.95666666666667],[-109.80333333333333,38.96083333333333],[-109.92611111111111,38.97777777777778],[-109.95583333333333,38.981944444444444],[-110.07527777777777,38.998333333333335],[-110.22722222222222,39.01888888888889],[-110.25722222222223,39.022777777777776],[-110.37777777777777,39.038888888888884],[-110.41027777777778,39.04333333333333],[-110.53111111111112,39.059444444444445],[-110.5611111111111,39.06333333333333],[-110.71277777777777,39.08305555555556],[-110.86305555555555,39.1025],[-111.01194444444444,39.12166666666667],[-111.16083333333334,39.14055555555556],[-111.31944444444444,39.160555555555554],[-111.46972222222223,39.17916666666667],[-111.62194444444444,39.19694444444444],[-111.77194444444444,39.18944444444444],[-111.91861111111112,39.16555555555556],[-112.0625,39.14138888888889],[-112.2075,39.11638888888889],[-112.34944444444444,39.09166666666667],[-112.63666666666667,39.044999999999995],[-112.78,39.02222222222222],[-112.9225,38.99944444444444],[-113.06388888888888,38.976111111111116],[-113.20527777777778,38.95333333333333],[-113.34666666666666,38.93],[-113.48694444444445,38.906666666666666],[-113.62694444444443,38.88333333333333],[-113.76166666666667,38.86055555555556],[-113.89472222222223,38.838055555555556],[-114.02666666666667,38.815555555555555],[-114.16000000000001,38.7925],[-114.29222222222222,38.76972222222222],[-114.42444444444445,38.74638888888889],[-114.55833333333334,38.72277777777778],[-114.69500000000001,38.698611111111106],[-114.8325,38.674166666666665],[-114.97166666666666,38.649166666666666],[-115.11444444444444,38.62277777777778],[-115.25444444444445,38.59777777777778],[-115.40972222222223,38.569722222222225],[-115.55583333333333,38.54194444444444],[-115.70111111111112,38.514722222222225],[-115.85111111111111,38.486666666666665],[-116.00027777777778,38.458333333333336],[-116.14611111111111,38.43055555555555],[-116.29416666666667,38.40222222222222],[-116.44388888888889,38.37305555555555],[-116.59416666666667,38.343611111111116],[-116.74805555555555,38.31361111111111],[-116.90055555555556,38.28333333333333],[-117.05305555555556,38.25277777777778],[-117.19027777777778,38.225],[-117.34444444444443,38.193888888888885],[-117.58361111111111,38.03194444444444],[-117.6675,37.91861111111111],[-117.75027777777778,37.80694444444444],[-117.85749999999999,37.71888888888889],[-118.00777777777778,37.70777777777778],[-118.16166666666668,37.70916666666667],[-118.30777777777777,37.71],[-118.45583333333333,37.71055555555556],[-118.60222222222221,37.71083333333333],[-118.75111111111111,37.71083333333333],[-118.92416666666666,37.71055555555556],[-119.24416666666667,37.709722222222226],[-119.40361111111112,37.70888888888889],[-119.55694444444444,37.70805555555556],[-119.86416666666666,37.705555555555556],[-120.01527777777778,37.70388888888889],[-120.06666666666666,37.7],[-120.17027777777778,37.702222222222225],[-120.32722222222222,37.7],[-120.48055555555555,37.690555555555555],[-120.63138888888888,37.672777777777775],[-120.77444444444444,37.65555555555555],[-120.90805555555556,37.63944444444444],[-121.03333333333333,37.61666666666667],[-121.17194444444445,37.60472222222222],[-121.29833333333333,37.588055555555556],[-121.41861111111112,37.575],[-121.53333333333333,37.56666666666667],[-121.61666666666666,37.55],[-121.7,37.53333333333333],[-121.8,37.516666666666666],[-121.88333333333334,37.5],[-121.9588888888889,37.49277777777778],[-122.02694444444444,37.5075],[-122.09333333333333,37.528888888888886],[-122.15694444444445,37.54944444444444],[-122.21611111111112,37.56861111111112],[-122.2725,37.58638888888889],[-122.31888888888888,37.599722222222226]]}
}
