{
  "id": 2048391611,
  "type": "Feature",
  "properties": {
    "geom:area": 0,
    "geom:bbox": "-122.409810,37.633550,-121.244210,37.959740",
    "geom:latitude": 37.818370686331804,
    "geom:longitude": -121.83945230976352,
    "src:alt_label": "swim-takeoff",
    "src:geom": "swim",
    "swim:elevations": [
      324,
      439,
      809,
      1326,
      1510,
      2031,
      2240,
      2523,
      2903,
      3118,
      3324,
      3595,
      3741,
      4160,
      4481,
      4707,
      5017,
      5083,
      5508,
      5554,
      5765,
      5914,
      6197,
      6370,
      6535
    ],
    "swim:geom": "takeoff",
    "swim:timestamps": [
      1789892786,
      1789892802,
      1789892831,
      1789892900,
      1789892915,
      1789892955,
      1789892972,
      1789892997,
      1789893026,
      1789893048,
      1789893083,
      1789893115,
      1789893127,
      1789893169,
      1789893202,
      1789893228,
      1789893264,
      1789893271,
      1789893324,
      1789893330,
      1789893357,
      1789893377,
      1789893417,
      1789893439,
      1789893458
    ],
    "wof:geomhash": "7a1365d375dbff5825195578e93d0374",
    "wof:id": 2048391611,
    "wof:repo": "sfomuseum-data-flights-2026-09"
  },
  "bbox": [
    -122.40981,
    37.63355,
    -121.24421,
    37.95974
  ],
  "geometry": {"type":"LineString","coordinates":[[-122.40538,37.63355],[-122.40981,37.64645],[-122.38397,37.66464],[-122.29782,37.69142],[-122.27707,37.69789],[-122.21815,37.71681],[-122.19442,37.72799],[-122.15963,37.74633],[-122.1157,37.76224],[-122.07974,37.77021],[-122.01797,37.78455],[-121.95779,37.79841],[-121.93582,37.80342],[-121.85393,37.82219],[-121.78945,37.83689],[-121.73612,37.84906],[-121.66291,37.86561],[-121.64997,37.86854],[-121.53737,37.894],[-121.52458,37.89691],[-121.46813,37.90965],[-121.4251,37.91934],[-121.33664,37.93916],[-121.28793,37.95002],[-121.24421,37.95974]]}
}
