{
  "id": 2048453099,
  "type": "Feature",
  "properties": {
    "geom:area": 0,
    "geom:bbox": "-122.407510,37.625330,-121.255690,37.964400",
    "geom:latitude": 37.83062567313743,
    "geom:longitude": -121.85474966181395,
    "src:alt_label": "swim-takeoff",
    "src:geom": "swim",
    "swim:elevations": [
      122,
      669,
      1055,
      1483,
      2677,
      3302,
      3907,
      4527,
      4723,
      5166,
      5423,
      5699,
      6145,
      6802
    ],
    "swim:geom": "takeoff",
    "swim:timestamps": [
      1790506986,
      1790507029,
      1790507063,
      1790507120,
      1790507209,
      1790507270,
      1790507327,
      1790507386,
      1790507408,
      1790507458,
      1790507483,
      1790507513,
      1790507565,
      1790507650
    ],
    "wof:geomhash": "66cc3be3a582b2946d69abcb5ed0e80d",
    "wof:id": 2048453099,
    "wof:repo": "sfomuseum-data-flights-2026-09"
  },
  "bbox": [
    -122.40751,
    37.62533,
    -121.25569,
    37.9644
  ],
  "geometry": {"type":"LineString","coordinates":[[-122.39061,37.62533],[-122.40751,37.65455],[-122.37363,37.66632],[-122.30118,37.68984],[-122.16957,37.7413],[-122.08,37.78766],[-121.98254,37.83008],[-121.86266,37.85232],[-121.81589,37.86113],[-121.70818,37.88108],[-121.65117,37.89182],[-121.58307,37.90441],[-121.46023,37.92682],[-121.25569,37.9644]]}
}
