{
  "id": 2048409011,
  "type": "Feature",
  "properties": {
    "geom:area": 0,
    "geom:bbox": "-123.451020,37.109870,-122.406470,37.669490",
    "geom:latitude": 37.41122024392108,
    "geom:longitude": -122.93056347307153,
    "src:alt_label": "swim-takeoff",
    "src:geom": "swim",
    "swim:elevations": [
      346,
      619,
      768,
      1091,
      1126,
      1236,
      1441,
      2057,
      2222,
      2613,
      2853,
      3207,
      3290,
      3408,
      3443,
      3535,
      3687,
      3778,
      4047,
      4380,
      4574,
      4889,
      4926,
      5037,
      5163,
      5558,
      5538
    ],
    "swim:geom": "takeoff",
    "swim:timestamps": [
      1790120636,
      1790120657,
      1790120679,
      1790120724,
      1790120742,
      1790120764,
      1790120791,
      1790120847,
      1790120862,
      1790120900,
      1790120925,
      1790120964,
      1790120991,
      1790121015,
      1790121033,
      1790121054,
      1790121088,
      1790121096,
      1790121136,
      1790121172,
      1790121196,
      1790121237,
      1790121240,
      1790121255,
      1790121273,
      1790121328,
      1790121331
    ],
    "wof:geomhash": "cc614f697ea86137e5ec30568238102b",
    "wof:id": 2048409011,
    "wof:repo": "sfomuseum-data-flights-2026-09"
  },
  "bbox": [
    -123.45102,
    37.10987,
    -122.40647,
    37.66949
  ],
  "geometry": {"type":"LineString","coordinates":[[-122.40647,37.63223],[-122.42646,37.64122],[-122.44786,37.65029],[-122.49301,37.66949],[-122.51587,37.66766],[-122.5408,37.65304],[-122.57211,37.63188],[-122.6428,37.58564],[-122.66172,37.57347],[-122.71017,37.54211],[-122.7423,37.52096],[-122.79559,37.48995],[-122.83538,37.46734],[-122.87338,37.44557],[-122.90292,37.42876],[-122.93872,37.40817],[-122.99877,37.37318],[-123.01335,37.36477],[-123.08653,37.32288],[-123.1535,37.28432],[-123.19812,37.25784],[-123.2756,37.2123],[-123.28127,37.20896],[-123.30966,37.19235],[-123.34399,37.17239],[-123.45076,37.11002],[-123.45102,37.10987]]}
}
