{
  "id": 2048468311,
  "type": "Feature",
  "properties": {
    "geom:area": 0,
    "geom:bbox": "-122.283333,37.683333,-84.153611,46.413333",
    "geom:latitude": 43.24842051221937,
    "geom:longitude": -103.57942052213303,
    "src:alt_label": "swim-path",
    "src:geom": "swim",
    "swim:altitudes": [
      "031",
      "033",
      "047",
      "051",
      "068",
      "073",
      "094",
      "111",
      "123",
      "138",
      "152",
      "164",
      "177",
      "192",
      "201",
      "215",
      "224",
      "234",
      "242",
      "250",
      "261",
      "262",
      "268",
      "270",
      "276",
      "277",
      "285",
      "287",
      "294",
      "295",
      "299",
      "300",
      "307",
      "309",
      "316",
      "317",
      "324",
      "326",
      "330C",
      "330C",
      "330C",
      "330C",
      "330C",
      "330C",
      "330C",
      "330C",
      "330C",
      "330C",
      "329C",
      "330C",
      "330C",
      "330C",
      "330C",
      "329C",
      "329C",
      "330C",
      "330C",
      "330C",
      "329C",
      "330C",
      "330C",
      "330C",
      "330C",
      "330C",
      "330C",
      "330C",
      "330C",
      "330C",
      "330C",
      "330C",
      "330C",
      "330C",
      "330C",
      "330C",
      "330C",
      "330C",
      "330C",
      "330C",
      "330C",
      "330C",
      "330C",
      "330C",
      "330C",
      "330C",
      "330C",
      "330C",
      "330C",
      "330C",
      "330C",
      "330C",
      "330C",
      "330C",
      "330C",
      "330C",
      "330C",
      "330C",
      "330C",
      "330C",
      "330C",
      "330C",
      "330C",
      "330C",
      "330C",
      "330C",
      "330C",
      "330C",
      "330C",
      "330C",
      "330C",
      "330C",
      "330C",
      "330C",
      "330C",
      "330C",
      "330C",
      "330C",
      "330C",
      "330C",
      "330C",
      "330C",
      "330C",
      "330C",
      "330C",
      "330C",
      "330C",
      "330C",
      "330C",
      "330C",
      "330C",
      "330C",
      "330C",
      "330C",
      "330C",
      "330C",
      "330C",
      "330C",
      "330C",
      "330C",
      "330C",
      "330C",
      "330C",
      "330C",
      "330C",
      "330C",
      "330C",
      "330C",
      "330C",
      "330C",
      "330C",
      "330C",
      "330C",
      "330C",
      "330C",
      "330C",
      "330C",
      "330C",
      "330C",
      "330C",
      "330C",
      "330C",
      "330C",
      "330C",
      "330C",
      "330C",
      "330C",
      "330C",
      "330C",
      "330C",
      "330C",
      "330C",
      "330C",
      "330C",
      "330C",
      "330C",
      "330C",
      "330C",
      "330C",
      "330C",
      "330C",
      "330C",
      "330C",
      "330C",
      "330C",
      "330C",
      "330C",
      "330C",
      "330C",
      "330C",
      "330C",
      "330C",
      "330C",
      "330C",
      "330C",
      "330C",
      "330C",
      "330C",
      "330C",
      "330C",
      "330C",
      "330C",
      "330C",
      "330C",
      "330C",
      "330C",
      "330C",
      "333",
      "337",
      "338",
      "341",
      "343",
      "347",
      "349C",
      "350C",
      "350C",
      "350C",
      "350C",
      "350C",
      "350C",
      "350C",
      "350C",
      "350C",
      "350C",
      "350C",
      "350C",
      "350C",
      "350C",
      "350C",
      "350C",
      "350C",
      "350C",
      "350C",
      "350C",
      "350C",
      "350C",
      "350C",
      "350C",
      "350C",
      "350C",
      "350C",
      "350C",
      "350C",
      "350C",
      "350C",
      "350C",
      "350C",
      "350C",
      "350C",
      "350C",
      "350C",
      "350C",
      "350C",
      "350C",
      "350C",
      "350C",
      "350C",
      "350C",
      "350C",
      "350C",
      "350C",
      "350C",
      "350C",
      "350C",
      "350C",
      "350C",
      "350C",
      "350C",
      "350C",
      "350C",
      "350C",
      "350C",
      "350C",
      "350C",
      "350C",
      "350C",
      "350C",
      "350C",
      "350C",
      "350C",
      "350C",
      "350C",
      "350C",
      "350C",
      "350C",
      "350C",
      "350C",
      "350C",
      "350C",
      "350C",
      "350C",
      "349C",
      "350C",
      "349C",
      "350C",
      "350C",
      "350C"
    ],
    "swim:geom": "path",
    "swim:speeds": [
      219,
      219,
      262,
      259,
      265,
      266,
      273,
      306,
      334,
      345,
      348,
      364,
      376,
      378,
      390,
      396,
      404,
      407,
      409,
      415,
      416,
      415,
      417,
      416,
      423,
      424,
      426,
      424,
      426,
      427,
      428,
      427,
      430,
      428,
      429,
      428,
      424,
      428,
      420,
      419,
      425,
      419,
      427,
      424,
      427,
      433,
      428,
      430,
      428,
      430,
      429,
      431,
      433,
      433,
      433,
      433,
      434,
      434,
      434,
      434,
      434,
      434,
      436,
      437,
      437,
      437,
      437,
      437,
      437,
      437,
      436,
      436,
      436,
      436,
      436,
      437,
      438,
      438,
      438,
      438,
      438,
      438,
      438,
      438,
      437,
      435,
      434,
      433,
      433,
      433,
      432,
      431,
      430,
      429,
      429,
      430,
      429,
      429,
      428,
      427,
      425,
      424,
      423,
      423,
      424,
      424,
      424,
      426,
      427,
      429,
      430,
      431,
      437,
      439,
      439,
      437,
      436,
      435,
      436,
      435,
      434,
      435,
      436,
      435,
      433,
      432,
      433,
      434,
      433,
      432,
      431,
      433,
      432,
      433,
      433,
      435,
      434,
      436,
      435,
      436,
      435,
      436,
      436,
      437,
      437,
      437,
      437,
      436,
      436,
      435,
      435,
      435,
      435,
      435,
      435,
      437,
      437,
      438,
      438,
      437,
      437,
      436,
      435,
      435,
      435,
      436,
      437,
      439,
      440,
      441,
      442,
      442,
      441,
      438,
      438,
      439,
      440,
      440,
      439,
      438,
      442,
      444,
      445,
      447,
      449,
      451,
      451,
      453,
      454,
      455,
      462,
      466,
      466,
      468,
      467,
      469,
      471,
      473,
      477,
      482,
      484,
      485,
      485,
      485,
      489,
      492,
      493,
      493,
      497,
      497,
      498,
      498,
      498,
      509,
      515,
      527,
      527,
      526,
      524,
      523,
      523,
      527,
      527,
      524,
      523,
      524,
      524,
      525,
      528,
      527,
      525,
      525,
      525,
      525,
      525,
      525,
      527,
      523,
      522,
      526,
      526,
      523,
      524,
      529,
      526,
      522,
      521,
      523,
      524,
      523,
      523,
      522,
      522,
      521,
      524,
      526,
      526,
      525,
      527,
      528,
      522,
      519,
      519,
      520,
      520,
      520,
      520,
      521,
      521,
      520,
      518,
      516,
      514,
      514,
      515,
      516,
      516,
      513,
      513,
      514,
      514,
      515,
      514,
      512,
      511,
      511,
      512,
      513,
      514,
      514,
      514,
      512,
      511,
      511,
      510
    ],
    "swim:timestamps": [
      1790710733,
      1790710750,
      1790710794,
      1790710810,
      1790710848,
      1790710870,
      1790710930,
      1790711002,
      1790711062,
      1790711122,
      1790711182,
      1790711243,
      1790711303,
      1790711363,
      1790711423,
      1790711483,
      1790711543,
      1790711603,
      1790711663,
      1790711723,
      1790711783,
      1790711800,
      1790711843,
      1790711860,
      1790711904,
      1790711920,
      1790711964,
      1790711980,
      1790712024,
      1790712040,
      1790712084,
      1790712100,
      1790712144,
      1790712160,
      1790712204,
      1790712220,
      1790712264,
      1790712281,
      1790712324,
      1790712341,
      1790712384,
      1790712401,
      1790712444,
      1790712461,
      1790712504,
      1790712521,
      1790712564,
      1790712581,
      1790712625,
      1790712641,
      1790712685,
      1790712701,
      1790712745,
      1790712761,
      1790712805,
      1790712821,
      1790712865,
      1790712881,
      1790712925,
      1790712941,
      1790712985,
      1790713001,
      1790713045,
      1790713062,
      1790713105,
      1790713122,
      1790713165,
      1790713182,
      1790713225,
      1790713242,
      1790713285,
      1790713302,
      1790713346,
      1790713362,
      1790713406,
      1790713422,
      1790713466,
      1790713482,
      1790713526,
      1790713542,
      1790713586,
      1790713602,
      1790713662,
      1790713722,
      1790713783,
      1790713843,
      1790713903,
      1790713963,
      1790714023,
      1790714083,
      1790714143,
      1790714203,
      1790714263,
      1790714323,
      1790714383,
      1790714443,
      1790714504,
      1790714564,
      1790714624,
      1790714684,
      1790714744,
      1790714804,
      1790714864,
      1790715044,
      1790715104,
      1790715164,
      1790715224,
      1790715285,
      1790715345,
      1790715405,
      1790715465,
      1790715525,
      1790715585,
      1790715645,
      1790715705,
      1790715765,
      1790715825,
      1790715885,
      1790715945,
      1790716006,
      1790716066,
      1790716126,
      1790716186,
      1790716246,
      1790716306,
      1790716366,
      1790716426,
      1790716486,
      1790716546,
      1790716606,
      1790716666,
      1790716708,
      1790716726,
      1790716768,
      1790716787,
      1790716828,
      1790716847,
      1790716888,
      1790716907,
      1790716948,
      1790716967,
      1790717008,
      1790717027,
      1790717068,
      1790717087,
      1790717128,
      1790717147,
      1790717188,
      1790717207,
      1790717248,
      1790717267,
      1790717308,
      1790717327,
      1790717369,
      1790717387,
      1790717429,
      1790717447,
      1790717489,
      1790717508,
      1790717549,
      1790717568,
      1790717609,
      1790717628,
      1790717669,
      1790717688,
      1790717729,
      1790717748,
      1790717789,
      1790717808,
      1790717849,
      1790717868,
      1790717909,
      1790717928,
      1790717969,
      1790717988,
      1790718029,
      1790718090,
      1790718150,
      1790718210,
      1790718270,
      1790718330,
      1790718390,
      1790718450,
      1790718510,
      1790718570,
      1790718630,
      1790718690,
      1790718750,
      1790718806,
      1790718866,
      1790718883,
      1790718943,
      1790718986,
      1790719003,
      1790719046,
      1790719063,
      1790719123,
      1790719167,
      1790719183,
      1790719227,
      1790719243,
      1790719287,
      1790719303,
      1790719347,
      1790719363,
      1790719423,
      1790719467,
      1790719483,
      1790719527,
      1790719544,
      1790719587,
      1790719604,
      1790719647,
      1790719707,
      1790719767,
      1790719827,
      1790719887,
      1790719948,
      1790720008,
      1790720068,
      1790720128,
      1790720188,
      1790720248,
      1790720308,
      1790720368,
      1790720428,
      1790720488,
      1790720548,
      1790720608,
      1790720669,
      1790720729,
      1790720789,
      1790720849,
      1790720909,
      1790720969,
      1790721029,
      1790721089,
      1790721149,
      1790721209,
      1790721269,
      1790721329,
      1790721390,
      1790721450,
      1790721510,
      1790721570,
      1790721630,
      1790721690,
      1790721750,
      1790721810,
      1790721870,
      1790721930,
      1790721990,
      1790722050,
      1790722110,
      1790722171,
      1790722231,
      1790722291,
      1790722351,
      1790722411,
      1790722471,
      1790722531,
      1790722591,
      1790722651,
      1790722711,
      1790722771,
      1790722831,
      1790722892,
      1790722952,
      1790723012,
      1790723072,
      1790723132,
      1790723192,
      1790723252,
      1790723312,
      1790723372,
      1790723432,
      1790723492,
      1790723552,
      1790723613,
      1790723673,
      1790723733,
      1790723793,
      1790723853,
      1790723913,
      1790723973,
      1790724033,
      1790724093,
      1790724153,
      1790724213,
      1790724273,
      1790724334,
      1790724394,
      1790724454,
      1790724514,
      1790724574
    ],
    "wof:geomhash": "449b572432cdb5b1d0803af19fd64d98",
    "wof:id": 2048468311,
    "wof:repo": "sfomuseum-data-flights-2026-09"
  },
  "bbox": [
    -122.28333333333333,
    37.68333333333333,
    -84.15361111111112,
    46.413333333333334
  ],
  "geometry": {"type":"LineString","coordinates":[[-122.28333333333333,37.68333333333333],[-122.27333333333333,37.686388888888885],[-122.21666666666667,37.71666666666667],[-122.2038888888889,37.72972222222222],[-122.16666666666667,37.766666666666666],[-122.14888888888889,37.790277777777774],[-122.09333333333333,37.852222222222224],[-122.00638888888889,37.92166666666667],[-121.91833333333334,37.981388888888894],[-121.82583333333334,38.04416666666666],[-121.7375,38.103611111111114],[-121.63972222222223,38.169444444444444],[-121.53694444444444,38.23833333333334],[-121.435,38.30638888888888],[-121.32916666666667,38.37388888888889],[-121.19916666666667,38.45444444444445],[-121.08888888888889,38.5225],[-120.97638888888889,38.591944444444444],[-120.8611111111111,38.6625],[-120.74472222222222,38.73361111111111],[-120.62722222222222,38.805],[-120.60472222222222,38.81527777777777],[-120.51027777777777,38.876111111111115],[-120.48666666666666,38.88638888888889],[-120.39,38.948611111111106],[-120.36694444444444,38.96055555555556],[-120.26833333333333,39.02166666666667],[-120.2461111111111,39.032777777777774],[-120.14750000000001,39.094166666666666],[-120.12555555555555,39.106944444444444],[-120.02694444444444,39.16611111111111],[-120.00222222222222,39.17833333333333],[-119.90333333333334,39.23972222222222],[-119.87944444444443,39.25138888888889],[-119.78166666666667,39.31166666666666],[-119.75888888888889,39.32416666666667],[-119.66250000000001,39.382222222222225],[-119.6375,39.395833333333336],[-119.54333333333334,39.452222222222225],[-119.51888888888888,39.46555555555556],[-119.41972222222223,39.52472222222222],[-119.3963888888889,39.5375],[-119.29638888888888,39.59666666666667],[-119.27277777777778,39.61027777777778],[-119.17166666666667,39.66916666666666],[-119.1538888888889,39.67944444444444],[-119.04805555555555,39.740833333333335],[-119.02583333333334,39.75361111111111],[-118.92277777777778,39.81305555555555],[-118.89916666666667,39.82666666666667],[-118.79583333333333,39.884166666666665],[-118.76972222222223,39.89527777777778],[-118.65666666666667,39.94166666666666],[-118.63,39.95277777777778],[-118.51805555555555,39.998333333333335],[-118.49333333333334,40.00833333333333],[-118.37805555555555,40.055],[-118.35527777777777,40.064166666666665],[-118.23944444444444,40.11083333333333],[-118.21583333333334,40.120555555555555],[-118.09944444444444,40.16694444444444],[-118.07694444444444,40.17611111111111],[-117.95444444444445,40.218333333333334],[-117.92944444444444,40.226111111111116],[-117.80888888888889,40.26222222222222],[-117.7825,40.27027777777778],[-117.66277777777778,40.30611111111111],[-117.63388888888889,40.31472222222222],[-117.51416666666667,40.35027777777778],[-117.48472222222222,40.35888888888889],[-117.36555555555555,40.39416666666666],[-117.33833333333332,40.40222222222222],[-117.21722222222222,40.4375],[-117.18777777777778,40.44611111111111],[-117.06694444444445,40.481388888888894],[-117.03722222222223,40.49],[-116.91305555555556,40.52611111111111],[-116.88361111111112,40.53444444444444],[-116.78999999999999,40.56166666666666],[-116.73305555555555,40.57805555555556],[-116.63833333333334,40.60527777777778],[-116.58083333333333,40.62166666666667],[-116.43083333333334,40.66416666666667],[-116.28222222222222,40.70638888888889],[-116.12944444444443,40.74944444444444],[-115.98277777777778,40.790277777777774],[-115.83305555555555,40.831944444444446],[-115.68527777777778,40.87305555555555],[-115.53527777777778,40.91416666666667],[-115.3863888888889,40.95472222222222],[-115.23722222222223,40.99527777777778],[-115.08833333333332,41.035555555555554],[-114.94055555555556,41.07527777777778],[-114.79277777777777,41.11472222222223],[-114.63527777777779,41.156388888888884],[-114.48583333333333,41.19583333333333],[-114.33749999999999,41.234722222222224],[-114.1888888888889,41.27333333333333],[-114.03916666666666,41.31194444444444],[-113.89055555555557,41.35027777777778],[-113.74444444444444,41.39416666666666],[-113.60111111111111,41.439166666666665],[-113.45666666666666,41.48444444444444],[-113.0213888888889,41.62],[-112.8761111111111,41.66444444444444],[-112.73055555555555,41.70916666666667],[-112.58194444444445,41.754444444444445],[-112.43388888888889,41.799166666666665],[-112.315,41.835],[-112.16694444444445,41.87916666666667],[-112.01638888888888,41.924166666666665],[-111.86694444444444,41.968333333333334],[-111.71277777777777,42.013888888888886],[-111.55972222222222,42.058611111111105],[-111.4075,42.10305555555556],[-111.25555555555556,42.14694444444444],[-111.1036111111111,42.190555555555555],[-110.95111111111112,42.23416666666667],[-110.79805555555555,42.277499999999996],[-110.64527777777778,42.32083333333334],[-110.49583333333334,42.36277777777778],[-110.34222222222222,42.40555555555555],[-110.18694444444445,42.448611111111106],[-110.03027777777778,42.49166666666667],[-109.87694444444443,42.53333333333333],[-109.7238888888889,42.57472222222223],[-109.57027777777778,42.615833333333335],[-109.41611111111112,42.65694444444444],[-109.26333333333334,42.697222222222216],[-109.11,42.737500000000004],[-108.95833333333334,42.77722222222222],[-108.83722222222222,42.80888888888889],[-108.80472222222222,42.816944444444445],[-108.68333333333334,42.84861111111111],[-108.65,42.856944444444444],[-108.52472222222222,42.88722222222222],[-108.49472222222222,42.89666666666667],[-108.37083333333332,42.92805555555555],[-108.33777777777777,42.93666666666666],[-108.21472222222222,42.967777777777776],[-108.18222222222222,42.975833333333334],[-108.0586111111111,43.00694444444444],[-108.0275,43.014722222222225],[-107.90333333333334,43.045833333333334],[-107.87027777777777,43.053888888888885],[-107.74666666666667,43.08444444444444],[-107.71305555555556,43.09277777777778],[-107.58888888888889,43.123333333333335],[-107.5586111111111,43.130833333333335],[-107.43305555555555,43.16166666666666],[-107.40222222222222,43.16888888888889],[-107.27722222222222,43.19944444444444],[-107.24666666666667,43.206944444444446],[-107.11999999999999,43.23722222222222],[-107.0886111111111,43.245],[-106.9625,43.275],[-106.92944444444444,43.283055555555556],[-106.79555555555555,43.31472222222222],[-106.76222222222222,43.32277777777778],[-106.63833333333334,43.35194444444445],[-106.60527777777777,43.359722222222224],[-106.48055555555555,43.388888888888886],[-106.44805555555556,43.39666666666667],[-106.32333333333332,43.425555555555555],[-106.28861111111111,43.433611111111105],[-106.16111111111111,43.463055555555556],[-106.12777777777777,43.47083333333334],[-105.99972222222222,43.49888888888889],[-105.96611111111112,43.50333333333333],[-105.83361111111111,43.518055555555556],[-105.7975,43.52194444444444],[-105.66416666666667,43.53638888888889],[-105.63166666666666,43.54],[-105.5,43.553888888888885],[-105.46527777777779,43.55777777777777],[-105.33416666666666,43.57138888888889],[-105.16444444444446,43.58916666666667],[-104.99833333333333,43.60611111111111],[-104.8325,43.62277777777778],[-104.66666666666667,43.63916666666667],[-104.49694444444445,43.65555555555555],[-104.3261111111111,43.67194444444444],[-104.15666666666667,43.68805555555555],[-103.98472222222222,43.70388888888889],[-103.81194444444444,43.719722222222224],[-103.64,43.73527777777778],[-103.46861111111112,43.750277777777775],[-103.29388888888889,43.76555555555556],[-103.16583333333334,43.78055555555555],[-102.98861111111111,43.79527777777778],[-102.94250000000001,43.794999999999995],[-102.72583333333334,43.812777777777775],[-102.62694444444443,43.82083333333334],[-102.54805555555555,43.82694444444445],[-102.44805555555556,43.835],[-102.36972222222222,43.84111111111111],[-102.1863888888889,43.855000000000004],[-102.08666666666666,43.862500000000004],[-102.01166666666667,43.86833333333333],[-101.89833333333334,43.876666666666665],[-101.82527777777777,43.88194444444444],[-101.71694444444445,43.88972222222222],[-101.64111111111112,43.89527777777778],[-101.5286111111111,43.903055555555554],[-101.45138888888889,43.90861111111111],[-101.26555555555555,43.921388888888885],[-101.15194444444445,43.928888888888885],[-101.0736111111111,43.93416666666666],[-100.9588888888889,43.94166666666666],[-100.88361111111112,43.946666666666665],[-100.77083333333333,43.95388888888889],[-100.69305555555556,43.95861111111111],[-100.57972222222222,43.965833333333336],[-100.34583333333333,43.980000000000004],[-100.14972222222222,43.99138888888889],[-99.94944444444445,44.01],[-99.75527777777778,44.047777777777775],[-99.5611111111111,44.08527777777778],[-99.36583333333333,44.1225],[-99.17333333333333,44.15861111111111],[-98.97805555555556,44.195277777777775],[-98.78,44.231944444444444],[-98.58333333333333,44.26777777777777],[-98.38833333333334,44.30305555555555],[-98.20083333333334,44.336666666666666],[-98.00472222222223,44.37138888888889],[-97.80555555555556,44.406388888888884],[-97.60944444444443,44.44027777777777],[-97.40666666666667,44.47527777777778],[-97.20805555555556,44.50888888888889],[-97.0111111111111,44.541666666666664],[-96.8086111111111,44.57527777777778],[-96.61055555555555,44.60777777777778],[-96.40777777777778,44.64055555555556],[-96.20694444444445,44.6725],[-96.045,44.69833333333333],[-95.80333333333333,44.736111111111114],[-95.60305555555556,44.76694444444444],[-95.40583333333333,44.79694444444444],[-95.20444444444445,44.827222222222225],[-95.0025,44.856944444444444],[-94.80055555555555,44.88666666666666],[-94.59888888888888,44.91583333333333],[-94.39472222222223,44.94499999999999],[-94.19527777777778,44.973055555555554],[-93.99388888888889,45.00277777777778],[-93.8411111111111,45.043055555555554],[-93.6111111111111,45.105000000000004],[-93.44027777777778,45.15083333333333],[-93.24777777777778,45.20166666666667],[-93.05694444444444,45.251666666666665],[-92.86305555555555,45.30222222222222],[-92.67305555555556,45.35138888888889],[-92.47805555555556,45.40138888888889],[-92.28444444444445,45.45055555555556],[-92.0886111111111,45.499722222222225],[-91.89500000000001,45.54805555555556],[-91.69944444444445,45.59666666666667],[-91.46166666666667,45.655],[-91.26555555555555,45.70277777777778],[-91.07083333333333,45.74944444444444],[-90.87805555555555,45.79555555555555],[-90.68861111111111,45.84027777777778],[-90.49333333333334,45.88611111111111],[-90.28833333333333,45.93388888888889],[-90.09083333333332,45.97944444444445],[-89.89583333333334,46.01],[-89.68916666666667,46.03],[-89.47722222222222,46.05],[-89.26972222222223,46.06916666666667],[-89.06555555555555,46.087500000000006],[-88.86361111111111,46.105555555555554],[-88.66277777777778,46.12305555555555],[-88.45583333333333,46.14055555555556],[-88.25305555555556,46.157222222222224],[-88.0461111111111,46.174166666666665],[-87.8411111111111,46.190555555555555],[-87.63527777777779,46.20638888888889],[-87.43083333333334,46.221944444444446],[-87.22722222222222,46.23694444444445],[-87.02222222222223,46.25194444444445],[-86.81861111111111,46.26611111111111],[-86.61138888888888,46.280277777777776],[-86.40416666666667,46.29416666666666],[-86.20333333333333,46.30722222222222],[-85.99666666666667,46.32027777777778],[-85.7936111111111,46.3325],[-85.58805555555556,46.344722222222224],[-85.37944444444443,46.356944444444444],[-85.17583333333334,46.36805555555556],[-84.96972222222223,46.37916666666667],[-84.76583333333333,46.39],[-84.55916666666667,46.400277777777774],[-84.35722222222222,46.41],[-84.15361111111112,46.413333333333334]]}
}
