{
  "id": 2048242109,
  "type": "Feature",
  "properties": {
    "geom:area": 0,
    "geom:bbox": "-122.756810,37.411660,-122.076400,38.442280",
    "geom:latitude": 37.784956257744106,
    "geom:longitude": -122.46166427593614,
    "src:alt_label": "swim-approach",
    "src:geom": "swim",
    "swim:elevations": [
      7620,
      7410,
      7139,
      6718,
      6547,
      6066,
      5786,
      5393,
      5079,
      4794,
      4503,
      4346,
      4268,
      3900,
      3721,
      3660,
      3353,
      3353,
      3353,
      3353,
      3353,
      3295,
      3159,
      2991,
      2805,
      2609,
      2491,
      2235,
      2090,
      1928,
      1857,
      1601,
      1559,
      1428,
      1373,
      1228,
      1093,
      841,
      667,
      556,
      455,
      340,
      248,
      125
    ],
    "swim:geom": "approach",
    "swim:timestamps": [
      1788440846,
      1788440866,
      1788440890,
      1788440931,
      1788440947,
      1788440993,
      1788441020,
      1788441058,
      1788441087,
      1788441115,
      1788441146,
      1788441172,
      1788441180,
      1788441233,
      1788441263,
      1788441271,
      1788441328,
      1788441351,
      1788441384,
      1788441416,
      1788441438,
      1788441455,
      1788441495,
      1788441531,
      1788441564,
      1788441596,
      1788441613,
      1788441654,
      1788441679,
      1788441714,
      1788441727,
      1788441774,
      1788441784,
      1788441816,
      1788441831,
      1788441862,
      1788441883,
      1788441915,
      1788441945,
      1788441969,
      1788441991,
      1788442034,
      1788442052,
      1788442080
    ],
    "wof:geomhash": "b24bab4124ef2decef61120baa4fbb49",
    "wof:id": 2048242109,
    "wof:repo": "sfomuseum-data-flights-2026-09"
  },
  "bbox": [
    -122.75681,
    37.41166,
    -122.0764,
    38.44228
  ],
  "geometry": {"type":"LineString","coordinates":[[-122.70667,38.44228],[-122.71667,38.40629],[-122.72876,38.36307],[-122.74869,38.29198],[-122.75681,38.26291],[-122.75507,38.18116],[-122.74065,38.13437],[-122.72206,38.0685],[-122.70817,38.01856],[-122.69443,37.97178],[-122.67969,37.92283],[-122.65811,37.88606],[-122.64854,37.87593],[-122.58374,37.81544],[-122.54943,37.78194],[-122.54071,37.77343],[-122.47564,37.71285],[-122.45264,37.6916],[-122.42153,37.66225],[-122.39193,37.63406],[-122.37108,37.61448],[-122.35737,37.59798],[-122.33761,37.55647],[-122.31536,37.52106],[-122.29558,37.48871],[-122.27571,37.45621],[-122.26549,37.43953],[-122.22414,37.41166],[-122.18845,37.41405],[-122.13813,37.41874],[-122.11994,37.42061],[-122.0764,37.45353],[-122.07883,37.4646],[-122.10171,37.49311],[-122.11284,37.50598],[-122.14324,37.52347],[-122.16565,37.53283],[-122.20062,37.54763],[-122.22954,37.56077],[-122.25149,37.56928],[-122.26974,37.5771],[-122.30482,37.59182],[-122.31939,37.59769],[-122.34056,37.60657]]}
}
