{
  "id": 2048446779,
  "type": "Feature",
  "properties": {
    "geom:area": 0,
    "geom:bbox": "-122.360000,37.492800,-121.274610,37.615160",
    "geom:latitude": 37.541924154136524,
    "geom:longitude": -121.82436250413288,
    "src:alt_label": "swim-approach",
    "src:geom": "swim",
    "swim:elevations": [
      4754,
      4681,
      4121,
      3858,
      3605,
      3395,
      3314,
      3102,
      2825,
      2744,
      2668,
      2432,
      2278,
      2095,
      2032,
      1841,
      1730,
      1545,
      1401,
      1157,
      1136,
      1008,
      892,
      757,
      579,
      547,
      374,
      230,
      208,
      97,
      19,
      209
    ],
    "swim:geom": "approach",
    "swim:timestamps": [
      1790545465,
      1790545471,
      1790545526,
      1790545552,
      1790545579,
      1790545618,
      1790545642,
      1790545667,
      1790545706,
      1790545724,
      1790545745,
      1790545784,
      1790545817,
      1790545848,
      1790545857,
      1790545888,
      1790545912,
      1790545946,
      1790545978,
      1790546008,
      1790546014,
      1790546067,
      1790546087,
      1790546118,
      1790546157,
      1790546166,
      1790546210,
      1790546248,
      1790546254,
      1790546289,
      1790546307,
      1790546313
    ],
    "wof:geomhash": "e9e34daeb3bb0b3229c89ec2f1f5c94b",
    "wof:id": 2048446779,
    "wof:repo": "sfomuseum-data-flights-2026-09"
  },
  "bbox": [
    -122.36,
    37.4928,
    -121.27461,
    37.61516
  ],
  "geometry": {"type":"LineString","coordinates":[[-121.27461,37.59121],[-121.28627,37.58967],[-121.39261,37.57786],[-121.44307,37.57194],[-121.49419,37.56589],[-121.56646,37.5575],[-121.60647,37.55286],[-121.64677,37.54549],[-121.70907,37.53042],[-121.73676,37.52386],[-121.76698,37.51674],[-121.82105,37.50373],[-121.86736,37.4928],[-121.90992,37.49308],[-121.92178,37.4937],[-121.96229,37.49593],[-121.99376,37.49772],[-122.03675,37.50014],[-122.07613,37.50233],[-122.10973,37.50954],[-122.11594,37.51209],[-122.17184,37.53556],[-122.19145,37.54381],[-122.22063,37.5561],[-122.25443,37.57032],[-122.26197,37.57349],[-122.29301,37.58654],[-122.31805,37.59712],[-122.32201,37.59878],[-122.34472,37.60832],[-122.35662,37.61327],[-122.36,37.61516]]}
}
