{
  "id": 2048357627,
  "type": "Feature",
  "properties": {
    "geom:area": 0,
    "geom:bbox": "-122.359190,37.439640,-121.251620,37.611800",
    "geom:latitude": 37.52656789502929,
    "geom:longitude": -121.81250369912709,
    "src:alt_label": "swim-approach",
    "src:geom": "swim",
    "swim:elevations": [
      4855,
      4806,
      4521,
      4223,
      4030,
      3766,
      3301,
      3173,
      3084,
      3034,
      2878,
      2629,
      2521,
      2230,
      2135,
      2134,
      2106,
      1920,
      1850,
      1852,
      1746,
      1573,
      1397,
      1255,
      1096,
      1002,
      851,
      730,
      598,
      461,
      307,
      276,
      185,
      0
    ],
    "swim:geom": "approach",
    "swim:timestamps": [
      1789637245,
      1789637250,
      1789637277,
      1789637308,
      1789637327,
      1789637352,
      1789637397,
      1789637419,
      1789637448,
      1789637463,
      1789637502,
      1789637535,
      1789637550,
      1789637591,
      1789637624,
      1789637665,
      1789637688,
      1789637719,
      1789637736,
      1789637778,
      1789637798,
      1789637830,
      1789637855,
      1789637893,
      1789637934,
      1789637953,
      1789637987,
      1789638015,
      1789638045,
      1789638076,
      1789638116,
      1789638126,
      1789638151,
      1789638196
    ],
    "wof:geomhash": "7dbc5b208a85c1347b6be22fbfe015f3",
    "wof:id": 2048357627,
    "wof:repo": "sfomuseum-data-flights-2026-09"
  },
  "bbox": [
    -122.35919,
    37.43964,
    -121.25162,
    37.6118
  ],
  "geometry": {"type":"LineString","coordinates":[[-121.25162,37.59424],[-121.26048,37.5931],[-121.30826,37.58728],[-121.36414,37.58112],[-121.39819,37.57715],[-121.44306,37.57182],[-121.52388,37.56247],[-121.56347,37.55785],[-121.61131,37.55219],[-121.63416,37.5483],[-121.68847,37.53536],[-121.72645,37.51832],[-121.73536,37.50401],[-121.75895,37.46257],[-121.79768,37.4473],[-121.8512,37.44419],[-121.88183,37.44223],[-121.92248,37.43989],[-121.94447,37.43964],[-121.99403,37.45799],[-122.01672,37.46766],[-122.05302,37.48317],[-122.07849,37.49394],[-122.11248,37.50818],[-122.14867,37.52351],[-122.16571,37.53066],[-122.19471,37.54291],[-122.21922,37.55325],[-122.24529,37.56425],[-122.26948,37.5744],[-122.29912,37.58681],[-122.30618,37.58978],[-122.32546,37.59792],[-122.35919,37.6118]]}
}
