{
  "id": 2048330999,
  "type": "Feature",
  "properties": {
    "geom:area": 0,
    "geom:bbox": "-122.401330,37.630810,-121.272110,37.960650",
    "geom:latitude": 37.83153594928437,
    "geom:longitude": -121.85256763814311,
    "src:alt_label": "swim-takeoff",
    "src:geom": "swim",
    "swim:elevations": [
      352,
      540,
      1091,
      1285,
      1465,
      1833,
      2186,
      2689,
      2738,
      2878,
      3092,
      3338,
      3432,
      3890,
      4124,
      4356,
      4605,
      4868,
      5244,
      5562,
      5736,
      5881,
      5986,
      6264,
      6284
    ],
    "swim:geom": "takeoff",
    "swim:timestamps": [
      1789288852,
      1789288866,
      1789288915,
      1789288946,
      1789288964,
      1789288990,
      1789289020,
      1789289061,
      1789289065,
      1789289075,
      1789289094,
      1789289124,
      1789289138,
      1789289180,
      1789289202,
      1789289225,
      1789289261,
      1789289290,
      1789289327,
      1789289366,
      1789289389,
      1789289407,
      1789289421,
      1789289456,
      1789289460
    ],
    "wof:geomhash": "148150ad71c1865f6b82c8c57b7c5e7f",
    "wof:id": 2048330999,
    "wof:repo": "sfomuseum-data-flights-2026-09"
  },
  "bbox": [
    -122.40133,
    37.63081,
    -121.27211,
    37.96065
  ],
  "geometry": {"type":"LineString","coordinates":[[-122.39813,37.63081],[-122.40133,37.6405],[-122.36649,37.66673],[-122.32871,37.67888],[-122.30422,37.6877],[-122.26669,37.70068],[-122.22138,37.71608],[-122.15947,37.74545],[-122.15423,37.74828],[-122.13872,37.75647],[-122.10914,37.7717],[-122.06091,37.79803],[-122.03704,37.81046],[-121.95324,37.83598],[-121.90523,37.84496],[-121.85541,37.85443],[-121.77431,37.86882],[-121.704,37.88154],[-121.61306,37.89831],[-121.51798,37.91585],[-121.45758,37.92686],[-121.41254,37.93516],[-121.37398,37.94211],[-121.28042,37.95915],[-121.27211,37.96065]]}
}
