{
  "id": 2048428805,
  "type": "Feature",
  "properties": {
    "geom:area": 0,
    "geom:bbox": "-123.399722,37.433333,-122.100000,47.430556",
    "geom:latitude": 42.49205380843097,
    "geom:longitude": -123.05242675937292,
    "src:alt_label": "swim-path",
    "src:geom": "swim",
    "swim:altitudes": [
      "009",
      "026",
      "029",
      "042",
      "067",
      "097",
      "116",
      "141",
      "168",
      "194",
      "222",
      "242",
      "259",
      "276",
      "292",
      "315",
      "333",
      "343",
      "350C",
      "350C",
      "350C",
      "350C",
      "350C",
      "350C",
      "350C",
      "350C",
      "350C",
      "350C",
      "350C",
      "350C",
      "350C",
      "350C",
      "350C",
      "350C",
      "350C",
      "350C",
      "350C",
      "350C",
      "350C",
      "350C",
      "350C",
      "350C",
      "350C",
      "350C",
      "350C",
      "350C",
      "350C",
      "350C",
      "350C",
      "350C",
      "350C",
      "350C",
      "350C",
      "350C",
      "350C",
      "350C",
      "350C",
      "350C",
      "350C",
      "350C",
      "350C",
      "350C",
      "350C",
      "350C",
      "350C",
      "350C",
      "350C",
      "350C",
      "350C",
      "350C",
      "350C",
      "350C",
      "350C",
      "350C",
      "350C",
      "350",
      "350",
      "350",
      "350",
      "350",
      "350",
      "339",
      "312",
      "290",
      "268",
      "248",
      "228",
      "207",
      "186",
      "177",
      "168",
      "158",
      "149",
      "139",
      "132",
      "123",
      "115",
      "110",
      "109C",
      "110",
      "109C",
      "110",
      "104",
      "098",
      "094",
      "088",
      "082",
      "072",
      "066",
      "056",
      "052",
      "047",
      "045",
      "038",
      "037",
      "030",
      "027",
      "022",
      "017",
      "013",
      "010",
      "006",
      "002"
    ],
    "swim:geom": "path",
    "swim:speeds": [
      176,
      187,
      216,
      243,
      259,
      265,
      301,
      330,
      353,
      370,
      383,
      385,
      402,
      429,
      440,
      436,
      424,
      424,
      429,
      432,
      432,
      430,
      430,
      429,
      429,
      427,
      426,
      423,
      421,
      421,
      420,
      419,
      417,
      414,
      413,
      416,
      418,
      419,
      419,
      419,
      419,
      420,
      419,
      418,
      418,
      419,
      420,
      419,
      419,
      419,
      419,
      419,
      418,
      418,
      417,
      417,
      416,
      414,
      414,
      413,
      413,
      414,
      416,
      417,
      419,
      422,
      424,
      426,
      427,
      429,
      430,
      431,
      431,
      430,
      429,
      428,
      427,
      426,
      427,
      429,
      430,
      432,
      433,
      423,
      408,
      395,
      386,
      381,
      372,
      360,
      358,
      348,
      347,
      344,
      345,
      339,
      337,
      315,
      314,
      303,
      293,
      262,
      260,
      244,
      247,
      242,
      242,
      246,
      243,
      236,
      239,
      211,
      203,
      183,
      184,
      187,
      183,
      178,
      176,
      140,
      143,
      144,
      140
    ],
    "swim:timestamps": [
      1790400603,
      1790400657,
      1790400669,
      1790400717,
      1790400777,
      1790400837,
      1790400897,
      1790400957,
      1790401017,
      1790401077,
      1790401137,
      1790401197,
      1790401257,
      1790401317,
      1790401377,
      1790401437,
      1790401497,
      1790401557,
      1790401617,
      1790401677,
      1790401737,
      1790401797,
      1790401857,
      1790401917,
      1790401977,
      1790402037,
      1790402097,
      1790402158,
      1790402218,
      1790402278,
      1790402338,
      1790402398,
      1790402458,
      1790402518,
      1790402578,
      1790402638,
      1790402698,
      1790402758,
      1790402818,
      1790402878,
      1790402938,
      1790402998,
      1790403058,
      1790403118,
      1790403178,
      1790403238,
      1790403296,
      1790403358,
      1790403418,
      1790403478,
      1790403538,
      1790403598,
      1790403658,
      1790403716,
      1790403778,
      1790403838,
      1790403896,
      1790403958,
      1790404018,
      1790404076,
      1790404138,
      1790404198,
      1790404256,
      1790404319,
      1790404379,
      1790404436,
      1790404499,
      1790404559,
      1790404616,
      1790404679,
      1790404739,
      1790404799,
      1790404857,
      1790404919,
      1790404979,
      1790405039,
      1790405097,
      1790405157,
      1790405217,
      1790405277,
      1790405337,
      1790405397,
      1790405457,
      1790405517,
      1790405577,
      1790405637,
      1790405697,
      1790405757,
      1790405817,
      1790405842,
      1790405877,
      1790405902,
      1790405937,
      1790405962,
      1790405997,
      1790406017,
      1790406057,
      1790406082,
      1790406117,
      1790406143,
      1790406177,
      1790406197,
      1790406237,
      1790406263,
      1790406297,
      1790406323,
      1790406357,
      1790406383,
      1790406417,
      1790406449,
      1790406477,
      1790406509,
      1790406537,
      1790406569,
      1790406597,
      1790406623,
      1790406657,
      1790406677,
      1790406717,
      1790406743,
      1790406777,
      1790406803,
      1790406838
    ],
    "wof:geomhash": "8226913b0f9787d79478e00179dc7746",
    "wof:id": 2048428805,
    "wof:repo": "sfomuseum-data-flights-2026-09"
  },
  "bbox": [
    -123.39972222222222,
    37.43333333333333,
    -122.1,
    47.43055555555555
  ],
  "geometry": {"type":"LineString","coordinates":[[-122.30972222222222,47.43055555555555],[-122.30833333333334,47.38861111111111],[-122.30888888888889,47.3725],[-122.32416666666666,47.327222222222225],[-122.42444444444445,47.30777777777777],[-122.53416666666666,47.30916666666666],[-122.64888888888889,47.312777777777775],[-122.78194444444445,47.31166666666666],[-122.91777777777779,47.27638888888889],[-123.04888888888888,47.23277777777778],[-123.14472222222223,47.14833333333333],[-123.23111111111112,47.06805555555556],[-123.32888888888888,46.9775],[-123.39972222222222,46.87444444444444],[-123.39694444444446,46.7525],[-123.39277777777778,46.63138888888889],[-123.38916666666667,46.51361111111111],[-123.38555555555556,46.390277777777776],[-123.38166666666666,46.270833333333336],[-123.37805555555555,46.15083333333333],[-123.37416666666665,46.03],[-123.37055555555555,45.91138888888889],[-123.36694444444444,45.7925],[-123.36361111111111,45.67388888888889],[-123.36027777777777,45.55444444444444],[-123.35666666666665,45.43444444444444],[-123.35222222222221,45.31666666666667],[-123.34916666666666,45.200833333333335],[-123.34583333333333,45.08361111111111],[-123.34305555555555,44.96527777777778],[-123.33916666666666,44.845555555555556],[-123.33611111111111,44.75],[-123.33277777777778,44.63472222222222],[-123.32916666666667,44.519444444444446],[-123.32527777777777,44.40555555555555],[-123.32055555555556,44.28944444444444],[-123.31583333333333,44.171388888888885],[-123.3111111111111,44.05611111111111],[-123.30555555555556,43.92222222222222],[-123.30111111111111,43.805],[-123.29722222222222,43.68861111111111],[-123.2925,43.57194444444445],[-123.2875,43.45666666666667],[-123.28305555555555,43.34],[-123.27833333333334,43.222500000000004],[-123.27388888888889,43.10611111111111],[-123.26777777777778,42.99472222222222],[-123.265,42.8725],[-123.26083333333334,42.757222222222225],[-123.25666666666666,42.64666666666667],[-123.2525,42.53138888888889],[-123.24777777777778,42.41555555555556],[-123.24333333333334,42.29944444444444],[-123.23944444444444,42.18388888888889],[-123.23527777777778,42.069722222222225],[-123.23111111111112,41.95416666666667],[-123.22666666666667,41.839444444444446],[-123.21861111111112,41.723888888888894],[-123.20305555555557,41.61027777777778],[-123.18777777777778,41.496944444444445],[-123.17277777777778,41.38305555555556],[-123.1563888888889,41.26277777777778],[-123.14277777777778,41.16361111111111],[-123.12527777777777,41.030833333333334],[-123.10972222222222,40.9125],[-123.09416666666667,40.79555555555555],[-123.07805555555555,40.67222222222222],[-123.0625,40.55472222222222],[-123.04722222222222,40.43694444444444],[-123.03194444444445,40.31944444444445],[-123.01638888888888,40.198055555555555],[-123.00083333333333,40.07833333333333],[-122.98583333333333,39.962500000000006],[-122.97,39.84],[-122.95472222222223,39.72083333333334],[-122.93972222222223,39.603611111111114],[-122.92555555555556,39.490833333333335],[-122.91083333333334,39.37722222222222],[-122.89611111111111,39.257777777777775],[-122.88111111111111,39.138888888888886],[-122.86583333333333,39.01972222222222],[-122.85083333333333,38.89805555555556],[-122.83611111111111,38.77833333333333],[-122.82166666666666,38.66166666666666],[-122.80722222222222,38.54722222222222],[-122.79388888888889,38.43805555555555],[-122.78083333333333,38.33361111111111],[-122.76777777777778,38.2275],[-122.73833333333333,38.12416666666667],[-122.71666666666667,38.083333333333336],[-122.71138888888889,38.03111111111111],[-122.7,37.983333333333334],[-122.685,37.939166666666665],[-122.66666666666667,37.88333333333333],[-122.63083333333333,37.85944444444445],[-122.6,37.81666666666667],[-122.55666666666666,37.78944444444444],[-122.51666666666667,37.75],[-122.48555555555555,37.72222222222222],[-122.45,37.68333333333333],[-122.41833333333334,37.659166666666664],[-122.38333333333334,37.63333333333333],[-122.36027777777777,37.60194444444445],[-122.33333333333333,37.56666666666667],[-122.32666666666667,37.53972222222222],[-122.3,37.5],[-122.27388888888889,37.490833333333335],[-122.23333333333333,37.46666666666667],[-122.19972222222222,37.45805555555556],[-122.15,37.43333333333333],[-122.12444444444444,37.43583333333333],[-122.1,37.46666666666667],[-122.10583333333332,37.484722222222224],[-122.13333333333334,37.516666666666666],[-122.14722222222223,37.525],[-122.18333333333334,37.53333333333333],[-122.20361111111112,37.54888888888889],[-122.23333333333333,37.56666666666667],[-122.25861111111111,37.57194444444445],[-122.28333333333333,37.583333333333336],[-122.30305555555556,37.590833333333336],[-122.33333333333333,37.6],[-122.34694444444445,37.60916666666667]]}
}
