{
  "id": 2048322963,
  "type": "Feature",
  "properties": {
    "geom:area": 0,
    "geom:bbox": "-122.357630,37.491960,-121.276850,37.613920",
    "geom:latitude": 37.545669207746634,
    "geom:longitude": -121.82207380559888,
    "src:alt_label": "swim-approach",
    "src:geom": "swim",
    "swim:elevations": [
      4743,
      4636,
      4287,
      3946,
      3855,
      3591,
      3322,
      3108,
      3030,
      2899,
      2552,
      2362,
      2337,
      1972,
      1828,
      1618,
      1586,
      1356,
      1156,
      989,
      908,
      774,
      667,
      539,
      365,
      213,
      182,
      25,
      64
    ],
    "swim:geom": "approach",
    "swim:timestamps": [
      1789323805,
      1789323816,
      1789323852,
      1789323888,
      1789323900,
      1789323932,
      1789323985,
      1789324017,
      1789324032,
      1789324055,
      1789324102,
      1789324138,
      1789324141,
      1789324185,
      1789324206,
      1789324246,
      1789324260,
      1789324316,
      1789324347,
      1789324371,
      1789324407,
      1789324427,
      1789324441,
      1789324479,
      1789324516,
      1789324559,
      1789324572,
      1789324616,
      1789324620
    ],
    "wof:geomhash": "6a51720729099bb882704551081e67bf",
    "wof:id": 2048322963,
    "wof:repo": "sfomuseum-data-flights-2026-09"
  },
  "bbox": [
    -122.35763,
    37.49196,
    -121.27685,
    37.61392
  ],
  "geometry": {"type":"LineString","coordinates":[[-121.27685,37.59089],[-121.29761,37.5883],[-121.36713,37.5807],[-121.43442,37.57311],[-121.45661,37.57052],[-121.51427,37.56367],[-121.6022,37.55338],[-121.65387,37.54376],[-121.6774,37.53807],[-121.71204,37.52991],[-121.78237,37.51304],[-121.83517,37.50038],[-121.83962,37.49934],[-121.90327,37.49196],[-121.93271,37.4925],[-121.98637,37.495],[-122.00322,37.49986],[-122.07224,37.52219],[-122.11017,37.53443],[-122.1391,37.54382],[-122.18027,37.55707],[-122.20268,37.56428],[-122.21722,37.5689],[-122.25455,37.581],[-122.28863,37.59115],[-122.31789,37.59989],[-122.32664,37.60239],[-122.35498,37.61259],[-122.35763,37.61392]]}
}
