{
  "id": 2048457817,
  "type": "Feature",
  "properties": {
    "geom:area": 0,
    "geom:bbox": "-122.357650,37.491340,-121.262300,37.613680",
    "geom:latitude": 37.54590171995397,
    "geom:longitude": -121.8148281322799,
    "src:alt_label": "swim-approach",
    "src:geom": "swim",
    "swim:elevations": [
      4551,
      4364,
      4010,
      3952,
      3772,
      3616,
      3363,
      3267,
      3036,
      2809,
      2499,
      2404,
      2198,
      2047,
      1854,
      1829,
      1605,
      1379,
      1119,
      1010,
      992,
      973,
      867,
      666,
      516,
      378,
      336,
      248,
      242,
      179,
      59,
      0
    ],
    "swim:geom": "approach",
    "swim:timestamps": [
      1790633663,
      1790633684,
      1790633725,
      1790633732,
      1790633750,
      1790633768,
      1790633799,
      1790633826,
      1790633867,
      1790633903,
      1790633934,
      1790633959,
      1790633993,
      1790634011,
      1790634046,
      1790634075,
      1790634117,
      1790634147,
      1790634176,
      1790634192,
      1790634207,
      1790634213,
      1790634250,
      1790634286,
      1790634328,
      1790634354,
      1790634369,
      1790634388,
      1790634391,
      1790634409,
      1790634442,
      1790634454
    ],
    "wof:geomhash": "4ff2d9f83f796f0c3a936b0db3060f0f",
    "wof:id": 2048457817,
    "wof:repo": "sfomuseum-data-flights-2026-09"
  },
  "bbox": [
    -122.35765,
    37.49134,
    -121.2623,
    37.61368
  ],
  "geometry": {"type":"LineString","coordinates":[[-121.2623,37.59249],[-121.30846,37.5867],[-121.39386,37.5773],[-121.40758,37.57572],[-121.44577,37.57143],[-121.48226,37.56724],[-121.5438,37.55993],[-121.59492,37.55392],[-121.66693,37.54036],[-121.72637,37.52612],[-121.77448,37.51462],[-121.81385,37.50524],[-121.8661,37.49274],[-121.89411,37.49134],[-121.94692,37.49277],[-121.98931,37.49573],[-122.04089,37.51196],[-122.07855,37.52404],[-122.11383,37.53544],[-122.13202,37.54101],[-122.14844,37.54614],[-122.15472,37.54816],[-122.19129,37.56069],[-122.22616,37.57184],[-122.26408,37.58372],[-122.28396,37.58982],[-122.29542,37.59344],[-122.30953,37.5977],[-122.31186,37.5984],[-122.32563,37.60232],[-122.34978,37.61035],[-122.35765,37.61368]]}
}
