{
  "id": 2048391371,
  "type": "Feature",
  "properties": {
    "geom:area": 0,
    "geom:bbox": "-122.526630,37.623560,-121.247010,38.388190",
    "geom:latitude": 38.03621963128927,
    "geom:longitude": -121.97887937317282,
    "src:alt_label": "swim-takeoff",
    "src:geom": "swim",
    "swim:elevations": [
      152,
      527,
      871,
      1087,
      1219,
      1491,
      1930,
      2374,
      2777,
      3174,
      3437,
      3645,
      3857,
      4015,
      4604,
      4826,
      5272,
      5427,
      5763,
      6026,
      6359,
      6433,
      6811,
      6983,
      7289,
      7392,
      7623,
      7876,
      8011,
      8179,
      8359
    ],
    "swim:geom": "takeoff",
    "swim:timestamps": [
      1789967518,
      1789967548,
      1789967578,
      1789967608,
      1789967638,
      1789967668,
      1789967698,
      1789967728,
      1789967758,
      1789967788,
      1789967818,
      1789967848,
      1789967878,
      1789967893,
      1789967936,
      1789967951,
      1789967993,
      1789968008,
      1789968050,
      1789968078,
      1789968112,
      1789968121,
      1789968168,
      1789968191,
      1789968233,
      1789968248,
      1789968281,
      1789968326,
      1789968347,
      1789968373,
      1789968396
    ],
    "wof:geomhash": "6b29b27e02bcd3ac5b18de020255dfb7",
    "wof:id": 2048391371,
    "wof:repo": "sfomuseum-data-flights-2026-09"
  },
  "bbox": [
    -122.52663,
    37.62356,
    -121.24701,
    38.38819
  ],
  "geometry": {"type":"LineString","coordinates":[[-122.38647,37.62356],[-122.41001,37.63381],[-122.4335,37.64429],[-122.46138,37.65604],[-122.49557,37.67085],[-122.52322,37.69967],[-122.52651,37.73851],[-122.52663,37.77821],[-122.50298,37.81215],[-122.45744,37.83023],[-122.40975,37.8495],[-122.36021,37.87355],[-122.30673,37.8993],[-122.27911,37.91258],[-122.1985,37.9514],[-122.17097,37.965],[-122.09243,38.00217],[-122.064,38.01564],[-121.98234,38.055],[-121.92755,38.08139],[-121.8576,38.11478],[-121.83944,38.12342],[-121.74458,38.1687],[-121.69708,38.19118],[-121.60831,38.23323],[-121.57652,38.24823],[-121.50623,38.28133],[-121.40817,38.32647],[-121.35957,38.34468],[-121.30074,38.36713],[-121.24701,38.38819]]}
}
