{
  "id": 2048356615,
  "type": "Feature",
  "properties": {
    "geom:area": 0,
    "geom:bbox": "-122.562750,36.720650,-122.296310,37.670250",
    "geom:latitude": 37.22089494271322,
    "geom:longitude": -122.50281339870257,
    "src:alt_label": "swim-takeoff",
    "src:geom": "swim",
    "swim:elevations": [
      152,
      537,
      923,
      1140,
      1886,
      2028,
      2982,
      3465,
      3604,
      4213,
      4906,
      5493,
      5790,
      5820,
      6009,
      6506,
      6983,
      7010,
      7010,
      7010,
      7010,
      7010,
      7010,
      7010,
      7010,
      7010
    ],
    "swim:geom": "takeoff",
    "swim:timestamps": [
      1789595253,
      1789595275,
      1789595303,
      1789595324,
      1789595366,
      1789595375,
      1789595424,
      1789595457,
      1789595469,
      1789595510,
      1789595546,
      1789595572,
      1789595603,
      1789595633,
      1789595651,
      1789595677,
      1789595711,
      1789595752,
      1789595780,
      1789595806,
      1789595845,
      1789595867,
      1789595876,
      1789595897,
      1789595934,
      1789595953
    ],
    "wof:geomhash": "569ef733f2e04bbd03fcfb31745a1869",
    "wof:id": 2048356615,
    "wof:repo": "sfomuseum-data-flights-2026-09"
  },
  "bbox": [
    -122.56275,
    36.72065,
    -122.29631,
    37.67025
  ],
  "geometry": {"type":"LineString","coordinates":[[-122.38589,37.62331],[-122.40419,37.63145],[-122.42672,37.64121],[-122.44678,37.64942],[-122.49608,37.67011],[-122.50914,37.67025],[-122.54838,37.62655],[-122.5488,37.5809],[-122.54909,37.56283],[-122.55075,37.49673],[-122.55274,37.43512],[-122.55376,37.3897],[-122.55519,37.3394],[-122.55654,37.28792],[-122.55752,37.25517],[-122.55877,37.20635],[-122.56028,37.14611],[-122.56275,37.06698],[-122.55782,37.01338],[-122.53379,36.965],[-122.48095,36.89722],[-122.44392,36.86123],[-122.42857,36.84652],[-122.39247,36.81224],[-122.32837,36.75127],[-122.29631,36.72065]]}
}
