{
  "id": 2048237627,
  "type": "Feature",
  "properties": {
    "geom:area": 0,
    "geom:bbox": "-122.358120,36.762910,-121.899670,37.611730",
    "geom:latitude": 37.25624660191751,
    "geom:longitude": -122.10055889247634,
    "src:alt_label": "swim-approach",
    "src:geom": "swim",
    "swim:elevations": [
      5210,
      5079,
      4849,
      4567,
      4334,
      4217,
      3948,
      3476,
      3386,
      3023,
      2981,
      2847,
      2823,
      2484,
      2407,
      2087,
      1936,
      1829,
      1829,
      1755,
      1424,
      1323,
      1217,
      1219,
      1219,
      1219,
      1175,
      1015,
      915,
      839,
      628,
      575,
      410,
      318,
      258,
      142,
      59
    ],
    "swim:geom": "approach",
    "swim:timestamps": [
      1788463498,
      1788463511,
      1788463534,
      1788463564,
      1788463587,
      1788463599,
      1788463628,
      1788463678,
      1788463688,
      1788463737,
      1788463748,
      1788463797,
      1788463801,
      1788463853,
      1788463867,
      1788463898,
      1788463924,
      1788463975,
      1788463987,
      1788464019,
      1788464061,
      1788464090,
      1788464125,
      1788464158,
      1788464188,
      1788464198,
      1788464235,
      1788464270,
      1788464295,
      1788464315,
      1788464366,
      1788464380,
      1788464428,
      1788464451,
      1788464464,
      1788464498,
      1788464532
    ],
    "wof:geomhash": "359bb07b831e35190716e3404ace9b26",
    "wof:id": 2048237627,
    "wof:repo": "sfomuseum-data-flights-2026-09"
  },
  "bbox": [
    -122.35812,
    36.76291,
    -121.89967,
    37.61173
  ],
  "geometry": {"type":"LineString","coordinates":[[-121.89967,36.76291],[-121.90587,36.78382],[-121.9167,36.82197],[-121.93013,36.86979],[-121.94054,36.90703],[-121.94592,36.92645],[-121.96037,36.97043],[-121.98933,37.04485],[-121.99494,37.05917],[-122.02138,37.12925],[-122.02697,37.14341],[-122.0772,37.18775],[-122.08159,37.19058],[-122.13772,37.22606],[-122.15272,37.23546],[-122.18514,37.257],[-122.20097,37.28327],[-122.22757,37.33621],[-122.22912,37.34947],[-122.20435,37.37849],[-122.15741,37.40739],[-122.12249,37.4225],[-122.08476,37.43973],[-122.06809,37.46705],[-122.08286,37.49116],[-122.09122,37.49734],[-122.124,37.51326],[-122.15524,37.52622],[-122.1759,37.535],[-122.19208,37.54178],[-122.23438,37.55959],[-122.24485,37.56407],[-122.27987,37.57871],[-122.29722,37.586],[-122.30745,37.59029],[-122.33369,37.60138],[-122.35812,37.61173]]}
}
