{
  "id": 2048336571,
  "type": "Feature",
  "properties": {
    "geom:area": 0,
    "geom:bbox": "-122.406580,37.631640,-121.246020,37.965340",
    "geom:latitude": 37.83329769753732,
    "geom:longitude": -121.84336373891416,
    "src:alt_label": "swim-takeoff",
    "src:geom": "swim",
    "swim:elevations": [
      386,
      536,
      614,
      651,
      816,
      1264,
      1569,
      1912,
      2366,
      2428,
      2726,
      2950,
      3200,
      3372,
      3492,
      3750,
      3897,
      4194,
      4507,
      4763,
      4850,
      5113,
      5286,
      5427,
      5609,
      5751
    ],
    "swim:geom": "takeoff",
    "swim:timestamps": [
      1789422950,
      1789422968,
      1789422986,
      1789422992,
      1789423025,
      1789423070,
      1789423092,
      1789423126,
      1789423164,
      1789423170,
      1789423197,
      1789423217,
      1789423245,
      1789423286,
      1789423310,
      1789423346,
      1789423360,
      1789423396,
      1789423432,
      1789423464,
      1789423480,
      1789423512,
      1789423536,
      1789423556,
      1789423580,
      1789423602
    ],
    "wof:geomhash": "f7cee2ee6d87ebaa99a8a1f0a9efc7da",
    "wof:id": 2048336571,
    "wof:repo": "sfomuseum-data-flights-2026-09"
  },
  "bbox": [
    -122.40658,
    37.63164,
    -121.24602,
    37.96534
  ],
  "geometry": {"type":"LineString","coordinates":[[-122.40125,37.63164],[-122.40658,37.64474],[-122.39661,37.6569],[-122.39007,37.65975],[-122.35035,37.67171],[-122.2869,37.69247],[-122.25626,37.703],[-122.20649,37.72154],[-122.15342,37.74935],[-122.14492,37.75373],[-122.10656,37.77364],[-122.07799,37.78837],[-122.03675,37.80955],[-121.96511,37.83332],[-121.91696,37.84223],[-121.8395,37.85673],[-121.81043,37.86218],[-121.73029,37.87704],[-121.64925,37.8919],[-121.57738,37.90513],[-121.54044,37.91188],[-121.46427,37.92576],[-121.40618,37.93634],[-121.35921,37.94487],[-121.2994,37.95574],[-121.24602,37.96534]]}
}
