{
  "id": 2048476825,
  "type": "Feature",
  "properties": {
    "geom:area": 0,
    "geom:bbox": "-122.354370,37.640260,-121.318040,38.380990",
    "geom:latitude": 38.018914624942525,
    "geom:longitude": -121.84397628057232,
    "src:alt_label": "swim-takeoff",
    "src:geom": "swim",
    "swim:elevations": [
      384,
      576,
      899,
      979,
      1153,
      1350,
      1697,
      1941,
      2143,
      2657,
      2890,
      3203,
      3357,
      3927,
      4457,
      4719,
      4768,
      5131,
      5376,
      5912,
      6091,
      6411,
      6531,
      6655
    ],
    "swim:geom": "takeoff",
    "swim:timestamps": [
      1790763295,
      1790763321,
      1790763355,
      1790763362,
      1790763393,
      1790763419,
      1790763446,
      1790763465,
      1790763483,
      1790763531,
      1790763553,
      1790763590,
      1790763625,
      1790763688,
      1790763746,
      1790763777,
      1790763783,
      1790763823,
      1790763852,
      1790763915,
      1790763937,
      1790763986,
      1790764003,
      1790764020
    ],
    "wof:geomhash": "d22b5df1673a8a5fa600f6edd0a6de41",
    "wof:id": 2048476825,
    "wof:repo": "sfomuseum-data-flights-2026-09"
  },
  "bbox": [
    -122.35437,
    37.64026,
    -121.31804,
    38.38099
  ],
  "geometry": {"type":"LineString","coordinates":[[-122.35437,37.64026],[-122.33293,37.65263],[-122.30103,37.67139],[-122.29333,37.67594],[-122.2597,37.69487],[-122.22787,37.71102],[-122.19876,37.73567],[-122.18136,37.75519],[-122.16451,37.77337],[-122.11914,37.82331],[-122.09725,37.84763],[-122.0559,37.88858],[-122.00324,37.92364],[-121.90222,37.99245],[-121.80662,38.05695],[-121.75337,38.09273],[-121.74318,38.0996],[-121.67521,38.14535],[-121.62318,38.18023],[-121.51173,38.25477],[-121.473,38.28071],[-121.3828,38.34077],[-121.35236,38.3603],[-121.31804,38.38099]]}
}
