{
  "id": 2048400483,
  "type": "Feature",
  "properties": {
    "geom:area": 0,
    "geom:bbox": "-122.410700,37.626390,-121.253670,38.164140",
    "geom:latitude": 37.98740932753075,
    "geom:longitude": -121.94518610900518,
    "src:alt_label": "swim-takeoff",
    "src:geom": "swim",
    "swim:elevations": [
      122,
      489,
      728,
      915,
      1155,
      1300,
      1714,
      1966,
      2290,
      2732,
      3042,
      3209,
      3364,
      3428,
      3673,
      4055,
      4272,
      4568,
      4697,
      4913,
      5213,
      5315,
      5654,
      5875,
      5965,
      6291,
      6521,
      6681,
      6879,
      6982
    ],
    "swim:geom": "takeoff",
    "swim:timestamps": [
      1790032047,
      1790032078,
      1790032105,
      1790032123,
      1790032164,
      1790032188,
      1790032228,
      1790032245,
      1790032275,
      1790032312,
      1790032345,
      1790032373,
      1790032404,
      1790032416,
      1790032443,
      1790032485,
      1790032510,
      1790032543,
      1790032558,
      1790032582,
      1790032618,
      1790032632,
      1790032672,
      1790032704,
      1790032716,
      1790032763,
      1790032793,
      1790032823,
      1790032856,
      1790032874
    ],
    "wof:geomhash": "ade884c17cd4f2313039aa4fdbb491b8",
    "wof:id": 2048400483,
    "wof:repo": "sfomuseum-data-flights-2026-09"
  },
  "bbox": [
    -122.4107,
    37.62639,
    -121.25367,
    38.16414
  ],
  "geometry": {"type":"LineString","coordinates":[[-122.39308,37.62639],[-122.4107,37.64639],[-122.39323,37.6678],[-122.37988,37.68056],[-122.34596,37.71632],[-122.33829,37.74428],[-122.36008,37.79198],[-122.37079,37.81302],[-122.38508,37.8491],[-122.38454,37.89629],[-122.36555,37.93572],[-122.32263,37.95259],[-122.26607,37.96428],[-122.24314,37.96896],[-122.19039,37.97955],[-122.10781,37.99622],[-122.05673,38.00655],[-121.98858,38.02013],[-121.95714,38.02638],[-121.90645,38.03644],[-121.8299,38.05166],[-121.79961,38.05767],[-121.71277,38.07476],[-121.64174,38.08876],[-121.61506,38.09392],[-121.5103,38.11443],[-121.44273,38.1276],[-121.37398,38.14095],[-121.29702,38.15574],[-121.25367,38.16414]]}
}
