{
  "id": 2048350949,
  "type": "Feature",
  "properties": {
    "geom:area": 0,
    "geom:bbox": "-122.361050,36.736740,-121.887670,37.615400",
    "geom:latitude": 37.2458943255938,
    "geom:longitude": -122.09450743318607,
    "src:alt_label": "swim-approach",
    "src:geom": "swim",
    "swim:elevations": [
      5367,
      5249,
      4783,
      4463,
      4191,
      4150,
      3923,
      3807,
      3770,
      3669,
      3528,
      3319,
      3194,
      3073,
      2729,
      2618,
      2437,
      2438,
      2405,
      2197,
      1954,
      1821,
      1829,
      1722,
      1521,
      1524,
      1444,
      1212,
      1041,
      924,
      753,
      732,
      673,
      578,
      409,
      308,
      266,
      130,
      0
    ],
    "swim:geom": "approach",
    "swim:timestamps": [
      1789565547,
      1789565560,
      1789565602,
      1789565636,
      1789565664,
      1789565667,
      1789565686,
      1789565716,
      1789565733,
      1789565764,
      1789565801,
      1789565828,
      1789565844,
      1789565859,
      1789565899,
      1789565910,
      1789565955,
      1789565980,
      1789566001,
      1789566048,
      1789566076,
      1789566110,
      1789566140,
      1789566163,
      1789566198,
      1789566235,
      1789566259,
      1789566290,
      1789566327,
      1789566349,
      1789566372,
      1789566414,
      1789566442,
      1789566461,
      1789566505,
      1789566535,
      1789566547,
      1789566580,
      1789566616
    ],
    "wof:geomhash": "814a931b3cbe7b2b3af6fec1455966b5",
    "wof:id": 2048350949,
    "wof:repo": "sfomuseum-data-flights-2026-09"
  },
  "bbox": [
    -122.36105,
    36.73674,
    -121.88767,
    37.6154
  ],
  "geometry": {"type":"LineString","coordinates":[[-121.88767,36.73674],[-121.89723,36.75655],[-121.91785,36.82655],[-121.93325,36.882],[-121.94578,36.92648],[-121.94714,36.93122],[-121.95688,36.96155],[-121.97434,37.00676],[-121.98355,37.03037],[-121.9999,37.07177],[-122.01974,37.11461],[-122.04427,37.1371],[-122.05832,37.14949],[-122.0723,37.16164],[-122.10906,37.19343],[-122.11948,37.20235],[-122.16233,37.24009],[-122.18496,37.25994],[-122.19737,37.28093],[-122.21075,37.33182],[-122.21385,37.36335],[-122.17867,37.38623],[-122.13758,37.39101],[-122.11126,37.40397],[-122.08091,37.42956],[-122.06006,37.46257],[-122.07145,37.48278],[-122.09604,37.50321],[-122.13165,37.51861],[-122.15089,37.52672],[-122.17192,37.53559],[-122.2088,37.55116],[-122.23383,37.56175],[-122.24919,37.56814],[-122.28161,37.58176],[-122.30285,37.59085],[-122.31181,37.59461],[-122.33564,37.60459],[-122.36105,37.6154]]}
}
