{
  "id": 2048288273,
  "type": "Feature",
  "properties": {
    "geom:area": 0,
    "geom:bbox": "-122.540450,36.723310,-121.561140,37.664150",
    "geom:latitude": 37.22018424150265,
    "geom:longitude": -122.12239709398757,
    "src:alt_label": "swim-takeoff",
    "src:geom": "swim",
    "swim:elevations": [
      152,
      327,
      704,
      1068,
      1187,
      1609,
      2325,
      2750,
      2936,
      3518,
      3675,
      4075,
      4563,
      4778,
      4917,
      5185,
      5445,
      6166,
      6405,
      6513,
      6658,
      6984,
      7393,
      7671,
      8238,
      8740,
      8959,
      9253,
      9445,
      9449,
      9449,
      9449
    ],
    "swim:geom": "takeoff",
    "swim:timestamps": [
      1788894206,
      1788894227,
      1788894257,
      1788894290,
      1788894306,
      1788894343,
      1788894388,
      1788894414,
      1788894425,
      1788894471,
      1788894484,
      1788894521,
      1788894564,
      1788894587,
      1788894598,
      1788894617,
      1788894636,
      1788894688,
      1788894710,
      1788894721,
      1788894735,
      1788894764,
      1788894796,
      1788894819,
      1788894861,
      1788894893,
      1788894910,
      1788894954,
      1788894983,
      1788895012,
      1788895034,
      1788895050
    ],
    "wof:geomhash": "35d9e829540db391693ae9d358eb019e",
    "wof:id": 2048288273,
    "wof:repo": "sfomuseum-data-flights-2026-09"
  },
  "bbox": [
    -122.54045,
    36.72331,
    -121.56114,
    37.66415
  ],
  "geometry": {"type":"LineString","coordinates":[[-122.38522,37.623],[-122.40183,37.63011],[-122.42962,37.64225],[-122.46133,37.65612],[-122.48011,37.66415],[-122.5319,37.66224],[-122.54045,37.61061],[-122.5239,37.57995],[-122.51645,37.56616],[-122.48458,37.50967],[-122.47254,37.49292],[-122.42489,37.44906],[-122.36124,37.39657],[-122.32554,37.3669],[-122.30718,37.35188],[-122.2776,37.32737],[-122.24649,37.30125],[-122.16136,37.23051],[-122.12495,37.20003],[-122.10694,37.18491],[-122.08407,37.16575],[-122.03485,37.12447],[-121.97818,37.07695],[-121.93989,37.04465],[-121.86885,36.98445],[-121.81621,36.94045],[-121.78838,36.91674],[-121.71829,36.85682],[-121.66915,36.81585],[-121.62155,36.77457],[-121.58648,36.74477],[-121.56114,36.72331]]}
}
