{
  "id": 2048436493,
  "type": "Feature",
  "properties": {
    "geom:area": 0,
    "geom:bbox": "-122.361340,37.491060,-121.269920,37.615210",
    "geom:latitude": 37.54599077156034,
    "geom:longitude": -121.82058540812254,
    "src:alt_label": "swim-approach",
    "src:geom": "swim",
    "swim:elevations": [
      4519,
      4378,
      4148,
      3962,
      3732,
      3482,
      3353,
      3320,
      3235,
      3200,
      3112,
      3024,
      2939,
      2894,
      2492,
      2279,
      2227,
      2132,
      2070,
      1880,
      1829,
      1829,
      1634,
      1605,
      1502,
      1263,
      1054,
      1025,
      944,
      914,
      779,
      691,
      549,
      505,
      431,
      337,
      291,
      238,
      110,
      0
    ],
    "swim:geom": "approach",
    "swim:timestamps": [
      1790443973,
      1790443989,
      1790444014,
      1790444032,
      1790444056,
      1790444087,
      1790444120,
      1790444131,
      1790444152,
      1790444158,
      1790444183,
      1790444203,
      1790444232,
      1790444252,
      1790444313,
      1790444345,
      1790444354,
      1790444381,
      1790444406,
      1790444441,
      1790444488,
      1790444492,
      1790444524,
      1790444529,
      1790444537,
      1790444566,
      1790444600,
      1790444607,
      1790444630,
      1790444661,
      1790444696,
      1790444711,
      1790444744,
      1790444763,
      1790444778,
      1790444802,
      1790444815,
      1790444836,
      1790444867,
      1790444897
    ],
    "wof:geomhash": "206f0e7b6fb0fa5daf8f90b6b14a6fff",
    "wof:id": 2048436493,
    "wof:repo": "sfomuseum-data-flights-2026-09"
  },
  "bbox": [
    -122.36134,
    37.49106,
    -121.26992,
    37.61521
  ],
  "geometry": {"type":"LineString","coordinates":[[-121.26992,37.59179],[-121.2989,37.5881],[-121.34705,37.5829],[-121.38226,37.5789],[-121.42815,37.57366],[-121.48564,37.56694],[-121.54525,37.55995],[-121.56246,37.55799],[-121.59593,37.55413],[-121.60503,37.55306],[-121.6413,37.54671],[-121.66726,37.54045],[-121.70312,37.53204],[-121.72676,37.52639],[-121.79445,37.5101],[-121.83015,37.50153],[-121.84026,37.49915],[-121.86806,37.49251],[-121.89735,37.49106],[-121.93858,37.49253],[-121.99188,37.49609],[-121.9962,37.49729],[-122.03079,37.50854],[-122.0353,37.51],[-122.04372,37.51272],[-122.07578,37.52315],[-122.11319,37.53502],[-122.12049,37.53747],[-122.14202,37.5447],[-122.17114,37.55404],[-122.20365,37.56457],[-122.2174,37.56909],[-122.24645,37.57843],[-122.26197,37.58336],[-122.27475,37.58709],[-122.29332,37.59254],[-122.3034,37.59544],[-122.31957,37.59931],[-122.34106,37.60685],[-122.36134,37.61521]]}
}
