{
  "id": 2048476837,
  "type": "Feature",
  "properties": {
    "geom:area": 0,
    "geom:bbox": "-122.385750,37.634830,-121.255880,38.164040",
    "geom:latitude": 37.9914165452479,
    "geom:longitude": -121.93808261302411,
    "src:alt_label": "swim-takeoff",
    "src:geom": "swim",
    "swim:elevations": [
      241,
      401,
      484,
      566,
      785,
      895,
      1276,
      1633,
      1925,
      2101,
      2482,
      2666,
      2946,
      3023,
      3209,
      3349,
      3487,
      3537,
      3702,
      3732,
      3778,
      4025,
      4089,
      4312,
      4447,
      4577,
      4816,
      5026,
      5133,
      5335,
      5478
    ],
    "swim:geom": "takeoff",
    "swim:timestamps": [
      1790809043,
      1790809055,
      1790809070,
      1790809090,
      1790809138,
      1790809153,
      1790809192,
      1790809225,
      1790809258,
      1790809276,
      1790809313,
      1790809345,
      1790809378,
      1790809387,
      1790809420,
      1790809459,
      1790809496,
      1790809516,
      1790809558,
      1790809561,
      1790809568,
      1790809615,
      1790809624,
      1790809659,
      1790809681,
      1790809697,
      1790809732,
      1790809767,
      1790809783,
      1790809817,
      1790809849
    ],
    "wof:geomhash": "56039f092dd8a681c87cd9398d934e69",
    "wof:id": 2048476837,
    "wof:repo": "sfomuseum-data-flights-2026-09"
  },
  "bbox": [
    -122.38575,
    37.63483,
    -121.25588,
    38.16404
  ],
  "geometry": {"type":"LineString","coordinates":[[-122.36175,37.63483],[-122.35349,37.64208],[-122.34259,37.65133],[-122.32699,37.6648],[-122.317,37.71085],[-122.3258,37.72696],[-122.34944,37.77037],[-122.36814,37.80817],[-122.38544,37.84697],[-122.38575,37.87059],[-122.38298,37.91724],[-122.35043,37.94738],[-122.29572,37.95842],[-122.28058,37.96139],[-122.22393,37.97297],[-122.15112,37.9876],[-122.07645,38.00269],[-122.03511,38.01099],[-121.94282,38.02949],[-121.93484,38.0311],[-121.919,38.03427],[-121.8116,38.05558],[-121.79077,38.05969],[-121.70926,38.07577],[-121.65802,38.08585],[-121.62051,38.09318],[-121.53674,38.10953],[-121.45333,38.12584],[-121.41422,38.13345],[-121.33333,38.14906],[-121.25588,38.16404]]}
}
