{
  "id": 2048292301,
  "type": "Feature",
  "properties": {
    "geom:area": 0,
    "geom:bbox": "-122.347940,37.492130,-121.273740,37.609620",
    "geom:latitude": 37.545102089603496,
    "geom:longitude": -121.81543987571398,
    "src:alt_label": "swim-approach",
    "src:geom": "swim",
    "swim:elevations": [
      4688,
      4304,
      4112,
      3633,
      3327,
      3165,
      3045,
      2958,
      2711,
      2556,
      2261,
      2193,
      2004,
      1828,
      1805,
      1603,
      1309,
      1157,
      952,
      889,
      869,
      562,
      457,
      311,
      150,
      78
    ],
    "swim:geom": "approach",
    "swim:timestamps": [
      1788952065,
      1788952100,
      1788952118,
      1788952164,
      1788952193,
      1788952225,
      1788952255,
      1788952272,
      1788952306,
      1788952327,
      1788952376,
      1788952388,
      1788952425,
      1788952465,
      1788952473,
      1788952501,
      1788952545,
      1788952573,
      1788952599,
      1788952616,
      1788952620,
      1788952672,
      1788952694,
      1788952725,
      1788952764,
      1788952785
    ],
    "wof:geomhash": "489a9fe94bf225311e5d77cfcea35534",
    "wof:id": 2048292301,
    "wof:repo": "sfomuseum-data-flights-2026-09"
  },
  "bbox": [
    -122.34794,
    37.49213,
    -121.27374,
    37.60962
  ],
  "geometry": {"type":"LineString","coordinates":[[-121.27374,37.59128],[-121.34568,37.58324],[-121.38185,37.57915],[-121.47347,37.56853],[-121.53159,37.56173],[-121.59347,37.55449],[-121.64675,37.54552],[-121.67491,37.53887],[-121.73166,37.52532],[-121.76474,37.51737],[-121.84279,37.49865],[-121.86252,37.49409],[-121.92074,37.49213],[-121.9822,37.49437],[-121.994,37.4968],[-122.03439,37.50977],[-122.09531,37.5294],[-122.13369,37.54179],[-122.16709,37.55274],[-122.18778,37.55946],[-122.19184,37.56074],[-122.24792,37.57902],[-122.27009,37.58575],[-122.29886,37.59416],[-122.3312,37.60369],[-122.34794,37.60962]]}
}
