{
  "id": 2048417437,
  "type": "Feature",
  "properties": {
    "geom:area": 0,
    "geom:bbox": "-122.414060,37.628170,-121.254250,38.302970",
    "geom:latitude": 37.99410914979761,
    "geom:longitude": -121.86736291039423,
    "src:alt_label": "swim-takeoff",
    "src:geom": "swim",
    "swim:elevations": [
      91,
      459,
      663,
      996,
      1082,
      1248,
      1338,
      1626,
      2007,
      2427,
      2694,
      3000,
      3235,
      3295,
      3554,
      3765,
      3913,
      4546,
      4988,
      5151,
      5396,
      5678,
      5815,
      6059,
      6266,
      6422
    ],
    "swim:geom": "takeoff",
    "swim:timestamps": [
      1790199265,
      1790199293,
      1790199318,
      1790199357,
      1790199375,
      1790199405,
      1790199421,
      1790199456,
      1790199495,
      1790199534,
      1790199561,
      1790199594,
      1790199626,
      1790199635,
      1790199674,
      1790199707,
      1790199732,
      1790199807,
      1790199857,
      1790199884,
      1790199916,
      1790199955,
      1790199971,
      1790200010,
      1790200042,
      1790200064
    ],
    "wof:geomhash": "5a0d541911604bde9456203fa0f1c8b6",
    "wof:id": 2048417437,
    "wof:repo": "sfomuseum-data-flights-2026-09"
  },
  "bbox": [
    -122.41406,
    37.62817,
    -121.25425,
    38.30297
  ],
  "geometry": {"type":"LineString","coordinates":[[-122.39217,37.62817],[-122.41406,37.64484],[-122.40466,37.66452],[-122.36282,37.67623],[-122.34132,37.68248],[-122.30399,37.69303],[-122.28193,37.69899],[-122.23046,37.71335],[-122.18552,37.74841],[-122.14736,37.7918],[-122.12061,37.82168],[-122.08685,37.85873],[-122.05393,37.8948],[-122.04358,37.90611],[-121.99967,37.95442],[-121.9601,37.99697],[-121.92848,38.02964],[-121.78677,38.0924],[-121.68742,38.13203],[-121.63403,38.15364],[-121.56998,38.17891],[-121.48802,38.21104],[-121.45446,38.22425],[-121.37046,38.25724],[-121.30132,38.28448],[-121.25425,38.30297]]}
}
