{
  "id": 2048430903,
  "type": "Feature",
  "properties": {
    "geom:area": 0,
    "geom:bbox": "-122.838280,37.380240,-122.092100,38.424280",
    "geom:latitude": 37.876797174706205,
    "geom:longitude": -122.5216919309917,
    "src:alt_label": "swim-approach",
    "src:geom": "swim",
    "swim:elevations": [
      1860,
      1829,
      1829,
      1854,
      1615,
      1523,
      1524,
      1525,
      1527,
      1421,
      1273,
      1034,
      913,
      760,
      712,
      623,
      550,
      375,
      364,
      173,
      140,
      63,
      40,
      7650,
      7275,
      6907,
      6723,
      6371,
      5969,
      5650,
      5582,
      5255,
      5123,
      4656,
      4566,
      4290,
      4055,
      3801,
      3423,
      3351,
      3353,
      3353,
      3353,
      3353,
      3353,
      3353,
      3289
    ],
    "swim:geom": "approach",
    "swim:timestamps": [
      1790319628,
      1790319647,
      1790319673,
      1790319691,
      1790319745,
      1790319766,
      1790319797,
      1790319816,
      1790319841,
      1790319885,
      1790319905,
      1790319954,
      1790319979,
      1790320012,
      1790320024,
      1790320042,
      1790320057,
      1790320104,
      1790320111,
      1790320165,
      1790320175,
      1790320194,
      1790320200,
      1790405362,
      1790405389,
      1790405428,
      1790405445,
      1790405484,
      1790405517,
      1790405544,
      1790405552,
      1790405588,
      1790405597,
      1790405636,
      1790405647,
      1790405683,
      1790405719,
      1790405741,
      1790405786,
      1790405804,
      1790405828,
      1790405871,
      1790405906,
      1790405924,
      1790405940,
      1790405958,
      1790405997
    ],
    "wof:geomhash": "bc23d40c80291c2183d8d187aa528161",
    "wof:id": 2048430903,
    "wof:repo": "sfomuseum-data-flights-2026-09"
  },
  "bbox": [
    -122.83828,
    37.38024,
    -122.0921,
    38.42428
  ],
  "geometry": {"type":"LineString","coordinates":[[-122.26816,37.44408],[-122.25642,37.42479],[-122.24085,37.399],[-122.22858,37.3823],[-122.15646,37.38024],[-122.12933,37.38968],[-122.10463,37.41535],[-122.0921,37.43394],[-122.09256,37.45946],[-122.11127,37.49826],[-122.12216,37.51286],[-122.16524,37.53286],[-122.18778,37.54227],[-122.2175,37.55483],[-122.22798,37.55918],[-122.24285,37.5655],[-122.25596,37.57099],[-122.28773,37.58435],[-122.29232,37.58629],[-122.32885,37.60159],[-122.33536,37.60432],[-122.34804,37.60977],[-122.35197,37.61141],[-122.83828,38.42428],[-122.82117,38.37755],[-122.79803,38.31167],[-122.78818,38.28358],[-122.76565,38.21877],[-122.74964,38.16409],[-122.73684,38.11973],[-122.73337,38.10765],[-122.71603,38.04792],[-122.71182,38.03359],[-122.69403,37.97209],[-122.68894,37.9545],[-122.66985,37.89975],[-122.62686,37.85631],[-122.59847,37.82938],[-122.5439,37.77763],[-122.52226,37.75711],[-122.49487,37.73126],[-122.44609,37.6854],[-122.41117,37.65234],[-122.39377,37.63607],[-122.37865,37.62187],[-122.36547,37.60367],[-122.34039,37.56338]]}
}
