{
  "id": 2048430983,
  "type": "Feature",
  "properties": {
    "geom:area": 0,
    "geom:bbox": "-122.370278,37.516667,-104.700000,39.900000",
    "geom:latitude": 38.77408741046863,
    "geom:longitude": -113.54709709742801,
    "src:alt_label": "swim-path",
    "src:geom": "swim",
    "swim:altitudes": [
      "059",
      "091",
      "098",
      "100",
      "100",
      "110",
      "127",
      "144",
      "153",
      "180",
      "206",
      "225",
      "228",
      "234",
      "236",
      "258",
      "275",
      "278",
      "289",
      "292",
      "305",
      "308",
      "326",
      "330",
      "347",
      "364",
      "373",
      "379C",
      "379C",
      "380C",
      "380C",
      "380C",
      "380C",
      "380C",
      "380C",
      "380C",
      "380C",
      "380C",
      "380C",
      "380C",
      "380C",
      "380C",
      "380C",
      "380C",
      "380C",
      "380C",
      "380C",
      "380C",
      "380C",
      "380C",
      "380C",
      "380C",
      "380C",
      "380C",
      "380C",
      "380C",
      "380C",
      "380C",
      "380C",
      "380C",
      "380C",
      "380C",
      "380C",
      "380C",
      "380C",
      "380C",
      "380C",
      "380C",
      "380C",
      "380C",
      "380C",
      "380C",
      "380C",
      "380C",
      "380C",
      "380C",
      "380C",
      "380C",
      "380C",
      "380C",
      "380C",
      "380C",
      "380C",
      "380C",
      "380C",
      "380C",
      "380C",
      "380C",
      "380C",
      "380C",
      "380C",
      "380C",
      "380C",
      "380C",
      "380C",
      "380C",
      "380C",
      "380C",
      "380C",
      "380C",
      "380C",
      "380C",
      "380C",
      "380C",
      "380C",
      "380C",
      "380C",
      "380C",
      "380C",
      "380C",
      "380C",
      "380C",
      "380C",
      "380C",
      "380C",
      "380C",
      "380C",
      "380C",
      "380C",
      "380C",
      "380C",
      "380C",
      "380C",
      "380C",
      "380C",
      "380C",
      "380C",
      "380C",
      "380C",
      "380C",
      "380C",
      "380C",
      "380C",
      "380C",
      "380C",
      "380C",
      "380C",
      "380C",
      "380C",
      "380C",
      "380C",
      "380C",
      "380",
      "380",
      "380",
      "380",
      "379",
      "360",
      "330",
      "306",
      "283",
      "278",
      "259",
      "240",
      "217",
      "190",
      "166",
      "144",
      "122",
      "107",
      "096",
      "085",
      "072",
      "060",
      "049",
      "043",
      "032",
      "013",
      "013",
      "005",
      "80"
    ],
    "swim:geom": "path",
    "swim:speeds": [
      186,
      240,
      278,
      303,
      297,
      297,
      298,
      301,
      319,
      335,
      336,
      347,
      346,
      392,
      362,
      395,
      395,
      394,
      407,
      398,
      415,
      416,
      416,
      417,
      399,
      392,
      389,
      399,
      393,
      405,
      401,
      405,
      405,
      410,
      407,
      413,
      412,
      415,
      412,
      417,
      414,
      419,
      421,
      422,
      423,
      425,
      426,
      428,
      428,
      430,
      430,
      432,
      432,
      433,
      434,
      434,
      434,
      435,
      435,
      435,
      435,
      436,
      436,
      437,
      437,
      437,
      438,
      438,
      438,
      438,
      438,
      437,
      437,
      436,
      436,
      435,
      434,
      433,
      432,
      432,
      433,
      433,
      434,
      434,
      433,
      433,
      433,
      432,
      430,
      428,
      427,
      427,
      427,
      429,
      431,
      432,
      433,
      434,
      433,
      432,
      431,
      429,
      428,
      428,
      430,
      431,
      432,
      431,
      432,
      432,
      432,
      428,
      427,
      425,
      423,
      423,
      423,
      423,
      422,
      422,
      422,
      421,
      421,
      420,
      419,
      419,
      417,
      417,
      415,
      414,
      413,
      413,
      413,
      413,
      414,
      414,
      415,
      415,
      415,
      414,
      412,
      407,
      407,
      408,
      409,
      410,
      410,
      408,
      421,
      421,
      407,
      403,
      395,
      381,
      361,
      353,
      348,
      343,
      328,
      314,
      284,
      268,
      268,
      239,
      225,
      221,
      219,
      160,
      167,
      140,
      138
    ],
    "swim:timestamps": [
      1790338033,
      1790338111,
      1790338144,
      1790338171,
      1790338204,
      1790338231,
      1790338264,
      1790338291,
      1790338324,
      1790338384,
      1790338444,
      1790338504,
      1790338513,
      1790338564,
      1790338573,
      1790338624,
      1790338684,
      1790338693,
      1790338744,
      1790338753,
      1790338804,
      1790338813,
      1790338864,
      1790338873,
      1790338924,
      1790338993,
      1790339053,
      1790339105,
      1790339113,
      1790339165,
      1790339173,
      1790339225,
      1790339245,
      1790339285,
      1790339305,
      1790339345,
      1790339366,
      1790339405,
      1790339426,
      1790339465,
      1790339486,
      1790339525,
      1790339546,
      1790339585,
      1790339606,
      1790339645,
      1790339666,
      1790339705,
      1790339726,
      1790339765,
      1790339786,
      1790339825,
      1790339846,
      1790339885,
      1790339906,
      1790339945,
      1790339966,
      1790340005,
      1790340026,
      1790340065,
      1790340086,
      1790340125,
      1790340146,
      1790340186,
      1790340206,
      1790340246,
      1790340266,
      1790340306,
      1790340326,
      1790340366,
      1790340386,
      1790340426,
      1790340446,
      1790340486,
      1790340506,
      1790340546,
      1790340566,
      1790340626,
      1790340686,
      1790340746,
      1790340807,
      1790340867,
      1790340927,
      1790340987,
      1790341047,
      1790341107,
      1790341167,
      1790341227,
      1790341287,
      1790341347,
      1790341407,
      1790341467,
      1790341527,
      1790341587,
      1790341647,
      1790341707,
      1790341767,
      1790341827,
      1790341887,
      1790341947,
      1790342008,
      1790342068,
      1790342128,
      1790342188,
      1790342248,
      1790342308,
      1790342368,
      1790342423,
      1790342483,
      1790342543,
      1790342603,
      1790342663,
      1790342723,
      1790342783,
      1790342843,
      1790342903,
      1790342963,
      1790342969,
      1790343023,
      1790343083,
      1790343089,
      1790343143,
      1790343149,
      1790343209,
      1790343263,
      1790343269,
      1790343323,
      1790343329,
      1790343389,
      1790343449,
      1790343503,
      1790343509,
      1790343564,
      1790343624,
      1790343684,
      1790343744,
      1790343804,
      1790343864,
      1790343924,
      1790343984,
      1790344044,
      1790344104,
      1790344164,
      1790344224,
      1790344284,
      1790344344,
      1790344404,
      1790344464,
      1790344524,
      1790344585,
      1790344645,
      1790344654,
      1790344702,
      1790344765,
      1790344825,
      1790344885,
      1790344945,
      1790345005,
      1790345063,
      1790345125,
      1790345185,
      1790345243,
      1790345305,
      1790345363,
      1790345422,
      1790345482,
      1790345545,
      1790345657,
      1790345666,
      1790345726,
      1790345786
    ],
    "wof:geomhash": "0358a3870b115373b876ce69b13bb9d1",
    "wof:id": 2048430983,
    "wof:repo": "sfomuseum-data-flights-2026-09"
  },
  "bbox": [
    -122.37027777777777,
    37.516666666666666,
    -104.7,
    39.9
  ],
  "geometry": {"type":"LineString","coordinates":[[-104.7,39.88333333333333],[-104.76666666666667,39.9],[-104.82111111111111,39.87361111111111],[-104.86666666666666,39.85],[-104.91972222222223,39.840833333333336],[-104.96666666666667,39.85],[-105.02777777777777,39.84638888888889],[-105.08333333333333,39.85],[-105.13777777777779,39.84777777777778],[-105.26055555555556,39.84916666666667],[-105.38138888888888,39.855000000000004],[-105.48944444444444,39.85583333333334],[-105.50972222222222,39.858333333333334],[-105.62555555555555,39.85666666666667],[-105.6463888888889,39.85666666666667],[-105.76888888888888,39.85527777777778],[-105.90972222222223,39.84444444444445],[-105.93388888888889,39.84166666666667],[-106.05472222222222,39.830555555555556],[-106.07888888888888,39.82777777777778],[-106.20694444444445,39.81777777777778],[-106.23055555555555,39.814166666666665],[-106.3561111111111,39.80444444444444],[-106.37944444444443,39.80222222222222],[-106.49888888888889,39.791666666666664],[-106.66055555555556,39.774166666666666],[-106.79972222222221,39.757777777777775],[-106.93194444444445,39.745],[-106.94194444444445,39.74277777777778],[-107.0761111111111,39.72888888888889],[-107.08722222222222,39.72694444444445],[-107.23166666666667,39.711111111111116],[-107.23138888888889,39.711111111111116],[-107.37583333333333,39.69444444444444],[-107.40722222222223,39.69027777777777],[-107.52583333333334,39.676944444444445],[-107.55583333333333,39.67305555555555],[-107.67555555555556,39.65972222222222],[-107.7038888888889,39.65555555555555],[-107.82638888888889,39.641666666666666],[-107.85277777777777,39.63805555555555],[-107.94805555555556,39.62694444444445],[-108.00416666666666,39.62027777777778],[-108.1,39.60888888888889],[-108.15555555555557,39.60194444444445],[-108.25222222222222,39.59],[-108.30944444444444,39.58305555555556],[-108.40833333333335,39.57083333333334],[-108.47972222222222,39.56194444444444],[-108.56277777777777,39.55138888888889],[-108.58611111111111,39.54861111111111],[-108.71277777777777,39.5325],[-108.7775,39.524166666666666],[-108.87083333333332,39.51222222222222],[-108.935,39.50416666666667],[-109.02805555555555,39.49194444444444],[-109.09027777777777,39.48388888888889],[-109.18138888888889,39.471944444444446],[-109.24388888888889,39.46361111111111],[-109.33555555555554,39.45138888888889],[-109.4,39.44277777777778],[-109.49166666666667,39.43083333333333],[-109.55472222222222,39.42222222222222],[-109.64583333333334,39.41],[-109.70972222222223,39.401111111111106],[-109.8,39.388888888888886],[-109.86305555555555,39.38],[-109.95555555555556,39.3675],[-110.01944444444445,39.35888888888889],[-110.10944444444443,39.34722222222222],[-110.1725,39.33861111111111],[-110.26388888888889,39.32611111111112],[-110.32722222222222,39.3175],[-110.41722222222222,39.305],[-110.48027777777779,39.296388888888885],[-110.56944444444444,39.284166666666664],[-110.63277777777778,39.275277777777774],[-110.78361111111111,39.254444444444445],[-110.9363888888889,39.23277777777778],[-111.08666666666666,39.21138888888889],[-111.2388888888889,39.18944444444444],[-111.40027777777779,39.16611111111111],[-111.55111111111111,39.14388888888889],[-111.70472222222223,39.12138888888889],[-111.85555555555555,39.098888888888894],[-112.00638888888889,39.07611111111112],[-112.1563888888889,39.05333333333333],[-112.30833333333334,39.03],[-112.45694444444445,39.00666666666667],[-112.60444444444444,38.98388888888889],[-112.755,38.96],[-112.90138888888889,38.93666666666666],[-113.05055555555555,38.91277777777778],[-113.20027777777779,38.88861111111111],[-113.35166666666666,38.86388888888889],[-113.50138888888888,38.83916666666667],[-113.65277777777779,38.814166666666665],[-113.80305555555556,38.788888888888884],[-113.95333333333333,38.76361111111111],[-114.10166666666666,38.73833333333334],[-114.25027777777778,38.71277777777778],[-114.39972222222222,38.68694444444444],[-114.5461111111111,38.66138888888889],[-114.69583333333334,38.635],[-114.84527777777777,38.60861111111111],[-114.99388888888889,38.581944444444446],[-115.14333333333335,38.555],[-115.27944444444444,38.530277777777776],[-115.43,38.50333333333333],[-115.57888888888888,38.475],[-115.72722222222222,38.44833333333333],[-115.87333333333332,38.420833333333334],[-116.01972222222223,38.393055555555556],[-116.16361111111112,38.365833333333335],[-116.31,38.33777777777778],[-116.45472222222223,38.30611111111111],[-116.59805555555555,38.277499999999996],[-116.625,38.27388888888889],[-116.7461111111111,38.2575],[-116.8913888888889,38.237500000000004],[-116.92027777777778,38.23361111111111],[-117.03611111111111,38.217777777777776],[-117.065,38.21361111111111],[-117.20472222222223,38.19416666666666],[-117.3325,38.17611111111111],[-117.34472222222222,38.17444444444444],[-117.46111111111111,38.158055555555556],[-117.48805555555556,38.15416666666667],[-117.63083333333333,38.13361111111111],[-117.77305555555556,38.11333333333334],[-117.88944444444445,38.096111111111114],[-117.91611111111112,38.092222222222226],[-118.03138888888888,38.07527777777778],[-118.17361111111111,38.05416666666667],[-118.31916666666666,38.0325],[-118.46222222222222,38.01083333333333],[-118.60722222222222,37.98888888888889],[-118.74972222222222,37.966944444444444],[-118.89416666666668,37.94444444444444],[-119.03527777777778,37.9225],[-119.18111111111112,37.89944444444444],[-119.32638888888889,37.87638888888889],[-119.4675,37.85388888888889],[-119.60749999999999,37.83111111111111],[-119.74722222222222,37.80833333333333],[-119.88833333333334,37.78527777777778],[-120.03138888888888,37.76166666666666],[-120.17027777777778,37.73861111111111],[-120.31638888888888,37.71388888888889],[-120.45972222222223,37.69277777777778],[-120.6036111111111,37.67583333333333],[-120.63333333333334,37.666666666666664],[-120.75,37.666666666666664],[-120.87444444444444,37.64361111111111],[-120.99861111111112,37.62833333333333],[-121.12194444444444,37.611666666666665],[-121.24111111111111,37.595555555555556],[-121.35805555555555,37.58166666666667],[-121.48333333333333,37.56666666666667],[-121.58361111111111,37.55555555555555],[-121.68083333333334,37.5375],[-121.78333333333333,37.53333333333333],[-121.86666666666666,37.52194444444444],[-121.95,37.516666666666666],[-122.03333333333333,37.516666666666666],[-122.11666666666666,37.516666666666666],[-122.17555555555556,37.536944444444444],[-122.28333333333333,37.583333333333336],[-122.28833333333333,37.58444444444444],[-122.33111111111111,37.6025],[-122.37027777777777,37.619166666666665]]}
}
