{
  "id": 2048430437,
  "type": "Feature",
  "properties": {
    "geom:area": 0,
    "geom:bbox": "-122.362900,36.736020,-121.887620,37.615690",
    "geom:latitude": 37.232702401471,
    "geom:longitude": -122.1004355490411,
    "src:alt_label": "swim-approach",
    "src:geom": "swim",
    "swim:elevations": [
      5391,
      5338,
      5129,
      5062,
      4520,
      4375,
      4022,
      3847,
      3717,
      3619,
      3534,
      3370,
      3321,
      3159,
      2972,
      2866,
      2697,
      2659,
      2515,
      2251,
      2135,
      2134,
      2088,
      2024,
      1918,
      1806,
      1699,
      1345,
      1282,
      1166,
      1017,
      998,
      874,
      816,
      732,
      635,
      484,
      342,
      228,
      118,
      1
    ],
    "swim:geom": "approach",
    "swim:timestamps": [
      1790368610,
      1790368617,
      1790368644,
      1790368650,
      1790368706,
      1790368723,
      1790368767,
      1790368792,
      1790368806,
      1790368828,
      1790368843,
      1790368880,
      1790368892,
      1790368924,
      1790368961,
      1790368979,
      1790369007,
      1790369016,
      1790369040,
      1790369087,
      1790369123,
      1790369140,
      1790369171,
      1790369199,
      1790369214,
      1790369237,
      1790369255,
      1790369307,
      1790369330,
      1790369357,
      1790369384,
      1790369390,
      1790369417,
      1790369425,
      1790369446,
      1790369467,
      1790369505,
      1790369540,
      1790369569,
      1790369597,
      1790369629
    ],
    "wof:geomhash": "cf240358c2c93ae85f2e7a57e132f849",
    "wof:id": 2048430437,
    "wof:repo": "sfomuseum-data-flights-2026-09"
  },
  "bbox": [
    -122.3629,
    36.73602,
    -121.88762,
    37.61569
  ],
  "geometry": {"type":"LineString","coordinates":[[-121.88762,36.73602],[-121.89286,36.74614],[-121.90607,36.78694],[-121.9087,36.79588],[-121.93221,36.87838],[-121.93907,36.90257],[-121.95856,36.96527],[-121.9715,36.99836],[-121.9816,37.01751],[-122.001,37.04259],[-122.01438,37.06007],[-122.04425,37.0993],[-122.05392,37.11217],[-122.0833,37.14068],[-122.11741,37.17278],[-122.13336,37.18778],[-122.15925,37.21219],[-122.16753,37.21991],[-122.1901,37.24109],[-122.21621,37.28861],[-122.21201,37.32827],[-122.19493,37.34372],[-122.16337,37.36968],[-122.13683,37.39106],[-122.12269,37.40221],[-122.10128,37.41969],[-122.09348,37.43649],[-122.10685,37.48648],[-122.11428,37.50744],[-122.13796,37.52129],[-122.16441,37.53236],[-122.1701,37.5348],[-122.19549,37.54552],[-122.20289,37.54862],[-122.22162,37.5566],[-122.23997,37.56425],[-122.2686,37.57637],[-122.29526,37.58753],[-122.31718,37.59671],[-122.33896,37.60597],[-122.3629,37.61569]]}
}
