{
  "id": 2048456731,
  "type": "Feature",
  "properties": {
    "geom:area": 0,
    "geom:bbox": "-122.373056,33.919444,-118.445000,37.617778",
    "geom:latitude": 35.51705588408077,
    "geom:longitude": -120.64446614616938,
    "src:alt_label": "swim-path",
    "src:geom": "swim",
    "swim:altitudes": [
      "013",
      "023",
      "028",
      "044",
      "056",
      "077",
      "093",
      "115",
      "165",
      "183",
      "204",
      "220",
      "233",
      "238",
      "251",
      "252",
      "261",
      "265",
      "273",
      "276",
      "285",
      "288",
      "298C",
      "300C",
      "300C",
      "300C",
      "300C",
      "300C",
      "300C",
      "300C",
      "300C",
      "301C",
      "301C",
      "300C",
      "300C",
      "300C",
      "300C",
      "300C",
      "300C",
      "300C",
      "300C",
      "300C",
      "300C",
      "300C",
      "300C",
      "300C",
      "300C",
      "300C",
      "300C",
      "300C",
      "300C",
      "300",
      "290",
      "288",
      "280",
      "271",
      "261",
      "260",
      "260",
      "260",
      "260",
      "260",
      "257",
      "250",
      "246",
      "231",
      "224",
      "210",
      "199",
      "187",
      "180",
      "170",
      "163",
      "152",
      "145",
      "136",
      "127",
      "116",
      "109",
      "099",
      "095",
      "091",
      "086",
      "077",
      "070",
      "061",
      "052",
      "043",
      "038",
      "031",
      "031",
      "031",
      "030",
      "023",
      "020",
      "015",
      "012",
      "008",
      "005",
      "002",
      "60"
    ],
    "swim:geom": "path",
    "swim:speeds": [
      163,
      207,
      229,
      269,
      267,
      270,
      268,
      297,
      338,
      373,
      357,
      358,
      360,
      367,
      366,
      369,
      376,
      381,
      385,
      396,
      401,
      402,
      404,
      404,
      408,
      408,
      408,
      408,
      408,
      408,
      408,
      406,
      406,
      394,
      394,
      391,
      391,
      392,
      392,
      391,
      391,
      391,
      391,
      391,
      391,
      391,
      391,
      391,
      391,
      390,
      390,
      401,
      392,
      392,
      363,
      340,
      339,
      338,
      341,
      344,
      345,
      347,
      346,
      349,
      345,
      337,
      337,
      322,
      322,
      303,
      304,
      296,
      300,
      312,
      308,
      313,
      310,
      305,
      305,
      281,
      275,
      238,
      232,
      221,
      221,
      216,
      218,
      219,
      218,
      211,
      215,
      192,
      195,
      190,
      192,
      163,
      145,
      137,
      140,
      141,
      137
    ],
    "swim:timestamps": [
      1790618397,
      1790618423,
      1790618457,
      1790618483,
      1790618517,
      1790618543,
      1790618577,
      1790618638,
      1790618758,
      1790618818,
      1790618878,
      1790618938,
      1790618988,
      1790618998,
      1790619048,
      1790619058,
      1790619108,
      1790619118,
      1790619168,
      1790619178,
      1790619228,
      1790619239,
      1790619288,
      1790619299,
      1790619348,
      1790619359,
      1790619408,
      1790619419,
      1790619468,
      1790619479,
      1790619528,
      1790619588,
      1790619599,
      1790619649,
      1790619659,
      1790619709,
      1790619719,
      1790619769,
      1790619779,
      1790619829,
      1790619840,
      1790619889,
      1790619900,
      1790619949,
      1790619960,
      1790620009,
      1790620020,
      1790620069,
      1790620080,
      1790620129,
      1790620140,
      1790620189,
      1790620249,
      1790620260,
      1790620309,
      1790620370,
      1790620430,
      1790620490,
      1790620550,
      1790620610,
      1790620670,
      1790620694,
      1790620730,
      1790620761,
      1790620790,
      1790620821,
      1790620850,
      1790620881,
      1790620910,
      1790620947,
      1790620970,
      1790621007,
      1790621031,
      1790621067,
      1790621091,
      1790621122,
      1790621151,
      1790621187,
      1790621211,
      1790621247,
      1790621271,
      1790621307,
      1790621331,
      1790621362,
      1790621391,
      1790621422,
      1790621451,
      1790621482,
      1790621511,
      1790621548,
      1790621571,
      1790621603,
      1790621631,
      1790621667,
      1790621691,
      1790621727,
      1790621752,
      1790621789,
      1790621812,
      1790621842,
      1790621872
    ],
    "wof:geomhash": "8cfdf58f578d0d665b584e0e505bb3e7",
    "wof:id": 2048456731,
    "wof:repo": "sfomuseum-data-flights-2026-09"
  },
  "bbox": [
    -122.37305555555555,
    33.919444444444444,
    -118.44500000000001,
    37.617777777777775
  ],
  "geometry": {"type":"LineString","coordinates":[[-118.44500000000001,33.94583333333333],[-118.48333333333333,33.95],[-118.5125,33.94194444444444],[-118.56666666666666,33.93333333333333],[-118.59944444444444,33.934999999999995],[-118.65,33.93333333333333],[-118.70666666666666,33.926944444444445],[-118.80083333333333,33.919444444444444],[-118.98777777777778,33.99583333333334],[-119.00361111111111,34.09666666666667],[-119.07277777777777,34.175],[-119.17361111111111,34.227222222222224],[-119.25444444444445,34.269999999999996],[-119.28027777777778,34.2825],[-119.36,34.32472222222223],[-119.38388888888889,34.33555555555556],[-119.46944444444445,34.379444444444445],[-119.49527777777777,34.39222222222222],[-119.575,34.443888888888885],[-119.59472222222222,34.46277777777778],[-119.67444444444445,34.52722222222222],[-119.69250000000001,34.541666666666664],[-119.77222222222223,34.60638888888889],[-119.78972222222222,34.620555555555555],[-119.87138888888889,34.686388888888885],[-119.88805555555557,34.69972222222222],[-119.97055555555556,34.76638888888889],[-119.98666666666666,34.77916666666667],[-120.0675,34.844166666666666],[-120.08611111111111,34.85916666666667],[-120.16777777777779,34.92444444444444],[-120.26611111111112,35.00333333333333],[-120.27111111111111,35.007222222222225],[-120.36194444444443,35.07972222222222],[-120.36694444444444,35.08361111111111],[-120.45361111111112,35.160555555555554],[-120.455,35.16166666666666],[-120.54388888888889,35.24055555555556],[-120.54555555555555,35.242222222222225],[-120.63555555555556,35.322500000000005],[-120.63416666666667,35.321111111111115],[-120.70805555555556,35.38638888888889],[-120.72416666666666,35.40083333333333],[-120.79972222222221,35.4675],[-120.81472222222222,35.48083333333334],[-120.88166666666666,35.552499999999995],[-120.89555555555556,35.56722222222223],[-120.96333333333334,35.640277777777776],[-120.97722222222222,35.655277777777776],[-121.04666666666667,35.72416666666667],[-121.06527777777778,35.735],[-121.17277777777778,35.75861111111111],[-121.30638888888889,35.77194444444444],[-121.32805555555555,35.77472222222222],[-121.41166666666668,35.824444444444445],[-121.45305555555557,35.91444444444444],[-121.49111111111111,36.003055555555555],[-121.52833333333334,36.09166666666667],[-121.56611111111111,36.181666666666665],[-121.60499999999999,36.27361111111111],[-121.64361111111111,36.364444444444445],[-121.66666666666667,36.416666666666664],[-121.68222222222222,36.45527777777778],[-121.71666666666667,36.516666666666666],[-121.73472222222222,36.54083333333333],[-121.78333333333333,36.6],[-121.79777777777778,36.620555555555555],[-121.83333333333333,36.666666666666664],[-121.86861111111111,36.70916666666667],[-121.9,36.75],[-121.9063888888889,36.78777777777778],[-121.91666666666667,36.833333333333336],[-121.92944444444444,36.86805555555556],[-121.95,36.916666666666664],[-121.95333333333333,36.95305555555556],[-121.96666666666667,37],[-121.98555555555555,37.035],[-122,37.083333333333336],[-122.01722222222222,37.11638888888889],[-122.03333333333333,37.166666666666664],[-122.0461111111111,37.19083333333333],[-122.06666666666666,37.233333333333334],[-122.07138888888889,37.254444444444445],[-122.08333333333333,37.28333333333333],[-122.09444444444443,37.31333333333333],[-122.1,37.35],[-122.11722222222221,37.37083333333334],[-122.13333333333334,37.4],[-122.13777777777779,37.42861111111111],[-122.15,37.46666666666667],[-122.15694444444445,37.48583333333333],[-122.16666666666667,37.516666666666666],[-122.17888888888889,37.53638888888889],[-122.21666666666667,37.55],[-122.23722222222223,37.56083333333333],[-122.26666666666667,37.583333333333336],[-122.28805555555556,37.58222222222223],[-122.31666666666666,37.6],[-122.33027777777778,37.6],[-122.35,37.61666666666667],[-122.37305555555555,37.617777777777775]]}
}
