{
  "id": 2048276935,
  "type": "Feature",
  "properties": {
    "date:inception_lower": "2026-09-07",
    "date:inception_upper": "2026-09-07",
    "edtf:cessation": "",
    "edtf:inception": "2026-09-07",
    "flysfo:actual_timestamp": -1,
    "flysfo:airline": "AC",
    "flysfo:base_airline": "",
    "flysfo:base_flight_number": "3516",
    "flysfo:date": "2026-09-07",
    "flysfo:estimated_timestamp": 1788802680,
    "flysfo:event": "D",
    "flysfo:flight_number": "AC3516",
    "flysfo:gate": "D7",
    "flysfo:journey": "SFO-HNL",
    "flysfo:scheduled_timestamp": 1788803100,
    "flysfo:timestamp": 1788803100,
    "geom:area": 0,
    "geom:bbox": "-157.918416,21.332508,-122.370943,37.617990",
    "geom:latitude": 29.475248999999998,
    "geom:longitude": -140.1446795,
    "iata:airline": "AC",
    "iata:base_airline": "",
    "icao:airline": "ACA",
    "icao:base_airline": "ACA",
    "lbl:latitude": 37.61705,
    "lbl:longitude": -122.380838,
    "sfomuseum:airline_id": 1159283597,
    "sfomuseum:arrival_id": 102533997,
    "sfomuseum:base_flight_id": "20260907-D-ACA-3516",
    "sfomuseum:departure_id": 102527513,
    "sfomuseum:flight_id": "20260907-D-ACA-3516",
    "sfomuseum:flight_number": [
      "ACA3516",
      "AC3516"
    ],
    "sfomuseum:placetype": "flight",
    "src:geom": "flysfo",
    "wof:belongsto": [
      1947304067,
      102527513,
      1947304595,
      102191575,
      85633793,
      102087579,
      85922583,
      554784711,
      85688637,
      1947304601,
      1947304591,
      102085387
    ],
    "wof:country": "US",
    "wof:created": 1788883849,
    "wof:geomhash": "ff961493fc59fc665836e174da62aa8e",
    "wof:hierarchy": [
      {
        "building_id": 1947304067,
        "campus_id": 102527513,
        "concourse_id": 1947304595,
        "continent_id": 102191575,
        "country_id": 85633793,
        "county_id": 102087579,
        "custom_id": 2048276935,
        "flight_id": 2048276935,
        "locality_id": 85922583,
        "postalcode_id": 554784711,
        "region_id": 85688637,
        "venue_id": 1947304601,
        "wing_id": 1947304591
      },
      {
        "building_id": 1947304067,
        "campus_id": 102527513,
        "concourse_id": 1947304595,
        "continent_id": 102191575,
        "country_id": 85633793,
        "county_id": 102085387,
        "custom_id": 2048276935,
        "flight_id": 2048276935,
        "region_id": 85688637,
        "venue_id": 1947304601,
        "wing_id": 1947304591
      }
    ],
    "wof:id": 2048276935,
    "wof:involves": [
      102533997,
      102527513,
      1159283597,
      1947304601,
      1159283597
    ],
    "wof:lastmodified": 1788883849,
    "wof:name": "AC3516 (SFO-HNL)",
    "wof:parent_id": 1947304601,
    "wof:placetype": "custom",
    "wof:placetype_alt": [
      "flight"
    ],
    "wof:repo": "sfomuseum-data-flights-2026-09",
    "wof:superseded_by": [],
    "wof:supersedes": []
  },
  "bbox": [
    -157.918416,
    21.332508,
    -122.370943,
    37.61799
  ],
  "geometry": {"type":"MultiPoint","coordinates":[[-122.370943,37.61799],[-157.918416,21.332508]]}
}
