{
  "id": 2048257901,
  "type": "Feature",
  "properties": {
    "geom:area": 0,
    "geom:bbox": "-122.367040,36.730300,-121.884910,37.616310",
    "geom:latitude": 37.23705182495761,
    "geom:longitude": -122.08491764747703,
    "src:alt_label": "swim-approach",
    "src:geom": "swim",
    "swim:elevations": [
      5154,
      4897,
      4636,
      4317,
      4254,
      3830,
      3745,
      3433,
      3167,
      3075,
      3040,
      2738,
      2584,
      2542,
      2502,
      2467,
      2441,
      2287,
      2069,
      1845,
      1746,
      1584,
      1441,
      1348,
      1266,
      1137,
      1030,
      867,
      826,
      680,
      614,
      578,
      514,
      486,
      454,
      305,
      211,
      150,
      75,
      684
    ],
    "swim:geom": "approach",
    "swim:timestamps": [
      1788642832,
      1788642861,
      1788642891,
      1788642926,
      1788642932,
      1788642983,
      1788642995,
      1788643032,
      1788643078,
      1788643105,
      1788643117,
      1788643166,
      1788643190,
      1788643196,
      1788643202,
      1788643256,
      1788643262,
      1788643295,
      1788643333,
      1788643367,
      1788643382,
      1788643406,
      1788643431,
      1788643448,
      1788643472,
      1788643524,
      1788643551,
      1788643587,
      1788643593,
      1788643628,
      1788643643,
      1788643655,
      1788643671,
      1788643677,
      1788643692,
      1788643737,
      1788643767,
      1788643785,
      1788643809,
      1788643835
    ],
    "wof:geomhash": "0d0b148817240103a2869756b72abe7d",
    "wof:id": 2048257901,
    "wof:repo": "sfomuseum-data-flights-2026-09"
  },
  "bbox": [
    -122.36704,
    36.7303,
    -121.88491,
    37.61631
  ],
  "geometry": {"type":"LineString","coordinates":[[-121.88491,36.7303],[-121.90412,36.7764],[-121.91673,36.82387],[-121.93206,36.87822],[-121.93462,36.88736],[-121.95688,36.96248],[-121.96347,36.97929],[-121.98277,37.02881],[-122.00562,37.08746],[-122.01806,37.11958],[-122.02402,37.13453],[-122.04658,37.19126],[-122.05773,37.21961],[-122.06098,37.2268],[-122.0655,37.23355],[-122.1233,37.28259],[-122.12979,37.28797],[-122.16499,37.31724],[-122.1941,37.35462],[-122.17216,37.38825],[-122.15562,37.39855],[-122.13218,37.41712],[-122.1182,37.44137],[-122.10853,37.45825],[-122.09694,37.48003],[-122.12997,37.51503],[-122.15622,37.5266],[-122.19014,37.54095],[-122.19548,37.54326],[-122.22428,37.55535],[-122.23626,37.56039],[-122.24595,37.56448],[-122.25854,37.56978],[-122.26313,37.5717],[-122.27369,37.57619],[-122.30206,37.58811],[-122.32103,37.59609],[-122.33242,37.60082],[-122.34782,37.60732],[-122.36704,37.61631]]}
}
