{
  "id": 2048318075,
  "type": "Feature",
  "properties": {
    "geom:area": 0,
    "geom:bbox": "-122.359010,37.491600,-121.282330,37.614520",
    "geom:latitude": 37.54156443860833,
    "geom:longitude": -121.82759255183541,
    "src:alt_label": "swim-approach",
    "src:geom": "swim",
    "swim:elevations": [
      4912,
      4674,
      4422,
      4010,
      3765,
      3493,
      3353,
      3190,
      3036,
      2721,
      2645,
      2411,
      2259,
      2118,
      2041,
      1944,
      1868,
      1681,
      1563,
      1491,
      1310,
      1186,
      982,
      858,
      735,
      601,
      434,
      363,
      291,
      186,
      114,
      81
    ],
    "swim:geom": "approach",
    "swim:timestamps": [
      1789258556,
      1789258580,
      1789258604,
      1789258646,
      1789258670,
      1789258697,
      1789258736,
      1789258766,
      1789258784,
      1789258823,
      1789258838,
      1789258884,
      1789258910,
      1789258930,
      1789258951,
      1789258975,
      1789258990,
      1789259036,
      1789259064,
      1789259079,
      1789259115,
      1789259142,
      1789259178,
      1789259205,
      1789259235,
      1789259265,
      1789259304,
      1789259328,
      1789259349,
      1789259382,
      1789259409,
      1789259437
    ],
    "wof:geomhash": "84232c175e1e5b2f1f56eb0ec8f90e48",
    "wof:id": 2048318075,
    "wof:repo": "sfomuseum-data-flights-2026-09"
  },
  "bbox": [
    -122.35901,
    37.4916,
    -121.28233,
    37.61452
  ],
  "geometry": {"type":"LineString","coordinates":[[-121.28233,37.59038],[-121.32604,37.58532],[-121.3701,37.5803],[-121.44468,37.57181],[-121.48701,37.56693],[-121.53388,37.56131],[-121.59974,37.55371],[-121.64593,37.54573],[-121.67277,37.53915],[-121.73124,37.52532],[-121.75363,37.51993],[-121.81824,37.50441],[-121.85324,37.49604],[-121.88118,37.4916],[-121.91036,37.49355],[-121.94154,37.49516],[-121.96042,37.49601],[-122.01799,37.49912],[-122.05254,37.50108],[-122.07098,37.50221],[-122.1132,37.51079],[-122.13987,37.52201],[-122.17324,37.53614],[-122.19716,37.54627],[-122.22303,37.55712],[-122.24853,37.56786],[-122.2791,37.58068],[-122.29378,37.58689],[-122.30575,37.59194],[-122.32462,37.59991],[-122.34111,37.60675],[-122.35901,37.61452]]}
}
