{
  "id": 2048349095,
  "type": "Feature",
  "properties": {
    "geom:area": 0,
    "geom:bbox": "-122.343520,37.450140,-121.251240,37.607820",
    "geom:latitude": 37.52948948874171,
    "geom:longitude": -121.80497189959948,
    "src:alt_label": "swim-approach",
    "src:geom": "swim",
    "swim:elevations": [
      4727,
      4553,
      4272,
      3973,
      3760,
      3707,
      3520,
      3331,
      3071,
      3018,
      2855,
      2584,
      2529,
      2327,
      2138,
      2052,
      2008,
      1944,
      1828,
      1755,
      1501,
      1459,
      1250,
      992,
      738,
      616,
      454,
      423,
      377,
      245,
      187,
      92
    ],
    "swim:geom": "approach",
    "swim:timestamps": [
      1789559595,
      1789559616,
      1789559655,
      1789559693,
      1789559726,
      1789559734,
      1789559761,
      1789559791,
      1789559835,
      1789559850,
      1789559883,
      1789559930,
      1789559941,
      1789559978,
      1789560008,
      1789560058,
      1789560065,
      1789560077,
      1789560108,
      1789560137,
      1789560174,
      1789560180,
      1789560213,
      1789560267,
      1789560322,
      1789560351,
      1789560383,
      1789560391,
      1789560403,
      1789560438,
      1789560456,
      1789560480
    ],
    "wof:geomhash": "fb120b88796a3ba55dcdbdcda74be819",
    "wof:id": 2048349095,
    "wof:repo": "sfomuseum-data-flights-2026-09"
  },
  "bbox": [
    -122.34352,
    37.45014,
    -121.25124,
    37.60782
  ],
  "geometry": {"type":"LineString","coordinates":[[-121.25124,37.5943],[-121.29074,37.58904],[-121.36334,37.58138],[-121.42964,37.57382],[-121.48605,37.56692],[-121.49838,37.56547],[-121.54158,37.56064],[-121.58694,37.55519],[-121.6476,37.5385],[-121.66138,37.52655],[-121.69716,37.50365],[-121.75565,37.48759],[-121.77024,37.48468],[-121.81649,37.4758],[-121.8539,37.46822],[-121.91772,37.45518],[-121.92662,37.4534],[-121.94251,37.45014],[-121.98099,37.45467],[-122.01476,37.46915],[-122.05614,37.4864],[-122.06245,37.48902],[-122.09914,37.50442],[-122.15745,37.5294],[-122.21471,37.55374],[-122.24401,37.56604],[-122.27288,37.57814],[-122.28012,37.58119],[-122.28909,37.58491],[-122.31464,37.59581],[-122.32655,37.60077],[-122.34352,37.60782]]}
}
