{
  "id": 2048304065,
  "type": "Feature",
  "properties": {
    "geom:area": 0,
    "geom:bbox": "-122.562870,36.727740,-121.314260,37.670210",
    "geom:latitude": 37.2096765704561,
    "geom:longitude": -122.02714234251842,
    "src:alt_label": "swim-takeoff",
    "src:geom": "swim",
    "swim:elevations": [
      183,
      244,
      534,
      820,
      1130,
      1365,
      1876,
      2221,
      2752,
      3141,
      3347,
      3808,
      3934,
      4204,
      4459,
      4952,
      5191,
      5312,
      5558,
      5968,
      6196,
      6418,
      6564,
      6878,
      7099,
      7247,
      7554,
      7657,
      7806,
      8112,
      8266,
      8424,
      8446
    ],
    "swim:geom": "takeoff",
    "swim:timestamps": [
      1789047988,
      1789047991,
      1789048022,
      1789048070,
      1789048099,
      1789048122,
      1789048159,
      1789048184,
      1789048226,
      1789048253,
      1789048270,
      1789048310,
      1789048335,
      1789048367,
      1789048387,
      1789048432,
      1789048460,
      1789048474,
      1789048500,
      1789048553,
      1789048585,
      1789048611,
      1789048630,
      1789048664,
      1789048688,
      1789048712,
      1789048761,
      1789048784,
      1789048803,
      1789048843,
      1789048881,
      1789048916,
      1789048921
    ],
    "wof:geomhash": "35a2665617ceac17dfd57be1852217f4",
    "wof:id": 2048304065,
    "wof:repo": "sfomuseum-data-flights-2026-09"
  },
  "bbox": [
    -122.56287,
    36.72774,
    -121.31426,
    37.67021
  ],
  "geometry": {"type":"LineString","coordinates":[[-122.38594,37.62561],[-122.38861,37.62672],[-122.4118,37.6363],[-122.4609,37.65586],[-122.49765,37.67021],[-122.53194,37.66953],[-122.56287,37.63265],[-122.55426,37.60017],[-122.5199,37.54967],[-122.49819,37.51744],[-122.48403,37.49659],[-122.44611,37.44798],[-122.40757,37.42341],[-122.35571,37.39157],[-122.32296,37.3712],[-122.24628,37.32277],[-122.19979,37.29333],[-122.17463,37.27744],[-122.12984,37.24918],[-122.03341,37.18801],[-121.97401,37.15016],[-121.92612,37.11961],[-121.88992,37.09658],[-121.82488,37.05502],[-121.78,37.02642],[-121.73336,36.99653],[-121.638,36.9354],[-121.59386,36.90689],[-121.55598,36.88207],[-121.47467,36.82985],[-121.39887,36.78072],[-121.32461,36.73432],[-121.31426,36.72774]]}
}
