{
  "id": 2048375571,
  "type": "Feature",
  "properties": {
    "geom:area": 0,
    "geom:bbox": "-122.358910,37.491930,-121.274360,37.614330",
    "geom:latitude": 37.54198408570454,
    "geom:longitude": -121.82349805795053,
    "src:alt_label": "swim-approach",
    "src:geom": "swim",
    "swim:elevations": [
      4647,
      4365,
      4146,
      4066,
      3715,
      3399,
      3202,
      3069,
      2797,
      2735,
      2427,
      2181,
      2069,
      1825,
      1641,
      1526,
      1379,
      1126,
      974,
      814,
      758,
      576,
      441,
      266,
      148,
      186
    ],
    "swim:geom": "approach",
    "swim:timestamps": [
      1789811180,
      1789811215,
      1789811240,
      1789811252,
      1789811297,
      1789811334,
      1789811366,
      1789811384,
      1789811422,
      1789811430,
      1789811480,
      1789811514,
      1789811533,
      1789811576,
      1789811607,
      1789811628,
      1789811652,
      1789811695,
      1789811725,
      1789811757,
      1789811770,
      1789811802,
      1789811828,
      1789811872,
      1789811897,
      1789811932
    ],
    "wof:geomhash": "07ccd8601c8e1e8de25dbfccde9bea1f",
    "wof:id": 2048375571,
    "wof:repo": "sfomuseum-data-flights-2026-09"
  },
  "bbox": [
    -122.35891,
    37.49193,
    -121.27436,
    37.61433
  ],
  "geometry": {"type":"LineString","coordinates":[[-121.27436,37.59133],[-121.34358,37.58326],[-121.39315,37.57774],[-121.41624,37.57516],[-121.50103,37.56544],[-121.57044,37.55726],[-121.62673,37.55002],[-121.6566,37.54293],[-121.71972,37.52809],[-121.73325,37.52487],[-121.81175,37.50619],[-121.86463,37.49351],[-121.89323,37.49193],[-121.95743,37.49564],[-122.00332,37.49831],[-122.03419,37.50003],[-122.07028,37.50206],[-122.12958,37.51748],[-122.16609,37.5327],[-122.20324,37.54878],[-122.21791,37.55491],[-122.25093,37.5689],[-122.27547,37.57927],[-122.31172,37.5945],[-122.33179,37.60295],[-122.35891,37.61433]]}
}
