{
  "id": 2048421817,
  "type": "Feature",
  "properties": {
    "geom:area": 0,
    "geom:bbox": "-122.363889,37.516667,-122.053611,37.632222",
    "geom:latitude": 37.575556450082715,
    "geom:longitude": -122.17418283168723,
    "src:alt_label": "swim-path",
    "src:geom": "swim",
    "swim:altitudes": [
      "067",
      "062",
      "060",
      "056",
      "050",
      "050",
      "047",
      "043",
      "037",
      "034",
      "029",
      "021",
      "018",
      "014",
      "011",
      "007",
      "110"
    ],
    "swim:geom": "path",
    "swim:speeds": [
      224,
      219,
      220,
      217,
      208,
      200,
      197,
      175,
      171,
      166,
      157,
      140,
      129,
      132,
      127,
      130,
      137
    ],
    "swim:timestamps": [
      1790303301,
      1790303323,
      1790303361,
      1790303383,
      1790303421,
      1790303443,
      1790303481,
      1790303503,
      1790303542,
      1790303563,
      1790303602,
      1790303662,
      1790303683,
      1790303722,
      1790303743,
      1790303782,
      1790303842
    ],
    "wof:geomhash": "8cb2ce1108afc380c9ac119eda85ecfd",
    "wof:id": 2048421817,
    "wof:repo": "sfomuseum-data-flights-2026-09"
  },
  "bbox": [
    -122.36388888888888,
    37.516666666666666,
    -122.05361111111111,
    37.632222222222225
  ],
  "geometry": {"type":"LineString","coordinates":[[-122.17055555555557,37.632222222222225],[-122.15,37.61666666666667],[-122.10083333333333,37.60638888888889],[-122.08333333333333,37.6],[-122.05361111111111,37.568333333333335],[-122.06666666666666,37.55],[-122.08638888888889,37.5225],[-122.11666666666666,37.516666666666666],[-122.1413888888889,37.538888888888884],[-122.16666666666667,37.55],[-122.19166666666668,37.56055555555555],[-122.23666666666666,37.57527777777778],[-122.25,37.583333333333336],[-122.27888888888889,37.588055555555556],[-122.3,37.6],[-122.32083333333333,37.60055555555556],[-122.36388888888888,37.61638888888889]]}
}
