{
  "id": 2048386969,
  "type": "Feature",
  "properties": {
    "geom:area": 0,
    "geom:bbox": "-122.348310,37.485350,-121.259750,37.607490",
    "geom:latitude": 37.540900853012694,
    "geom:longitude": -121.81066611831046,
    "src:alt_label": "swim-approach",
    "src:geom": "swim",
    "swim:elevations": [
      4757,
      4714,
      4326,
      4181,
      4049,
      3754,
      3712,
      3480,
      3229,
      3078,
      2706,
      2532,
      2365,
      2259,
      2154,
      1975,
      1829,
      1738,
      1392,
      1372,
      1116,
      1030,
      734,
      716,
      560,
      443,
      221,
      181,
      155,
      64
    ],
    "swim:geom": "approach",
    "swim:timestamps": [
      1789904815,
      1789904825,
      1789904876,
      1789904896,
      1789904911,
      1789904964,
      1789904982,
      1789905020,
      1789905054,
      1789905068,
      1789905115,
      1789905140,
      1789905176,
      1789905193,
      1789905211,
      1789905241,
      1789905296,
      1789905315,
      1789905358,
      1789905365,
      1789905410,
      1789905424,
      1789905477,
      1789905481,
      1789905515,
      1789905540,
      1789905594,
      1789905607,
      1789905613,
      1789905638
    ],
    "wof:geomhash": "21df443378aea5e26772da8e0edda4aa",
    "wof:id": 2048386969,
    "wof:repo": "sfomuseum-data-flights-2026-09"
  },
  "bbox": [
    -122.34831,
    37.48535,
    -121.25975,
    37.60749
  ],
  "geometry": {"type":"LineString","coordinates":[[-121.25975,37.59299],[-121.27839,37.59053],[-121.37154,37.58049],[-121.40835,37.57629],[-121.43504,37.57323],[-121.5277,37.56208],[-121.55617,37.55874],[-121.6138,37.55195],[-121.66155,37.54194],[-121.68181,37.53713],[-121.74608,37.52182],[-121.77968,37.51352],[-121.8277,37.50227],[-121.84973,37.49719],[-121.87289,37.49158],[-121.91383,37.48535],[-121.98797,37.49469],[-122.01384,37.49782],[-122.0727,37.50516],[-122.08188,37.50622],[-122.13824,37.51768],[-122.15481,37.5264],[-122.2137,37.55086],[-122.21775,37.55254],[-122.25066,37.56647],[-122.27316,37.57588],[-122.31518,37.59364],[-122.32502,37.59774],[-122.32954,37.59968],[-122.34831,37.60749]]}
}
