{
  "id": 2048447921,
  "type": "Feature",
  "properties": {
    "geom:area": 0,
    "geom:bbox": "-122.338333,37.493889,-104.650000,39.838333",
    "geom:latitude": 38.60261455963836,
    "geom:longitude": -113.49331585518753,
    "src:alt_label": "swim-path",
    "src:geom": "swim",
    "swim:altitudes": [
      "061",
      "073",
      "098",
      "101",
      "125",
      "152",
      "173",
      "195",
      "218",
      "232",
      "249",
      "258",
      "268",
      "285",
      "309",
      "331",
      "340C",
      "340C",
      "340C",
      "340C",
      "340C",
      "340C",
      "340C",
      "340C",
      "340C",
      "340C",
      "340C",
      "340C",
      "340C",
      "340C",
      "340C",
      "340",
      "347",
      "360C",
      "360C",
      "360C",
      "360C",
      "360C",
      "360C",
      "360C",
      "360C",
      "360C",
      "360C",
      "360C",
      "360C",
      "360C",
      "360",
      "371",
      "380C",
      "380C",
      "380C",
      "380C",
      "380C",
      "380C",
      "380C",
      "380C",
      "380C",
      "380C",
      "380C",
      "380C",
      "380C",
      "380C",
      "380C",
      "380C",
      "380C",
      "380C",
      "380C",
      "380C",
      "380C",
      "380C",
      "380C",
      "380C",
      "380C",
      "380C",
      "380C",
      "380C",
      "380C",
      "380C",
      "380C",
      "380C",
      "380C",
      "380C",
      "380C",
      "380C",
      "380C",
      "380C",
      "380C",
      "380C",
      "380C",
      "380C",
      "380C",
      "380C",
      "380C",
      "380C",
      "380C",
      "380C",
      "380C",
      "380C",
      "380C",
      "380C",
      "380C",
      "380C",
      "380C",
      "380C",
      "380C",
      "380C",
      "380C",
      "380C",
      "380C",
      "380C",
      "380C",
      "380C",
      "380C",
      "380C",
      "380C",
      "380",
      "380",
      "380",
      "359",
      "337",
      "317",
      "300",
      "296",
      "284",
      "276",
      "263",
      "253",
      "234",
      "222",
      "217",
      "205",
      "200",
      "190",
      "184",
      "174",
      "169",
      "159",
      "153",
      "142",
      "138",
      "129",
      "123",
      "114",
      "108",
      "101",
      "096",
      "089",
      "083",
      "078",
      "072",
      "070",
      "068",
      "061",
      "059",
      "055",
      "051",
      "042",
      "039",
      "033",
      "029",
      "024",
      "020",
      "015",
      "011",
      "007",
      "004"
    ],
    "swim:geom": "path",
    "swim:speeds": [
      163,
      228,
      252,
      275,
      284,
      295,
      309,
      313,
      320,
      325,
      348,
      370,
      412,
      431,
      425,
      400,
      382,
      381,
      381,
      380,
      381,
      382,
      384,
      387,
      383,
      382,
      383,
      381,
      378,
      378,
      378,
      377,
      384,
      385,
      368,
      368,
      370,
      373,
      373,
      373,
      371,
      369,
      368,
      367,
      367,
      367,
      370,
      376,
      368,
      367,
      367,
      367,
      367,
      368,
      371,
      374,
      374,
      372,
      371,
      371,
      371,
      371,
      375,
      377,
      377,
      378,
      379,
      381,
      377,
      375,
      374,
      375,
      377,
      379,
      382,
      385,
      385,
      386,
      388,
      390,
      392,
      388,
      385,
      383,
      382,
      386,
      391,
      386,
      384,
      384,
      382,
      383,
      383,
      383,
      383,
      384,
      384,
      384,
      386,
      385,
      381,
      379,
      377,
      376,
      375,
      375,
      377,
      378,
      379,
      385,
      387,
      389,
      384,
      381,
      384,
      387,
      388,
      386,
      378,
      381,
      382,
      370,
      369,
      358,
      352,
      341,
      341,
      335,
      324,
      326,
      317,
      319,
      307,
      309,
      299,
      300,
      297,
      298,
      299,
      298,
      292,
      293,
      285,
      287,
      276,
      274,
      266,
      268,
      251,
      254,
      231,
      227,
      229,
      227,
      208,
      198,
      196,
      180,
      178,
      176,
      168,
      171,
      160,
      158,
      149,
      151
    ],
    "swim:timestamps": [
      1790571024,
      1790571067,
      1790571129,
      1790571189,
      1790571249,
      1790571309,
      1790571361,
      1790571430,
      1790571490,
      1790571550,
      1790571610,
      1790571670,
      1790571730,
      1790571790,
      1790571850,
      1790571910,
      1790571970,
      1790572030,
      1790572091,
      1790572150,
      1790572211,
      1790572271,
      1790572330,
      1790572391,
      1790572450,
      1790572510,
      1790572571,
      1790572631,
      1790572691,
      1790572751,
      1790572811,
      1790572871,
      1790572931,
      1790572991,
      1790573051,
      1790573111,
      1790573172,
      1790573232,
      1790573292,
      1790573352,
      1790573412,
      1790573472,
      1790573532,
      1790573592,
      1790573651,
      1790573712,
      1790573772,
      1790573831,
      1790573892,
      1790573952,
      1790574012,
      1790574072,
      1790574132,
      1790574193,
      1790574253,
      1790574313,
      1790574373,
      1790574433,
      1790574493,
      1790574553,
      1790574613,
      1790574673,
      1790574733,
      1790574793,
      1790574853,
      1790574913,
      1790574973,
      1790575033,
      1790575093,
      1790575153,
      1790575213,
      1790575273,
      1790575334,
      1790575394,
      1790575454,
      1790575514,
      1790575574,
      1790575634,
      1790575694,
      1790575754,
      1790575814,
      1790575874,
      1790575934,
      1790575994,
      1790576054,
      1790576114,
      1790576174,
      1790576234,
      1790576294,
      1790576356,
      1790576414,
      1790576476,
      1790576536,
      1790576596,
      1790576656,
      1790576716,
      1790576776,
      1790576836,
      1790576896,
      1790576956,
      1790577015,
      1790577077,
      1790577137,
      1790577195,
      1790577257,
      1790577317,
      1790577375,
      1790577437,
      1790577497,
      1790577557,
      1790577617,
      1790577677,
      1790577737,
      1790577797,
      1790577857,
      1790577917,
      1790577977,
      1790578037,
      1790578097,
      1790578157,
      1790578217,
      1790578257,
      1790578277,
      1790578306,
      1790578337,
      1790578366,
      1790578397,
      1790578457,
      1790578492,
      1790578517,
      1790578552,
      1790578578,
      1790578606,
      1790578638,
      1790578666,
      1790578698,
      1790578726,
      1790578758,
      1790578792,
      1790578818,
      1790578846,
      1790578878,
      1790578906,
      1790578938,
      1790578966,
      1790578998,
      1790579026,
      1790579058,
      1790579086,
      1790579118,
      1790579146,
      1790579178,
      1790579206,
      1790579238,
      1790579266,
      1790579298,
      1790579326,
      1790579358,
      1790579386,
      1790579418,
      1790579452,
      1790579478,
      1790579512,
      1790579538,
      1790579572,
      1790579598
    ],
    "wof:geomhash": "4b316abe86af1f0ea22b8e9fd701428b",
    "wof:id": 2048447921,
    "wof:repo": "sfomuseum-data-flights-2026-09"
  },
  "bbox": [
    -122.33833333333332,
    37.49388888888889,
    -104.65,
    39.83833333333334
  ],
  "geometry": {"type":"LineString","coordinates":[[-104.65,39.833333333333336],[-104.68333333333334,39.81666666666667],[-104.76972222222223,39.82833333333333],[-104.86305555555555,39.83833333333334],[-104.96555555555555,39.830555555555556],[-105.06805555555555,39.81027777777778],[-105.16666666666667,39.78333333333333],[-105.26944444444445,39.76777777777777],[-105.38444444444445,39.74444444444445],[-105.50972222222222,39.72027777777778],[-105.6388888888889,39.69361111111111],[-105.77555555555556,39.671388888888885],[-105.92750000000001,39.652499999999996],[-106.08083333333333,39.63055555555555],[-106.2286111111111,39.61],[-106.36638888888888,39.59055555555556],[-106.49888888888889,39.571111111111115],[-106.63361111111112,39.55166666666666],[-106.76305555555555,39.51861111111111],[-106.88861111111112,39.47972222222222],[-107.01638888888888,39.43861111111111],[-107.14444444444445,39.39833333333333],[-107.28027777777778,39.365],[-107.41000000000001,39.339444444444446],[-107.54888888888888,39.31222222222222],[-107.67972222222222,39.28638888888889],[-107.80638888888889,39.260555555555555],[-107.93694444444445,39.23416666666667],[-108.06666666666666,39.208333333333336],[-108.1975,39.18138888888889],[-108.32833333333333,39.15416666666667],[-108.45861111111111,39.12888888888889],[-108.5936111111111,39.10111111111111],[-108.72805555555556,39.073055555555555],[-108.8561111111111,39.05694444444444],[-108.98777777777778,39.05083333333333],[-109.12083333333332,39.044444444444444],[-109.25583333333333,39.038333333333334],[-109.38916666666667,39.031666666666666],[-109.52361111111111,39.025],[-109.65444444444445,39.01833333333333],[-109.78388888888888,39.007222222222225],[-109.91388888888889,38.99638888888889],[-110.04416666666667,38.98527777777778],[-110.17305555555556,38.97416666666667],[-110.30388888888889,38.96277777777778],[-110.4375,38.950833333333335],[-110.56972222222223,38.93861111111111],[-110.69972222222222,38.92722222222222],[-110.8286111111111,38.915],[-110.9625,38.902499999999996],[-111.09666666666666,38.88972222222222],[-111.22666666666667,38.8775],[-111.35666666666665,38.86472222222223],[-111.48722222222223,38.85194444444445],[-111.62166666666666,38.83861111111111],[-111.75194444444445,38.82527777777778],[-111.88333333333334,38.81194444444444],[-112.01416666666667,38.79861111111111],[-112.14361111111111,38.78527777777778],[-112.27416666666666,38.771388888888886],[-112.40472222222223,38.7575],[-112.5363888888889,38.74333333333333],[-112.66944444444445,38.72888888888889],[-112.80166666666666,38.714444444444446],[-112.93611111111112,38.69944444444444],[-113.06833333333333,38.68444444444444],[-113.20333333333333,38.669444444444444],[-113.33472222222221,38.65416666666667],[-113.46583333333334,38.638888888888886],[-113.595,38.62388888888889],[-113.72722222222222,38.608333333333334],[-113.86083333333333,38.5925],[-113.99416666666667,38.57638888888889],[-114.12694444444443,38.559999999999995],[-114.26444444444445,38.54333333333333],[-114.39777777777779,38.526666666666664],[-114.53305555555555,38.50972222222222],[-114.67055555555557,38.492222222222225],[-114.80611111111111,38.475],[-114.94361111111111,38.45722222222223],[-115.0786111111111,38.439722222222215],[-115.21222222222222,38.42194444444444],[-115.345,38.404444444444444],[-115.47833333333334,38.38666666666666],[-115.61166666666666,38.36833333333333],[-115.75,38.349722222222226],[-115.88416666666667,38.331388888888895],[-116.0175,38.312777777777775],[-116.15166666666667,38.29416666666666],[-116.28277777777778,38.275555555555556],[-116.41888888888889,38.25611111111111],[-116.55166666666666,38.23722222222222],[-116.68444444444445,38.21805555555556],[-116.81805555555555,38.19833333333333],[-116.95277777777778,38.17833333333333],[-117.08527777777778,38.15888888888889],[-117.2075,38.14055555555556],[-117.34305555555555,38.12027777777778],[-117.49972222222222,38.09638888888889],[-117.60222222222221,38.080555555555556],[-117.76027777777777,38.05611111111111],[-117.8888888888889,38.03611111111111],[-117.99055555555556,38.02027777777778],[-118.14777777777779,37.99527777777778],[-118.27777777777777,37.974722222222226],[-118.38138888888888,37.95777777777778],[-118.53888888888889,37.93277777777777],[-118.67,37.91111111111111],[-118.80388888888889,37.89111111111111],[-118.93972222222223,37.87583333333333],[-119.05,37.863055555555555],[-119.18527777777778,37.847500000000004],[-119.31555555555555,37.83222222222223],[-119.44916666666667,37.81638888888889],[-119.58444444444444,37.80027777777777],[-119.72,37.784166666666664],[-119.8536111111111,37.76777777777777],[-119.98388888888888,37.75194444444445],[-120.11916666666666,37.735],[-120.25,37.718611111111116],[-120.35,37.7],[-120.37972222222221,37.7025],[-120.45,37.7],[-120.5025,37.687777777777775],[-120.56666666666666,37.68333333333333],[-120.61916666666666,37.674166666666665],[-120.73555555555555,37.660555555555554],[-120.81666666666666,37.65],[-120.84777777777778,37.64694444444444],[-120.93333333333334,37.63333333333333],[-120.95805555555556,37.63361111111111],[-121.01666666666667,37.61666666666667],[-121.065,37.619166666666665],[-121.13333333333334,37.61666666666667],[-121.16916666666667,37.605555555555554],[-121.23333333333333,37.6],[-121.27333333333333,37.59138888888889],[-121.35,37.583333333333336],[-121.37777777777777,37.57972222222222],[-121.43333333333334,37.56666666666667],[-121.47805555555556,37.56805555555556],[-121.53333333333333,37.56666666666667],[-121.57666666666667,37.55638888888888],[-121.63333333333334,37.55],[-121.67027777777778,37.53972222222222],[-121.71666666666667,37.53333333333333],[-121.75944444444444,37.51833333333333],[-121.81666666666666,37.5],[-121.84555555555555,37.49805555555556],[-121.9,37.5],[-121.92583333333334,37.49388888888889],[-121.96666666666667,37.5],[-122.0038888888889,37.498333333333335],[-122.05,37.5],[-122.07638888888889,37.5025],[-122.11666666666666,37.516666666666666],[-122.13777777777779,37.52111111111111],[-122.16666666666667,37.53333333333333],[-122.19111111111111,37.54361111111111],[-122.23333333333333,37.56666666666667],[-122.24277777777777,37.565555555555555],[-122.28333333333333,37.583333333333336],[-122.295,37.58722222222222],[-122.31666666666666,37.6],[-122.33833333333332,37.60583333333334]]}
}
