{
  "id": 2048279881,
  "type": "Feature",
  "properties": {
    "geom:area": 0,
    "geom:bbox": "-123.498750,37.028190,-122.396170,37.656950",
    "geom:latitude": 37.37694633328193,
    "geom:longitude": -122.95554304506939,
    "src:alt_label": "swim-takeoff",
    "src:geom": "swim",
    "swim:elevations": [
      122,
      291,
      596,
      918,
      1254,
      1723,
      2234,
      2548,
      2869,
      3231,
      3372,
      3417,
      3842,
      4167,
      4328,
      4544,
      4892,
      5211,
      5361,
      5719,
      6104,
      6401,
      6590,
      6858,
      7010
    ],
    "swim:geom": "takeoff",
    "swim:timestamps": [
      1788789745,
      1788789760,
      1788789785,
      1788789815,
      1788789875,
      1788789917,
      1788789955,
      1788789978,
      1788790004,
      1788790044,
      1788790074,
      1788790085,
      1788790133,
      1788790163,
      1788790181,
      1788790202,
      1788790240,
      1788790277,
      1788790294,
      1788790334,
      1788790377,
      1788790408,
      1788790429,
      1788790463,
      1788790482
    ],
    "wof:geomhash": "6915b2ba85a4c9348795658cd7d15634",
    "wof:id": 2048279881,
    "wof:repo": "sfomuseum-data-flights-2026-09"
  },
  "bbox": [
    -123.49875,
    37.02819,
    -122.39617,
    37.65695
  ],
  "geometry": {"type":"LineString","coordinates":[[-122.39617,37.6275],[-122.41129,37.6334],[-122.43475,37.64374],[-122.46393,37.65695],[-122.5343,37.65538],[-122.58456,37.62228],[-122.63294,37.59154],[-122.6622,37.57285],[-122.69612,37.55122],[-122.74925,37.51681],[-122.79295,37.48882],[-122.8092,37.47828],[-122.88759,37.42786],[-122.93587,37.39644],[-122.96558,37.377],[-123.00135,37.35379],[-123.0668,37.31144],[-123.12981,37.27039],[-123.16056,37.2504],[-123.2302,37.20491],[-123.30831,37.15387],[-123.36353,37.11772],[-123.40291,37.09181],[-123.46408,37.05108],[-123.49875,37.02819]]}
}
