{
  "id": 2048378821,
  "type": "Feature",
  "properties": {
    "geom:area": 0,
    "geom:bbox": "-122.847440,37.365350,-122.114920,38.498560",
    "geom:latitude": 37.78422004313715,
    "geom:longitude": -122.48627223658977,
    "src:alt_label": "swim-approach",
    "src:geom": "swim",
    "swim:elevations": [
      7620,
      7260,
      7171,
      6755,
      6407,
      6005,
      5710,
      5443,
      5338,
      5068,
      4763,
      4479,
      4388,
      4273,
      3961,
      3859,
      3778,
      3565,
      3383,
      3353,
      3353,
      3330,
      3245,
      3000,
      2894,
      2657,
      2424,
      2338,
      2285,
      1957,
      1928,
      1829,
      1798,
      1698,
      1584,
      1491,
      1431,
      1240,
      1164,
      1127,
      1035,
      899,
      769,
      659,
      486,
      329,
      235,
      124,
      0,
      0
    ],
    "swim:geom": "approach",
    "swim:timestamps": [
      1789809980,
      1789810017,
      1789810026,
      1789810060,
      1789810095,
      1789810136,
      1789810167,
      1789810196,
      1789810211,
      1789810238,
      1789810270,
      1789810316,
      1789810334,
      1789810358,
      1789810406,
      1789810425,
      1789810440,
      1789810479,
      1789810505,
      1789810539,
      1789810567,
      1789810610,
      1789810627,
      1789810652,
      1789810664,
      1789810689,
      1789810719,
      1789810752,
      1789810772,
      1789810827,
      1789810832,
      1789810869,
      1789810918,
      1789810937,
      1789810968,
      1789810991,
      1789811015,
      1789811063,
      1789811085,
      1789811105,
      1789811134,
      1789811180,
      1789811207,
      1789811231,
      1789811267,
      1789811307,
      1789811334,
      1789811366,
      1789811396,
      1789811404
    ],
    "wof:geomhash": "41f60873edb4c3c765bb5b976e968977",
    "wof:id": 2048378821,
    "wof:repo": "sfomuseum-data-flights-2026-09"
  },
  "bbox": [
    -122.84744,
    37.36535,
    -122.11492,
    38.49856
  ],
  "geometry": {"type":"LineString","coordinates":[[-122.84744,38.49856],[-122.82677,38.42824],[-122.82233,38.41307],[-122.80412,38.35103],[-122.78551,38.28753],[-122.76402,38.21426],[-122.74854,38.1609],[-122.73428,38.1118],[-122.7272,38.08742],[-122.71437,38.04307],[-122.69903,37.99011],[-122.67833,37.91838],[-122.66496,37.8937],[-122.63864,37.86755],[-122.58827,37.81982],[-122.56897,37.80161],[-122.55466,37.788],[-122.51613,37.75153],[-122.49028,37.72706],[-122.45835,37.69697],[-122.43129,37.67147],[-122.38966,37.63236],[-122.37433,37.6177],[-122.35819,37.59128],[-122.35031,37.57864],[-122.33367,37.55178],[-122.32341,37.51749],[-122.33425,37.47916],[-122.34114,37.45651],[-122.35554,37.39384],[-122.35384,37.38896],[-122.31294,37.36661],[-122.24798,37.36535],[-122.22756,37.37526],[-122.19379,37.39435],[-122.16957,37.40754],[-122.14568,37.4202],[-122.11863,37.45516],[-122.11492,37.47327],[-122.12475,37.48826],[-122.14536,37.50854],[-122.1816,37.53655],[-122.20714,37.54792],[-122.23053,37.55804],[-122.26507,37.57252],[-122.29648,37.58577],[-122.31588,37.59389],[-122.33822,37.60326],[-122.35918,37.61213],[-122.36404,37.61467]]}
}
