{
  "id": 2048361249,
  "type": "Feature",
  "properties": {
    "geom:area": 0,
    "geom:bbox": "-122.849270,37.403140,-122.081580,38.499530",
    "geom:latitude": 37.80639165598341,
    "geom:longitude": -122.48270682851971,
    "src:alt_label": "swim-approach",
    "src:geom": "swim",
    "swim:elevations": [
      7578,
      7234,
      7073,
      6782,
      6512,
      6132,
      5925,
      5599,
      5457,
      4988,
      4672,
      4388,
      4118,
      3873,
      3574,
      3471,
      3369,
      3353,
      3353,
      3353,
      3353,
      3134,
      2969,
      2801,
      2437,
      2401,
      2162,
      2081,
      1871,
      1741,
      1352,
      1227,
      1229,
      1146,
      977,
      911,
      914,
      787,
      597,
      546,
      368,
      365,
      183,
      30,
      129
    ],
    "swim:geom": "approach",
    "swim:timestamps": [
      1789643871,
      1789643903,
      1789643920,
      1789643950,
      1789643978,
      1789644020,
      1789644041,
      1789644075,
      1789644091,
      1789644142,
      1789644175,
      1789644205,
      1789644236,
      1789644260,
      1789644295,
      1789644323,
      1789644356,
      1789644378,
      1789644391,
      1789644426,
      1789644459,
      1789644506,
      1789644536,
      1789644564,
      1789644626,
      1789644636,
      1789644678,
      1789644691,
      1789644728,
      1789644759,
      1789644804,
      1789644827,
      1789644857,
      1789644891,
      1789644923,
      1789644942,
      1789644967,
      1789644996,
      1789645043,
      1789645055,
      1789645106,
      1789645111,
      1789645154,
      1789645194,
      1789645203
    ],
    "wof:geomhash": "f7a9a82d969bc47af61e39f9ad4358fc",
    "wof:id": 2048361249,
    "wof:repo": "sfomuseum-data-flights-2026-09"
  },
  "bbox": [
    -122.84927,
    37.40314,
    -122.08158,
    38.49953
  ],
  "geometry": {"type":"LineString","coordinates":[[-122.84927,38.49953],[-122.8313,38.4438],[-122.8223,38.41301],[-122.80604,38.35793],[-122.79174,38.30907],[-122.77077,38.23735],[-122.76062,38.20234],[-122.74369,38.14348],[-122.73556,38.11582],[-122.7111,38.03168],[-122.69515,37.97673],[-122.68111,37.92834],[-122.65484,37.88338],[-122.62316,37.85286],[-122.57686,37.8092],[-122.54113,37.77535],[-122.50335,37.73967],[-122.47821,37.71578],[-122.46262,37.70108],[-122.42552,37.66627],[-122.39401,37.63652],[-122.3567,37.58872],[-122.33764,37.55828],[-122.32016,37.5298],[-122.28079,37.46553],[-122.27489,37.45591],[-122.24928,37.41433],[-122.23736,37.40385],[-122.18753,37.40314],[-122.14928,37.41741],[-122.09945,37.44668],[-122.08158,37.46636],[-122.08885,37.49282],[-122.11565,37.50935],[-122.14342,37.52123],[-122.15921,37.52794],[-122.18057,37.53688],[-122.20557,37.54749],[-122.24391,37.56367],[-122.25271,37.5673],[-122.28943,37.58282],[-122.29272,37.58418],[-122.32452,37.59752],[-122.35378,37.6098],[-122.35984,37.61197]]}
}
