{
  "id": 2048400839,
  "type": "Feature",
  "properties": {
    "geom:area": 0,
    "geom:bbox": "-122.616500,36.726310,-121.586000,37.666690",
    "geom:latitude": 37.226393867643615,
    "geom:longitude": -122.18106279040289,
    "src:alt_label": "swim-takeoff",
    "src:geom": "swim",
    "swim:elevations": [
      152,
      593,
      828,
      1174,
      1405,
      1752,
      2139,
      2563,
      2839,
      3371,
      3547,
      4090,
      4538,
      4858,
      5230,
      5616,
      6070,
      6233,
      6524,
      6862,
      7303,
      7544,
      7833,
      8096,
      8318,
      8466,
      8688,
      8839,
      8839,
      8839,
      8839
    ],
    "swim:geom": "takeoff",
    "swim:timestamps": [
      1790000235,
      1790000270,
      1790000291,
      1790000323,
      1790000346,
      1790000374,
      1790000419,
      1790000446,
      1790000461,
      1790000509,
      1790000526,
      1790000567,
      1790000602,
      1790000629,
      1790000654,
      1790000687,
      1790000725,
      1790000747,
      1790000774,
      1790000810,
      1790000841,
      1790000871,
      1790000903,
      1790000930,
      1790000967,
      1790000986,
      1790001019,
      1790001058,
      1790001085,
      1790001108,
      1790001121
    ],
    "wof:geomhash": "557e88e7793b77095f45fa4c88355d5e",
    "wof:id": 2048400839,
    "wof:repo": "sfomuseum-data-flights-2026-09"
  },
  "bbox": [
    -122.6165,
    36.72631,
    -121.586,
    37.66669
  ],
  "geometry": {"type":"LineString","coordinates":[[-122.3815,37.62164],[-122.40682,37.6331],[-122.42334,37.63963],[-122.44812,37.64887],[-122.46901,37.65644],[-122.49777,37.66669],[-122.54974,37.64654],[-122.57491,37.61727],[-122.58903,37.60102],[-122.6165,37.54001],[-122.60285,37.51665],[-122.53926,37.47264],[-122.48552,37.43317],[-122.44285,37.40016],[-122.40256,37.36878],[-122.34966,37.32737],[-122.2875,37.2788],[-122.25067,37.24999],[-122.20438,37.21367],[-122.14334,37.16574],[-122.08848,37.12257],[-122.03662,37.08174],[-121.98183,37.038],[-121.93431,36.99988],[-121.86643,36.94739],[-121.83259,36.92067],[-121.76972,36.87168],[-121.69818,36.81528],[-121.65024,36.77759],[-121.60875,36.74471],[-121.586,36.72631]]}
}
