{
  "id": 2048348189,
  "type": "Feature",
  "properties": {
    "geom:area": 0,
    "geom:bbox": "-122.403480,37.625140,-121.470380,38.493710",
    "geom:latitude": 38.10858698220267,
    "geom:longitude": -122.0357379131339,
    "src:alt_label": "swim-takeoff",
    "src:geom": "swim",
    "swim:elevations": [
      213,
      553,
      1107,
      1234,
      1436,
      1755,
      2017,
      2672,
      2896,
      3235,
      3299,
      3429,
      3740,
      4237,
      4481,
      4663,
      5140,
      5203,
      5642,
      5861,
      6218,
      6421,
      6722,
      6939,
      7111,
      7175,
      7338
    ],
    "swim:geom": "takeoff",
    "swim:timestamps": [
      1789519208,
      1789519234,
      1789519282,
      1789519300,
      1789519337,
      1789519370,
      1789519391,
      1789519433,
      1789519457,
      1789519488,
      1789519502,
      1789519533,
      1789519566,
      1789519611,
      1789519641,
      1789519656,
      1789519704,
      1789519713,
      1789519760,
      1789519780,
      1789519825,
      1789519846,
      1789519885,
      1789519915,
      1789519945,
      1789519954,
      1789519981
    ],
    "wof:geomhash": "020d88540d0e9a1a946942a02f1e4e5e",
    "wof:id": 2048348189,
    "wof:repo": "sfomuseum-data-flights-2026-09"
  },
  "bbox": [
    -122.40348,
    37.62514,
    -121.47038,
    38.49371
  ],
  "geometry": {"type":"LineString","coordinates":[[-122.39019,37.62514],[-122.40348,37.6408],[-122.37866,37.67539],[-122.3661,37.68876],[-122.33975,37.7222],[-122.3449,37.76109],[-122.35758,37.78638],[-122.38195,37.83554],[-122.38581,37.86711],[-122.38427,37.91065],[-122.38021,37.92993],[-122.34047,37.96712],[-122.28378,38.00194],[-122.20426,38.05037],[-122.14934,38.08365],[-122.12148,38.10052],[-122.03165,38.15507],[-122.0145,38.16551],[-121.92294,38.22076],[-121.88398,38.24431],[-121.79393,38.29866],[-121.7513,38.32433],[-121.6717,38.37215],[-121.60955,38.40939],[-121.54653,38.44715],[-121.52737,38.45856],[-121.47038,38.49371]]}
}
