{
  "id": 2048452817,
  "type": "Feature",
  "properties": {
    "geom:area": 0,
    "geom:bbox": "-122.418160,37.634910,-121.247560,38.424680",
    "geom:latitude": 38.00277259142711,
    "geom:longitude": -121.82885092831798,
    "src:alt_label": "swim-takeoff",
    "src:geom": "swim",
    "swim:elevations": [
      362,
      704,
      1024,
      1280,
      2414,
      2608,
      3027,
      3312,
      3576,
      3806,
      3832,
      4370,
      4699,
      4775,
      5033,
      5227,
      5560,
      5788,
      5855,
      5928,
      6309,
      6401,
      6623,
      6787,
      6936,
      7262
    ],
    "swim:geom": "takeoff",
    "swim:timestamps": [
      1790509129,
      1790509161,
      1790509188,
      1790509222,
      1790509314,
      1790509326,
      1790509362,
      1790509391,
      1790509433,
      1790509468,
      1790509471,
      1790509520,
      1790509553,
      1790509561,
      1790509587,
      1790509610,
      1790509643,
      1790509665,
      1790509673,
      1790509680,
      1790509728,
      1790509736,
      1790509765,
      1790509784,
      1790509804,
      1790509849
    ],
    "wof:geomhash": "2d88da97bba0612a92980b7ee82cf352",
    "wof:id": 2048452817,
    "wof:repo": "sfomuseum-data-flights-2026-09"
  },
  "bbox": [
    -122.41816,
    37.63491,
    -121.24756,
    38.42468
  ],
  "geometry": {"type":"LineString","coordinates":[[-122.40662,37.63491],[-122.41816,37.65989],[-122.39649,37.67775],[-122.35068,37.68393],[-122.21277,37.72226],[-122.19821,37.73483],[-122.15577,37.76945],[-122.10931,37.78977],[-122.03488,37.8225],[-121.97549,37.86003],[-121.96922,37.86488],[-121.8873,37.93047],[-121.83046,37.97602],[-121.8171,37.98677],[-121.77013,38.02502],[-121.72893,38.05876],[-121.66883,38.10813],[-121.62755,38.14204],[-121.61367,38.15333],[-121.59987,38.16467],[-121.50786,38.23981],[-121.49085,38.25374],[-121.43553,38.29884],[-121.39537,38.32946],[-121.35095,38.35983],[-121.24756,38.42468]]}
}
