{
  "id": 2048248797,
  "type": "Feature",
  "properties": {
    "geom:area": 0,
    "geom:bbox": "-122.813940,37.557850,-122.044730,38.383140",
    "geom:latitude": 37.82315834566392,
    "geom:longitude": -122.45286980416219,
    "src:alt_label": "swim-approach",
    "src:geom": "swim",
    "swim:elevations": [
      7559,
      7498,
      7116,
      6706,
      6231,
      6019,
      5789,
      5359,
      5084,
      4641,
      4426,
      3968,
      3867,
      3596,
      3355,
      3353,
      3321,
      3175,
      3107,
      2902,
      2828,
      2612,
      2505,
      2337,
      2088,
      1830,
      1829,
      1829,
      1658,
      1524,
      1332,
      1198,
      914,
      794,
      714,
      580,
      429,
      368,
      244,
      132,
      0
    ],
    "swim:geom": "approach",
    "swim:timestamps": [
      1788513146,
      1788513151,
      1788513184,
      1788513221,
      1788513263,
      1788513284,
      1788513304,
      1788513346,
      1788513372,
      1788513413,
      1788513439,
      1788513475,
      1788513487,
      1788513517,
      1788513560,
      1788513580,
      1788513606,
      1788513645,
      1788513675,
      1788513719,
      1788513733,
      1788513765,
      1788513783,
      1788513811,
      1788513845,
      1788513887,
      1788513920,
      1788513934,
      1788513960,
      1788514002,
      1788514032,
      1788514055,
      1788514106,
      1788514135,
      1788514155,
      1788514187,
      1788514224,
      1788514241,
      1788514274,
      1788514301,
      1788514334
    ],
    "wof:geomhash": "2ce93709f42b8bbeefe718beb15a40d8",
    "wof:id": 2048248797,
    "wof:repo": "sfomuseum-data-flights-2026-09"
  },
  "bbox": [
    -122.81394,
    37.55785,
    -122.04473,
    38.38314
  ],
  "geometry": {"type":"LineString","coordinates":[[-122.81394,38.38314],[-122.81133,38.37428],[-122.79446,38.31683],[-122.77536,38.25149],[-122.75473,38.18075],[-122.74464,38.14568],[-122.73501,38.11223],[-122.71496,38.04376],[-122.70305,38.00262],[-122.68417,37.93515],[-122.66612,37.89558],[-122.61989,37.8488],[-122.60468,37.83437],[-122.56539,37.79732],[-122.51044,37.74606],[-122.48527,37.72591],[-122.4457,37.71446],[-122.38915,37.70048],[-122.34701,37.69042],[-122.29082,37.67671],[-122.27356,37.67254],[-122.23483,37.66325],[-122.2129,37.65802],[-122.17979,37.64982],[-122.13893,37.63981],[-122.08943,37.62657],[-122.05718,37.60492],[-122.04473,37.5953],[-122.04533,37.57304],[-122.08493,37.56585],[-122.11406,37.5628],[-122.13477,37.56094],[-122.18074,37.55785],[-122.20476,37.56494],[-122.22154,37.57021],[-122.24865,37.57901],[-122.27721,37.58768],[-122.29005,37.5915],[-122.31534,37.59899],[-122.33583,37.6051],[-122.36122,37.61488]]}
}
