{
  "id": 2048328823,
  "type": "Feature",
  "properties": {
    "geom:area": 0,
    "geom:bbox": "-122.403170,37.624690,-122.114450,38.500060",
    "geom:latitude": 38.01112099733519,
    "geom:longitude": -122.1926574293147,
    "src:alt_label": "swim-takeoff",
    "src:geom": "swim",
    "swim:elevations": [
      152,
      374,
      612,
      684,
      847,
      1082,
      1696,
      1856,
      2159,
      2588,
      2861,
      3149,
      3541,
      3808,
      4183,
      4418,
      4811,
      5256,
      5541,
      5633,
      5821,
      6123,
      6274,
      6542,
      6862,
      7154
    ],
    "swim:geom": "takeoff",
    "swim:timestamps": [
      1789333584,
      1789333602,
      1789333644,
      1789333655,
      1789333676,
      1789333691,
      1789333735,
      1789333754,
      1789333785,
      1789333818,
      1789333839,
      1789333871,
      1789333917,
      1789333940,
      1789333968,
      1789333989,
      1789334027,
      1789334066,
      1789334093,
      1789334102,
      1789334124,
      1789334158,
      1789334174,
      1789334202,
      1789334239,
      1789334269
    ],
    "wof:geomhash": "02e797c6c8e4a01a566720a1f8686b38",
    "wof:id": 2048328823,
    "wof:repo": "sfomuseum-data-flights-2026-09"
  },
  "bbox": [
    -122.40317,
    37.62469,
    -122.11445,
    38.50006
  ],
  "geometry": {"type":"LineString","coordinates":[[-122.38953,37.62469],[-122.40317,37.63297],[-122.39141,37.6638],[-122.37652,37.66709],[-122.34729,37.67194],[-122.32573,37.67805],[-122.2657,37.69865],[-122.24041,37.70777],[-122.20804,37.737],[-122.20177,37.77939],[-122.1993,37.80665],[-122.19346,37.84926],[-122.18279,37.91619],[-122.17727,37.95029],[-122.16976,37.99364],[-122.16422,38.02618],[-122.15393,38.08562],[-122.14337,38.14906],[-122.13608,38.19363],[-122.13387,38.2076],[-122.12801,38.24418],[-122.11833,38.30302],[-122.11445,38.33203],[-122.11615,38.38084],[-122.12052,38.44629],[-122.12419,38.50006]]}
}
