{
  "id": 2048428727,
  "type": "Feature",
  "properties": {
    "geom:area": 0,
    "geom:bbox": "-122.395278,32.733333,-117.216667,37.603333",
    "geom:latitude": 35.15736727540971,
    "geom:longitude": -120.1733150637738,
    "src:alt_label": "swim-path",
    "src:geom": "swim",
    "swim:altitudes": [
      "008",
      "025",
      "048",
      "074",
      "102",
      "118",
      "143",
      "165",
      "184",
      "201",
      "218",
      "234",
      "248",
      "264",
      "277",
      "286",
      "298",
      "308",
      "318",
      "329",
      "342",
      "355",
      "360C",
      "360C",
      "360C",
      "360C",
      "360C",
      "360C",
      "360C",
      "360C",
      "360C",
      "360C",
      "360C",
      "360C",
      "360C",
      "360C",
      "360C",
      "360C",
      "360C",
      "360C",
      "360C",
      "360C",
      "360C",
      "360",
      "351",
      "342",
      "342",
      "332",
      "332",
      "322",
      "308",
      "290",
      "275",
      "262",
      "257",
      "245",
      "245",
      "228",
      "211",
      "195",
      "194",
      "178",
      "177",
      "161",
      "144",
      "127",
      "100",
      "100",
      "099",
      "099",
      "100",
      "099",
      "089",
      "078",
      "069",
      "067",
      "059",
      "057",
      "056",
      "050",
      "045",
      "040",
      "036",
      "027",
      "018",
      "011",
      "010",
      "004"
    ],
    "swim:geom": "path",
    "swim:speeds": [
      172,
      226,
      265,
      279,
      300,
      347,
      352,
      360,
      368,
      378,
      388,
      397,
      409,
      413,
      421,
      429,
      435,
      440,
      447,
      450,
      444,
      435,
      434,
      434,
      429,
      429,
      432,
      436,
      435,
      434,
      431,
      432,
      430,
      429,
      429,
      430,
      432,
      416,
      415,
      410,
      411,
      411,
      415,
      417,
      426,
      427,
      427,
      424,
      424,
      416,
      404,
      396,
      373,
      371,
      378,
      387,
      383,
      377,
      364,
      353,
      357,
      346,
      351,
      346,
      339,
      330,
      287,
      243,
      248,
      240,
      238,
      239,
      239,
      241,
      243,
      246,
      243,
      204,
      208,
      201,
      203,
      191,
      181,
      186,
      182,
      140,
      145,
      140
    ],
    "swim:timestamps": [
      1790377718,
      1790377783,
      1790377843,
      1790377903,
      1790377963,
      1790378023,
      1790378083,
      1790378143,
      1790378204,
      1790378264,
      1790378324,
      1790378384,
      1790378444,
      1790378504,
      1790378564,
      1790378624,
      1790378684,
      1790378744,
      1790378804,
      1790378865,
      1790378925,
      1790378991,
      1790379045,
      1790379051,
      1790379111,
      1790379171,
      1790379225,
      1790379232,
      1790379292,
      1790379352,
      1790379405,
      1790379412,
      1790379472,
      1790379532,
      1790379592,
      1790379652,
      1790379712,
      1790379766,
      1790379772,
      1790379826,
      1790379832,
      1790379893,
      1790379953,
      1790380013,
      1790380073,
      1790380127,
      1790380133,
      1790380187,
      1790380193,
      1790380253,
      1790380313,
      1790380373,
      1790380433,
      1790380493,
      1790380507,
      1790380543,
      1790380554,
      1790380614,
      1790380663,
      1790380723,
      1790380734,
      1790380783,
      1790380794,
      1790380854,
      1790380914,
      1790380974,
      1790381083,
      1790381143,
      1790381154,
      1790381215,
      1790381263,
      1790381275,
      1790381335,
      1790381395,
      1790381443,
      1790381455,
      1790381515,
      1790381564,
      1790381575,
      1790381624,
      1790381695,
      1790381755,
      1790381804,
      1790381876,
      1790381936,
      1790381984,
      1790381996,
      1790382056
    ],
    "wof:geomhash": "a4f9f2dbef7ea774c96736522e67ad3f",
    "wof:id": 2048428727,
    "wof:repo": "sfomuseum-data-flights-2026-09"
  },
  "bbox": [
    -122.39527777777778,
    32.733333333333334,
    -117.21666666666667,
    37.60333333333333
  ],
  "geometry": {"type":"LineString","coordinates":[[-117.21666666666667,32.733333333333334],[-117.26333333333334,32.76777777777777],[-117.33416666666666,32.80888888888889],[-117.4075,32.85666666666667],[-117.49222222222222,32.91111111111111],[-117.58,32.9675],[-117.67222222222223,33.02638888888889],[-117.7611111111111,33.094722222222224],[-117.84083333333332,33.17305555555555],[-117.92694444444444,33.248333333333335],[-118.01944444444445,33.325833333333335],[-118.11222222222221,33.40333333333333],[-118.21055555555556,33.485],[-118.30805555555555,33.566111111111105],[-118.41083333333334,33.651111111111106],[-118.49555555555555,33.721111111111114],[-118.60083333333333,33.808055555555555],[-118.7063888888889,33.894444444444446],[-118.81388888888888,33.9825],[-118.92111111111112,34.07055555555556],[-119.03277777777778,34.15416666666667],[-119.18,34.23166666666667],[-119.27888888888889,34.28138888888889],[-119.31166666666667,34.295833333333334],[-119.43166666666667,34.36027777777778],[-119.55277777777778,34.42527777777777],[-119.6286111111111,34.489444444444445],[-119.65666666666667,34.51222222222222],[-119.74416666666667,34.583333333333336],[-119.84777777777778,34.66694444444444],[-119.94916666666667,34.74861111111111],[-119.95277777777778,34.75138888888889],[-120.05555555555556,34.83416666666667],[-120.16027777777778,34.918055555555554],[-120.26361111111112,35.00055555555556],[-120.36999999999999,35.08555555555556],[-120.4713888888889,35.175555555555555],[-120.56888888888888,35.26277777777778],[-120.56888888888888,35.26277777777778],[-120.66305555555556,35.346111111111114],[-120.66472222222222,35.347500000000004],[-120.7611111111111,35.433055555555555],[-120.8536111111111,35.52194444444444],[-120.94,35.615],[-121.02805555555555,35.70888888888889],[-121.115,35.80222222222222],[-121.11638888888888,35.803888888888885],[-121.20138888888889,35.894999999999996],[-121.20416666666667,35.89805555555556],[-121.29027777777777,35.98916666666667],[-121.37249999999999,36.07833333333333],[-121.44666666666667,36.17194444444444],[-121.56277777777777,36.211666666666666],[-121.68416666666667,36.23972222222222],[-121.71666666666667,36.25],[-121.75,36.31666666666667],[-121.75861111111111,36.322500000000005],[-121.79166666666667,36.42305555555555],[-121.81666666666666,36.516666666666666],[-121.85,36.61666666666667],[-121.85444444444444,36.618611111111115],[-121.88333333333334,36.7],[-121.885,36.712500000000006],[-121.91194444444444,36.80416666666667],[-121.93722222222223,36.89527777777778],[-121.96611111111112,36.984722222222224],[-122.05,37.13333333333333],[-122.11666666666666,37.18333333333333],[-122.11999999999999,37.184999999999995],[-122.19333333333334,37.21611111111111],[-122.26666666666667,37.25],[-122.26583333333333,37.2475],[-122.33999999999999,37.27972222222222],[-122.39527777777778,37.322500000000005],[-122.36666666666666,37.38333333333333],[-122.35138888888888,37.3825],[-122.27583333333334,37.39],[-122.2,37.4],[-122.20055555555555,37.3975],[-122.13333333333334,37.4],[-122.07305555555556,37.42666666666666],[-122.09666666666666,37.47527777777778],[-122.13333333333334,37.516666666666666],[-122.1913888888889,37.54138888888889],[-122.24722222222222,37.565],[-122.3,37.583333333333336],[-122.29527777777777,37.58527777777778],[-122.33833333333332,37.60333333333333]]}
}
