{
  "id": 2048396577,
  "type": "Feature",
  "properties": {
    "geom:area": 0,
    "geom:bbox": "-122.759120,37.565350,-122.121730,38.483550",
    "geom:latitude": 37.88760053812577,
    "geom:longitude": -122.50510529481535,
    "src:alt_label": "swim-approach",
    "src:geom": "swim",
    "swim:elevations": [
      7071,
      6808,
      6576,
      6351,
      6013,
      5741,
      5512,
      5447,
      5150,
      4873,
      4663,
      4459,
      4083,
      3685,
      3501,
      3408,
      3351,
      3308,
      3091,
      2692,
      2412,
      2377,
      1927,
      1709,
      1572,
      1524,
      1524,
      1437,
      1257,
      1139,
      858,
      485,
      339,
      297,
      143,
      35
    ],
    "swim:geom": "approach",
    "swim:timestamps": [
      1790018603,
      1790018634,
      1790018660,
      1790018687,
      1790018724,
      1790018757,
      1790018785,
      1790018791,
      1790018827,
      1790018861,
      1790018886,
      1790018911,
      1790018953,
      1790018993,
      1790019015,
      1790019054,
      1790019074,
      1790019113,
      1790019139,
      1790019178,
      1790019207,
      1790019210,
      1790019257,
      1790019289,
      1790019317,
      1790019351,
      1790019382,
      1790019418,
      1790019443,
      1790019455,
      1790019488,
      1790019529,
      1790019567,
      1790019578,
      1790019617,
      1790019644
    ],
    "wof:geomhash": "35531826762a87c662850b85374fed67",
    "wof:id": 2048396577,
    "wof:repo": "sfomuseum-data-flights-2026-09"
  },
  "bbox": [
    -122.75912,
    37.56535,
    -122.12173,
    38.48355
  ],
  "geometry": {"type":"LineString","coordinates":[[-122.69507,38.48355],[-122.71132,38.42515],[-122.72514,38.37612],[-122.73921,38.32639],[-122.75779,38.25917],[-122.75912,38.19953],[-122.74557,38.15004],[-122.7426,38.13964],[-122.72441,38.07666],[-122.70808,38.01977],[-122.69615,37.97879],[-122.68422,37.93775],[-122.64706,37.87489],[-122.59401,37.82486],[-122.56586,37.79823],[-122.52026,37.75503],[-122.49749,37.73352],[-122.4474,37.70681],[-122.41054,37.69718],[-122.35806,37.68375],[-122.31968,37.67396],[-122.31566,37.6729],[-122.253,37.65639],[-122.21137,37.64483],[-122.1766,37.63552],[-122.13554,37.62444],[-122.12173,37.60056],[-122.13891,37.57116],[-122.16533,37.56535],[-122.17945,37.56791],[-122.2157,37.57417],[-122.26161,37.58303],[-122.29601,37.59328],[-122.30445,37.59569],[-122.33479,37.60513],[-122.35487,37.61252]]}
}
