{
  "id": 2048232387,
  "type": "Feature",
  "properties": {
    "geom:area": 0,
    "geom:bbox": "-122.987180,37.401680,-122.105110,38.470360",
    "geom:latitude": 38.037499211874014,
    "geom:longitude": -122.671813285218,
    "src:alt_label": "swim-approach",
    "src:geom": "swim",
    "swim:elevations": [
      7620,
      7517,
      7430,
      7263,
      7197,
      7069,
      7011,
      7010,
      7010,
      7010,
      7010,
      7010,
      7010,
      7010,
      6953,
      6733,
      6698,
      6528,
      6506,
      6364,
      6215,
      6096,
      6095,
      6096,
      6096,
      6096,
      6096,
      6096,
      6096,
      6096,
      6096,
      6096,
      6096,
      6096,
      6096,
      6096,
      6096,
      6096,
      6096,
      6096,
      6096,
      6096,
      6096,
      5975,
      5672,
      5490,
      5234,
      4817,
      4525,
      4267,
      4056,
      3615,
      3475,
      3354,
      3353,
      3353,
      3353,
      3327,
      3262,
      3072,
      2865,
      2623,
      2577,
      2365,
      2124,
      1920,
      1828,
      1581,
      1432,
      1284,
      1084,
      994,
      822,
      641,
      547,
      399,
      392,
      218,
      96,
      91
    ],
    "swim:geom": "approach",
    "swim:timestamps": [
      1788355700,
      1788355725,
      1788355744,
      1788355791,
      1788355814,
      1788355845,
      1788355865,
      1788355898,
      1788355936,
      1788355958,
      1788355971,
      1788355984,
      1788356033,
      1788356049,
      1788356080,
      1788356121,
      1788356130,
      1788356158,
      1788356166,
      1788356196,
      1788356234,
      1788356272,
      1788356289,
      1788356334,
      1788356348,
      1788356374,
      1788356411,
      1788356451,
      1788356467,
      1788356505,
      1788356527,
      1788356565,
      1788356595,
      1788356622,
      1788356666,
      1788356679,
      1788356721,
      1788356744,
      1788356781,
      1788356811,
      1788356826,
      1788356863,
      1788356896,
      1788356920,
      1788356949,
      1788356971,
      1788357006,
      1788357043,
      1788357072,
      1788357099,
      1788357123,
      1788357163,
      1788357191,
      1788357232,
      1788357242,
      1788357280,
      1788357309,
      1788357345,
      1788357360,
      1788357393,
      1788357430,
      1788357476,
      1788357486,
      1788357530,
      1788357568,
      1788357596,
      1788357611,
      1788357645,
      1788357676,
      1788357714,
      1788357748,
      1788357765,
      1788357802,
      1788357834,
      1788357864,
      1788357897,
      1788357900,
      1788357955,
      1788357987,
      1788357995
    ],
    "wof:geomhash": "fefd7f09ae5df43dcda441fb3186a2df",
    "wof:id": 2048232387,
    "wof:repo": "sfomuseum-data-flights-2026-09"
  },
  "bbox": [
    -122.98718,
    37.40168,
    -122.10511,
    38.47036
  ],
  "geometry": {"type":"LineString","coordinates":[[-122.87119,38.47036],[-122.85105,38.4232],[-122.83657,38.38934],[-122.80242,38.30864],[-122.78625,38.27026],[-122.76649,38.22277],[-122.76485,38.19167],[-122.79261,38.15232],[-122.8491,38.13515],[-122.8824,38.13995],[-122.90033,38.14768],[-122.91565,38.15846],[-122.94443,38.21731],[-122.95073,38.23781],[-122.96321,38.27905],[-122.97909,38.33221],[-122.98245,38.34342],[-122.98718,38.38124],[-122.98408,38.39188],[-122.94959,38.42793],[-122.87363,38.43584],[-122.82061,38.39649],[-122.81246,38.37273],[-122.7928,38.3093],[-122.78659,38.28872],[-122.77543,38.25186],[-122.76721,38.19982],[-122.80439,38.1595],[-122.8262,38.1532],[-122.88135,38.16081],[-122.90527,38.17963],[-122.92444,38.22849],[-122.93596,38.26629],[-122.94676,38.30199],[-122.96391,38.35888],[-122.96555,38.37575],[-122.92416,38.42626],[-122.87817,38.43225],[-122.82189,38.39941],[-122.8078,38.35778],[-122.8011,38.33609],[-122.78545,38.28408],[-122.77152,38.23574],[-122.76,38.19612],[-122.74489,38.14598],[-122.73413,38.10983],[-122.71658,38.05014],[-122.69849,37.98835],[-122.68502,37.94215],[-122.66812,37.89869],[-122.637,37.86674],[-122.58341,37.8158],[-122.54722,37.78159],[-122.4965,37.73367],[-122.4858,37.72351],[-122.4415,37.68173],[-122.40719,37.64937],[-122.37024,37.61356],[-122.36105,37.59684],[-122.33956,37.56168],[-122.31552,37.5224],[-122.28677,37.47546],[-122.28032,37.4649],[-122.24377,37.42742],[-122.19325,37.41137],[-122.15639,37.40168],[-122.13598,37.40542],[-122.11416,37.43634],[-122.10511,37.46854],[-122.1121,37.50408],[-122.1447,37.52154],[-122.16275,37.52935],[-122.19905,37.54477],[-122.22807,37.55695],[-122.2536,37.56774],[-122.28025,37.57893],[-122.28256,37.5799],[-122.31924,37.59535],[-122.34003,37.60409],[-122.34547,37.60634]]}
}
