{
  "id": 2048456393,
  "type": "Feature",
  "properties": {
    "geom:area": 0,
    "geom:bbox": "-122.355940,36.726750,-121.882460,37.610680",
    "geom:latitude": 37.21785251126374,
    "geom:longitude": -122.06740215956434,
    "src:alt_label": "swim-approach",
    "src:geom": "swim",
    "swim:elevations": [
      5929,
      5725,
      5440,
      4993,
      4956,
      4707,
      4505,
      4313,
      4188,
      3943,
      3727,
      3657,
      3388,
      3178,
      2985,
      2755,
      2685,
      2452,
      2232,
      1957,
      1834,
      1574,
      1547,
      1315,
      1090,
      1024,
      944,
      888,
      884,
      793,
      698,
      632,
      552,
      455,
      449,
      419,
      396,
      203,
      150,
      58,
      37
    ],
    "swim:geom": "approach",
    "swim:timestamps": [
      1790626606,
      1790626624,
      1790626655,
      1790626704,
      1790626710,
      1790626736,
      1790626761,
      1790626785,
      1790626814,
      1790626856,
      1790626884,
      1790626890,
      1790626912,
      1790626942,
      1790626973,
      1790627007,
      1790627017,
      1790627053,
      1790627089,
      1790627127,
      1790627148,
      1790627188,
      1790627193,
      1790627232,
      1790627270,
      1790627288,
      1790627313,
      1790627329,
      1790627351,
      1790627379,
      1790627401,
      1790627417,
      1790627438,
      1790627463,
      1790627469,
      1790627472,
      1790627475,
      1790627544,
      1790627554,
      1790627582,
      1790627588
    ],
    "wof:geomhash": "f321286386a45a13671fefc3f5334515",
    "wof:id": 2048456393,
    "wof:repo": "sfomuseum-data-flights-2026-09"
  },
  "bbox": [
    -122.35594,
    36.72675,
    -121.88246,
    37.61068
  ],
  "geometry": {"type":"LineString","coordinates":[[-121.88246,36.72675],[-121.89594,36.75094],[-121.90926,36.79754],[-121.9297,36.86873],[-121.93205,36.87749],[-121.94242,36.91564],[-121.95289,36.95106],[-121.9659,36.98471],[-121.98017,37.02148],[-121.9992,37.06997],[-122.01058,37.09892],[-122.01304,37.10547],[-122.02171,37.12794],[-122.03379,37.15901],[-122.0465,37.19153],[-122.06061,37.22738],[-122.06513,37.23863],[-122.07977,37.27606],[-122.09448,37.3135],[-122.1075,37.35384],[-122.10687,37.37552],[-122.104,37.41623],[-122.10362,37.42151],[-122.10331,37.45675],[-122.12777,37.48286],[-122.13869,37.49373],[-122.15458,37.51043],[-122.16391,37.5204],[-122.17823,37.53378],[-122.20136,37.54541],[-122.21988,37.55347],[-122.23389,37.55948],[-122.25212,37.56709],[-122.27251,37.57567],[-122.27671,37.57743],[-122.27881,37.57831],[-122.28085,37.57917],[-122.3272,37.59863],[-122.33383,37.60143],[-122.35214,37.60906],[-122.35594,37.61068]]}
}
