{
  "id": 2048370257,
  "type": "Feature",
  "properties": {
    "geom:area": 0,
    "geom:bbox": "-122.831290,37.336550,-122.102150,38.443400",
    "geom:latitude": 37.68854925676183,
    "geom:longitude": -122.45976132034829,
    "src:alt_label": "swim-approach",
    "src:geom": "swim",
    "swim:elevations": [
      7376,
      7309,
      6946,
      6503,
      6422,
      6222,
      5941,
      5660,
      5418,
      5012,
      4859,
      4407,
      4231,
      3907,
      3604,
      3472,
      3415,
      3356,
      3353,
      3353,
      3353,
      3353,
      3255,
      3077,
      2913,
      2739,
      2682,
      2566,
      2413,
      2224,
      2132,
      2010,
      1978,
      1851,
      1829,
      1829,
      1829,
      1829,
      1829,
      1829,
      1829,
      1829,
      1829,
      1724,
      1478,
      1365,
      1219,
      1127,
      1092,
      1006,
      908,
      847,
      734,
      553,
      423,
      335,
      257,
      120,
      80
    ],
    "swim:geom": "approach",
    "swim:timestamps": [
      1789764655,
      1789764661,
      1789764698,
      1789764743,
      1789764752,
      1789764771,
      1789764799,
      1789764828,
      1789764851,
      1789764895,
      1789764911,
      1789764956,
      1789764973,
      1789765009,
      1789765039,
      1789765071,
      1789765097,
      1789765128,
      1789765150,
      1789765176,
      1789765211,
      1789765231,
      1789765269,
      1789765297,
      1789765330,
      1789765377,
      1789765391,
      1789765420,
      1789765454,
      1789765498,
      1789765525,
      1789765550,
      1789765562,
      1789765615,
      1789765643,
      1789765652,
      1789765706,
      1789765736,
      1789765750,
      1789765798,
      1789765813,
      1789765853,
      1789765861,
      1789765906,
      1789765933,
      1789765954,
      1789766005,
      1789766039,
      1789766051,
      1789766083,
      1789766126,
      1789766141,
      1789766171,
      1789766213,
      1789766247,
      1789766275,
      1789766294,
      1789766335,
      1789766368
    ],
    "wof:geomhash": "d8650e59b60e5632b386859071aeb6eb",
    "wof:id": 2048370257,
    "wof:repo": "sfomuseum-data-flights-2026-09"
  },
  "bbox": [
    -122.83129,
    37.33655,
    -122.10215,
    38.4434
  ],
  "geometry": {"type":"LineString","coordinates":[[-122.83129,38.4434],[-122.82798,38.43203],[-122.8079,38.36325],[-122.78388,38.28092],[-122.77915,38.26462],[-122.76916,38.23074],[-122.75442,38.18024],[-122.74006,38.13085],[-122.72834,38.09062],[-122.70695,38.01632],[-122.69923,37.99006],[-122.67711,37.91481],[-122.66111,37.88932],[-122.61363,37.84388],[-122.57432,37.80652],[-122.53438,37.76865],[-122.50449,37.74026],[-122.47167,37.70922],[-122.45015,37.68905],[-122.42435,37.66494],[-122.3904,37.63287],[-122.37115,37.61414],[-122.34665,37.57177],[-122.32716,37.5407],[-122.30497,37.50461],[-122.30482,37.45075],[-122.31027,37.43419],[-122.32127,37.40098],[-122.33397,37.36276],[-122.3817,37.33655],[-122.41879,37.34128],[-122.45315,37.34559],[-122.46996,37.34757],[-122.51983,37.37752],[-122.49871,37.39794],[-122.48728,37.39892],[-122.41656,37.39058],[-122.37737,37.38552],[-122.35885,37.38313],[-122.29714,37.3752],[-122.27695,37.37262],[-122.22768,37.37573],[-122.21657,37.37761],[-122.16517,37.39306],[-122.13979,37.41031],[-122.12818,37.42919],[-122.10215,37.47106],[-122.10956,37.49496],[-122.11652,37.50237],[-122.14008,37.5192],[-122.17693,37.53549],[-122.19,37.5409],[-122.21537,37.55165],[-122.2509,37.56659],[-122.27756,37.57783],[-122.29657,37.58581],[-122.30984,37.59135],[-122.3381,37.60321],[-122.35875,37.61186]]}
}
