{
  "id": 2048439849,
  "type": "Feature",
  "properties": {
    "geom:area": 0,
    "geom:bbox": "-123.323889,37.397500,-122.100000,45.580000",
    "geom:latitude": 41.503874150685675,
    "geom:longitude": -122.95917256041534,
    "src:alt_label": "swim-path",
    "src:geom": "swim",
    "swim:altitudes": [
      "008",
      "021",
      "047",
      "082",
      "114",
      "137",
      "150",
      "164",
      "187",
      "213",
      "234",
      "251",
      "270",
      "286",
      "300",
      "312",
      "323",
      "336",
      "354",
      "368",
      "382",
      "389C",
      "390C",
      "390C",
      "390C",
      "390C",
      "390C",
      "390C",
      "390C",
      "390C",
      "390C",
      "390C",
      "390C",
      "390C",
      "390C",
      "390C",
      "390C",
      "390C",
      "390C",
      "390C",
      "390C",
      "390C",
      "390C",
      "390C",
      "390C",
      "390C",
      "390C",
      "390C",
      "390C",
      "390C",
      "390C",
      "390C",
      "390C",
      "390C",
      "390",
      "390",
      "390",
      "390",
      "390",
      "390",
      "390",
      "389",
      "367",
      "338",
      "314",
      "292",
      "271",
      "249",
      "228",
      "207",
      "185",
      "169",
      "164",
      "153",
      "148",
      "133",
      "126",
      "119",
      "114",
      "110",
      "110C",
      "110",
      "110C",
      "108",
      "104",
      "096",
      "090",
      "080",
      "075",
      "070",
      "070",
      "062",
      "060",
      "060",
      "059",
      "052",
      "048",
      "043",
      "034",
      "022",
      "016",
      "011",
      "008",
      "003",
      "110"
    ],
    "swim:geom": "path",
    "swim:speeds": [
      170,
      204,
      255,
      286,
      300,
      324,
      331,
      336,
      353,
      358,
      387,
      394,
      401,
      411,
      423,
      434,
      449,
      463,
      456,
      443,
      436,
      431,
      431,
      433,
      433,
      432,
      431,
      430,
      427,
      426,
      423,
      422,
      422,
      424,
      423,
      425,
      427,
      429,
      430,
      432,
      432,
      433,
      434,
      436,
      437,
      437,
      436,
      436,
      435,
      436,
      437,
      438,
      439,
      439,
      439,
      438,
      436,
      435,
      433,
      431,
      429,
      430,
      428,
      428,
      428,
      420,
      415,
      402,
      391,
      383,
      378,
      369,
      372,
      351,
      354,
      350,
      351,
      325,
      309,
      273,
      259,
      252,
      255,
      247,
      250,
      238,
      242,
      243,
      242,
      231,
      235,
      241,
      239,
      243,
      241,
      238,
      226,
      196,
      197,
      190,
      189,
      173,
      150,
      141,
      144
    ],
    "swim:timestamps": [
      1790431094,
      1790431130,
      1790431195,
      1790431255,
      1790431315,
      1790431375,
      1790431435,
      1790431495,
      1790431555,
      1790431615,
      1790431675,
      1790431735,
      1790431795,
      1790431855,
      1790431915,
      1790431975,
      1790432035,
      1790432096,
      1790432156,
      1790432216,
      1790432276,
      1790432336,
      1790432396,
      1790432456,
      1790432516,
      1790432576,
      1790432636,
      1790432696,
      1790432756,
      1790432816,
      1790432876,
      1790432936,
      1790432996,
      1790433056,
      1790433117,
      1790433177,
      1790433237,
      1790433296,
      1790433357,
      1790433417,
      1790433477,
      1790433537,
      1790433597,
      1790433657,
      1790433717,
      1790433777,
      1790433837,
      1790433897,
      1790433957,
      1790434017,
      1790434078,
      1790434138,
      1790434198,
      1790434258,
      1790434318,
      1790434378,
      1790434438,
      1790434498,
      1790434558,
      1790434618,
      1790434678,
      1790434738,
      1790434798,
      1790434858,
      1790434919,
      1790434979,
      1790435039,
      1790435099,
      1790435159,
      1790435219,
      1790435279,
      1790435317,
      1790435339,
      1790435377,
      1790435399,
      1790435437,
      1790435459,
      1790435492,
      1790435519,
      1790435557,
      1790435579,
      1790435618,
      1790435639,
      1790435683,
      1790435700,
      1790435737,
      1790435760,
      1790435798,
      1790435820,
      1790435857,
      1790435880,
      1790435917,
      1790435940,
      1790435977,
      1790436000,
      1790436032,
      1790436060,
      1790436092,
      1790436120,
      1790436157,
      1790436180,
      1790436212,
      1790436240,
      1790436278,
      1790436300
    ],
    "wof:geomhash": "258e73f1c809b16132487828fe67287b",
    "wof:id": 2048439849,
    "wof:repo": "sfomuseum-data-flights-2026-09"
  },
  "bbox": [
    -123.32388888888889,
    37.3975,
    -122.1,
    45.580000000000005
  ],
  "geometry": {"type":"LineString","coordinates":[[-122.56027777777777,45.580000000000005],[-122.51666666666667,45.57333333333334],[-122.4238888888889,45.559444444444445],[-122.32555555555555,45.527499999999996],[-122.31861111111111,45.445277777777775],[-122.41972222222223,45.39722222222222],[-122.53916666666666,45.36055555555556],[-122.66194444444444,45.32083333333334],[-122.78722222222223,45.280277777777776],[-122.91638888888889,45.239444444444445],[-123.00138888888888,45.15694444444444],[-123.04472222222222,45.07138888888889],[-123.09777777777778,44.965],[-123.15333333333334,44.85444444444445],[-123.20861111111111,44.74333333333333],[-123.26555555555555,44.628055555555555],[-123.32,44.50888888888889],[-123.32388888888889,44.38138888888889],[-123.31888888888888,44.25388888888889],[-123.31416666666667,44.13138888888889],[-123.30888888888889,43.99861111111111],[-123.30416666666666,43.879444444444445],[-123.29972222222221,43.759166666666665],[-123.29472222222222,43.636944444444445],[-123.28999999999999,43.518055555555556],[-123.28527777777778,43.39611111111111],[-123.28055555555555,43.27972222222222],[-123.27555555555556,43.16166666666666],[-123.27083333333333,43.04472222222222],[-123.26805555555555,42.927499999999995],[-123.26333333333334,42.811388888888885],[-123.25833333333334,42.69361111111111],[-123.25527777777778,42.575833333333335],[-123.24944444444445,42.45888888888889],[-123.24444444444444,42.34166666666667],[-123.24083333333333,42.222500000000004],[-123.2363888888889,42.10444444444445],[-123.23194444444445,41.984722222222224],[-123.2275,41.865],[-123.22333333333333,41.745555555555555],[-123.21888888888888,41.626111111111115],[-123.21444444444445,41.50555555555555],[-123.20777777777778,41.384166666666665],[-123.1888888888889,41.25611111111111],[-123.17055555555557,41.13166666666667],[-123.15416666666667,41.01555555555556],[-123.1363888888889,40.893055555555556],[-123.11888888888888,40.77055555555555],[-123.10166666666666,40.65138888888889],[-123.08472222222221,40.530277777777776],[-123.06777777777778,40.410555555555554],[-123.05027777777778,40.288333333333334],[-123.03333333333333,40.16833333333333],[-123.01638888888888,40.047777777777775],[-122.99972222222222,39.92805555555555],[-122.98277777777778,39.808611111111105],[-122.96638888888889,39.68861111111111],[-122.94972222222222,39.56861111111112],[-122.93333333333334,39.45],[-122.9175,39.33361111111111],[-122.90083333333334,39.21388888888889],[-122.885,39.09666666666667],[-122.86888888888888,38.97916666666667],[-122.85277777777777,38.86],[-122.83694444444444,38.7425],[-122.82111111111111,38.624722222222225],[-122.80611111111111,38.513333333333335],[-122.7911111111111,38.401944444444446],[-122.77694444444444,38.294444444444444],[-122.75722222222223,38.189722222222215],[-122.72777777777777,38.08777777777778],[-122.7,38.016666666666666],[-122.69944444444445,37.98972222222222],[-122.68333333333334,37.916666666666664],[-122.66694444444445,37.8975],[-122.6,37.833333333333336],[-122.57833333333333,37.80972222222222],[-122.53333333333333,37.766666666666666],[-122.50555555555556,37.74111111111111],[-122.46666666666667,37.7],[-122.44250000000001,37.68416666666666],[-122.4,37.65],[-122.38694444444445,37.62972222222222],[-122.35,37.583333333333336],[-122.33638888888889,37.573888888888895],[-122.3,37.53333333333333],[-122.29416666666667,37.51611111111111],[-122.26666666666667,37.483333333333334],[-122.25194444444445,37.45805555555556],[-122.23333333333333,37.416666666666664],[-122.20361111111112,37.4075],[-122.15,37.4],[-122.12333333333332,37.3975],[-122.1,37.43333333333333],[-122.11555555555555,37.459722222222226],[-122.13333333333334,37.5],[-122.14944444444446,37.51833333333333],[-122.18333333333334,37.53333333333333],[-122.20472222222223,37.54944444444444],[-122.25,37.56666666666667],[-122.26388888888889,37.574444444444445],[-122.3,37.583333333333336],[-122.31472222222222,37.595555555555556],[-122.35,37.6],[-122.3586111111111,37.61416666666667]]}
}
