{
  "id": 2048335341,
  "type": "Feature",
  "properties": {
    "geom:area": 0,
    "geom:bbox": "-122.853830,37.445630,-122.137150,38.516210",
    "geom:latitude": 37.84949599447526,
    "geom:longitude": -122.51847483536821,
    "src:alt_label": "swim-approach",
    "src:geom": "swim",
    "swim:elevations": [
      8050,
      7681,
      7517,
      7213,
      6705,
      6410,
      6225,
      5833,
      5342,
      5216,
      4815,
      4536,
      4175,
      4159,
      3700,
      3480,
      3374,
      3352,
      3353,
      3382,
      3299,
      3127,
      2878,
      2527,
      2312,
      1920,
      1787,
      1561,
      1364,
      1212,
      1066,
      914,
      943,
      786,
      671,
      566,
      373,
      249,
      237,
      98,
      0
    ],
    "swim:geom": "approach",
    "swim:timestamps": [
      1789419583,
      1789419619,
      1789419635,
      1789419662,
      1789419709,
      1789419737,
      1789419753,
      1789419791,
      1789419836,
      1789419849,
      1789419890,
      1789419917,
      1789419953,
      1789419960,
      1789420005,
      1789420028,
      1789420078,
      1789420087,
      1789420129,
      1789420162,
      1789420197,
      1789420223,
      1789420250,
      1789420285,
      1789420309,
      1789420344,
      1789420362,
      1789420408,
      1789420437,
      1789420463,
      1789420484,
      1789420511,
      1789420537,
      1789420569,
      1789420601,
      1789420626,
      1789420676,
      1789420707,
      1789420712,
      1789420742,
      1789420770
    ],
    "wof:geomhash": "7331901822b7c609a83e5d26514a5416",
    "wof:id": 2048335341,
    "wof:repo": "sfomuseum-data-flights-2026-09"
  },
  "bbox": [
    -122.85383,
    37.44563,
    -122.13715,
    38.51621
  ],
  "geometry": {"type":"LineString","coordinates":[[-122.85383,38.51621],[-122.83338,38.44786],[-122.82479,38.41963],[-122.80983,38.36809],[-122.78452,38.28259],[-122.76956,38.23236],[-122.76132,38.20413],[-122.74249,38.13873],[-122.72073,38.06321],[-122.71434,38.04132],[-122.69404,37.97158],[-122.68179,37.92837],[-122.64776,37.87557],[-122.63877,37.86725],[-122.57911,37.81073],[-122.5501,37.78339],[-122.49035,37.72658],[-122.48025,37.71712],[-122.43349,37.67337],[-122.40058,37.64237],[-122.36754,37.61102],[-122.34936,37.587],[-122.3358,37.55902],[-122.31554,37.52213],[-122.30078,37.49793],[-122.26386,37.47217],[-122.23984,37.46415],[-122.18538,37.44563],[-122.15574,37.45496],[-122.14344,37.4752],[-122.13715,37.49248],[-122.15088,37.51299],[-122.16778,37.52995],[-122.19708,37.54401],[-122.22616,37.55617],[-122.24697,37.56494],[-122.28587,37.58138],[-122.31191,37.59208],[-122.31535,37.59356],[-122.34059,37.60431],[-122.36216,37.6132]]}
}
