{
  "id": 2048221729,
  "type": "Feature",
  "properties": {
    "geom:area": 0,
    "geom:bbox": "-123.086110,37.529940,-122.095960,38.479720",
    "geom:latitude": 37.89832097377055,
    "geom:longitude": -122.54843751492326,
    "src:alt_label": "swim-approach",
    "src:geom": "swim",
    "swim:elevations": [
      7711,
      7620,
      7099,
      6939,
      6662,
      6450,
      6111,
      5836,
      5629,
      5382,
      5094,
      4893,
      4598,
      4325,
      4093,
      3929,
      3546,
      3353,
      3353,
      3353,
      3260,
      3163,
      2964,
      2777,
      2540,
      2424,
      1974,
      1824,
      1652,
      1270,
      1217,
      1219,
      916,
      823,
      791,
      792,
      633,
      575,
      339,
      205,
      88,
      29
    ],
    "swim:geom": "approach",
    "swim:timestamps": [
      1788256610,
      1788256620,
      1788256677,
      1788256697,
      1788256730,
      1788256755,
      1788256794,
      1788256827,
      1788256849,
      1788256880,
      1788256912,
      1788256936,
      1788256970,
      1788256996,
      1788257024,
      1788257044,
      1788257085,
      1788257115,
      1788257143,
      1788257177,
      1788257210,
      1788257226,
      1788257264,
      1788257290,
      1788257335,
      1788257344,
      1788257394,
      1788257422,
      1788257436,
      1788257482,
      1788257499,
      1788257528,
      1788257574,
      1788257606,
      1788257630,
      1788257656,
      1788257694,
      1788257706,
      1788257756,
      1788257788,
      1788257816,
      1788257840
    ],
    "wof:geomhash": "4478c4d4d22e1f4cb058d35765fd6d9f",
    "wof:id": 2048221729,
    "wof:repo": "sfomuseum-data-flights-2026-09"
  },
  "bbox": [
    -123.08611,
    37.52994,
    -122.09596,
    38.47972
  ],
  "geometry": {"type":"LineString","coordinates":[[-123.08611,38.47972],[-123.06969,38.46569],[-122.97216,38.38786],[-122.93907,38.36171],[-122.88509,38.31863],[-122.84582,38.28719],[-122.78421,38.23557],[-122.75625,38.18548],[-122.74521,38.14941],[-122.73131,38.10039],[-122.71662,38.04898],[-122.70567,38.01125],[-122.69014,37.95757],[-122.67777,37.91695],[-122.65042,37.87815],[-122.62475,37.85342],[-122.57053,37.80258],[-122.53299,37.76739],[-122.50094,37.73707],[-122.46713,37.70515],[-122.43751,37.67712],[-122.42298,37.66346],[-122.38314,37.64223],[-122.34995,37.65472],[-122.29257,37.66431],[-122.28162,37.66132],[-122.21912,37.64399],[-122.18549,37.63449],[-122.1685,37.62966],[-122.11642,37.60959],[-122.09996,37.59734],[-122.09596,37.57087],[-122.11569,37.53098],[-122.15238,37.52994],[-122.1781,37.5383],[-122.20554,37.54994],[-122.24337,37.56569],[-122.25444,37.57033],[-122.29696,37.58822],[-122.32207,37.59877],[-122.34309,37.60762],[-122.36245,37.61534]]}
}
