{
  "id": 2048398891,
  "type": "Feature",
  "properties": {
    "geom:area": 0,
    "geom:bbox": "-122.543110,36.730000,-121.425110,37.668760",
    "geom:latitude": 37.22766513401108,
    "geom:longitude": -122.05165988161501,
    "src:alt_label": "swim-takeoff",
    "src:geom": "swim",
    "swim:elevations": [
      183,
      712,
      1008,
      1079,
      1221,
      1493,
      1816,
      2299,
      2823,
      3167,
      3416,
      3671,
      4245,
      4709,
      5080,
      5531,
      5986,
      6092,
      6647,
      6733,
      7260,
      7440,
      7759,
      8083,
      8256,
      8764,
      8867,
      9106,
      9210,
      9449,
      9467
    ],
    "swim:geom": "takeoff",
    "swim:timestamps": [
      1789976049,
      1789976093,
      1789976128,
      1789976142,
      1789976166,
      1789976201,
      1789976226,
      1789976259,
      1789976302,
      1789976327,
      1789976366,
      1789976384,
      1789976424,
      1789976452,
      1789976477,
      1789976510,
      1789976545,
      1789976555,
      1789976606,
      1789976612,
      1789976657,
      1789976677,
      1789976713,
      1789976747,
      1789976766,
      1789976818,
      1789976833,
      1789976875,
      1789976891,
      1789976937,
      1789976943
    ],
    "wof:geomhash": "0d977981caacfe4108462e64cd60fc6a",
    "wof:id": 2048398891,
    "wof:repo": "sfomuseum-data-flights-2026-09"
  },
  "bbox": [
    -122.54311,
    36.73,
    -121.42511,
    37.66876
  ],
  "geometry": {"type":"LineString","coordinates":[[-122.39178,37.62603],[-122.42879,37.64224],[-122.45987,37.65544],[-122.47401,37.66167],[-122.50253,37.66876],[-122.54311,37.64553],[-122.5406,37.61464],[-122.52136,37.57569],[-122.49326,37.52424],[-122.47438,37.49395],[-122.4237,37.45249],[-122.39719,37.43295],[-122.33039,37.39614],[-122.27828,37.37777],[-122.23025,37.36097],[-122.1713,37.32917],[-122.11876,37.28642],[-122.10265,37.27359],[-122.02099,37.20911],[-122.01025,37.20059],[-121.93683,37.14226],[-121.90188,37.11424],[-121.8402,37.06474],[-121.78106,37.01708],[-121.74799,36.99074],[-121.65495,36.91714],[-121.62774,36.89488],[-121.55208,36.83363],[-121.52324,36.81003],[-121.43637,36.73929],[-121.42511,36.73]]}
}
