{
  "id": 2048417133,
  "type": "Feature",
  "properties": {
    "geom:area": 0,
    "geom:bbox": "-123.500580,37.026920,-122.581530,37.624720",
    "geom:latitude": 37.32689329689842,
    "geom:longitude": -123.04175500799776,
    "src:alt_label": "swim-takeoff",
    "src:geom": "swim",
    "swim:elevations": [
      1676,
      2136,
      2166,
      2354,
      2417,
      2654,
      2971,
      3272,
      3786,
      4098,
      4377,
      4526,
      4720,
      4950,
      5284,
      5995,
      6126,
      6309
    ],
    "swim:geom": "takeoff",
    "swim:timestamps": [
      1790179254,
      1790179286,
      1790179290,
      1790179302,
      1790179307,
      1790179329,
      1790179356,
      1790179393,
      1790179480,
      1790179520,
      1790179556,
      1790179577,
      1790179598,
      1790179620,
      1790179660,
      1790179758,
      1790179778,
      1790179802
    ],
    "wof:geomhash": "bd23a1f59faf03c438525c5709820e57",
    "wof:id": 2048417133,
    "wof:repo": "sfomuseum-data-flights-2026-09"
  },
  "bbox": [
    -123.50058,
    37.02692,
    -122.58153,
    37.62472
  ],
  "geometry": {"type":"LineString","coordinates":[[-122.58153,37.62472],[-122.62194,37.59844],[-122.62743,37.59497],[-122.64206,37.58567],[-122.6484,37.58171],[-122.67714,37.56322],[-122.71351,37.53963],[-122.76452,37.50669],[-122.90264,37.41761],[-122.97317,37.37174],[-123.03793,37.32988],[-123.07559,37.30543],[-123.11378,37.28095],[-123.15575,37.25399],[-123.23005,37.2055],[-123.4145,37.08405],[-123.45467,37.05753],[-123.50058,37.02692]]}
}
