{
  "id": 2048227179,
  "type": "Feature",
  "properties": {
    "geom:area": 0,
    "geom:bbox": "-123.327920,37.630370,-122.402620,38.505560",
    "geom:latitude": 38.02730704618003,
    "geom:longitude": -122.89799650942697,
    "src:alt_label": "swim-takeoff",
    "src:geom": "swim",
    "swim:elevations": [
      288,
      582,
      771,
      909,
      981,
      1081,
      1567,
      2104,
      2416,
      2835,
      2978,
      3164,
      3511,
      3667,
      4161,
      4548,
      4817,
      5408,
      5536,
      5919,
      6296,
      6354,
      6886,
      7096,
      7318,
      7575,
      7864,
      7925
    ],
    "swim:geom": "takeoff",
    "swim:timestamps": [
      1788267317,
      1788267336,
      1788267354,
      1788267384,
      1788267393,
      1788267403,
      1788267434,
      1788267472,
      1788267493,
      1788267523,
      1788267533,
      1788267545,
      1788267595,
      1788267612,
      1788267650,
      1788267677,
      1788267698,
      1788267748,
      1788267758,
      1788267794,
      1788267838,
      1788267843,
      1788267893,
      1788267914,
      1788267937,
      1788267974,
      1788268005,
      1788268012
    ],
    "wof:geomhash": "dacb2b7279d1f180ed43febb906994ed",
    "wof:id": 2048227179,
    "wof:repo": "sfomuseum-data-flights-2026-09"
  },
  "bbox": [
    -123.32792,
    37.63037,
    -122.40262,
    38.50556
  ],
  "geometry": {"type":"LineString","coordinates":[[-122.40262,37.63037],[-122.42066,37.63832],[-122.43773,37.64581],[-122.47018,37.66024],[-122.48192,37.66541],[-122.49437,37.67088],[-122.53256,37.69193],[-122.57999,37.71989],[-122.60712,37.73597],[-122.64631,37.75892],[-122.6603,37.76709],[-122.67656,37.77668],[-122.75046,37.82154],[-122.77458,37.8448],[-122.82021,37.89993],[-122.85395,37.94096],[-122.88005,37.97255],[-122.94584,38.05155],[-122.95844,38.06659],[-123.0063,38.12369],[-123.06822,38.1975],[-123.07635,38.20724],[-123.14797,38.29256],[-123.17958,38.33015],[-123.21253,38.36924],[-123.26944,38.43787],[-123.31669,38.49281],[-123.32792,38.50556]]}
}
