{
  "id": 2048417141,
  "type": "Feature",
  "properties": {
    "geom:area": 0,
    "geom:bbox": "-122.400360,37.625080,-121.303590,38.102370",
    "geom:latitude": 37.874114182336676,
    "geom:longitude": -121.86691135382384,
    "src:alt_label": "swim-takeoff",
    "src:geom": "swim",
    "swim:elevations": [
      122,
      546,
      806,
      931,
      1137,
      1347,
      1672,
      2145,
      2182,
      2504,
      2788,
      3212,
      3471,
      3756,
      3871,
      4275,
      4539,
      4801,
      4942,
      5038,
      5174,
      5285,
      5452,
      5627
    ],
    "swim:geom": "takeoff",
    "swim:timestamps": [
      1790176751,
      1790176791,
      1790176814,
      1790176827,
      1790176871,
      1790176902,
      1790176934,
      1790176976,
      1790176980,
      1790177010,
      1790177038,
      1790177092,
      1790177139,
      1790177183,
      1790177200,
      1790177243,
      1790177271,
      1790177304,
      1790177324,
      1790177342,
      1790177357,
      1790177372,
      1790177401,
      1790177434
    ],
    "wof:geomhash": "a737568094f81db95cbfc26be6827732",
    "wof:id": 2048417141,
    "wof:repo": "sfomuseum-data-flights-2026-09"
  },
  "bbox": [
    -122.40036,
    37.62508,
    -121.30359,
    38.10237
  ],
  "geometry": {"type":"LineString","coordinates":[[-122.38986,37.62508],[-122.40036,37.65393],[-122.37936,37.66466],[-122.3653,37.66899],[-122.31295,37.6855],[-122.27081,37.69916],[-122.22333,37.71499],[-122.16436,37.74355],[-122.16003,37.74573],[-122.11634,37.76828],[-122.07625,37.7888],[-121.99423,37.83005],[-121.91104,37.86325],[-121.82531,37.89722],[-121.79087,37.91107],[-121.70389,37.94538],[-121.64784,37.9676],[-121.57976,37.994],[-121.53854,38.0103],[-121.50127,38.02513],[-121.46919,38.03754],[-121.43726,38.0498],[-121.37493,38.0738],[-121.30359,38.10237]]}
}
