{
  "id": 2048259227,
  "type": "Feature",
  "properties": {
    "date:inception_lower": "2026-09-05",
    "date:inception_upper": "2026-09-05",
    "edtf:cessation": "",
    "edtf:inception": "2026-09-05",
    "flysfo:actual_timestamp": -1,
    "flysfo:airline": "UA",
    "flysfo:base_airline": "",
    "flysfo:base_flight_number": "9456",
    "flysfo:date": "2026-09-05",
    "flysfo:estimated_timestamp": 1788621480,
    "flysfo:event": "A",
    "flysfo:flight_number": "UA5471",
    "flysfo:gate": "E6",
    "flysfo:journey": "GEG-SFO",
    "flysfo:scheduled_timestamp": 1788622200,
    "flysfo:timestamp": 1788622200,
    "geom:area": 0,
    "geom:bbox": "-122.370943,37.617990,-117.531916,47.625686",
    "geom:latitude": 42.621838,
    "geom:longitude": -119.95142949999999,
    "iata:airline": "UA",
    "iata:base_airline": "",
    "icao:airline": "UAL",
    "icao:base_airline": "ANZ",
    "lbl:latitude": 37.618774,
    "lbl:longitude": -122.384852,
    "sfomuseum:airline_id": 1159285413,
    "sfomuseum:arrival_id": 102527513,
    "sfomuseum:base_flight_id": "20260905-A-ANZ-9456",
    "sfomuseum:departure_id": 102533331,
    "sfomuseum:flight_id": "20260905-A-UAL-5471",
    "sfomuseum:flight_number": [
      "UAL5471",
      "UA5471"
    ],
    "sfomuseum:placetype": "flight",
    "src:geom": "flysfo",
    "wof:belongsto": [
      1947304067,
      102527513,
      1947304511,
      102191575,
      85633793,
      102087579,
      85922583,
      554784711,
      85688637,
      1947304513,
      1947304447,
      102085387
    ],
    "wof:country": "US",
    "wof:created": 1788710860,
    "wof:geomhash": "a4e0879e5fc6968e3e72ecbd42744790",
    "wof:hierarchy": [
      {
        "building_id": 1947304067,
        "campus_id": 102527513,
        "concourse_id": 1947304511,
        "continent_id": 102191575,
        "country_id": 85633793,
        "county_id": 102087579,
        "custom_id": 2048259227,
        "flight_id": 2048259227,
        "locality_id": 85922583,
        "postalcode_id": 554784711,
        "region_id": 85688637,
        "venue_id": 1947304513,
        "wing_id": 1947304447
      },
      {
        "building_id": 1947304067,
        "campus_id": 102527513,
        "concourse_id": 1947304511,
        "continent_id": 102191575,
        "country_id": 85633793,
        "county_id": 102085387,
        "custom_id": 2048259227,
        "flight_id": 2048259227,
        "region_id": 85688637,
        "venue_id": 1947304513,
        "wing_id": 1947304447
      }
    ],
    "wof:id": 2048259227,
    "wof:involves": [
      102527513,
      102533331,
      1159285413,
      1947304513,
      1159283697
    ],
    "wof:lastmodified": 1788710860,
    "wof:name": "UA5471 (GEG-SFO)",
    "wof:parent_id": 1947304513,
    "wof:placetype": "custom",
    "wof:placetype_alt": [
      "flight"
    ],
    "wof:repo": "sfomuseum-data-flights-2026-09",
    "wof:superseded_by": [],
    "wof:supersedes": []
  },
  "bbox": [
    -122.370943,
    37.61799,
    -117.531916,
    47.625686
  ],
  "geometry": {"type":"MultiPoint","coordinates":[[-117.531916,47.625686],[-122.370943,37.61799]]}
}
