{
  "id": 2048412955,
  "type": "Feature",
  "properties": {
    "geom:area": 0,
    "geom:bbox": "-123.404722,37.433333,-122.116667,47.387778",
    "geom:latitude": 42.379533346173524,
    "geom:longitude": -123.0108331247013,
    "src:alt_label": "swim-path",
    "src:geom": "swim",
    "swim:altitudes": [
      "025",
      "048",
      "062",
      "070",
      "071",
      "098",
      "118",
      "133",
      "159",
      "179",
      "201",
      "219",
      "238",
      "249",
      "264",
      "283",
      "297",
      "311",
      "326",
      "341",
      "350C",
      "352",
      "364",
      "370C",
      "370C",
      "370C",
      "370C",
      "370C",
      "370C",
      "370C",
      "370C",
      "370C",
      "370C",
      "370C",
      "370C",
      "370C",
      "370C",
      "370C",
      "370C",
      "370C",
      "370C",
      "370C",
      "370C",
      "370C",
      "370C",
      "370C",
      "370C",
      "370C",
      "370C",
      "370C",
      "370C",
      "370C",
      "370C",
      "370C",
      "370C",
      "370C",
      "370C",
      "370C",
      "370C",
      "370C",
      "370C",
      "370C",
      "370C",
      "370C",
      "370C",
      "370C",
      "370C",
      "370C",
      "370C",
      "370C",
      "370C",
      "370C",
      "370C",
      "370C",
      "370C",
      "370C",
      "370C",
      "370C",
      "370C",
      "370C",
      "370C",
      "370C",
      "370C",
      "370C",
      "370C",
      "370C",
      "370C",
      "370C",
      "370C",
      "370C",
      "370C",
      "370C",
      "370C",
      "370C",
      "370C",
      "370C",
      "370C",
      "370C",
      "370C",
      "370",
      "363",
      "361",
      "351",
      "341",
      "331",
      "322",
      "312",
      "296",
      "283",
      "274",
      "264",
      "254",
      "246",
      "224",
      "203",
      "184",
      "164",
      "147",
      "146",
      "129",
      "118",
      "118",
      "110",
      "109C",
      "110C",
      "104",
      "094",
      "082",
      "071",
      "057",
      "042",
      "032",
      "022",
      "014",
      "013",
      "007"
    ],
    "swim:geom": "path",
    "swim:speeds": [
      215,
      256,
      253,
      256,
      258,
      268,
      308,
      356,
      368,
      380,
      407,
      417,
      420,
      436,
      452,
      452,
      451,
      450,
      447,
      437,
      430,
      429,
      420,
      417,
      420,
      422,
      424,
      425,
      425,
      425,
      425,
      425,
      426,
      428,
      430,
      432,
      430,
      424,
      425,
      427,
      430,
      431,
      433,
      435,
      434,
      436,
      434,
      434,
      433,
      433,
      431,
      431,
      430,
      430,
      429,
      431,
      430,
      432,
      431,
      433,
      433,
      434,
      435,
      435,
      435,
      436,
      435,
      435,
      435,
      436,
      436,
      436,
      437,
      437,
      437,
      436,
      435,
      435,
      434,
      433,
      433,
      432,
      432,
      432,
      433,
      433,
      434,
      435,
      433,
      431,
      431,
      430,
      430,
      430,
      433,
      433,
      434,
      435,
      435,
      436,
      435,
      435,
      434,
      434,
      442,
      444,
      443,
      416,
      405,
      411,
      411,
      411,
      409,
      393,
      380,
      371,
      362,
      361,
      361,
      355,
      308,
      314,
      270,
      276,
      257,
      255,
      250,
      246,
      237,
      235,
      231,
      208,
      193,
      165,
      168,
      154
    ],
    "swim:timestamps": [
      1790202992,
      1790203046,
      1790203071,
      1790203131,
      1790203191,
      1790203251,
      1790203311,
      1790203371,
      1790203431,
      1790203492,
      1790203552,
      1790203612,
      1790203672,
      1790203732,
      1790203792,
      1790203852,
      1790203912,
      1790203972,
      1790204032,
      1790204092,
      1790204152,
      1790204212,
      1790204273,
      1790204333,
      1790204453,
      1790204513,
      1790204573,
      1790204633,
      1790204693,
      1790204753,
      1790204813,
      1790204873,
      1790204933,
      1790204993,
      1790205053,
      1790205114,
      1790205174,
      1790205234,
      1790205294,
      1790205354,
      1790205414,
      1790205474,
      1790205534,
      1790205551,
      1790205594,
      1790205611,
      1790205654,
      1790205671,
      1790205714,
      1790205731,
      1790205774,
      1790205791,
      1790205834,
      1790205851,
      1790205895,
      1790205912,
      1790205955,
      1790205972,
      1790206015,
      1790206032,
      1790206075,
      1790206092,
      1790206135,
      1790206152,
      1790206195,
      1790206212,
      1790206255,
      1790206272,
      1790206315,
      1790206332,
      1790206375,
      1790206392,
      1790206435,
      1790206452,
      1790206495,
      1790206512,
      1790206555,
      1790206573,
      1790206615,
      1790206633,
      1790206675,
      1790206693,
      1790206736,
      1790206753,
      1790206796,
      1790206813,
      1790206856,
      1790206873,
      1790206916,
      1790206933,
      1790206976,
      1790206993,
      1790207036,
      1790207053,
      1790207096,
      1790207113,
      1790207156,
      1790207173,
      1790207216,
      1790207233,
      1790207276,
      1790207294,
      1790207354,
      1790207414,
      1790207474,
      1790207534,
      1790207594,
      1790207654,
      1790207714,
      1790207774,
      1790207834,
      1790207894,
      1790207955,
      1790208015,
      1790208075,
      1790208135,
      1790208195,
      1790208247,
      1790208255,
      1790208315,
      1790208367,
      1790208375,
      1790208427,
      1790208435,
      1790208495,
      1790208555,
      1790208616,
      1790208676,
      1790208727,
      1790208788,
      1790208847,
      1790208916,
      1790208973,
      1790209028,
      1790209036,
      1790209096
    ],
    "wof:geomhash": "848301b2159f02305fc014d1b6a69e4c",
    "wof:id": 2048412955,
    "wof:repo": "sfomuseum-data-flights-2026-09"
  },
  "bbox": [
    -123.40472222222223,
    37.43333333333333,
    -122.11666666666666,
    47.38777777777778
  ],
  "geometry": {"type":"LineString","coordinates":[[-122.30694444444444,47.38777777777778],[-122.32277777777777,47.32944444444445],[-122.35194444444444,47.31583333333333],[-122.45694444444445,47.30611111111111],[-122.5625,47.31055555555555],[-122.6713888888889,47.31333333333333],[-122.79083333333332,47.31027777777778],[-122.9088888888889,47.26166666666666],[-123.02416666666666,47.19416666666666],[-123.14250000000001,47.12555555555556],[-123.22055555555556,47.03638888888889],[-123.21472222222222,46.936388888888885],[-123.21000000000001,46.81916666666667],[-123.20611111111111,46.69888888888889],[-123.20111111111112,46.54805555555556],[-123.19694444444445,46.427499999999995],[-123.19277777777778,46.30277777777778],[-123.18861111111111,46.177499999999995],[-123.18472222222222,46.051944444444445],[-123.18083333333334,45.933055555555555],[-123.17722222222223,45.81361111111111],[-123.17333333333333,45.69333333333333],[-123.16944444444445,45.57805555555556],[-123.16583333333334,45.46138888888889],[-123.1588888888889,45.228611111111114],[-123.15472222222223,45.109722222222224],[-123.15083333333334,44.98888888888889],[-123.14722222222223,44.870555555555555],[-123.14416666666668,44.77333333333333],[-123.14055555555557,44.655277777777776],[-123.13666666666667,44.536944444444444],[-123.13277777777778,44.4175],[-123.1286111111111,44.299166666666665],[-123.12444444444444,44.17972222222222],[-123.12027777777777,44.058055555555555],[-123.11527777777778,43.918055555555554],[-123.11166666666666,43.82222222222222],[-123.10777777777777,43.703611111111115],[-123.1036111111111,43.58583333333333],[-123.09972222222221,43.46666666666667],[-123.09527777777777,43.34444444444445],[-123.0911111111111,43.225],[-123.08694444444444,43.103611111111114],[-123.08416666666666,43.05472222222222],[-123.08277777777778,42.98361111111111],[-123.08,42.93388888888889],[-123.0786111111111,42.861666666666665],[-123.07666666666667,42.814166666666665],[-123.07444444444444,42.74277777777778],[-123.07111111111111,42.69499999999999],[-123.07055555555556,42.62361111111111],[-123.06805555555555,42.57611111111112],[-123.06583333333333,42.48027777777778],[-123.06472222222222,42.4575],[-123.06194444444444,42.36222222222222],[-123.06083333333333,42.33027777777778],[-123.05805555555555,42.24305555555556],[-123.05722222222222,42.2175],[-123.05444444444444,42.121944444444445],[-123.05361111111111,42.09722222222222],[-123.05055555555555,42.00277777777778],[-123.04972222222221,41.97833333333333],[-123.04666666666667,41.88055555555555],[-123.04583333333333,41.856944444444444],[-123.04277777777777,41.761944444444445],[-123.04194444444444,41.73583333333333],[-123.03888888888889,41.64111111111111],[-123.03805555555556,41.61611111111111],[-123.035,41.51972222222222],[-123.03416666666666,41.49527777777778],[-123.03111111111112,41.399166666666666],[-123.03027777777778,41.37305555555555],[-123.02777777777777,41.28194444444444],[-123.02638888888889,41.23861111111111],[-123.02388888888889,41.15972222222222],[-123.02277777777778,41.11888888888889],[-123.02027777777778,41.038333333333334],[-123.01944444444445,41.014722222222225],[-123.01666666666667,40.91916666666666],[-123.01583333333333,40.89333333333333],[-123.01333333333334,40.808055555555555],[-123.01194444444444,40.75861111111111],[-123.00972222222222,40.68805555555555],[-123.00833333333334,40.63861111111111],[-123.00611111111111,40.566944444444445],[-123.00472222222223,40.51861111111111],[-123.0025,40.4475],[-123.00277777777778,40.39805555555556],[-123.02944444444444,40.33027777777778],[-123.06277777777777,40.288888888888884],[-123.1211111111111,40.2175],[-123.14444444444445,40.18944444444444],[-123.2025,40.11527777777778],[-123.21555555555555,40.08416666666667],[-123.23833333333333,39.99722222222222],[-123.24472222222222,39.973055555555554],[-123.26944444444445,39.87777777777778],[-123.27555555555556,39.853611111111114],[-123.30055555555555,39.757777777777775],[-123.30666666666666,39.73416666666667],[-123.33166666666666,39.63944444444444],[-123.33805555555556,39.615],[-123.37027777777777,39.49638888888889],[-123.40472222222223,39.36611111111111],[-123.40222222222222,39.246944444444445],[-123.33277777777778,39.135555555555555],[-123.26333333333334,39.02472222222222],[-123.19666666666667,38.91861111111111],[-123.13416666666667,38.81805555555556],[-123.06944444444444,38.714444444444446],[-123.00583333333333,38.611666666666665],[-122.94194444444445,38.50833333333333],[-122.89166666666668,38.42666666666666],[-122.81888888888888,38.308055555555555],[-122.76333333333334,38.20944444444445],[-122.73472222222222,38.11222222222222],[-122.70666666666666,38.01444444444444],[-122.68333333333334,37.93333333333333],[-122.67944444444444,37.92055555555555],[-122.61277777777777,37.842222222222226],[-122.53333333333333,37.766666666666666],[-122.54027777777777,37.77361111111111],[-122.48333333333333,37.71666666666667],[-122.47666666666667,37.71361111111111],[-122.41833333333334,37.659166666666664],[-122.35805555555555,37.6],[-122.3275,37.54194444444444],[-122.28694444444444,37.474722222222226],[-122.23333333333333,37.43333333333333],[-122.15,37.43333333333333],[-122.11666666666666,37.483333333333334],[-122.155,37.52638888888889],[-122.21666666666667,37.55],[-122.26666666666667,37.583333333333336],[-122.27666666666667,37.577222222222225],[-122.31861111111111,37.595]]}
}
