{
  "id": 2048370495,
  "type": "Feature",
  "properties": {
    "geom:area": 0,
    "geom:bbox": "-122.359270,37.483490,-121.243390,37.614350",
    "geom:latitude": 37.54389969345985,
    "geom:longitude": -121.80551682468989,
    "src:alt_label": "swim-approach",
    "src:geom": "swim",
    "swim:elevations": [
      4453,
      4339,
      3961,
      3876,
      3710,
      3506,
      3464,
      3198,
      2992,
      2781,
      2652,
      2401,
      2437,
      2438,
      2275,
      2173,
      2055,
      1862,
      1829,
      1829,
      1829,
      1501,
      1249,
      1022,
      912,
      846,
      655,
      550,
      522,
      428,
      303,
      184,
      57,
      117
    ],
    "swim:geom": "approach",
    "swim:timestamps": [
      1789752022,
      1789752033,
      1789752084,
      1789752103,
      1789752138,
      1789752168,
      1789752181,
      1789752229,
      1789752261,
      1789752299,
      1789752318,
      1789752357,
      1789752361,
      1789752381,
      1789752417,
      1789752441,
      1789752459,
      1789752498,
      1789752531,
      1789752543,
      1789752579,
      1789752625,
      1789752651,
      1789752673,
      1789752698,
      1789752743,
      1789752773,
      1789752801,
      1789752815,
      1789752845,
      1789752881,
      1789752918,
      1789752958,
      1789752973
    ],
    "wof:geomhash": "98f8e54b79debbd06a54cde51a87193d",
    "wof:id": 2048370495,
    "wof:repo": "sfomuseum-data-flights-2026-09"
  },
  "bbox": [
    -122.35927,
    37.48349,
    -121.24339,
    37.61435
  ],
  "geometry": {"type":"LineString","coordinates":[[-121.24339,37.59543],[-121.26522,37.59246],[-121.36613,37.58082],[-121.40015,37.57691],[-121.45657,37.5703],[-121.50095,37.56522],[-121.52065,37.56294],[-121.59048,37.55496],[-121.63654,37.54781],[-121.68922,37.53506],[-121.7155,37.52613],[-121.75627,37.49196],[-121.76118,37.48966],[-121.7892,37.48349],[-121.83933,37.48594],[-121.86931,37.48716],[-121.89123,37.48833],[-121.93825,37.4909],[-121.97662,37.49316],[-121.99037,37.49572],[-122.0275,37.50748],[-122.07343,37.52237],[-122.09947,37.53071],[-122.12245,37.53806],[-122.14865,37.54646],[-122.19129,37.56038],[-122.22006,37.56984],[-122.24425,37.57775],[-122.25596,37.58144],[-122.27801,37.58806],[-122.3025,37.5953],[-122.32638,37.60239],[-122.35008,37.61067],[-122.35927,37.61435]]}
}
