{
  "id": 2048396219,
  "type": "Feature",
  "properties": {
    "geom:area": 0,
    "geom:bbox": "-123.227330,37.418440,-122.129640,38.489390",
    "geom:latitude": 37.862530317494254,
    "geom:longitude": -122.61201712501189,
    "src:alt_label": "swim-approach",
    "src:geom": "swim",
    "swim:elevations": [
      7224,
      7030,
      6718,
      6413,
      6374,
      5987,
      5656,
      5557,
      5060,
      4770,
      4728,
      4446,
      4351,
      4020,
      3722,
      3631,
      3416,
      3355,
      3353,
      3353,
      3353,
      3322,
      3116,
      2890,
      2704,
      2409,
      2306,
      2065,
      1928,
      1829,
      1802,
      1554,
      1292,
      1220,
      1093,
      948,
      853,
      842,
      636,
      532,
      440,
      400,
      211,
      152,
      0
    ],
    "swim:geom": "approach",
    "swim:timestamps": [
      1790023943,
      1790023965,
      1790024001,
      1790024037,
      1790024041,
      1790024084,
      1790024122,
      1790024133,
      1790024185,
      1790024216,
      1790024220,
      1790024250,
      1790024281,
      1790024338,
      1790024364,
      1790024373,
      1790024428,
      1790024457,
      1790024480,
      1790024496,
      1790024545,
      1790024573,
      1790024597,
      1790024619,
      1790024648,
      1790024699,
      1790024708,
      1790024733,
      1790024762,
      1790024816,
      1790024824,
      1790024867,
      1790024908,
      1790024931,
      1790024964,
      1790024998,
      1790025027,
      1790025031,
      1790025074,
      1790025095,
      1790025116,
      1790025122,
      1790025166,
      1790025181,
      1790025224
    ],
    "wof:geomhash": "a6dde4413096a30f6a36e09cdec82697",
    "wof:id": 2048396219,
    "wof:repo": "sfomuseum-data-flights-2026-09"
  },
  "bbox": [
    -123.22733,
    37.41844,
    -122.12964,
    38.48939
  ],
  "geometry": {"type":"LineString","coordinates":[[-123.22733,38.48939],[-123.1924,38.45194],[-123.13316,38.38944],[-123.07491,38.3279],[-123.06814,38.32078],[-123.00021,38.24858],[-122.94218,38.18691],[-122.92599,38.16972],[-122.84842,38.08713],[-122.80269,38.03833],[-122.79748,38.03278],[-122.75492,37.98695],[-122.71328,37.94243],[-122.63983,37.86801],[-122.60485,37.83527],[-122.59266,37.82369],[-122.52379,37.75837],[-122.4908,37.72717],[-122.46643,37.70432],[-122.45025,37.68913],[-122.40328,37.64503],[-122.37751,37.62071],[-122.35765,37.59851],[-122.34351,37.5751],[-122.32725,37.5472],[-122.30096,37.50189],[-122.29587,37.49325],[-122.2831,37.4714],[-122.26792,37.44636],[-122.21383,37.42117],[-122.20629,37.41844],[-122.16451,37.42393],[-122.13999,37.45633],[-122.12964,37.47547],[-122.14157,37.50198],[-122.15988,37.52708],[-122.18731,37.53995],[-122.19151,37.54165],[-122.2342,37.5596],[-122.25561,37.56852],[-122.27664,37.57741],[-122.28227,37.57977],[-122.31853,37.59501],[-122.33024,37.59993],[-122.3636,37.61269]]}
}
