{
  "id": 2048262895,
  "type": "Feature",
  "properties": {
    "geom:area": 0,
    "geom:bbox": "-122.411600,37.626500,-121.263510,37.954890",
    "geom:latitude": 37.81232132298863,
    "geom:longitude": -121.85591077299385,
    "src:alt_label": "swim-takeoff",
    "src:geom": "swim",
    "swim:elevations": [
      152,
      572,
      807,
      1141,
      1279,
      1339,
      1807,
      2270,
      2440,
      3158,
      3301,
      3522,
      3993,
      4462,
      4601,
      4919,
      5168,
      5327,
      5617,
      5812,
      6234,
      6458
    ],
    "swim:geom": "takeoff",
    "swim:timestamps": [
      1788600443,
      1788600477,
      1788600501,
      1788600537,
      1788600567,
      1788600575,
      1788600618,
      1788600649,
      1788600663,
      1788600716,
      1788600745,
      1788600772,
      1788600826,
      1788600865,
      1788600880,
      1788600914,
      1788600949,
      1788600967,
      1788601003,
      1788601023,
      1788601073,
      1788601099
    ],
    "wof:geomhash": "5b883d4f19382454e2fbb005d2ffaf44",
    "wof:id": 2048262895,
    "wof:repo": "sfomuseum-data-flights-2026-09"
  },
  "bbox": [
    -122.4116,
    37.6265,
    -121.26351,
    37.95489
  ],
  "geometry": {"type":"LineString","coordinates":[[-122.3935,37.6265],[-122.4116,37.64806],[-122.39338,37.66354],[-122.35331,37.67471],[-122.31539,37.68625],[-122.30374,37.68983],[-122.23661,37.71078],[-122.18854,37.73086],[-122.16916,37.74115],[-122.08413,37.76571],[-122.03404,37.7779],[-121.98203,37.79001],[-121.87265,37.81519],[-121.79111,37.83352],[-121.75973,37.84084],[-121.68705,37.85797],[-121.60989,37.8759],[-121.56847,37.88556],[-121.48731,37.90419],[-121.44137,37.91468],[-121.32561,37.94084],[-121.26351,37.95489]]}
}
