{
  "id": 2048321873,
  "type": "Feature",
  "properties": {
    "geom:area": 0,
    "geom:bbox": "-122.405420,37.631080,-121.278470,38.405700",
    "geom:latitude": 38.016556650688656,
    "geom:longitude": -121.85065980118975,
    "src:alt_label": "swim-takeoff",
    "src:geom": "swim",
    "swim:elevations": [
      257,
      459,
      877,
      1234,
      1413,
      1634,
      2336,
      2536,
      3133,
      3380,
      3453,
      3628,
      3961,
      4229,
      4297,
      4573,
      5019,
      5320,
      5628,
      5771,
      5975,
      6311,
      6576,
      6853
    ],
    "swim:geom": "takeoff",
    "swim:timestamps": [
      1789204498,
      1789204511,
      1789204547,
      1789204586,
      1789204606,
      1789204625,
      1789204676,
      1789204691,
      1789204735,
      1789204764,
      1789204774,
      1789204806,
      1789204852,
      1789204887,
      1789204894,
      1789204925,
      1789204973,
      1789205004,
      1789205037,
      1789205056,
      1789205080,
      1789205123,
      1789205156,
      1789205188
    ],
    "wof:geomhash": "2941d275a30c98c78768a58780eff302",
    "wof:id": 2048321873,
    "wof:repo": "sfomuseum-data-flights-2026-09"
  },
  "bbox": [
    -122.40542,
    37.63108,
    -121.27847,
    38.4057
  ],
  "geometry": {"type":"LineString","coordinates":[[-122.3977,37.63108],[-122.40542,37.63962],[-122.38631,37.66512],[-122.33918,37.67855],[-122.31097,37.68711],[-122.28225,37.69619],[-122.20821,37.7265],[-122.19137,37.74287],[-122.14615,37.79291],[-122.11423,37.82866],[-122.10286,37.84126],[-122.05896,37.88432],[-121.97833,37.94069],[-121.91246,37.98449],[-121.89973,37.99306],[-121.83812,38.03457],[-121.74114,38.10007],[-121.67788,38.14287],[-121.60931,38.18915],[-121.57018,38.21542],[-121.51896,38.2497],[-121.42459,38.3126],[-121.35216,38.36037],[-121.27847,38.4057]]}
}
