{
  "id": 2048222161,
  "type": "Feature",
  "properties": {
    "geom:area": 0,
    "geom:bbox": "-122.361250,36.720610,-121.877380,37.613140",
    "geom:latitude": 37.221900676947016,
    "geom:longitude": -122.06845754404723,
    "src:alt_label": "swim-approach",
    "src:geom": "swim",
    "swim:elevations": [
      5394,
      5071,
      4878,
      4607,
      4154,
      3876,
      3582,
      3392,
      3198,
      3149,
      3029,
      2914,
      2821,
      2743,
      2436,
      2248,
      2056,
      1980,
      1888,
      1699,
      1583,
      1487,
      1166,
      1064,
      913,
      716,
      570,
      510,
      415,
      351,
      259,
      140,
      74,
      0
    ],
    "swim:geom": "approach",
    "swim:timestamps": [
      1788273558,
      1788273589,
      1788273607,
      1788273631,
      1788273678,
      1788273710,
      1788273740,
      1788273762,
      1788273798,
      1788273810,
      1788273861,
      1788273877,
      1788273889,
      1788273901,
      1788273948,
      1788273975,
      1788274002,
      1788274020,
      1788274053,
      1788274096,
      1788274125,
      1788274141,
      1788274189,
      1788274205,
      1788274236,
      1788274279,
      1788274313,
      1788274327,
      1788274356,
      1788274376,
      1788274399,
      1788274434,
      1788274453,
      1788274472
    ],
    "wof:geomhash": "5682010678eb39232ec034b88d5fdeaf",
    "wof:id": 2048222161,
    "wof:repo": "sfomuseum-data-flights-2026-09"
  },
  "bbox": [
    -122.36125,
    36.72061,
    -121.87738,
    37.61314
  ],
  "geometry": {"type":"LineString","coordinates":[[-121.87738,36.72061],[-121.90095,36.76616],[-121.90942,36.7963],[-121.92021,36.8349],[-121.94112,36.90954],[-121.95552,36.95815],[-121.97329,37.00372],[-121.9855,37.03476],[-122.00546,37.08635],[-122.01177,37.10267],[-122.03692,37.16652],[-122.0449,37.18662],[-122.05085,37.20189],[-122.05645,37.21604],[-122.07946,37.27489],[-122.092,37.30712],[-122.10503,37.33992],[-122.1135,37.36123],[-122.12243,37.39837],[-122.10785,37.44223],[-122.09852,37.46976],[-122.10135,37.48341],[-122.13409,37.51657],[-122.14932,37.52381],[-122.17825,37.53602],[-122.21863,37.55293],[-122.24711,37.56487],[-122.2568,37.56907],[-122.27837,37.57809],[-122.29291,37.58423],[-122.30934,37.59112],[-122.33379,37.60143],[-122.34819,37.60738],[-122.36125,37.61314]]}
}
