{
  "id": 2048466809,
  "type": "Feature",
  "properties": {
    "geom:area": 0,
    "geom:bbox": "-122.348670,37.491400,-121.266810,37.610010",
    "geom:latitude": 37.54548655381865,
    "geom:longitude": -121.81234510217367,
    "src:alt_label": "swim-approach",
    "src:geom": "swim",
    "swim:elevations": [
      5057,
      4844,
      4510,
      4213,
      4024,
      3679,
      3352,
      2951,
      2672,
      2476,
      2440,
      2220,
      1942,
      1828,
      1829,
      1735,
      1615,
      1554,
      1490,
      1249,
      1123,
      1061,
      995,
      737,
      616,
      526,
      495,
      332,
      237,
      125,
      88
    ],
    "swim:geom": "approach",
    "swim:timestamps": [
      1790671579,
      1790671607,
      1790671640,
      1790671668,
      1790671688,
      1790671722,
      1790671752,
      1790671787,
      1790671817,
      1790671854,
      1790671870,
      1790671907,
      1790671945,
      1790671970,
      1790671987,
      1790672027,
      1790672048,
      1790672061,
      1790672072,
      1790672116,
      1790672139,
      1790672155,
      1790672166,
      1790672218,
      1790672240,
      1790672254,
      1790672263,
      1790672303,
      1790672328,
      1790672357,
      1790672370
    ],
    "wof:geomhash": "47abc48b5b3dba8e88e09437ae597ec8",
    "wof:id": 2048466809,
    "wof:repo": "sfomuseum-data-flights-2026-09"
  },
  "bbox": [
    -122.34867,
    37.4914,
    -121.26681,
    37.61001
  ],
  "geometry": {"type":"LineString","coordinates":[[-121.26681,37.59222],[-121.32287,37.58582],[-121.38704,37.57851],[-121.44137,37.57225],[-121.47893,37.56782],[-121.53985,37.56073],[-121.59453,37.55435],[-121.65763,37.54291],[-121.71021,37.53041],[-121.77055,37.51597],[-121.7943,37.51013],[-121.84576,37.49785],[-121.89828,37.4914],[-121.93278,37.49237],[-121.95484,37.49306],[-122.00534,37.50027],[-122.02967,37.50819],[-122.0457,37.51343],[-122.05917,37.51778],[-122.10917,37.53397],[-122.13392,37.542],[-122.14991,37.54723],[-122.16172,37.55097],[-122.21662,37.56886],[-122.23945,37.57626],[-122.25305,37.58055],[-122.26216,37.58343],[-122.29632,37.5934],[-122.31634,37.59936],[-122.33869,37.60611],[-122.34867,37.61001]]}
}
