{
  "id": 2048398879,
  "type": "Feature",
  "properties": {
    "geom:area": 0,
    "geom:bbox": "-122.403600,37.622690,-121.254160,37.963790",
    "geom:latitude": 37.82994157184583,
    "geom:longitude": -121.85292321694087,
    "src:alt_label": "swim-takeoff",
    "src:geom": "swim",
    "swim:elevations": [
      91,
      508,
      603,
      939,
      1321,
      1389,
      1810,
      2427,
      2846,
      3385,
      3517,
      3785,
      4015,
      4527,
      4949,
      5287,
      5451,
      6031,
      6310,
      6658,
      6795,
      7004,
      7363
    ],
    "swim:geom": "takeoff",
    "swim:timestamps": [
      1790014766,
      1790014794,
      1790014801,
      1790014834,
      1790014883,
      1790014890,
      1790014928,
      1790014967,
      1790014994,
      1790015036,
      1790015055,
      1790015097,
      1790015114,
      1790015148,
      1790015183,
      1790015211,
      1790015222,
      1790015274,
      1790015303,
      1790015335,
      1790015353,
      1790015378,
      1790015425
    ],
    "wof:geomhash": "c75c35d0d2efbad443cf645c8553c4f7",
    "wof:id": 2048398879,
    "wof:repo": "sfomuseum-data-flights-2026-09"
  },
  "bbox": [
    -122.4036,
    37.62269,
    -121.25416,
    37.96379
  ],
  "geometry": {"type":"LineString","coordinates":[[-122.38397,37.62269],[-122.40225,37.63576],[-122.4036,37.64136],[-122.38405,37.66039],[-122.33033,37.67393],[-122.32221,37.67673],[-122.27059,37.69727],[-122.21176,37.71899],[-122.17407,37.73868],[-122.1137,37.77012],[-122.08487,37.78461],[-122.01075,37.82215],[-121.97402,37.83181],[-121.90085,37.84509],[-121.82384,37.85956],[-121.76229,37.87095],[-121.73698,37.87563],[-121.61815,37.8975],[-121.55062,37.90997],[-121.47344,37.92412],[-121.43161,37.93173],[-121.37066,37.9429],[-121.25416,37.96379]]}
}
