{
  "id": 2048239585,
  "type": "Feature",
  "properties": {
    "geom:area": 0,
    "geom:bbox": "-122.819080,37.372710,-122.075840,38.400420",
    "geom:latitude": 37.73854001128439,
    "geom:longitude": -122.44938340631955,
    "src:alt_label": "swim-approach",
    "src:geom": "swim",
    "swim:elevations": [
      7590,
      7437,
      7107,
      6637,
      6211,
      6099,
      5653,
      5567,
      5251,
      5188,
      4702,
      4377,
      4254,
      3795,
      3486,
      3353,
      3353,
      3353,
      3353,
      3353,
      3374,
      3216,
      3019,
      2938,
      2740,
      2538,
      2171,
      1881,
      1852,
      1830,
      1829,
      1825,
      1768,
      1563,
      1553,
      1466,
      1399,
      1364,
      1281,
      1206,
      1139,
      1034,
      899,
      697,
      514,
      456,
      249,
      149,
      49,
      0
    ],
    "swim:geom": "approach",
    "swim:timestamps": [
      1788427015,
      1788427028,
      1788427056,
      1788427097,
      1788427135,
      1788427146,
      1788427187,
      1788427195,
      1788427226,
      1788427232,
      1788427279,
      1788427310,
      1788427325,
      1788427369,
      1788427399,
      1788427437,
      1788427450,
      1788427498,
      1788427501,
      1788427526,
      1788427548,
      1788427582,
      1788427606,
      1788427621,
      1788427653,
      1788427681,
      1788427728,
      1788427765,
      1788427795,
      1788427822,
      1788427832,
      1788427883,
      1788427908,
      1788427948,
      1788427951,
      1788428001,
      1788428032,
      1788428045,
      1788428066,
      1788428097,
      1788428111,
      1788428134,
      1788428163,
      1788428202,
      1788428241,
      1788428252,
      1788428303,
      1788428329,
      1788428361,
      1788428370
    ],
    "wof:geomhash": "1000be0ca3dc1193bb11a775de1338f6",
    "wof:id": 2048239585,
    "wof:repo": "sfomuseum-data-flights-2026-09"
  },
  "bbox": [
    -122.81908,
    37.37271,
    -122.07584,
    38.40042
  ],
  "geometry": {"type":"LineString","coordinates":[[-122.81908,38.40042],[-122.81189,38.376],[-122.7969,38.32462],[-122.77527,38.25104],[-122.75573,38.18421],[-122.75004,38.16451],[-122.72979,38.09492],[-122.72578,38.0814],[-122.71116,38.03057],[-122.70818,38.02028],[-122.68642,37.94486],[-122.66621,37.89662],[-122.64849,37.87619],[-122.58989,37.82079],[-122.55179,37.78435],[-122.50339,37.73922],[-122.48896,37.72569],[-122.4389,37.67894],[-122.436,37.6762],[-122.41247,37.65395],[-122.39168,37.63406],[-122.35949,37.60199],[-122.34305,37.57739],[-122.33543,37.56068],[-122.31897,37.52712],[-122.30255,37.49966],[-122.31679,37.4525],[-122.33356,37.41698],[-122.33883,37.38735],[-122.30884,37.37271],[-122.29438,37.37497],[-122.22573,37.39111],[-122.19217,37.39924],[-122.13785,37.41229],[-122.1338,37.41325],[-122.07923,37.44133],[-122.07584,37.47206],[-122.08221,37.48351],[-122.09498,37.4981],[-122.12391,37.5131],[-122.13681,37.51866],[-122.15856,37.52765],[-122.18591,37.53918],[-122.22227,37.55457],[-122.25813,37.56958],[-122.26845,37.57391],[-122.31063,37.59173],[-122.3295,37.59948],[-122.35359,37.60968],[-122.36069,37.61259]]}
}
