{
  "id": 2048430453,
  "type": "Feature",
  "properties": {
    "geom:area": 0,
    "geom:bbox": "-122.357500,33.919444,-118.451944,37.611389",
    "geom:latitude": 35.57755786069071,
    "geom:longitude": -120.68902854508389,
    "src:alt_label": "swim-path",
    "src:geom": "swim",
    "swim:altitudes": [
      "013",
      "032",
      "053",
      "082",
      "107",
      "127",
      "153",
      "180",
      "201",
      "222",
      "239",
      "242",
      "258",
      "261",
      "275",
      "287",
      "289",
      "302",
      "304",
      "320",
      "335",
      "334",
      "349",
      "349",
      "360C",
      "360C",
      "360C",
      "360C",
      "360C",
      "360C",
      "360C",
      "360C",
      "360C",
      "360C",
      "360C",
      "360C",
      "360C",
      "360C",
      "360C",
      "360C",
      "360C",
      "360",
      "355",
      "347",
      "345",
      "335",
      "320",
      "299",
      "279",
      "266",
      "255",
      "245",
      "237",
      "229",
      "223",
      "215",
      "207",
      "199",
      "191",
      "182",
      "174",
      "162",
      "152",
      "146",
      "139",
      "135",
      "131",
      "124",
      "117",
      "114",
      "108",
      "099",
      "092",
      "083",
      "075",
      "067",
      "065",
      "061",
      "060",
      "059",
      "058",
      "052",
      "049",
      "041",
      "038",
      "033",
      "030",
      "024",
      "021",
      "016",
      "014",
      "008",
      "006",
      "001"
    ],
    "swim:geom": "path",
    "swim:speeds": [
      167,
      222,
      257,
      274,
      297,
      355,
      371,
      375,
      392,
      404,
      418,
      412,
      418,
      420,
      433,
      443,
      443,
      448,
      448,
      448,
      445,
      445,
      439,
      440,
      431,
      425,
      412,
      412,
      409,
      409,
      407,
      408,
      406,
      406,
      404,
      405,
      405,
      405,
      405,
      403,
      403,
      403,
      419,
      421,
      421,
      421,
      395,
      390,
      386,
      377,
      373,
      368,
      360,
      357,
      344,
      341,
      332,
      335,
      327,
      331,
      328,
      329,
      324,
      326,
      316,
      302,
      281,
      280,
      275,
      256,
      254,
      255,
      249,
      254,
      259,
      256,
      251,
      253,
      242,
      236,
      213,
      204,
      187,
      189,
      181,
      180,
      182,
      178,
      164,
      158,
      155,
      157,
      147,
      149
    ],
    "swim:timestamps": [
      1790356296,
      1790356356,
      1790356416,
      1790356476,
      1790356537,
      1790356597,
      1790356657,
      1790356718,
      1790356778,
      1790356838,
      1790356890,
      1790356898,
      1790356950,
      1790356958,
      1790357018,
      1790357070,
      1790357078,
      1790357130,
      1790357137,
      1790357190,
      1790357250,
      1790357258,
      1790357310,
      1790357318,
      1790357378,
      1790357438,
      1790357490,
      1790357498,
      1790357551,
      1790357558,
      1790357611,
      1790357618,
      1790357671,
      1790357678,
      1790357738,
      1790357791,
      1790357798,
      1790357851,
      1790357859,
      1790357919,
      1790357971,
      1790357979,
      1790358039,
      1790358091,
      1790358099,
      1790358151,
      1790358212,
      1790358272,
      1790358332,
      1790358367,
      1790358404,
      1790358452,
      1790358469,
      1790358512,
      1790358529,
      1790358572,
      1790358589,
      1790358632,
      1790358650,
      1790358692,
      1790358710,
      1790358752,
      1790358776,
      1790358812,
      1790358830,
      1790358873,
      1790358896,
      1790358933,
      1790358956,
      1790358993,
      1790359010,
      1790359053,
      1790359071,
      1790359113,
      1790359130,
      1790359173,
      1790359191,
      1790359233,
      1790359250,
      1790359293,
      1790359316,
      1790359353,
      1790359370,
      1790359413,
      1790359431,
      1790359473,
      1790359491,
      1790359534,
      1790359556,
      1790359594,
      1790359610,
      1790359654,
      1790359671,
      1790359714
    ],
    "wof:geomhash": "dbd6fd99c0798a128819945acdbba487",
    "wof:id": 2048430453,
    "wof:repo": "sfomuseum-data-flights-2026-09"
  },
  "bbox": [
    -122.35749999999999,
    33.919444444444444,
    -118.45194444444445,
    37.61138888888889
  ],
  "geometry": {"type":"LineString","coordinates":[[-118.45194444444445,33.94555555555555],[-118.52194444444444,33.94138888888889],[-118.60222222222221,33.93583333333333],[-118.69416666666667,33.92805555555555],[-118.78861111111111,33.92055555555555],[-118.90472222222223,33.919444444444444],[-119.02527777777777,33.92944444444444],[-119.12444444444444,33.99305555555556],[-119.21333333333334,34.07333333333334],[-119.30527777777777,34.15611111111111],[-119.38611111111112,34.22944444444445],[-119.4,34.24055555555556],[-119.48055555555555,34.315555555555555],[-119.49416666666667,34.330000000000005],[-119.58749999999999,34.41972222222222],[-119.67611111111111,34.50388888888889],[-119.68611111111112,34.51361111111111],[-119.77666666666667,34.59916666666667],[-119.7863888888889,34.608333333333334],[-119.87444444444444,34.69222222222222],[-119.97333333333333,34.78527777777778],[-119.97,34.782222222222224],[-120.07027777777778,34.876666666666665],[-120.06861111111111,34.875],[-120.16361111111112,34.96416666666667],[-120.25833333333334,35.05277777777778],[-120.35305555555556,35.14111111111111],[-120.35138888888888,35.13972222222222],[-120.44527777777778,35.22694444444445],[-120.44361111111111,35.22555555555556],[-120.53944444444444,35.314166666666665],[-120.5363888888889,35.311388888888885],[-120.6125,35.38166666666667],[-120.62916666666666,35.39694444444444],[-120.72027777777778,35.48083333333334],[-120.79694444444445,35.55166666666666],[-120.8125,35.566111111111105],[-120.90027777777779,35.625],[-120.92166666666667,35.63305555555556],[-121.04972222222221,35.665277777777774],[-121.16277777777778,35.6725],[-121.185,35.68194444444444],[-121.25138888888888,35.78194444444444],[-121.28805555555556,35.87416666666667],[-121.29638888888888,35.894999999999996],[-121.33277777777778,35.98722222222222],[-121.3825,36.09166666666667],[-121.45361111111112,36.18277777777777],[-121.5261111111111,36.275277777777774],[-121.58333333333333,36.333333333333336],[-121.61666666666666,36.4],[-121.6613888888889,36.447222222222216],[-121.7,36.483333333333334],[-121.7275,36.530833333333334],[-121.75,36.56666666666667],[-121.79055555555556,36.61055555555556],[-121.81666666666666,36.65],[-121.85222222222221,36.68861111111111],[-121.88333333333334,36.71666666666667],[-121.90222222222222,36.77027777777778],[-121.91666666666667,36.81666666666667],[-121.92805555555556,36.86222222222222],[-121.93333333333334,36.916666666666664],[-121.95166666666667,36.94694444444444],[-121.96666666666667,36.983333333333334],[-121.98611111111111,37.03666666666666],[-122,37.06666666666667],[-122.0125,37.10444444444445],[-122.03333333333333,37.15],[-122.05,37.17194444444444],[-122.08333333333333,37.2],[-122.1086111111111,37.225],[-122.13333333333334,37.25],[-122.18138888888889,37.26555555555556],[-122.21666666666667,37.28333333333333],[-122.23972222222223,37.31805555555556],[-122.23333333333333,37.35],[-122.19333333333334,37.36222222222222],[-122.15,37.36666666666667],[-122.11805555555554,37.407222222222224],[-122.1,37.43333333333333],[-122.07805555555555,37.45527777777778],[-122.08333333333333,37.46666666666667],[-122.10944444444443,37.49944444444444],[-122.11666666666666,37.516666666666666],[-122.16055555555556,37.52861111111111],[-122.18333333333334,37.53333333333333],[-122.215,37.55138888888889],[-122.23333333333333,37.56666666666667],[-122.26388888888889,37.57194444444445],[-122.28333333333333,37.583333333333336],[-122.31083333333333,37.59166666666667],[-122.31666666666666,37.6],[-122.35749999999999,37.61138888888889]]}
}
