{
  "id": 2048422133,
  "type": "Feature",
  "properties": {
    "geom:area": 0,
    "geom:bbox": "-122.756667,37.539167,-116.088333,43.558611",
    "geom:latitude": 40.57115689176175,
    "geom:longitude": -119.78426861327915,
    "src:alt_label": "swim-path",
    "src:geom": "swim",
    "swim:altitudes": [
      "034",
      "046",
      "061",
      "067",
      "084",
      "112",
      "131",
      "147",
      "171",
      "194",
      "219",
      "232",
      "247",
      "260",
      "281",
      "297",
      "312",
      "326",
      "336",
      "351",
      "361C",
      "360C",
      "360C",
      "360C",
      "361C",
      "361C",
      "361C",
      "360C",
      "360C",
      "360C",
      "361C",
      "360C",
      "360C",
      "361C",
      "360C",
      "360C",
      "361C",
      "360C",
      "360C",
      "360C",
      "360C",
      "361C",
      "361C",
      "361C",
      "360C",
      "360C",
      "360C",
      "360C",
      "360C",
      "359",
      "354",
      "350",
      "345",
      "340",
      "335",
      "330",
      "325",
      "320C",
      "320C",
      "320C",
      "320C",
      "318",
      "297",
      "275",
      "254",
      "233",
      "213",
      "190",
      "176",
      "162",
      "149",
      "135",
      "125",
      "116",
      "106",
      "095",
      "056",
      "040",
      "031",
      "023",
      "017",
      "010",
      "004"
    ],
    "swim:geom": "path",
    "swim:speeds": [
      174,
      171,
      221,
      218,
      280,
      294,
      339,
      377,
      390,
      400,
      401,
      409,
      415,
      424,
      440,
      442,
      433,
      432,
      431,
      428,
      420,
      419,
      422,
      423,
      425,
      428,
      429,
      429,
      428,
      427,
      427,
      427,
      427,
      426,
      425,
      424,
      425,
      425,
      425,
      426,
      426,
      426,
      427,
      424,
      420,
      427,
      427,
      426,
      422,
      412,
      412,
      413,
      413,
      413,
      413,
      414,
      416,
      417,
      415,
      414,
      414,
      414,
      413,
      412,
      399,
      387,
      377,
      360,
      359,
      351,
      333,
      340,
      276,
      232,
      234,
      223,
      219,
      199,
      166,
      156,
      146,
      119,
      118
    ],
    "swim:timestamps": [
      1790299049,
      1790299073,
      1790299133,
      1790299146,
      1790299206,
      1790299266,
      1790299326,
      1790299386,
      1790299446,
      1790299506,
      1790299567,
      1790299627,
      1790299687,
      1790299747,
      1790299867,
      1790299927,
      1790299987,
      1790300047,
      1790300105,
      1790300167,
      1790300227,
      1790300285,
      1790300345,
      1790300405,
      1790300465,
      1790300526,
      1790300588,
      1790300646,
      1790300706,
      1790300768,
      1790300826,
      1790300886,
      1790300948,
      1790301006,
      1790301066,
      1790301129,
      1790301186,
      1790301246,
      1790301309,
      1790301367,
      1790301427,
      1790301489,
      1790301547,
      1790301607,
      1790301667,
      1790301727,
      1790301787,
      1790301847,
      1790301907,
      1790301967,
      1790302027,
      1790302088,
      1790302148,
      1790302208,
      1790302268,
      1790302328,
      1790302388,
      1790302448,
      1790302508,
      1790302568,
      1790302628,
      1790302688,
      1790302748,
      1790302809,
      1790302869,
      1790302929,
      1790302989,
      1790303049,
      1790303109,
      1790303169,
      1790303229,
      1790303289,
      1790303347,
      1790303407,
      1790303467,
      1790303527,
      1790303710,
      1790303830,
      1790303890,
      1790303950,
      1790304010,
      1790304067,
      1790304127
    ],
    "wof:geomhash": "1e63bdfebfa9c9767f6dea22be2e665b",
    "wof:id": 2048422133,
    "wof:repo": "sfomuseum-data-flights-2026-09"
  },
  "bbox": [
    -122.75666666666666,
    37.53916666666667,
    -116.08833333333332,
    43.558611111111105
  ],
  "geometry": {"type":"LineString","coordinates":[[-116.2088888888889,43.558611111111105],[-116.18277777777779,43.549166666666665],[-116.11416666666666,43.526666666666664],[-116.0961111111111,43.52055555555555],[-116.08833333333332,43.46277777777778],[-116.18055555555556,43.42611111111111],[-116.29583333333333,43.38138888888889],[-116.41777777777779,43.334722222222226],[-116.55333333333333,43.2825],[-116.69388888888889,43.22805555555556],[-116.82388888888889,43.177499999999995],[-116.96111111111111,43.11805555555556],[-117.08611111111111,43.046388888888885],[-117.21277777777777,42.973333333333336],[-117.47416666666666,42.82194444444445],[-117.60388888888889,42.74611111111111],[-117.7325,42.67055555555555],[-117.85388888888889,42.591944444444444],[-117.92833333333334,42.519999999999996],[-118.03416666666666,42.395833333333336],[-118.11805555555554,42.29694444444444],[-118.18111111111112,42.22222222222222],[-118.26555555555555,42.12166666666667],[-118.34861111111111,42.022777777777776],[-118.43305555555555,41.92166666666667],[-118.53388888888888,41.80027777777777],[-118.61861111111111,41.69833333333333],[-118.70138888888889,41.59805555555556],[-118.78472222222221,41.49666666666667],[-118.875,41.401666666666664],[-118.97805555555556,41.30972222222222],[-119.0786111111111,41.21944444444445],[-119.17833333333334,41.12972222222222],[-119.28,41.03777777777778],[-119.38055555555555,40.94638888888888],[-119.47444444444444,40.861111111111114],[-119.57388888888889,40.77027777777778],[-119.67333333333333,40.678888888888885],[-119.77194444444444,40.588055555555556],[-119.87222222222222,40.495555555555555],[-119.97055555555556,40.404444444444444],[-120.0675,40.314166666666665],[-120.16666666666667,40.22166666666667],[-120.26305555555555,40.13111111111111],[-120.35972222222222,40.04],[-120.46666666666667,39.93888888888888],[-120.56333333333333,39.847500000000004],[-120.66027777777778,39.755],[-120.75472222222223,39.665],[-120.84861111111111,39.575],[-120.94166666666668,39.48583333333333],[-121.03361111111111,39.39666666666667],[-121.13555555555556,39.31444444444444],[-121.25333333333333,39.24527777777778],[-121.37194444444444,39.17611111111111],[-121.48944444444444,39.1075],[-121.60777777777777,39.03777777777778],[-121.72555555555556,38.968611111111116],[-121.84222222222222,38.89972222222222],[-121.95916666666668,38.83027777777778],[-122.07583333333334,38.76083333333333],[-122.19333333333334,38.69083333333333],[-122.30944444444444,38.62111111111111],[-122.42333333333333,38.55083333333333],[-122.51611111111112,38.46888888888889],[-122.60277777777777,38.385],[-122.68388888888889,38.30611111111111],[-122.75666666666666,38.224444444444444],[-122.7388888888889,38.126666666666665],[-122.71166666666667,38.0325],[-122.68333333333334,37.94305555555555],[-122.63722222222223,37.86527777777778],[-122.55,37.78333333333333],[-122.5,37.733333333333334],[-122.41666666666667,37.71666666666667],[-122.35,37.68333333333333],[-122.13388888888889,37.620555555555555],[-122.10583333333332,37.53916666666667],[-122.16388888888889,37.552499999999995],[-122.21472222222222,37.56805555555556],[-122.26166666666667,37.58305555555556],[-122.3,37.6],[-122.33333333333333,37.6]]}
}
