{
  "id": 2048242161,
  "type": "Feature",
  "properties": {
    "geom:area": 0,
    "geom:bbox": "-122.403670,37.623310,-121.257540,37.963240",
    "geom:latitude": 37.83003451667265,
    "geom:longitude": -121.85386690256932,
    "src:alt_label": "swim-takeoff",
    "src:geom": "swim",
    "swim:elevations": [
      122,
      491,
      557,
      818,
      1273,
      1817,
      2287,
      2682,
      2933,
      3261,
      3627,
      3901,
      4097,
      4604,
      4766,
      5094,
      5260,
      5357,
      5851,
      6095,
      6173,
      6451,
      6879
    ],
    "swim:geom": "takeoff",
    "swim:timestamps": [
      1788441381,
      1788441416,
      1788441423,
      1788441458,
      1788441498,
      1788441535,
      1788441567,
      1788441593,
      1788441613,
      1788441645,
      1788441679,
      1788441714,
      1788441730,
      1788441774,
      1788441788,
      1788441816,
      1788441831,
      1788441843,
      1788441892,
      1788441923,
      1788441933,
      1788441963,
      1788442010
    ],
    "wof:geomhash": "5caf33578b583b73caf10bdb364ad408",
    "wof:id": 2048242161,
    "wof:repo": "sfomuseum-data-flights-2026-09"
  },
  "bbox": [
    -122.40367,
    37.62331,
    -121.25754,
    37.96324
  ],
  "geometry": {"type":"LineString","coordinates":[[-122.38581,37.62331],[-122.40367,37.64479],[-122.40163,37.65057],[-122.36229,37.66815],[-122.30431,37.68523],[-122.24881,37.70572],[-122.19867,37.72608],[-122.16048,37.74614],[-122.1304,37.76136],[-122.08072,37.78691],[-122.02286,37.81663],[-121.95179,37.8357],[-121.91738,37.84198],[-121.82108,37.86009],[-121.78832,37.86611],[-121.7247,37.87789],[-121.69096,37.88413],[-121.66319,37.88922],[-121.54998,37.90997],[-121.47521,37.92363],[-121.44962,37.92827],[-121.37527,37.94184],[-121.25754,37.96324]]}
}
