{
  "id": 2048352631,
  "type": "Feature",
  "properties": {
    "geom:area": 0,
    "geom:bbox": "-122.352650,37.491780,-121.257750,37.611650",
    "geom:latitude": 37.54223525433356,
    "geom:longitude": -121.81211622454467,
    "src:alt_label": "swim-approach",
    "src:geom": "swim",
    "swim:elevations": [
      4992,
      4726,
      4419,
      4146,
      3607,
      3492,
      3255,
      3047,
      2907,
      2779,
      2503,
      2405,
      2171,
      2093,
      1871,
      1761,
      1578,
      1510,
      1316,
      1219,
      1017,
      968,
      715,
      584,
      494,
      417,
      198,
      174,
      92,
      53
    ],
    "swim:geom": "approach",
    "swim:timestamps": [
      1789563859,
      1789563884,
      1789563912,
      1789563937,
      1789563986,
      1789563998,
      1789564023,
      1789564061,
      1789564093,
      1789564111,
      1789564159,
      1789564194,
      1789564225,
      1789564247,
      1789564287,
      1789564311,
      1789564346,
      1789564355,
      1789564396,
      1789564434,
      1789564467,
      1789564480,
      1789564525,
      1789564552,
      1789564575,
      1789564592,
      1789564644,
      1789564651,
      1789564667,
      1789564681
    ],
    "wof:geomhash": "266f6c0e28b97d9209d9d8430b4ebc2b",
    "wof:id": 2048352631,
    "wof:repo": "sfomuseum-data-flights-2026-09"
  },
  "bbox": [
    -122.35265,
    37.49178,
    -121.25775,
    37.61165
  ],
  "geometry": {"type":"LineString","coordinates":[[-121.25775,37.59349],[-121.30524,37.58762],[-121.36042,37.58159],[-121.4066,37.57638],[-121.49799,37.5654],[-121.51953,37.56292],[-121.56317,37.55812],[-121.62735,37.55021],[-121.67408,37.53929],[-121.70049,37.53317],[-121.76652,37.51686],[-121.81572,37.50511],[-121.85734,37.49504],[-121.88977,37.49178],[-121.94618,37.49496],[-121.98015,37.49682],[-122.02847,37.49957],[-122.04009,37.50032],[-122.09324,37.50418],[-122.13296,37.5191],[-122.16589,37.53297],[-122.17941,37.53869],[-122.22566,37.55824],[-122.25138,37.56904],[-122.27033,37.577],[-122.28358,37.58252],[-122.32344,37.59938],[-122.32926,37.60186],[-122.34137,37.60694],[-122.35265,37.61165]]}
}
