{
  "id": 2048417233,
  "type": "Feature",
  "properties": {
    "geom:area": 0,
    "geom:bbox": "-121.990556,32.690833,-116.959722,36.225556",
    "geom:latitude": 34.465861934030826,
    "geom:longitude": -119.33020237143428,
    "src:alt_label": "swim-path",
    "src:geom": "swim",
    "swim:altitudes": [
      "337",
      "348",
      "359",
      "366",
      "368C",
      "370C",
      "370C",
      "370C",
      "370C",
      "370C",
      "370C",
      "370C",
      "370C",
      "370C",
      "370C",
      "370C",
      "370C",
      "370C",
      "370C",
      "370C",
      "370C",
      "370C",
      "370C",
      "370C",
      "370C",
      "370C",
      "370C",
      "370C",
      "370C",
      "370C",
      "370C",
      "370C",
      "370C",
      "370C",
      "370C",
      "370C",
      "370C",
      "370C",
      "370C",
      "370C",
      "370C",
      "370C",
      "370C",
      "370",
      "370",
      "370",
      "360",
      "333",
      "310",
      "289",
      "269",
      "249",
      "228",
      "227",
      "206",
      "185",
      "164",
      "143",
      "131",
      "108",
      "098",
      "084",
      "072",
      "062",
      "057",
      "051",
      "041",
      "032",
      "022",
      "013",
      "004"
    ],
    "swim:geom": "path",
    "swim:speeds": [
      449,
      454,
      456,
      457,
      457,
      457,
      457,
      458,
      458,
      458,
      458,
      457,
      456,
      456,
      454,
      454,
      453,
      453,
      452,
      452,
      453,
      454,
      455,
      455,
      456,
      457,
      458,
      459,
      460,
      460,
      461,
      462,
      463,
      464,
      464,
      465,
      465,
      466,
      466,
      466,
      464,
      463,
      461,
      460,
      461,
      462,
      462,
      459,
      457,
      441,
      426,
      414,
      401,
      405,
      395,
      386,
      377,
      365,
      334,
      316,
      273,
      268,
      235,
      212,
      212,
      198,
      196,
      195,
      182,
      155,
      143
    ],
    "swim:timestamps": [
      1790224307,
      1790224367,
      1790224427,
      1790224475,
      1790224487,
      1790224535,
      1790224545,
      1790224595,
      1790224655,
      1790224665,
      1790224715,
      1790224725,
      1790224775,
      1790224785,
      1790224835,
      1790224845,
      1790224895,
      1790224906,
      1790224955,
      1790224966,
      1790225015,
      1790225026,
      1790225075,
      1790225086,
      1790225135,
      1790225146,
      1790225195,
      1790225206,
      1790225255,
      1790225266,
      1790225315,
      1790225326,
      1790225375,
      1790225386,
      1790225435,
      1790225446,
      1790225495,
      1790225507,
      1790225567,
      1790225627,
      1790225687,
      1790225747,
      1790225807,
      1790225867,
      1790225927,
      1790225987,
      1790226047,
      1790226107,
      1790226168,
      1790226229,
      1790226289,
      1790226349,
      1790226399,
      1790226409,
      1790226469,
      1790226529,
      1790226587,
      1790226647,
      1790226707,
      1790226772,
      1790226832,
      1790226892,
      1790226952,
      1790227012,
      1790227068,
      1790227130,
      1790227190,
      1790227250,
      1790227307,
      1790227367,
      1790227428
    ],
    "wof:geomhash": "982c690ebfcf2671360d443aa20cb5b1",
    "wof:id": 2048417233,
    "wof:repo": "sfomuseum-data-flights-2026-09"
  },
  "bbox": [
    -121.99055555555556,
    32.69083333333333,
    -116.95972222222223,
    36.22555555555556
  ],
  "geometry": {"type":"LineString","coordinates":[[-121.99055555555556,36.22555555555556],[-121.86944444444444,36.14333333333333],[-121.74444444444444,36.06666666666667],[-121.64250000000001,36.00388888888889],[-121.61972222222222,35.99],[-121.51666666666667,35.92611111111111],[-121.49527777777777,35.91305555555555],[-121.39333333333335,35.85],[-121.26861111111111,35.7725],[-121.2461111111111,35.75833333333333],[-121.14500000000001,35.69555555555555],[-121.12194444444444,35.68111111111111],[-121.0225,35.618611111111115],[-120.99583333333334,35.60194444444445],[-120.89916666666667,35.54111111111111],[-120.87333333333332,35.525],[-120.77888888888889,35.46555555555556],[-120.75166666666667,35.44833333333333],[-120.6575,35.38861111111111],[-120.62833333333333,35.37027777777778],[-120.53805555555556,35.31305555555555],[-120.50638888888889,35.29277777777778],[-120.40722222222223,35.22972222222222],[-120.38333333333334,35.214444444444446],[-120.29666666666667,35.15888888888889],[-120.26055555555556,35.13583333333333],[-120.17583333333334,35.081388888888895],[-120.1363888888889,35.05611111111111],[-120.05305555555556,35.00277777777778],[-120.03194444444445,34.98888888888889],[-119.93055555555556,34.92333333333333],[-119.9075,34.90833333333333],[-119.80611111111111,34.8425],[-119.785,34.82888888888889],[-119.68333333333334,34.76277777777778],[-119.66055555555556,34.74805555555556],[-119.56055555555555,34.68277777777777],[-119.53777777777778,34.668055555555554],[-119.41388888888889,34.58694444444445],[-119.29138888888889,34.50611111111111],[-119.17055555555557,34.42638888888889],[-119.05,34.34638888888889],[-118.92944444444444,34.26638888888889],[-118.8086111111111,34.18583333333333],[-118.6888888888889,34.10583333333334],[-118.56722222222221,34.024166666666666],[-118.44694444444445,33.94305555555555],[-118.33333333333333,33.85666666666667],[-118.21666666666667,33.76638888888889],[-118.10583333333332,33.6825],[-117.99944444444445,33.60111111111111],[-117.90055555555556,33.52222222222222],[-117.81666666666666,33.45],[-117.80666666666666,33.44138888888889],[-117.71972222222223,33.36],[-117.635,33.28055555555555],[-117.55138888888888,33.20166666666667],[-117.47361111111111,33.125277777777775],[-117.4075,33.045833333333334],[-117.33333333333333,32.96666666666667],[-117.28333333333333,32.9],[-117.23333333333333,32.833333333333336],[-117.16666666666667,32.8],[-117.1,32.78333333333333],[-117.03555555555555,32.77166666666667],[-116.9738888888889,32.75527777777778],[-116.95972222222223,32.70722222222223],[-117.01444444444445,32.69083333333333],[-117.07138888888889,32.70472222222222],[-117.12166666666666,32.716944444444444],[-117.16694444444445,32.72805555555556]]}
}
