{
  "id": 2048448783,
  "type": "Feature",
  "properties": {
    "geom:area": 0,
    "geom:bbox": "-122.352778,37.483333,-74.120000,41.548333",
    "geom:latitude": 40.257487096583716,
    "geom:longitude": -98.25726274964066,
    "src:alt_label": "swim-path",
    "src:geom": "swim",
    "swim:altitudes": [
      "025",
      "030",
      "031",
      "038",
      "057",
      "067",
      "086",
      "093",
      "110",
      "115",
      "128",
      "138",
      "162",
      "170",
      "185",
      "204",
      "223",
      "237",
      "252",
      "268",
      "278",
      "281",
      "298",
      "301",
      "316",
      "317",
      "328",
      "329",
      "340",
      "351",
      "353",
      "360C",
      "360C",
      "360C",
      "360C",
      "360C",
      "360C",
      "360C",
      "360C",
      "360C",
      "360C",
      "360C",
      "360C",
      "360C",
      "360C",
      "360C",
      "360C",
      "360C",
      "360C",
      "360C",
      "360C",
      "360C",
      "360C",
      "360C",
      "360C",
      "360C",
      "360C",
      "360C",
      "360C",
      "360C",
      "360C",
      "360C",
      "360C",
      "360C",
      "360C",
      "360C",
      "360C",
      "360C",
      "360C",
      "360C",
      "360C",
      "360C",
      "360C",
      "360C",
      "360C",
      "360C",
      "360C",
      "360C",
      "360C",
      "360C",
      "360C",
      "360C",
      "360C",
      "360C",
      "360C",
      "360C",
      "360C",
      "360C",
      "360C",
      "360C",
      "360C",
      "360C",
      "360C",
      "360C",
      "360C",
      "360C",
      "360C",
      "360C",
      "360C",
      "360C",
      "360C",
      "360C",
      "360C",
      "360C",
      "360C",
      "360C",
      "360C",
      "360C",
      "360C",
      "360C",
      "360C",
      "360C",
      "360C",
      "360C",
      "360C",
      "360C",
      "360C",
      "360C",
      "360C",
      "360C",
      "360C",
      "360C",
      "360C",
      "360C",
      "360C",
      "360C",
      "360C",
      "360C",
      "360C",
      "360C",
      "360C",
      "360C",
      "360C",
      "360C",
      "360C",
      "360C",
      "360C",
      "360C",
      "360C",
      "360C",
      "360C",
      "360C",
      "360C",
      "360C",
      "360C",
      "360C",
      "360C",
      "360C",
      "360C",
      "360C",
      "360C",
      "360C",
      "360C",
      "360C",
      "360C",
      "360C",
      "360C",
      "360C",
      "360C",
      "360C",
      "360C",
      "360C",
      "360C",
      "360C",
      "360C",
      "360C",
      "360C",
      "360C",
      "360C",
      "360C",
      "360C",
      "360C",
      "360C",
      "360C",
      "360C",
      "360C",
      "360C",
      "360C",
      "360C",
      "360C",
      "360C",
      "360C",
      "360C",
      "360C",
      "360C",
      "360C",
      "360C",
      "360C",
      "360C",
      "360C",
      "360C",
      "360C",
      "360C",
      "360C",
      "360C",
      "360C",
      "360C",
      "360C",
      "360C",
      "360C",
      "360C",
      "360C",
      "360C",
      "360C",
      "360C",
      "360C",
      "360C",
      "360C",
      "360C",
      "360C",
      "360C",
      "360C",
      "360C",
      "360C",
      "360C",
      "360C",
      "360C",
      "360C",
      "360C",
      "360C",
      "360C",
      "360C",
      "360C",
      "360C",
      "360C",
      "360C",
      "360C",
      "360C",
      "360C",
      "360C",
      "360C",
      "360",
      "360",
      "368",
      "369",
      "380C",
      "380C",
      "380C",
      "380C",
      "380C",
      "380C",
      "380C",
      "380C",
      "380C",
      "380C",
      "380C",
      "380C",
      "380C",
      "380C",
      "380C",
      "380C",
      "380C",
      "380C",
      "380C",
      "380C",
      "380C",
      "380C",
      "380C",
      "380C",
      "380C",
      "380C",
      "380C",
      "380C",
      "380C",
      "380C",
      "380C",
      "380C",
      "380C",
      "380C",
      "380C",
      "380C",
      "380C",
      "380C",
      "380C",
      "380C",
      "380C",
      "380C",
      "380C",
      "380C",
      "380C",
      "380C",
      "380C",
      "380C",
      "380C",
      "380C",
      "380C",
      "380C",
      "380C",
      "380C",
      "380C",
      "380C",
      "380C",
      "380C",
      "380C",
      "380C",
      "380C",
      "380C",
      "380C",
      "380C",
      "380C",
      "380C",
      "380C",
      "380C",
      "380C",
      "380C",
      "380C",
      "380C",
      "380C",
      "380C",
      "380C",
      "380C",
      "380C",
      "380C",
      "380C",
      "380C",
      "380C",
      "380C",
      "380C",
      "380C",
      "380C",
      "380C",
      "380C",
      "380C",
      "380C",
      "380C",
      "380C",
      "380C",
      "380C",
      "380C",
      "380C",
      "380C",
      "380C",
      "380C",
      "380C",
      "380C",
      "380C",
      "380C",
      "380C",
      "380C",
      "380C",
      "380C",
      "380C",
      "380C",
      "380C",
      "380C",
      "380C",
      "380C",
      "380C",
      "380C",
      "380C",
      "380C",
      "380C",
      "380C",
      "380C",
      "380C",
      "380C",
      "380C",
      "380C",
      "380C",
      "380C",
      "380C",
      "380C",
      "380C",
      "380C",
      "380C",
      "380C",
      "380C",
      "380C",
      "380C",
      "380C",
      "380C",
      "380C",
      "380C",
      "380C",
      "380C",
      "380C",
      "380C",
      "380C",
      "380C",
      "380C",
      "380C",
      "380C",
      "380C",
      "380C",
      "380C",
      "380C",
      "380C",
      "380C",
      "380C",
      "380C",
      "380C",
      "380C",
      "380C",
      "380C",
      "380C",
      "380C",
      "380C",
      "380C",
      "380C",
      "380C",
      "380C",
      "380C",
      "380C",
      "380C",
      "380C",
      "380C",
      "380C",
      "380C",
      "380C",
      "380C",
      "380C",
      "380C",
      "380C",
      "380C",
      "380C",
      "380C",
      "380C",
      "380C",
      "380C",
      "380C",
      "380C",
      "380C",
      "380C",
      "380C",
      "380C",
      "380C",
      "380C",
      "380C",
      "380C",
      "380C",
      "380C",
      "380C",
      "380C",
      "380C",
      "380C",
      "380C",
      "380C",
      "380C",
      "380C",
      "380C",
      "380C",
      "380C",
      "380C",
      "380C",
      "380C",
      "380C",
      "380C",
      "380C",
      "380C",
      "380C",
      "380C",
      "380C",
      "380C",
      "380C",
      "380C",
      "380C",
      "380C",
      "380C",
      "380C",
      "380C",
      "380",
      "380",
      "380",
      "370",
      "364",
      "354",
      "341",
      "321",
      "299",
      "300",
      "289",
      "280",
      "268",
      "260",
      "248",
      "240",
      "228",
      "220",
      "208",
      "200",
      "189",
      "181",
      "169",
      "162",
      "150",
      "143",
      "130",
      "124",
      "111",
      "106",
      "103",
      "098",
      "089",
      "084",
      "079",
      "075",
      "069",
      "065",
      "060",
      "059",
      "052",
      "049",
      "045",
      "042",
      "033",
      "025",
      "020",
      "014",
      "011",
      "008",
      "004",
      "002"
    ],
    "swim:geom": "path",
    "swim:speeds": [
      180,
      201,
      282,
      293,
      314,
      315,
      324,
      331,
      340,
      350,
      379,
      384,
      399,
      409,
      434,
      454,
      459,
      470,
      479,
      482,
      484,
      493,
      495,
      487,
      474,
      473,
      475,
      473,
      474,
      473,
      472,
      473,
      473,
      475,
      474,
      471,
      469,
      468,
      468,
      465,
      465,
      464,
      463,
      463,
      463,
      462,
      462,
      461,
      461,
      459,
      459,
      458,
      457,
      456,
      456,
      455,
      456,
      456,
      456,
      456,
      456,
      456,
      456,
      456,
      456,
      456,
      455,
      455,
      454,
      454,
      454,
      453,
      453,
      453,
      452,
      452,
      450,
      449,
      449,
      449,
      448,
      448,
      447,
      447,
      446,
      447,
      446,
      447,
      447,
      448,
      448,
      448,
      449,
      449,
      449,
      449,
      449,
      449,
      448,
      448,
      448,
      448,
      448,
      448,
      448,
      448,
      448,
      448,
      448,
      448,
      448,
      449,
      449,
      449,
      449,
      448,
      448,
      447,
      447,
      446,
      446,
      447,
      447,
      447,
      447,
      446,
      446,
      445,
      445,
      446,
      448,
      446,
      448,
      447,
      447,
      447,
      447,
      448,
      447,
      448,
      447,
      448,
      447,
      448,
      448,
      448,
      448,
      448,
      448,
      449,
      448,
      449,
      448,
      450,
      448,
      450,
      450,
      451,
      451,
      451,
      452,
      452,
      452,
      453,
      453,
      453,
      454,
      454,
      454,
      454,
      454,
      454,
      454,
      453,
      453,
      452,
      452,
      451,
      451,
      450,
      449,
      449,
      449,
      448,
      447,
      446,
      444,
      450,
      454,
      455,
      456,
      455,
      453,
      452,
      451,
      449,
      448,
      446,
      445,
      444,
      444,
      443,
      443,
      439,
      440,
      440,
      439,
      438,
      438,
      437,
      438,
      437,
      437,
      435,
      436,
      434,
      434,
      433,
      434,
      433,
      433,
      433,
      433,
      433,
      434,
      433,
      433,
      433,
      433,
      432,
      432,
      431,
      431,
      427,
      427,
      424,
      423,
      422,
      419,
      424,
      418,
      420,
      422,
      425,
      426,
      427,
      426,
      427,
      424,
      427,
      422,
      427,
      420,
      424,
      418,
      421,
      416,
      420,
      414,
      419,
      413,
      416,
      412,
      415,
      412,
      415,
      412,
      415,
      412,
      415,
      412,
      415,
      413,
      415,
      413,
      414,
      413,
      415,
      414,
      414,
      413,
      414,
      413,
      414,
      414,
      414,
      413,
      414,
      413,
      409,
      412,
      409,
      411,
      409,
      411,
      409,
      409,
      409,
      408,
      409,
      407,
      407,
      406,
      406,
      404,
      405,
      402,
      404,
      401,
      402,
      399,
      400,
      398,
      400,
      397,
      399,
      396,
      398,
      396,
      398,
      396,
      398,
      397,
      398,
      396,
      397,
      396,
      397,
      394,
      396,
      394,
      396,
      393,
      395,
      393,
      394,
      391,
      392,
      390,
      390,
      389,
      389,
      388,
      388,
      387,
      387,
      387,
      387,
      387,
      387,
      387,
      387,
      386,
      386,
      385,
      385,
      385,
      384,
      384,
      384,
      384,
      384,
      383,
      383,
      383,
      382,
      381,
      381,
      381,
      381,
      381,
      381,
      382,
      382,
      382,
      382,
      383,
      383,
      383,
      383,
      384,
      385,
      385,
      386,
      387,
      387,
      386,
      387,
      387,
      387,
      386,
      385,
      385,
      384,
      383,
      383,
      383,
      383,
      382,
      383,
      383,
      383,
      384,
      386,
      385,
      385,
      388,
      386,
      388,
      386,
      388,
      385,
      386,
      385,
      386,
      387,
      388,
      389,
      389,
      390,
      391,
      390,
      389,
      389,
      389,
      389,
      389,
      390,
      392,
      391,
      391,
      391,
      391,
      391,
      391,
      390,
      390,
      388,
      387,
      387,
      387,
      387,
      387,
      386,
      386,
      389,
      388,
      390,
      389,
      390,
      389,
      390,
      390,
      392,
      391,
      393,
      393,
      392,
      392,
      392,
      393,
      398,
      399,
      399,
      400,
      401,
      401,
      393,
      376,
      381,
      371,
      371,
      364,
      366,
      360,
      360,
      352,
      352,
      345,
      347,
      337,
      338,
      331,
      333,
      324,
      326,
      329,
      331,
      332,
      332,
      293,
      285,
      278,
      279,
      255,
      254,
      252,
      253,
      240,
      244,
      240,
      236,
      196,
      189,
      178,
      180,
      189,
      168,
      135,
      128,
      119,
      122
    ],
    "swim:timestamps": [
      1790522987,
      1790523010,
      1790523053,
      1790523070,
      1790523107,
      1790523130,
      1790523167,
      1790523190,
      1790523227,
      1790523251,
      1790523287,
      1790523311,
      1790523371,
      1790523431,
      1790523491,
      1790523551,
      1790523611,
      1790523671,
      1790523731,
      1790523791,
      1790523839,
      1790523851,
      1790523899,
      1790523912,
      1790523959,
      1790523972,
      1790524019,
      1790524032,
      1790524079,
      1790524139,
      1790524152,
      1790524199,
      1790524212,
      1790524272,
      1790524320,
      1790524380,
      1790524392,
      1790524440,
      1790524452,
      1790524512,
      1790524560,
      1790524573,
      1790524633,
      1790524680,
      1790524693,
      1790524740,
      1790524753,
      1790524813,
      1790524873,
      1790524921,
      1790524933,
      1790524981,
      1790525041,
      1790525101,
      1790525161,
      1790525221,
      1790525281,
      1790525341,
      1790525401,
      1790525462,
      1790525522,
      1790525582,
      1790525642,
      1790525702,
      1790525762,
      1790525822,
      1790525882,
      1790525942,
      1790526003,
      1790526063,
      1790526123,
      1790526183,
      1790526243,
      1790526303,
      1790526363,
      1790526423,
      1790526483,
      1790526517,
      1790526543,
      1790526577,
      1790526604,
      1790526637,
      1790526664,
      1790526697,
      1790526724,
      1790526769,
      1790526784,
      1790526844,
      1790526890,
      1790526950,
      1790526964,
      1790527010,
      1790527024,
      1790527070,
      1790527084,
      1790527130,
      1790527144,
      1790527205,
      1790527250,
      1790527265,
      1790527310,
      1790527325,
      1790527385,
      1790527431,
      1790527445,
      1790527491,
      1790527505,
      1790527551,
      1790527565,
      1790527611,
      1790527671,
      1790527731,
      1790527791,
      1790527851,
      1790527911,
      1790527972,
      1790528032,
      1790528092,
      1790528152,
      1790528212,
      1790528272,
      1790528332,
      1790528392,
      1790528452,
      1790528513,
      1790528573,
      1790528633,
      1790528693,
      1790528753,
      1790528813,
      1790528832,
      1790528873,
      1790528893,
      1790528933,
      1790528953,
      1790529013,
      1790529073,
      1790529113,
      1790529133,
      1790529174,
      1790529193,
      1790529234,
      1790529253,
      1790529294,
      1790529313,
      1790529354,
      1790529373,
      1790529414,
      1790529433,
      1790529474,
      1790529493,
      1790529534,
      1790529553,
      1790529594,
      1790529614,
      1790529654,
      1790529674,
      1790529715,
      1790529734,
      1790529775,
      1790529794,
      1790529835,
      1790529854,
      1790529914,
      1790529974,
      1790530015,
      1790530034,
      1790530075,
      1790530094,
      1790530135,
      1790530154,
      1790530195,
      1790530214,
      1790530255,
      1790530274,
      1790530316,
      1790530334,
      1790530376,
      1790530395,
      1790530436,
      1790530455,
      1790530496,
      1790530515,
      1790530556,
      1790530575,
      1790530635,
      1790530695,
      1790530755,
      1790530815,
      1790530875,
      1790530935,
      1790530995,
      1790531055,
      1790531116,
      1790531176,
      1790531236,
      1790531296,
      1790531356,
      1790531416,
      1790531476,
      1790531536,
      1790531596,
      1790531656,
      1790531680,
      1790531740,
      1790531776,
      1790531800,
      1790531837,
      1790531860,
      1790531897,
      1790531920,
      1790531957,
      1790531980,
      1790532017,
      1790532040,
      1790532077,
      1790532100,
      1790532137,
      1790532160,
      1790532197,
      1790532220,
      1790532257,
      1790532281,
      1790532317,
      1790532341,
      1790532377,
      1790532401,
      1790532437,
      1790532461,
      1790532509,
      1790532521,
      1790532570,
      1790532581,
      1790532630,
      1790532641,
      1790532690,
      1790532701,
      1790532750,
      1790532761,
      1790532810,
      1790532821,
      1790532881,
      1790532941,
      1790533002,
      1790533062,
      1790533122,
      1790533182,
      1790533208,
      1790533242,
      1790533268,
      1790533302,
      1790533328,
      1790533362,
      1790533389,
      1790533422,
      1790533449,
      1790533482,
      1790533509,
      1790533542,
      1790533569,
      1790533602,
      1790533629,
      1790533662,
      1790533689,
      1790533722,
      1790533749,
      1790533783,
      1790533809,
      1790533843,
      1790533869,
      1790533903,
      1790533929,
      1790533963,
      1790533989,
      1790534023,
      1790534049,
      1790534083,
      1790534110,
      1790534143,
      1790534170,
      1790534203,
      1790534230,
      1790534263,
      1790534290,
      1790534323,
      1790534350,
      1790534383,
      1790534410,
      1790534443,
      1790534470,
      1790534504,
      1790534530,
      1790534564,
      1790534590,
      1790534624,
      1790534650,
      1790534684,
      1790534710,
      1790534744,
      1790534770,
      1790534804,
      1790534830,
      1790534864,
      1790534891,
      1790534924,
      1790534951,
      1790534984,
      1790535011,
      1790535044,
      1790535071,
      1790535104,
      1790535131,
      1790535164,
      1790535191,
      1790535225,
      1790535251,
      1790535285,
      1790535311,
      1790535345,
      1790535371,
      1790535405,
      1790535431,
      1790535465,
      1790535491,
      1790535525,
      1790535551,
      1790535585,
      1790535612,
      1790535645,
      1790535672,
      1790535705,
      1790535732,
      1790535765,
      1790535792,
      1790535825,
      1790535852,
      1790535885,
      1790535912,
      1790535946,
      1790535972,
      1790536006,
      1790536032,
      1790536066,
      1790536092,
      1790536126,
      1790536152,
      1790536186,
      1790536212,
      1790536246,
      1790536272,
      1790536306,
      1790536332,
      1790536366,
      1790536393,
      1790536426,
      1790536453,
      1790536486,
      1790536513,
      1790536546,
      1790536573,
      1790536606,
      1790536633,
      1790536667,
      1790536693,
      1790536727,
      1790536753,
      1790536787,
      1790536813,
      1790536847,
      1790536873,
      1790536907,
      1790536933,
      1790536967,
      1790536993,
      1790537027,
      1790537053,
      1790537087,
      1790537114,
      1790537174,
      1790537234,
      1790537294,
      1790537354,
      1790537414,
      1790537474,
      1790537534,
      1790537594,
      1790537654,
      1790537714,
      1790537774,
      1790537835,
      1790537895,
      1790537955,
      1790538015,
      1790538135,
      1790538195,
      1790538255,
      1790538315,
      1790538375,
      1790538435,
      1790538495,
      1790538555,
      1790538616,
      1790538676,
      1790538736,
      1790538796,
      1790538856,
      1790538905,
      1790538916,
      1790538965,
      1790538976,
      1790539025,
      1790539036,
      1790539085,
      1790539096,
      1790539145,
      1790539156,
      1790539216,
      1790539276,
      1790539326,
      1790539337,
      1790539386,
      1790539397,
      1790539457,
      1790539506,
      1790539566,
      1790539577,
      1790539626,
      1790539637,
      1790539757,
      1790539806,
      1790539817,
      1790539866,
      1790539877,
      1790539926,
      1790539937,
      1790539987,
      1790539997,
      1790540047,
      1790540057,
      1790540107,
      1790540118,
      1790540167,
      1790540178,
      1790540227,
      1790540238,
      1790540287,
      1790540298,
      1790540347,
      1790540358,
      1790540407,
      1790540418,
      1790540467,
      1790540478,
      1790540527,
      1790540538,
      1790540587,
      1790540648,
      1790540708,
      1790540768,
      1790540828,
      1790540888,
      1790540948,
      1790541008,
      1790541068,
      1790541128,
      1790541188,
      1790541248,
      1790541308,
      1790541363,
      1790541369,
      1790541393,
      1790541429,
      1790541453,
      1790541489,
      1790541513,
      1790541549,
      1790541574,
      1790541609,
      1790541634,
      1790541669,
      1790541694,
      1790541729,
      1790541754,
      1790541789,
      1790541814,
      1790541849,
      1790541879,
      1790541909,
      1790541939,
      1790541969,
      1790541994,
      1790542030,
      1790542054,
      1790542090,
      1790542119,
      1790542150,
      1790542179,
      1790542210,
      1790542239,
      1790542270,
      1790542299,
      1790542330,
      1790542359,
      1790542390,
      1790542415,
      1790542450,
      1790542474,
      1790542510,
      1790542535,
      1790542570,
      1790542600,
      1790542630
    ],
    "wof:geomhash": "f7ffbd772966cd71707140f6234606e2",
    "wof:id": 2048448783,
    "wof:repo": "sfomuseum-data-flights-2026-09"
  },
  "bbox": [
    -122.35277777777777,
    37.483333333333334,
    -74.11999999999999,
    41.54833333333333
  ],
  "geometry": {"type":"LineString","coordinates":[[-74.13333333333334,40.733333333333334],[-74.11999999999999,40.7425],[-74.13333333333334,40.78333333333333],[-74.15694444444445,40.801111111111105],[-74.21666666666667,40.8],[-74.2713888888889,40.80083333333333],[-74.35,40.8],[-74.3875,40.80888888888889],[-74.45,40.833333333333336],[-74.49194444444444,40.861111111111114],[-74.56666666666666,40.9],[-74.60944444444443,40.91833333333333],[-74.75277777777778,40.92944444444444],[-74.89944444444446,40.92722222222222],[-75.05416666666666,40.92388888888889],[-75.22333333333333,40.90972222222222],[-75.37694444444443,40.87305555555555],[-75.53027777777778,40.83722222222222],[-75.69722222222222,40.797777777777775],[-75.86805555555554,40.75666666666667],[-76.00305555555556,40.723888888888894],[-76.04138888888889,40.71472222222223],[-76.19250000000001,40.67833333333333],[-76.21416666666667,40.67611111111111],[-76.36305555555555,40.68388888888889],[-76.38666666666667,40.68805555555555],[-76.53416666666666,40.71027777777778],[-76.54805555555555,40.71222222222222],[-76.70305555555557,40.73527777777778],[-76.87222222222222,40.76],[-76.89666666666668,40.763333333333335],[-77.04305555555555,40.78444444444444],[-77.07,40.788333333333334],[-77.24111111111111,40.8125],[-77.385,40.83277777777778],[-77.55277777777778,40.85611111111111],[-77.58388888888888,40.86055555555556],[-77.71805555555555,40.87888888888889],[-77.71805555555555,40.87888888888889],[-77.91916666666667,40.906388888888884],[-78.05499999999999,40.92444444444444],[-78.085,40.92805555555555],[-78.25527777777778,40.948611111111106],[-78.39194444444445,40.96527777777778],[-78.42444444444445,40.969166666666666],[-78.56083333333333,40.98555555555556],[-78.58527777777778,40.98861111111111],[-78.75055555555555,41.00833333333333],[-78.91527777777779,41.027499999999996],[-79.05694444444444,41.04388888888889],[-79.08111111111111,41.04666666666667],[-79.22333333333333,41.06305555555555],[-79.38722222222223,41.081388888888895],[-79.55388888888889,41.1],[-79.71777777777778,41.11805555555556],[-79.86444444444444,41.13388888888889],[-80.0475,41.15361111111111],[-80.2125,41.17111111111111],[-80.37805555555555,41.18833333333333],[-80.52972222222222,41.20388888888889],[-80.69388888888889,41.22027777777778],[-80.8611111111111,41.23694444444445],[-81.02888888888889,41.25361111111111],[-81.19388888888889,41.269444444444446],[-81.36055555555555,41.28527777777778],[-81.53972222222222,41.301944444444445],[-81.70666666666666,41.3175],[-81.87333333333332,41.3325],[-82.03972222222222,41.34722222222222],[-82.21000000000001,41.361666666666665],[-82.37777777777777,41.37083333333334],[-82.54333333333334,41.38],[-82.7088888888889,41.38944444444444],[-82.87722222222222,41.39888888888889],[-83.04416666666667,41.407777777777774],[-83.20777777777778,41.41611111111111],[-83.37194444444444,41.42444444444444],[-83.45416666666667,41.42833333333333],[-83.5375,41.4325],[-83.62027777777777,41.436388888888885],[-83.70277777777778,41.44027777777777],[-83.7825,41.443888888888885],[-83.86916666666666,41.448055555555555],[-83.94527777777778,41.45138888888889],[-84.03472222222221,41.45527777777778],[-84.14611111111111,41.46027777777778],[-84.19972222222222,41.462500000000006],[-84.37472222222222,41.469722222222224],[-84.47472222222223,41.47361111111111],[-84.64194444444445,41.48027777777778],[-84.70694444444445,41.48277777777778],[-84.80944444444444,41.486666666666665],[-84.8736111111111,41.48888888888889],[-84.97305555555556,41.4925],[-85.03777777777778,41.49472222222222],[-85.1413888888889,41.498333333333335],[-85.20416666666667,41.50055555555556],[-85.37305555555555,41.50611111111111],[-85.48,41.50944444444445],[-85.51194444444444,41.51027777777778],[-85.64750000000001,41.51444444444444],[-85.68055555555556,41.51555555555556],[-85.84777777777778,41.52027777777778],[-85.98166666666667,41.52388888888889],[-86.01083333333334,41.52472222222222],[-86.14611111111111,41.527499999999996],[-86.17555555555556,41.528055555555554],[-86.31333333333333,41.530277777777776],[-86.34138888888889,41.53055555555555],[-86.47777777777777,41.532777777777774],[-86.64333333333335,41.53527777777778],[-86.81972222222223,41.53777777777778],[-86.9825,41.53944444444444],[-87.15083333333334,41.54138888888889],[-87.31583333333333,41.54277777777778],[-87.48,41.54388888888889],[-87.64555555555556,41.544999999999995],[-87.81083333333333,41.54555555555555],[-87.9738888888889,41.54611111111111],[-88.13111111111111,41.546388888888885],[-88.29638888888888,41.546388888888885],[-88.46000000000001,41.54722222222222],[-88.62527777777777,41.54805555555556],[-88.79055555555556,41.54833333333333],[-88.95527777777778,41.54833333333333],[-89.11805555555554,41.54833333333333],[-89.28277777777778,41.54805555555556],[-89.4475,41.5475],[-89.61416666666666,41.54694444444444],[-89.77666666666667,41.545833333333334],[-89.8325,41.54361111111111],[-89.97500000000001,41.544444444444444],[-89.99777777777778,41.5425],[-90.13833333333334,41.543055555555554],[-90.16194444444444,41.54222222222222],[-90.32777777777777,41.540277777777774],[-90.49472222222222,41.53777777777778],[-90.63416666666667,41.536944444444444],[-90.66083333333334,41.53611111111111],[-90.79277777777777,41.53444444444444],[-90.82694444444444,41.532777777777774],[-90.96055555555556,41.53194444444444],[-90.9925,41.53055555555555],[-91.1275,41.528888888888886],[-91.15944444444445,41.527499999999996],[-91.29222222222222,41.52583333333333],[-91.3261111111111,41.525277777777774],[-91.45833333333334,41.5225],[-91.49166666666667,41.520833333333336],[-91.62583333333333,41.51722222222222],[-91.6588888888889,41.51444444444444],[-91.78944444444444,41.50277777777778],[-91.84194444444444,41.49666666666667],[-91.95777777777778,41.48638888888889],[-92.00722222222223,41.48166666666667],[-92.12194444444444,41.470555555555556],[-92.17166666666667,41.465833333333336],[-92.28972222222222,41.45416666666667],[-92.33888888888889,41.44916666666666],[-92.4363888888889,41.43944444444444],[-92.50472222222223,41.43277777777777],[-92.60138888888888,41.422777777777775],[-92.66861111111112,41.41583333333333],[-92.83444444444444,41.39888888888889],[-93,41.38166666666667],[-93.09638888888888,41.37138888888889],[-93.16416666666667,41.36416666666667],[-93.26222222222222,41.353611111111114],[-93.33083333333333,41.34638888888889],[-93.42861111111111,41.33555555555556],[-93.49416666666667,41.328611111111115],[-93.59166666666667,41.31777777777778],[-93.65916666666668,41.31027777777778],[-93.75833333333334,41.299166666666665],[-93.82444444444444,41.291666666666664],[-93.95416666666667,41.276944444444446],[-93.98611111111111,41.27333333333333],[-94.11722222222221,41.25833333333333],[-94.15,41.254444444444445],[-94.28111111111112,41.23916666666667],[-94.30499999999999,41.23638888888889],[-94.44222222222223,41.22027777777778],[-94.47027777777778,41.216944444444444],[-94.60388888888889,41.20111111111111],[-94.63111111111111,41.19777777777777],[-94.79277777777777,41.17805555555555],[-94.95416666666667,41.15861111111111],[-95.11916666666666,41.13805555555555],[-95.28583333333333,41.117222222222225],[-95.45166666666667,41.096111111111114],[-95.61722222222221,41.075],[-95.78333333333333,41.05333333333333],[-95.9475,41.031666666666666],[-96.11416666666666,41.00944444444445],[-96.27694444444444,40.98777777777778],[-96.43916666666667,40.96555555555556],[-96.60055555555554,40.94333333333333],[-96.7611111111111,40.92222222222222],[-96.92444444444445,40.906388888888884],[-97.08444444444444,40.89111111111111],[-97.2475,40.875277777777775],[-97.41638888888889,40.85861111111111],[-97.57527777777777,40.84277777777778],[-97.6375,40.837500000000006],[-97.79472222222222,40.82027777777778],[-97.89666666666668,40.80972222222222],[-97.95694444444445,40.80361111111111],[-98.05472222222222,40.79333333333333],[-98.11694444444444,40.78666666666666],[-98.21277777777777,40.77638888888889],[-98.27583333333334,40.76972222222222],[-98.37249999999999,40.75944444444445],[-98.43305555555555,40.75277777777778],[-98.53083333333333,40.742222222222225],[-98.5911111111111,40.73555555555556],[-98.68722222222223,40.725],[-98.75083333333333,40.717777777777776],[-98.84583333333333,40.70722222222223],[-98.90722222222223,40.70027777777778],[-99.00277777777778,40.68944444444444],[-99.06555555555555,40.68222222222222],[-99.16027777777778,40.671388888888885],[-99.2213888888889,40.66444444444444],[-99.31777777777778,40.658055555555556],[-99.38333333333334,40.655],[-99.4786111111111,40.64972222222222],[-99.54027777777777,40.645833333333336],[-99.63611111111112,40.63944444444444],[-99.69833333333334,40.63527777777778],[-99.82222222222222,40.626666666666665],[-99.85388888888889,40.624722222222225],[-99.97833333333334,40.61638888888889],[-99.98583333333333,40.615833333333335],[-100.13333333333334,40.60583333333334],[-100.14222222222223,40.605000000000004],[-100.28555555555555,40.595],[-100.29555555555555,40.59444444444445],[-100.43916666666667,40.58416666666667],[-100.44861111111112,40.58361111111111],[-100.59527777777777,40.577222222222225],[-100.60138888888888,40.572500000000005],[-100.75638888888889,40.56111111111111],[-100.91305555555556,40.54944444444444],[-101.06861111111111,40.53777777777778],[-101.22555555555556,40.52583333333333],[-101.38138888888888,40.51361111111111],[-101.53472222222221,40.501666666666665],[-101.59305555555555,40.49583333333334],[-101.68694444444445,40.489444444444445],[-101.74777777777778,40.48277777777778],[-101.83944444444444,40.47666666666667],[-101.89888888888889,40.470555555555556],[-101.99111111111111,40.46416666666667],[-102.05,40.456944444444446],[-102.1413888888889,40.45166666666667],[-102.2,40.445277777777775],[-102.29166666666667,40.43861111111111],[-102.34972222222221,40.431666666666665],[-102.4388888888889,40.42583333333333],[-102.49916666666667,40.41833333333333],[-102.58749999999999,40.41277777777778],[-102.6463888888889,40.405277777777776],[-102.74416666666667,40.39861111111111],[-102.79472222222222,40.39277777777778],[-102.89194444444445,40.385],[-102.94444444444444,40.37861111111111],[-103.04083333333332,40.37138888888889],[-103.09416666666667,40.365],[-103.18916666666667,40.3575],[-103.2425,40.35166666666667],[-103.33749999999999,40.343333333333334],[-103.39055555555557,40.33777777777778],[-103.48666666666666,40.32888888888889],[-103.53999999999999,40.323055555555555],[-103.63472222222222,40.31444444444444],[-103.68916666666667,40.30833333333333],[-103.7825,40.3],[-103.83722222222222,40.29388888888889],[-103.93138888888889,40.285],[-103.9875,40.27833333333333],[-104.08111111111111,40.26972222222222],[-104.13583333333334,40.26305555555555],[-104.23,40.254444444444445],[-104.28333333333333,40.248333333333335],[-104.37722222222222,40.23916666666667],[-104.43166666666667,40.23277777777778],[-104.52527777777777,40.223333333333336],[-104.58194444444445,40.216944444444444],[-104.6725,40.2075],[-104.72666666666667,40.200833333333335],[-104.81722222222221,40.19194444444444],[-104.875,40.18472222222222],[-104.96416666666667,40.17583333333333],[-105.02694444444444,40.168055555555554],[-105.0825,40.16277777777778],[-105.17361111111111,40.151944444444446],[-105.2575,40.143055555555556],[-105.31972222222223,40.13527777777778],[-105.40138888888889,40.126666666666665],[-105.465,40.118611111111115],[-105.54694444444445,40.11],[-105.60972222222222,40.102222222222224],[-105.69055555555556,40.093333333333334],[-105.75444444444445,40.085],[-105.83416666666666,40.07638888888889],[-105.89750000000001,40.06888888888889],[-105.97527777777778,40.05972222222222],[-106.04055555555556,40.05138888888889],[-106.11972222222222,40.0425],[-106.18222222222222,40.034166666666664],[-106.2611111111111,40.025277777777774],[-106.32416666666666,40.016666666666666],[-106.40111111111112,40.00805555555556],[-106.46555555555555,39.99888888888889],[-106.55805555555555,39.98861111111111],[-106.60666666666665,39.981388888888894],[-106.69861111111112,39.97083333333334],[-106.74777777777778,39.96333333333334],[-106.84166666666667,39.95277777777778],[-106.8888888888889,39.94611111111111],[-106.97083333333333,39.936388888888885],[-107.03027777777778,39.92805555555555],[-107.1125,39.918055555555554],[-107.1713888888889,39.91],[-107.25638888888889,39.899166666666666],[-107.31277777777777,39.89055555555556],[-107.3963888888889,39.880833333333335],[-107.45305555555557,39.87305555555555],[-107.53777777777778,39.86222222222222],[-107.59194444444444,39.85416666666667],[-107.68305555555555,39.8425],[-107.7325,39.835],[-107.82305555555556,39.82361111111111],[-107.86916666666666,39.81722222222223],[-107.96277777777777,39.80444444444444],[-108.0111111111111,39.797777777777775],[-108.10249999999999,39.785],[-108.14888888888889,39.77861111111111],[-108.24138888888889,39.76583333333333],[-108.29638888888888,39.75805555555556],[-108.36861111111111,39.74777777777778],[-108.42361111111111,39.74],[-108.50583333333333,39.72833333333333],[-108.56138888888889,39.720555555555556],[-108.64027777777778,39.70916666666667],[-108.72083333333333,39.6975],[-108.79777777777778,39.686388888888885],[-108.85138888888888,39.67861111111111],[-108.93333333333334,39.666666666666664],[-108.98722222222223,39.65861111111111],[-109.06888888888888,39.64666666666667],[-109.12222222222222,39.638888888888886],[-109.20444444444445,39.626666666666665],[-109.25944444444444,39.61833333333333],[-109.3386111111111,39.60638888888889],[-109.39333333333335,39.59805555555556],[-109.47555555555556,39.58583333333333],[-109.52833333333334,39.57777777777778],[-109.61055555555555,39.56527777777777],[-109.66527777777779,39.55694444444444],[-109.74555555555555,39.544444444444444],[-109.79916666666666,39.53638888888889],[-109.88111111111111,39.52361111111111],[-109.935,39.515277777777776],[-110.01361111111112,39.503055555555555],[-110.06861111111111,39.49444444444445],[-110.14750000000001,39.481944444444444],[-110.20111111111112,39.473333333333336],[-110.28138888888888,39.46083333333333],[-110.33638888888889,39.45194444444445],[-110.41555555555556,39.43944444444444],[-110.46888888888888,39.43083333333333],[-110.55,39.41777777777777],[-110.60277777777777,39.409166666666664],[-110.68333333333334,39.39611111111111],[-110.7363888888889,39.3875],[-110.81666666666666,39.37416666666667],[-110.87305555555555,39.365],[-111.00555555555556,39.34305555555556],[-111.14166666666668,39.32055555555556],[-111.27527777777777,39.29805555555556],[-111.40333333333334,39.27638888888889],[-111.53777777777778,39.25361111111111],[-111.68666666666667,39.22805555555556],[-111.82249999999999,39.20472222222222],[-111.9563888888889,39.18138888888889],[-112.0911111111111,39.157777777777774],[-112.22638888888889,39.13388888888889],[-112.35944444444443,39.11027777777778],[-112.49305555555556,39.086111111111116],[-112.6261111111111,39.06222222222222],[-112.73472222222222,39.0425],[-112.89250000000001,39.01361111111111],[-113.15972222222223,38.96416666666667],[-113.29138888888889,38.939722222222215],[-113.42416666666666,38.914722222222224],[-113.55472222222222,38.89],[-113.68694444444445,38.86472222222223],[-113.81888888888888,38.839444444444446],[-113.95055555555555,38.814166666666665],[-114.08333333333333,38.788333333333334],[-114.21416666666667,38.76277777777778],[-114.34777777777778,38.73638888888889],[-114.48,38.71027777777778],[-114.61277777777777,38.683611111111105],[-114.74361111111111,38.6575],[-114.85138888888888,38.635555555555555],[-114.87694444444443,38.63055555555555],[-114.98416666666667,38.60944444444445],[-115.00944444444444,38.603611111111114],[-115.11638888888888,38.58222222222223],[-115.14083333333333,38.57666666666667],[-115.24694444444445,38.55444444444444],[-115.27166666666666,38.54972222222222],[-115.37555555555555,38.52861111111111],[-115.40166666666667,38.522777777777776],[-115.535,38.495],[-115.64194444444445,38.47277777777778],[-115.7775,38.44416666666666],[-115.80416666666666,38.43833333333333],[-115.91083333333334,38.41583333333333],[-115.93583333333333,38.410555555555554],[-116.06944444444444,38.38194444444444],[-116.17527777777778,38.35916666666667],[-116.30916666666667,38.33027777777778],[-116.33333333333333,38.325],[-116.44305555555556,38.301111111111105],[-116.46722222222222,38.295833333333334],[-116.73444444444445,38.23722222222222],[-116.84166666666667,38.21361111111111],[-116.86749999999999,38.20777777777778],[-116.97583333333334,38.183611111111105],[-117.00166666666667,38.17777777777778],[-117.1275,38.14972222222222],[-117.13277777777778,38.14861111111111],[-117.26083333333334,38.11972222222222],[-117.27583333333334,38.11638888888889],[-117.38388888888889,38.091944444444444],[-117.4088888888889,38.086111111111116],[-117.51583333333333,38.06166666666666],[-117.53916666666666,38.05638888888888],[-117.64583333333334,38.03194444444444],[-117.67,38.02638888888889],[-117.77666666666667,38.0025],[-117.80222222222221,37.99805555555556],[-117.91277777777778,37.98833333333334],[-117.9375,37.986111111111114],[-118.04972222222221,37.974722222222226],[-118.07638888888889,37.97166666666667],[-118.185,37.959722222222226],[-118.21000000000001,37.956944444444446],[-118.32138888888889,37.94472222222222],[-118.34861111111111,37.94166666666666],[-118.45916666666668,37.92972222222222],[-118.48555555555555,37.92666666666666],[-118.59638888888888,37.91444444444444],[-118.7325,37.899166666666666],[-118.86999999999999,37.88361111111111],[-119.00805555555556,37.86805555555556],[-119.15055555555556,37.85138888888889],[-119.26305555555555,37.83833333333334],[-119.43055555555556,37.81861111111112],[-119.54138888888889,37.80555555555555],[-119.70777777777778,37.785555555555554],[-119.81861111111111,37.77222222222222],[-119.95805555555556,37.755],[-120.09777777777778,37.73777777777778],[-120.23444444444445,37.720555555555556],[-120.36666666666666,37.7],[-120.36527777777778,37.70416666666667],[-120.43333333333334,37.7],[-120.49583333333334,37.68833333333333],[-120.56666666666666,37.68333333333333],[-120.61999999999999,37.674166666666665],[-120.68333333333334,37.666666666666664],[-120.74555555555555,37.659166666666664],[-120.81666666666666,37.65],[-120.86805555555554,37.644444444444446],[-120.93333333333334,37.63333333333333],[-120.98777777777778,37.62972222222222],[-121.05,37.61666666666667],[-121.10305555555556,37.61416666666667],[-121.16666666666667,37.6],[-121.21888888888888,37.59861111111111],[-121.28333333333333,37.583333333333336],[-121.33055555555555,37.584722222222226],[-121.4,37.583333333333336],[-121.44388888888889,37.57194444444445],[-121.51666666666667,37.56666666666667],[-121.5586111111111,37.558611111111105],[-121.61666666666666,37.55],[-121.66083333333334,37.54222222222222],[-121.71666666666667,37.53333333333333],[-121.7525,37.52027777777778],[-121.81666666666666,37.5],[-121.8386111111111,37.49944444444444],[-121.9,37.483333333333334],[-121.92500000000001,37.49194444444444],[-121.98333333333333,37.5],[-122.01,37.501666666666665],[-122.06666666666666,37.516666666666666],[-122.08694444444444,37.526944444444446],[-122.13333333333334,37.53333333333333],[-122.15305555555557,37.54833333333333],[-122.18333333333334,37.56666666666667],[-122.215,37.56777777777778],[-122.25,37.583333333333336],[-122.2761111111111,37.58722222222222],[-122.3,37.6],[-122.31472222222222,37.598888888888894],[-122.33333333333333,37.6],[-122.35277777777777,37.611666666666665]]}
}
