{
  "id": 2048224187,
  "type": "Feature",
  "properties": {
    "geom:area": 0,
    "geom:bbox": "-122.648010,37.680730,-121.980830,38.496000",
    "geom:latitude": 38.109376981846616,
    "geom:longitude": -122.3898069196918,
    "src:alt_label": "swim-approach",
    "src:geom": "swim",
    "swim:elevations": [
      7925,
      7925,
      7925,
      7925,
      7925,
      7831,
      7562,
      7315,
      7308,
      7227,
      6692,
      6316,
      6237,
      5768,
      5368,
      4844,
      4613,
      4306,
      4107,
      4047,
      3733,
      3504,
      3351,
      3353,
      3353
    ],
    "swim:geom": "approach",
    "swim:timestamps": [
      1788331737,
      1788331754,
      1788331784,
      1788331827,
      1788331858,
      1788331878,
      1788331905,
      1788331943,
      1788331971,
      1788331980,
      1788332012,
      1788332038,
      1788332044,
      1788332075,
      1788332105,
      1788332149,
      1788332171,
      1788332200,
      1788332218,
      1788332224,
      1788332257,
      1788332281,
      1788332323,
      1788332361,
      1788332384
    ],
    "wof:geomhash": "e741aa0344b6345640621a6c294ddb8d",
    "wof:id": 2048224187,
    "wof:repo": "sfomuseum-data-flights-2026-09"
  },
  "bbox": [
    -122.64801,
    37.68073,
    -121.98083,
    38.496
  ],
  "geometry": {"type":"LineString","coordinates":[[-121.98083,38.496],[-122.00959,38.47172],[-122.06172,38.42747],[-122.1355,38.36395],[-122.1901,38.31779],[-122.23234,38.29642],[-122.28854,38.27413],[-122.36389,38.23979],[-122.40323,38.20209],[-122.41445,38.18946],[-122.4543,38.14455],[-122.4854,38.10947],[-122.49261,38.10151],[-122.5292,38.0606],[-122.56365,38.02191],[-122.61404,37.96623],[-122.63765,37.93879],[-122.64801,37.89465],[-122.63731,37.86793],[-122.63063,37.85966],[-122.58721,37.81821],[-122.55609,37.78856],[-122.50438,37.74008],[-122.46355,37.70176],[-122.44112,37.68073]]}
}
