{
  "id": 2048288267,
  "type": "Feature",
  "properties": {
    "geom:area": 0,
    "geom:bbox": "-122.526010,37.627940,-122.054590,38.495970",
    "geom:latitude": 38.034350935139486,
    "geom:longitude": -122.31011034179451,
    "src:alt_label": "swim-takeoff",
    "src:geom": "swim",
    "swim:elevations": [
      213,
      492,
      842,
      1037,
      1087,
      1386,
      1422,
      1822,
      2264,
      2605,
      2813,
      3213,
      3325,
      3557,
      3626,
      4063,
      4269,
      4797,
      4898,
      5360,
      5567,
      5713,
      6002
    ],
    "swim:geom": "takeoff",
    "swim:timestamps": [
      1788878900,
      1788878928,
      1788878966,
      1788878995,
      1788879011,
      1788879056,
      1788879061,
      1788879094,
      1788879134,
      1788879166,
      1788879188,
      1788879224,
      1788879249,
      1788879292,
      1788879309,
      1788879354,
      1788879370,
      1788879418,
      1788879428,
      1788879475,
      1788879500,
      1788879517,
      1788879554
    ],
    "wof:geomhash": "2003b6b306f26596c42746e8e3b9d313",
    "wof:id": 2048288267,
    "wof:repo": "sfomuseum-data-flights-2026-09"
  },
  "bbox": [
    -122.52601,
    37.62794,
    -122.05459,
    38.49597
  ],
  "geometry": {"type":"LineString","coordinates":[[-122.39708,37.62794],[-122.42272,37.63931],[-122.46034,37.65562],[-122.49078,37.66873],[-122.50965,37.67715],[-122.52601,37.72723],[-122.52533,37.73255],[-122.50466,37.77284],[-122.47222,37.81912],[-122.44442,37.85913],[-122.42554,37.88687],[-122.39365,37.933],[-122.37056,37.96641],[-122.32573,38.0311],[-122.30747,38.05757],[-122.25417,38.13412],[-122.23548,38.16125],[-122.17848,38.24197],[-122.16695,38.25825],[-122.11268,38.34258],[-122.09305,38.38981],[-122.08112,38.42281],[-122.05459,38.49597]]}
}
