{
  "id": 2048276103,
  "type": "Feature",
  "properties": {
    "date:cessation_lower": "2026-09-07",
    "date:cessation_upper": "2026-09-07",
    "date:inception_lower": "1970-01-01",
    "date:inception_upper": "1970-01-01",
    "edtf:cessation": "2026-09-07T11:19:32-07:00",
    "edtf:inception": "1970-01-01T00:00:00Z",
    "flysfo:actual_timestamp": -1,
    "flysfo:airline": "UA",
    "flysfo:date": "2026-09-07",
    "flysfo:estimated_timestamp": -1,
    "flysfo:event": "A",
    "flysfo:flight_number": "UA8157",
    "flysfo:gate": "",
    "flysfo:journey": "BUR-SFO",
    "flysfo:scheduled_timestamp": 1788808320,
    "flysfo:timestamp": 1788808320,
    "geom:area": 0,
    "geom:bbox": "-122.370943,34.196704,-118.353322,37.617990",
    "geom:latitude": 35.907347,
    "geom:longitude": -120.3621325,
    "iata:airline": "UA",
    "icao:aircraft": "A320",
    "icao:airline": "UAL",
    "lbl:latitude": 37.61799,
    "lbl:longitude": -122.370943,
    "sfomuseum:aircraft_id": 1159292085,
    "sfomuseum:airline_id": 1159285413,
    "sfomuseum:arrival_id": 102527513,
    "sfomuseum:departure_id": 1746879083,
    "sfomuseum:flight_id": "20260907-A-UAL-8157",
    "sfomuseum:flight_number": [
      "UAL8157",
      "UA8157"
    ],
    "sfomuseum:placetype": "flight",
    "src:geom": "flysfo",
    "src:geom_alt": [
      "swim-approach"
    ],
    "swim:tail_number": "N482UA",
    "wof:belongsto": [],
    "wof:country": "US",
    "wof:created": 1788883757,
    "wof:geomhash": "579cc6c0d5668ba584a946b357aa3191",
    "wof:hierarchy": [
      {
        "custom_id": 2048276103,
        "flight_id": 2048276103
      }
    ],
    "wof:id": 2048276103,
    "wof:involves": [
      1159292085,
      102527513,
      1746879083,
      1159285413
    ],
    "wof:lastmodified": 1788884356,
    "wof:name": "UA8157 (BUR-SFO)",
    "wof:parent_id": -1,
    "wof:placetype": "custom",
    "wof:placetype_alt": [
      "flight"
    ],
    "wof:repo": "sfomuseum-data-flights-2026-09",
    "wof:superseded_by": [],
    "wof:supersedes": []
  },
  "bbox": [
    -122.370943,
    34.196704,
    -118.353322,
    37.61799
  ],
  "geometry": {"type":"MultiPoint","coordinates":[[-118.353322,34.196704],[-122.370943,37.61799]]}
}
