{
  "id": 2048409561,
  "type": "Feature",
  "properties": {
    "geom:area": 0,
    "geom:bbox": "-122.353730,37.449600,-121.250420,37.612100",
    "geom:latitude": 37.53321320624827,
    "geom:longitude": -121.80873564621645,
    "src:alt_label": "swim-approach",
    "src:geom": "swim",
    "swim:elevations": [
      4519,
      4480,
      4451,
      4450,
      4191,
      4081,
      3813,
      3485,
      3360,
      3234,
      3048,
      3034,
      2906,
      2784,
      2466,
      2305,
      2210,
      2134,
      2129,
      1912,
      1829,
      1829,
      1677,
      1606,
      1180,
      1002,
      976,
      638,
      515,
      356,
      250,
      149,
      27
    ],
    "swim:geom": "approach",
    "swim:timestamps": [
      1790155708,
      1790155726,
      1790155758,
      1790155783,
      1790155825,
      1790155838,
      1790155869,
      1790155913,
      1790155934,
      1790155951,
      1790156005,
      1790156037,
      1790156060,
      1790156077,
      1790156127,
      1790156154,
      1790156168,
      1790156217,
      1790156238,
      1790156273,
      1790156303,
      1790156321,
      1790156362,
      1790156371,
      1790156425,
      1790156458,
      1790156461,
      1790156506,
      1790156536,
      1790156578,
      1790156602,
      1790156627,
      1790156653
    ],
    "wof:geomhash": "4706bf4884a93381a9c4db1afcff1469",
    "wof:id": 2048409561,
    "wof:repo": "sfomuseum-data-flights-2026-09"
  },
  "bbox": [
    -122.35373,
    37.4496,
    -121.25042,
    37.6121
  ],
  "geometry": {"type":"LineString","coordinates":[[-121.25042,37.59474],[-121.28712,37.58989],[-121.34665,37.58327],[-121.38863,37.5785],[-121.45357,37.57093],[-121.47145,37.5688],[-121.51788,37.56335],[-121.58092,37.55601],[-121.61184,37.5524],[-121.63502,37.55042],[-121.70751,37.56895],[-121.73853,37.5447],[-121.75141,37.52149],[-121.76144,37.5033],[-121.79739,37.45879],[-121.83349,37.45451],[-121.85266,37.45378],[-121.92009,37.4509],[-121.94858,37.4496],[-121.99383,37.46057],[-122.03009,37.47553],[-122.05169,37.4847],[-122.09764,37.50421],[-122.1072,37.50816],[-122.16189,37.5314],[-122.19536,37.54543],[-122.19859,37.54682],[-122.23737,37.56317],[-122.26265,37.57383],[-122.29601,37.58786],[-122.31478,37.59574],[-122.33402,37.6038],[-122.35373,37.6121]]}
}
