{
  "id": 2048420091,
  "type": "Feature",
  "properties": {
    "geom:area": 0,
    "geom:bbox": "-122.373333,37.516667,-122.150000,37.617778",
    "geom:latitude": 37.567933340286174,
    "geom:longitude": -122.26231991079895,
    "src:alt_label": "swim-path",
    "src:geom": "swim",
    "swim:altitudes": [
      "033",
      "027",
      "016",
      "012",
      "009",
      "005",
      "003",
      "110"
    ],
    "swim:geom": "path",
    "swim:speeds": [
      196,
      182,
      155,
      131,
      131,
      131,
      140,
      138
    ],
    "swim:timestamps": [
      1790303353,
      1790303397,
      1790303473,
      1790303518,
      1790303539,
      1790303578,
      1790303593,
      1790303638
    ],
    "wof:geomhash": "61dab6b23ded44624b8a3665dddab95d",
    "wof:id": 2048420091,
    "wof:repo": "sfomuseum-data-flights-2026-09"
  },
  "bbox": [
    -122.37333333333332,
    37.516666666666666,
    -122.15,
    37.617777777777775
  ],
  "geometry": {"type":"LineString","coordinates":[[-122.15,37.516666666666666],[-122.19638888888889,37.54333333333333],[-122.26666666666667,37.56666666666667],[-122.28999999999999,37.58277777777778],[-122.3,37.583333333333336],[-122.33027777777778,37.599722222222226],[-122.35,37.6],[-122.37333333333332,37.617777777777775]]}
}
