{
  "id": 2048448539,
  "type": "Feature",
  "properties": {
    "geom:area": 0,
    "geom:bbox": "-122.360340,36.751370,-121.895770,37.612110",
    "geom:latitude": 37.23498972122688,
    "geom:longitude": -122.07548016026965,
    "src:alt_label": "swim-approach",
    "src:geom": "swim",
    "swim:elevations": [
      5067,
      4757,
      4634,
      4333,
      4026,
      3996,
      3922,
      3590,
      3423,
      3331,
      3195,
      3116,
      3061,
      3006,
      2858,
      2821,
      2643,
      2465,
      2424,
      2209,
      1980,
      1790,
      1662,
      1558,
      1378,
      1218,
      1189,
      1066,
      998,
      869,
      781,
      670,
      484,
      445,
      347,
      168,
      91,
      4
    ],
    "swim:geom": "approach",
    "swim:timestamps": [
      1790542662,
      1790542700,
      1790542715,
      1790542756,
      1790542791,
      1790542801,
      1790542815,
      1790542858,
      1790542879,
      1790542891,
      1790542915,
      1790542930,
      1790542942,
      1790542953,
      1790542983,
      1790542992,
      1790543028,
      1790543063,
      1790543083,
      1790543113,
      1790543152,
      1790543182,
      1790543204,
      1790543224,
      1790543262,
      1790543306,
      1790543331,
      1790543362,
      1790543385,
      1790543418,
      1790543445,
      1790543473,
      1790543515,
      1790543532,
      1790543561,
      1790543605,
      1790543626,
      1790543649
    ],
    "wof:geomhash": "80dde31603153d33b5c28abfbf4da819",
    "wof:id": 2048448539,
    "wof:repo": "sfomuseum-data-flights-2026-09"
  },
  "bbox": [
    -122.36034,
    36.75137,
    -121.89577,
    37.61211
  ],
  "geometry": {"type":"LineString","coordinates":[[-121.89577,36.75137],[-121.91179,36.80457],[-121.91783,36.8258],[-121.93388,36.88338],[-121.94733,36.9319],[-121.95123,36.9458],[-121.95793,36.96447],[-121.98051,37.02228],[-121.99142,37.05007],[-121.99744,37.06585],[-122.00972,37.09735],[-122.01717,37.11632],[-122.02287,37.13103],[-122.02796,37.14395],[-122.04091,37.17686],[-122.04471,37.18642],[-122.05967,37.22459],[-122.07369,37.26058],[-122.08178,37.28163],[-122.09427,37.31265],[-122.10988,37.3523],[-122.12123,37.38196],[-122.12845,37.40341],[-122.12918,37.42213],[-122.12466,37.45535],[-122.11927,37.48993],[-122.12445,37.50733],[-122.14731,37.52212],[-122.16449,37.53043],[-122.18942,37.54076],[-122.20912,37.54908],[-122.22988,37.5577],[-122.26146,37.57093],[-122.27373,37.57605],[-122.29477,37.58504],[-122.32786,37.59893],[-122.3436,37.60552],[-122.36034,37.61211]]}
}
