{
  "id": 2048381751,
  "type": "Feature",
  "properties": {
    "geom:area": 0,
    "geom:bbox": "-122.408020,37.627640,-121.257130,38.120430",
    "geom:latitude": 37.88301529248969,
    "geom:longitude": -121.84554774104005,
    "src:alt_label": "swim-takeoff",
    "src:geom": "swim",
    "swim:elevations": [
      244,
      561,
      695,
      803,
      998,
      1459,
      1504,
      2084,
      2366,
      2545,
      3095,
      3234,
      3325,
      3556,
      3730,
      4054,
      4228,
      4493,
      4663,
      5037,
      5268,
      5323,
      5660,
      5852,
      6015
    ],
    "swim:geom": "takeoff",
    "swim:timestamps": [
      1789805918,
      1789805951,
      1789805979,
      1789806002,
      1789806023,
      1789806057,
      1789806062,
      1789806111,
      1789806135,
      1789806150,
      1789806200,
      1789806228,
      1789806249,
      1789806298,
      1789806321,
      1789806356,
      1789806381,
      1789806413,
      1789806433,
      1789806477,
      1789806506,
      1789806512,
      1789806567,
      1789806595,
      1789806616
    ],
    "wof:geomhash": "c749dbfe3c7bb7638319896780870e1c",
    "wof:id": 2048381751,
    "wof:repo": "sfomuseum-data-flights-2026-09"
  },
  "bbox": [
    -122.40802,
    37.62764,
    -121.25713,
    38.12043
  ],
  "geometry": {"type":"LineString","coordinates":[[-122.39633,37.62764],[-122.40802,37.65013],[-122.3811,37.66448],[-122.35157,37.67361],[-122.32154,37.68259],[-122.27367,37.69776],[-122.26721,37.69989],[-122.19745,37.72542],[-122.16545,37.74218],[-122.1456,37.75244],[-122.07688,37.78864],[-122.03611,37.8101],[-122.00447,37.82626],[-121.91441,37.86228],[-121.87155,37.87928],[-121.80245,37.90665],[-121.75347,37.92599],[-121.68742,37.95201],[-121.64572,37.96845],[-121.55419,38.00443],[-121.49426,38.02793],[-121.4816,38.03285],[-121.36256,38.07937],[-121.30139,38.10327],[-121.25713,38.12043]]}
}
