{
  "id": 2048416905,
  "type": "Feature",
  "properties": {
    "geom:area": 0,
    "geom:bbox": "-122.411500,37.626810,-121.267480,37.961540",
    "geom:latitude": 37.82891561216502,
    "geom:longitude": -121.86138551221336,
    "src:alt_label": "swim-takeoff",
    "src:geom": "swim",
    "swim:elevations": [
      152,
      534,
      841,
      1069,
      1343,
      1528,
      1879,
      2241,
      2473,
      3049,
      3152,
      3381,
      3565,
      3661,
      3988,
      4192,
      4370,
      4766,
      4998,
      5120,
      5380,
      5522,
      5694
    ],
    "swim:geom": "takeoff",
    "swim:timestamps": [
      1790169005,
      1790169041,
      1790169070,
      1790169098,
      1790169145,
      1790169165,
      1790169197,
      1790169224,
      1790169242,
      1790169292,
      1790169301,
      1790169345,
      1790169388,
      1790169405,
      1790169443,
      1790169464,
      1790169480,
      1790169532,
      1790169563,
      1790169581,
      1790169619,
      1790169638,
      1790169663
    ],
    "wof:geomhash": "1adcac843f7a66876f8a9e95ce1b2fe1",
    "wof:id": 2048416905,
    "wof:repo": "sfomuseum-data-flights-2026-09"
  },
  "bbox": [
    -122.4115,
    37.62681,
    -121.26748,
    37.96154
  ],
  "geometry": {"type":"LineString","coordinates":[[-122.3945,37.62681],[-122.4115,37.65147],[-122.38594,37.66332],[-122.35673,37.67165],[-122.29697,37.69163],[-122.26806,37.70067],[-122.21917,37.7163],[-122.18093,37.73535],[-122.15574,37.74857],[-122.08474,37.78568],[-122.07159,37.79235],[-122.00042,37.82571],[-121.91094,37.84369],[-121.87367,37.85017],[-121.78793,37.86632],[-121.74026,37.8752],[-121.70337,37.88199],[-121.5845,37.90393],[-121.51057,37.91751],[-121.4675,37.92531],[-121.37608,37.94193],[-121.32859,37.9505],[-121.26748,37.96154]]}
}
