{
  "id": 2048367985,
  "type": "Feature",
  "properties": {
    "geom:area": 0,
    "geom:bbox": "-122.354270,37.438690,-121.242600,37.663370",
    "geom:latitude": 37.55106995292886,
    "geom:longitude": -121.8229200892273,
    "src:alt_label": "swim-approach",
    "src:geom": "swim",
    "swim:elevations": [
      4196,
      4070,
      3827,
      3704,
      3613,
      3386,
      3322,
      3322,
      3353,
      3353,
      3325,
      3240,
      3139,
      3069,
      3048,
      3048,
      3048,
      3048,
      3048,
      3048,
      3048,
      2864,
      2745,
      2743,
      2743,
      2584,
      2498,
      2349,
      2282,
      2134,
      2046,
      1856,
      1834,
      1428,
      1335,
      1206,
      1118,
      972,
      848,
      670,
      636,
      475,
      355,
      246,
      121,
      51
    ],
    "swim:geom": "approach",
    "swim:timestamps": [
      1789761232,
      1789761258,
      1789761297,
      1789761314,
      1789761330,
      1789761369,
      1789761412,
      1789761427,
      1789761477,
      1789761498,
      1789761532,
      1789761548,
      1789761572,
      1789761585,
      1789761601,
      1789761658,
      1789761686,
      1789761718,
      1789761734,
      1789761777,
      1789761783,
      1789761831,
      1789761865,
      1789761871,
      1789761920,
      1789761959,
      1789761976,
      1789762012,
      1789762038,
      1789762078,
      1789762097,
      1789762139,
      1789762145,
      1789762197,
      1789762228,
      1789762250,
      1789762262,
      1789762300,
      1789762333,
      1789762375,
      1789762389,
      1789762431,
      1789762466,
      1789762494,
      1789762522,
      1789762544
    ],
    "wof:geomhash": "785ac226185bb8a8c9542cad5b3aebfe",
    "wof:id": 2048367985,
    "wof:repo": "sfomuseum-data-flights-2026-09"
  },
  "bbox": [
    -122.35427,
    37.43869,
    -121.2426,
    37.66337
  ],
  "geometry": {"type":"LineString","coordinates":[[-121.2426,37.53535],[-121.27905,37.54453],[-121.33688,37.55293],[-121.3617,37.55675],[-121.38533,37.56044],[-121.443,37.56942],[-121.50405,37.57913],[-121.52537,37.58264],[-121.59861,37.59373],[-121.62921,37.59856],[-121.67718,37.60764],[-121.6993,37.61447],[-121.7312,37.62425],[-121.75012,37.63006],[-121.77206,37.63687],[-121.84846,37.66045],[-121.88949,37.66337],[-121.92203,37.63681],[-121.932,37.61918],[-121.95229,37.57075],[-121.9508,37.56358],[-121.89843,37.53246],[-121.85027,37.52756],[-121.84279,37.52676],[-121.77627,37.51551],[-121.76426,37.47499],[-121.78107,37.45921],[-121.83147,37.45033],[-121.86768,37.44607],[-121.92415,37.43869],[-121.94984,37.44134],[-122.00062,37.46049],[-122.00804,37.46379],[-122.06633,37.48876],[-122.09803,37.50199],[-122.11909,37.51096],[-122.1305,37.51584],[-122.16369,37.52975],[-122.19036,37.54109],[-122.22271,37.55468],[-122.23367,37.55931],[-122.26593,37.57284],[-122.29228,37.5839],[-122.31478,37.59333],[-122.3373,37.60282],[-122.35427,37.61002]]}
}
