{
  "id": 2048430817,
  "type": "Feature",
  "properties": {
    "geom:area": 0,
    "geom:bbox": "-122.342222,37.491389,-77.500000,39.723056",
    "geom:latitude": 38.930890325836586,
    "geom:longitude": -99.99160534044213,
    "src:alt_label": "swim-path",
    "src:geom": "swim",
    "swim:altitudes": [
      "008",
      "017",
      "033",
      "046",
      "070",
      "094",
      "109",
      "121",
      "122",
      "142",
      "162",
      "179",
      "197",
      "209",
      "220",
      "233",
      "245",
      "254",
      "263",
      "272",
      "280",
      "290",
      "299",
      "306",
      "315",
      "328",
      "331",
      "335",
      "340C",
      "340C",
      "340C",
      "340C",
      "340C",
      "340C",
      "340C",
      "340C",
      "340C",
      "340C",
      "340C",
      "340C",
      "340C",
      "340C",
      "340C",
      "340C",
      "340C",
      "340C",
      "340C",
      "340C",
      "340C",
      "340C",
      "340C",
      "340C",
      "340C",
      "340C",
      "340C",
      "340C",
      "340C",
      "340C",
      "340C",
      "340C",
      "340C",
      "340C",
      "340C",
      "340C",
      "340C",
      "340C",
      "340C",
      "340C",
      "340C",
      "340C",
      "340C",
      "340C",
      "340C",
      "340C",
      "340C",
      "340C",
      "340C",
      "340C",
      "340C",
      "340C",
      "340C",
      "340C",
      "340C",
      "340C",
      "340C",
      "340C",
      "340C",
      "340C",
      "340C",
      "340C",
      "340C",
      "340C",
      "340C",
      "340C",
      "340C",
      "340C",
      "340C",
      "340C",
      "340C",
      "340C",
      "340C",
      "340C",
      "340C",
      "340C",
      "340C",
      "340C",
      "340C",
      "340C",
      "340C",
      "340C",
      "340C",
      "340C",
      "340C",
      "340",
      "345",
      "349",
      "355",
      "360C",
      "360C",
      "360C",
      "360C",
      "360C",
      "360C",
      "360C",
      "360C",
      "360C",
      "360C",
      "360C",
      "360C",
      "360C",
      "360C",
      "360C",
      "360C",
      "360C",
      "360C",
      "360C",
      "360C",
      "360C",
      "360C",
      "359C",
      "360C",
      "360C",
      "360C",
      "360C",
      "360C",
      "360C",
      "360C",
      "359C",
      "360C",
      "360C",
      "360C",
      "360C",
      "360C",
      "360C",
      "359C",
      "360C",
      "360C",
      "360C",
      "360C",
      "360C",
      "359C",
      "360C",
      "360C",
      "360C",
      "360C",
      "360C",
      "360C",
      "360C",
      "360C",
      "360C",
      "360C",
      "360C",
      "360C",
      "360C",
      "360C",
      "360C",
      "360C",
      "360C",
      "360C",
      "360C",
      "360C",
      "360C",
      "360C",
      "360C",
      "360C",
      "360C",
      "360C",
      "360C",
      "360C",
      "360C",
      "360C",
      "360C",
      "360C",
      "360C",
      "360C",
      "360C",
      "360C",
      "360C",
      "360C",
      "360C",
      "360C",
      "360C",
      "360C",
      "360C",
      "360C",
      "360C",
      "360C",
      "360C",
      "360C",
      "360C",
      "360C",
      "360C",
      "360C",
      "360C",
      "360C",
      "360C",
      "360C",
      "360C",
      "360C",
      "360C",
      "360C",
      "360C",
      "360C",
      "360C",
      "360C",
      "360C",
      "360C",
      "360C",
      "360C",
      "360C",
      "360C",
      "360C",
      "360C",
      "360C",
      "360C",
      "360C",
      "360C",
      "360C",
      "360C",
      "360C",
      "360C",
      "360C",
      "360C",
      "360C",
      "360C",
      "360C",
      "360C",
      "360C",
      "360C",
      "360C",
      "360C",
      "360C",
      "360C",
      "360C",
      "360C",
      "360C",
      "360C",
      "360C",
      "360C",
      "360C",
      "360C",
      "360C",
      "360C",
      "360C",
      "360C",
      "360C",
      "360C",
      "360C",
      "360C",
      "360C",
      "360C",
      "360C",
      "360C",
      "360C",
      "360C",
      "360C",
      "360C",
      "360C",
      "360C",
      "360C",
      "360C",
      "360C",
      "360C",
      "360C",
      "360C",
      "360C",
      "360C",
      "360C",
      "360C",
      "360C",
      "360C",
      "360C",
      "360C",
      "360C",
      "360C",
      "360C",
      "360C",
      "360C",
      "360C",
      "360C",
      "360C",
      "360C",
      "360C",
      "360C",
      "360C",
      "360C",
      "360C",
      "360C",
      "360C",
      "360C",
      "360C",
      "360C",
      "360C",
      "360C",
      "360C",
      "360C",
      "360C",
      "360C",
      "360C",
      "360C",
      "360C",
      "360C",
      "360C",
      "360C",
      "360C",
      "360C",
      "360C",
      "360C",
      "360C",
      "360C",
      "360C",
      "360C",
      "360C",
      "360C",
      "360C",
      "360C",
      "360C",
      "360C",
      "360C",
      "360C",
      "360C",
      "360C",
      "360C",
      "360C",
      "360C",
      "360C",
      "360C",
      "360C",
      "360C",
      "360C",
      "360C",
      "360C",
      "346",
      "319",
      "298",
      "290",
      "277",
      "258",
      "241",
      "224",
      "208",
      "191",
      "175",
      "159",
      "161",
      "145",
      "129",
      "116",
      "119",
      "106",
      "093",
      "081",
      "070",
      "062",
      "049",
      "038",
      "029",
      "018",
      "011",
      "004",
      "004"
    ],
    "swim:geom": "path",
    "swim:speeds": [
      183,
      190,
      230,
      284,
      299,
      320,
      318,
      354,
      349,
      367,
      372,
      384,
      383,
      382,
      387,
      406,
      413,
      421,
      431,
      437,
      443,
      445,
      446,
      450,
      452,
      446,
      446,
      450,
      453,
      455,
      454,
      448,
      445,
      443,
      441,
      439,
      437,
      436,
      436,
      435,
      435,
      435,
      435,
      435,
      436,
      436,
      436,
      435,
      435,
      436,
      436,
      431,
      430,
      431,
      432,
      433,
      433,
      434,
      434,
      434,
      434,
      434,
      433,
      433,
      433,
      433,
      432,
      432,
      431,
      430,
      430,
      429,
      429,
      429,
      429,
      430,
      431,
      432,
      433,
      433,
      434,
      435,
      435,
      434,
      433,
      433,
      433,
      434,
      435,
      436,
      435,
      435,
      435,
      436,
      436,
      436,
      436,
      434,
      433,
      431,
      430,
      429,
      429,
      430,
      431,
      432,
      433,
      433,
      434,
      434,
      434,
      434,
      433,
      433,
      432,
      434,
      435,
      436,
      436,
      435,
      434,
      433,
      432,
      432,
      432,
      434,
      436,
      438,
      440,
      441,
      441,
      442,
      440,
      437,
      435,
      432,
      434,
      430,
      432,
      430,
      431,
      429,
      429,
      429,
      429,
      429,
      429,
      429,
      429,
      430,
      430,
      431,
      431,
      431,
      431,
      430,
      430,
      429,
      429,
      427,
      428,
      426,
      428,
      426,
      427,
      427,
      427,
      428,
      429,
      431,
      433,
      435,
      437,
      437,
      437,
      436,
      435,
      435,
      441,
      444,
      446,
      447,
      448,
      448,
      450,
      452,
      454,
      456,
      456,
      457,
      456,
      456,
      456,
      456,
      456,
      456,
      457,
      456,
      456,
      456,
      454,
      452,
      451,
      451,
      449,
      449,
      442,
      449,
      440,
      449,
      440,
      449,
      439,
      449,
      438,
      438,
      442,
      443,
      448,
      448,
      445,
      447,
      444,
      447,
      441,
      445,
      439,
      441,
      437,
      441,
      435,
      440,
      434,
      439,
      432,
      436,
      431,
      430,
      431,
      431,
      432,
      433,
      434,
      434,
      434,
      434,
      433,
      433,
      432,
      431,
      431,
      431,
      431,
      431,
      431,
      431,
      432,
      432,
      430,
      430,
      428,
      426,
      426,
      425,
      425,
      426,
      428,
      430,
      432,
      433,
      434,
      435,
      435,
      433,
      430,
      429,
      427,
      425,
      423,
      421,
      419,
      417,
      417,
      417,
      418,
      419,
      420,
      420,
      419,
      418,
      417,
      415,
      414,
      413,
      413,
      413,
      413,
      413,
      412,
      413,
      412,
      413,
      413,
      413,
      414,
      416,
      415,
      417,
      416,
      417,
      417,
      418,
      418,
      419,
      419,
      419,
      419,
      419,
      419,
      418,
      418,
      417,
      416,
      415,
      414,
      413,
      412,
      413,
      413,
      414,
      414,
      413,
      413,
      413,
      413,
      414,
      414,
      414,
      413,
      412,
      412,
      411,
      410,
      407,
      405,
      401,
      398,
      396,
      400,
      405,
      407,
      407,
      407,
      412,
      412,
      409,
      399,
      387,
      370,
      350,
      357,
      351,
      336,
      327,
      333,
      325,
      304,
      278,
      284,
      273,
      266,
      257,
      248,
      247,
      228,
      224,
      195,
      177,
      144,
      130,
      133
    ],
    "swim:timestamps": [
      1790356492,
      1790356511,
      1790356573,
      1790356633,
      1790356693,
      1790356750,
      1790356810,
      1790356865,
      1790356874,
      1790356934,
      1790356994,
      1790357054,
      1790357114,
      1790357174,
      1790357234,
      1790357295,
      1790357355,
      1790357415,
      1790357475,
      1790357535,
      1790357595,
      1790357655,
      1790357715,
      1790357775,
      1790357835,
      1790357895,
      1790357955,
      1790358016,
      1790358076,
      1790358136,
      1790358196,
      1790358256,
      1790358316,
      1790358376,
      1790358436,
      1790358496,
      1790358556,
      1790358616,
      1790358677,
      1790358737,
      1790358797,
      1790358857,
      1790358917,
      1790358977,
      1790359037,
      1790359097,
      1790359157,
      1790359217,
      1790359277,
      1790359334,
      1790359394,
      1790359454,
      1790359514,
      1790359574,
      1790359635,
      1790359695,
      1790359755,
      1790359815,
      1790359875,
      1790359935,
      1790359995,
      1790360055,
      1790360115,
      1790360175,
      1790360235,
      1790360296,
      1790360356,
      1790360416,
      1790360476,
      1790360536,
      1790360596,
      1790360656,
      1790360716,
      1790360776,
      1790360836,
      1790360896,
      1790360957,
      1790361017,
      1790361077,
      1790361137,
      1790361197,
      1790361257,
      1790361317,
      1790361377,
      1790361437,
      1790361497,
      1790361557,
      1790361618,
      1790361678,
      1790361738,
      1790361798,
      1790361858,
      1790361918,
      1790361978,
      1790362038,
      1790362098,
      1790362158,
      1790362219,
      1790362279,
      1790362339,
      1790362399,
      1790362459,
      1790362519,
      1790362579,
      1790362639,
      1790362699,
      1790362759,
      1790362819,
      1790362892,
      1790362952,
      1790363012,
      1790363072,
      1790363132,
      1790363192,
      1790363252,
      1790363312,
      1790363372,
      1790363432,
      1790363493,
      1790363553,
      1790363613,
      1790363673,
      1790363733,
      1790363793,
      1790363853,
      1790363913,
      1790363973,
      1790364033,
      1790364094,
      1790364154,
      1790364214,
      1790364274,
      1790364334,
      1790364394,
      1790364454,
      1790364494,
      1790364514,
      1790364554,
      1790364574,
      1790364614,
      1790364634,
      1790364674,
      1790364694,
      1790364734,
      1790364755,
      1790364794,
      1790364815,
      1790364855,
      1790364875,
      1790364915,
      1790364935,
      1790364975,
      1790364995,
      1790365035,
      1790365055,
      1790365095,
      1790365115,
      1790365155,
      1790365175,
      1790365215,
      1790365235,
      1790365275,
      1790365295,
      1790365335,
      1790365356,
      1790365395,
      1790365416,
      1790365455,
      1790365515,
      1790365576,
      1790365636,
      1790365696,
      1790365756,
      1790365816,
      1790365876,
      1790365936,
      1790365996,
      1790366056,
      1790366116,
      1790366176,
      1790366236,
      1790366297,
      1790366357,
      1790366417,
      1790366477,
      1790366537,
      1790366597,
      1790366657,
      1790366724,
      1790366777,
      1790366784,
      1790366837,
      1790366844,
      1790366897,
      1790366904,
      1790366964,
      1790367018,
      1790367084,
      1790367144,
      1790367205,
      1790367265,
      1790367318,
      1790367325,
      1790367378,
      1790367385,
      1790367445,
      1790367498,
      1790367505,
      1790367558,
      1790367565,
      1790367618,
      1790367625,
      1790367678,
      1790367685,
      1790367738,
      1790367799,
      1790367805,
      1790367859,
      1790367865,
      1790367925,
      1790367979,
      1790367986,
      1790368039,
      1790368046,
      1790368099,
      1790368106,
      1790368159,
      1790368166,
      1790368219,
      1790368226,
      1790368279,
      1790368286,
      1790368339,
      1790368346,
      1790368399,
      1790368406,
      1790368459,
      1790368466,
      1790368520,
      1790368526,
      1790368586,
      1790368646,
      1790368700,
      1790368707,
      1790368760,
      1790368767,
      1790368820,
      1790368827,
      1790368887,
      1790368940,
      1790368947,
      1790369000,
      1790369007,
      1790369060,
      1790369067,
      1790369127,
      1790369187,
      1790369247,
      1790369301,
      1790369307,
      1790369367,
      1790369421,
      1790369427,
      1790369488,
      1790369548,
      1790369608,
      1790369668,
      1790369728,
      1790369788,
      1790369848,
      1790369908,
      1790369968,
      1790370028,
      1790370088,
      1790370148,
      1790370209,
      1790370269,
      1790370329,
      1790370389,
      1790370449,
      1790370509,
      1790370569,
      1790370629,
      1790370689,
      1790370749,
      1790370809,
      1790370869,
      1790370929,
      1790370990,
      1790371050,
      1790371110,
      1790371170,
      1790371230,
      1790371276,
      1790371290,
      1790371336,
      1790371350,
      1790371396,
      1790371410,
      1790371456,
      1790371470,
      1790371516,
      1790371530,
      1790371576,
      1790371590,
      1790371636,
      1790371650,
      1790371696,
      1790371710,
      1790371756,
      1790371771,
      1790371816,
      1790371831,
      1790371876,
      1790371891,
      1790371937,
      1790371951,
      1790371997,
      1790372011,
      1790372057,
      1790372071,
      1790372117,
      1790372131,
      1790372177,
      1790372191,
      1790372237,
      1790372251,
      1790372297,
      1790372311,
      1790372357,
      1790372371,
      1790372417,
      1790372431,
      1790372492,
      1790372537,
      1790372552,
      1790372598,
      1790372612,
      1790372658,
      1790372672,
      1790372718,
      1790372732,
      1790372778,
      1790372838,
      1790372898,
      1790372958,
      1790373018,
      1790373078,
      1790373138,
      1790373198,
      1790373259,
      1790373319,
      1790373379,
      1790373439,
      1790373499,
      1790373517,
      1790373559,
      1790373619,
      1790373679,
      1790373735,
      1790373794,
      1790373854,
      1790373915,
      1790373974,
      1790373980,
      1790374040,
      1790374094,
      1790374154,
      1790374160,
      1790374220,
      1790374280,
      1790374340,
      1790374400,
      1790374460,
      1790374520,
      1790374575,
      1790374641,
      1790374695,
      1790374761,
      1790374814,
      1790374821
    ],
    "wof:geomhash": "7b1cc80dbd8b326b04937b5dd1b22b47",
    "wof:id": 2048430817,
    "wof:repo": "sfomuseum-data-flights-2026-09"
  },
  "bbox": [
    -122.34222222222222,
    37.49138888888889,
    -77.5,
    39.723055555555554
  ],
  "geometry": {"type":"LineString","coordinates":[[-77.5,38.95],[-77.51666666666667,38.95],[-77.59027777777777,38.94222222222222],[-77.68527777777778,38.92611111111111],[-77.76222222222222,38.870555555555555],[-77.85,38.81666666666667],[-77.95,38.78333333333333],[-78.06666666666666,38.81666666666667],[-78.06277777777777,38.82],[-78.19583333333334,38.85166666666667],[-78.32944444444443,38.85472222222222],[-78.46666666666667,38.8525],[-78.60249999999999,38.849722222222226],[-78.72722222222222,38.847500000000004],[-78.86749999999999,38.845],[-79.01527777777778,38.843333333333334],[-79.16250000000001,38.84027777777778],[-79.31083333333333,38.838055555555556],[-79.4675,38.835],[-79.62194444444444,38.83166666666667],[-79.77944444444444,38.82805555555556],[-79.93861111111111,38.82416666666667],[-80.09583333333333,38.82027777777778],[-80.25916666666667,38.81583333333333],[-80.41722222222222,38.811388888888885],[-80.58944444444444,38.80638888888888],[-80.74777777777778,38.80166666666666],[-80.91166666666668,38.79611111111111],[-81.07388888888889,38.79083333333333],[-81.235,38.785555555555554],[-81.39583333333334,38.779444444444444],[-81.55472222222222,38.77333333333333],[-81.69833333333334,38.76777777777777],[-81.85444444444444,38.76111111111111],[-82.00916666666667,38.75472222222222],[-82.165,38.74888888888889],[-82.31666666666666,38.74305555555556],[-82.47361111111111,38.73694444444445],[-82.62888888888888,38.730555555555554],[-82.78138888888888,38.723888888888894],[-82.93722222222223,38.717222222222226],[-83.09083333333332,38.71027777777778],[-83.26277777777777,38.702222222222225],[-83.41777777777779,38.69472222222222],[-83.5761111111111,38.68694444444444],[-83.73083333333334,38.67916666666667],[-83.88361111111112,38.67111111111111],[-84.03805555555556,38.66277777777778],[-84.19166666666668,38.65361111111111],[-84.33138888888888,38.640277777777776],[-84.485,38.63527777777778],[-84.63722222222223,38.64666666666667],[-84.79083333333332,38.66111111111111],[-84.94555555555556,38.67111111111111],[-85.1,38.678888888888885],[-85.25583333333333,38.68805555555555],[-85.40972222222223,38.69555555555555],[-85.56583333333333,38.70444444444445],[-85.71944444444445,38.713055555555556],[-85.87333333333332,38.721111111111114],[-86.02472222222222,38.72944444444445],[-86.17805555555556,38.73583333333333],[-86.33111111111111,38.74472222222222],[-86.48388888888888,38.75111111111111],[-86.6375,38.757777777777775],[-86.78972222222222,38.765277777777776],[-86.94055555555556,38.769999999999996],[-87.09166666666667,38.77638888888889],[-87.2461111111111,38.7825],[-87.39583333333334,38.78777777777778],[-87.54861111111111,38.79333333333333],[-87.70027777777779,38.79861111111111],[-87.85,38.803888888888885],[-88.00194444444445,38.808611111111105],[-88.15777777777778,38.81333333333333],[-88.30916666666667,38.81805555555556],[-88.465,38.82222222222222],[-88.61888888888888,38.82638888888889],[-88.7575,38.830000000000005],[-88.91250000000001,38.83388888888889],[-89.06694444444445,38.83722222222222],[-89.22305555555556,38.840833333333336],[-89.37583333333333,38.844166666666666],[-89.53,38.846944444444446],[-89.68333333333334,38.849444444444444],[-89.83833333333332,38.852222222222224],[-90.01972222222223,38.855000000000004],[-90.16388888888889,38.856944444444444],[-90.31833333333333,38.85888888888889],[-90.47583333333334,38.86083333333333],[-90.63,38.878055555555555],[-90.78138888888888,38.895833333333336],[-90.93444444444445,38.913333333333334],[-91.08722222222222,38.93083333333333],[-91.24222222222222,38.94833333333333],[-91.39555555555556,38.96555555555556],[-91.54722222222222,38.981944444444444],[-91.71194444444444,39],[-91.86361111111111,39.01611111111111],[-92.01527777777778,39.032222222222224],[-92.16638888888889,39.047777777777775],[-92.31833333333333,39.06361111111111],[-92.46805555555555,39.07888888888889],[-92.6211111111111,39.094166666666666],[-92.77305555555556,39.10916666666667],[-92.9263888888889,39.12416666666667],[-93.08083333333333,39.138888888888886],[-93.23388888888888,39.15333333333333],[-93.42027777777778,39.170833333333334],[-93.55499999999999,39.18333333333333],[-93.70944444444444,39.197222222222216],[-93.86333333333333,39.21083333333333],[-94.01583333333333,39.224444444444444],[-94.17027777777778,39.238055555555555],[-94.32194444444444,39.25083333333333],[-94.4775,39.263888888888886],[-94.635,39.276944444444446],[-94.78805555555556,39.2875],[-94.94333333333334,39.29416666666666],[-95.12833333333333,39.30222222222222],[-95.28138888888888,39.30833333333333],[-95.42861111111111,39.314166666666665],[-95.5825,39.319722222222225],[-95.73527777777778,39.32555555555556],[-95.8888888888889,39.33111111111111],[-96.04527777777777,39.33638888888889],[-96.18916666666667,39.34111111111111],[-96.34583333333333,39.346111111111114],[-96.51861111111111,39.35111111111111],[-96.67750000000001,39.35583333333334],[-96.83555555555554,39.36],[-96.99416666666667,39.36416666666667],[-97.15027777777779,39.36805555555556],[-97.30694444444444,39.37166666666667],[-97.46138888888889,39.375],[-97.56583333333333,39.37722222222222],[-97.61749999999999,39.37833333333333],[-97.70861111111111,39.38],[-97.77055555555556,39.38111111111111],[-97.86527777777778,39.382777777777775],[-97.92277777777778,39.38388888888889],[-98.01861111111111,39.385555555555555],[-98.07638888888889,39.38638888888889],[-98.1725,39.38777777777778],[-98.22916666666667,39.388888888888886],[-98.29416666666667,39.38972222222222],[-98.38694444444445,39.39111111111111],[-98.47944444444444,39.39194444444444],[-98.54277777777777,39.39277777777778],[-98.63583333333334,39.39388888888889],[-98.69305555555556,39.39472222222222],[-98.78999999999999,39.39555555555555],[-98.84638888888888,39.39611111111111],[-98.94777777777779,39.39694444444444],[-99.01,39.3975],[-99.11083333333333,39.39833333333333],[-99.16611111111112,39.39888888888889],[-99.26333333333334,39.399166666666666],[-99.31666666666666,39.39944444444444],[-99.4175,39.4],[-99.47027777777778,39.400277777777774],[-99.56805555555555,39.400555555555556],[-99.60222222222221,39.400555555555556],[-99.7213888888889,39.401111111111106],[-99.75583333333333,39.401111111111106],[-99.87583333333333,39.401111111111106],[-99.90916666666668,39.401111111111106],[-100.02833333333334,39.401111111111106],[-100.18555555555555,39.40083333333333],[-100.34055555555555,39.400555555555556],[-100.4961111111111,39.39972222222222],[-100.65444444444445,39.39888888888889],[-100.81138888888889,39.397777777777776],[-100.96888888888888,39.396388888888886],[-101.12638888888888,39.394999999999996],[-101.28277777777778,39.39333333333333],[-101.4388888888889,39.39138888888889],[-101.5936111111111,39.38916666666667],[-101.75138888888888,39.39416666666666],[-101.91111111111111,39.410555555555554],[-102.07194444444444,39.42666666666666],[-102.23166666666667,39.442499999999995],[-102.3888888888889,39.458333333333336],[-102.54027777777777,39.473055555555554],[-102.70083333333334,39.48833333333334],[-102.86166666666666,39.50361111111111],[-103.02444444444444,39.51861111111111],[-103.18694444444445,39.53361111111111],[-103.36694444444444,39.54833333333333],[-103.51472222222222,39.5625],[-103.52888888888889,39.56222222222222],[-103.67722222222223,39.57694444444445],[-103.69416666666667,39.57666666666667],[-103.8386111111111,39.590833333333336],[-103.85694444444444,39.59166666666667],[-104.01861111111111,39.605555555555554],[-104.16555555555556,39.61833333333333],[-104.34722222222221,39.6325],[-104.50944444444444,39.64555555555555],[-104.67027777777778,39.65861111111111],[-104.83,39.67027777777778],[-104.99583333333334,39.683611111111105],[-104.9875,39.68222222222222],[-105.15444444444445,39.69555555555555],[-105.14666666666668,39.693888888888885],[-105.3086111111111,39.70472222222222],[-105.47444444444444,39.708333333333336],[-105.46916666666667,39.71527777777778],[-105.6325,39.69416666666666],[-105.62972222222221,39.69333333333333],[-105.78861111111111,39.68277777777777],[-105.79027777777777,39.67722222222222],[-105.94555555555556,39.66972222222222],[-105.94805555555556,39.665277777777774],[-106.10305555555556,39.656666666666666],[-106.26166666666667,39.64694444444444],[-106.26,39.64222222222222],[-106.42111111111112,39.666666666666664],[-106.41916666666667,39.66444444444444],[-106.57638888888889,39.684999999999995],[-106.73444444444445,39.705000000000005],[-106.73472222222222,39.70277777777778],[-106.89277777777778,39.723055555555554],[-106.89416666666668,39.721111111111114],[-107.04722222222222,39.72277777777778],[-107.05055555555555,39.71944444444445],[-107.20055555555555,39.705000000000005],[-107.20555555555556,39.70138888888889],[-107.35305555555556,39.687777777777775],[-107.36166666666666,39.68444444444444],[-107.51944444444445,39.66861111111111],[-107.51694444444445,39.6675],[-107.6725,39.650555555555556],[-107.67055555555557,39.64888888888889],[-107.82638888888889,39.632777777777775],[-107.82333333333332,39.630833333333335],[-107.97944444444444,39.614444444444445],[-107.97277777777778,39.61527777777778],[-108.13666666666667,39.595555555555556],[-108.12638888888888,39.59666666666667],[-108.28111111111112,39.57777777777778],[-108.4363888888889,39.55888888888889],[-108.60138888888888,39.538333333333334],[-108.5911111111111,39.53972222222222],[-108.74527777777777,39.52027777777778],[-108.74527777777777,39.52027777777778],[-108.89916666666667,39.50055555555556],[-108.89666666666668,39.50111111111111],[-109.05361111111111,39.48083333333334],[-109.21305555555556,39.46],[-109.20472222222223,39.461111111111116],[-109.35583333333332,39.44138888888889],[-109.3586111111111,39.44083333333333],[-109.50777777777778,39.421388888888885],[-109.51027777777777,39.42111111111111],[-109.66361111111112,39.400555555555556],[-109.81722222222221,39.37972222222222],[-109.96666666666667,39.35722222222223],[-110.1125,39.32666666666667],[-110.11777777777777,39.32555555555556],[-110.26333333333334,39.29527777777778],[-110.4075,39.263888888888886],[-110.4075,39.263888888888886],[-110.55888888888889,39.240833333333335],[-110.72611111111111,39.217777777777776],[-110.87638888888888,39.196666666666665],[-111.02805555555555,39.175],[-111.17944444444444,39.15361111111111],[-111.33083333333333,39.13166666666667],[-111.48416666666667,39.10916666666667],[-111.63527777777779,39.08694444444445],[-111.78888888888889,39.064166666666665],[-111.94111111111111,39.04111111111111],[-112.09138888888889,39.01861111111111],[-112.23972222222223,38.99583333333334],[-112.38916666666667,38.97277777777778],[-112.53777777777778,38.94972222222222],[-112.68416666666667,38.92666666666666],[-112.82972222222222,38.90361111111111],[-112.97500000000001,38.88027777777778],[-113.12166666666666,38.856944444444444],[-113.26472222222222,38.83361111111111],[-113.4088888888889,38.809999999999995],[-113.55416666666666,38.78611111111111],[-113.69694444444445,38.76222222222222],[-113.84388888888888,38.737500000000004],[-113.98916666666666,38.713055555555556],[-114.13527777777779,38.68805555555555],[-114.27916666666667,38.663333333333334],[-114.42444444444445,38.63805555555555],[-114.56861111111111,38.613055555555555],[-114.71083333333334,38.588055555555556],[-114.85194444444444,38.56305555555555],[-114.96861111111112,38.541666666666664],[-114.99555555555555,38.53722222222222],[-115.11416666666666,38.51583333333333],[-115.13611111111112,38.511944444444445],[-115.25638888888889,38.49],[-115.27722222222222,38.48638888888889],[-115.39861111111112,38.46388888888889],[-115.42277777777778,38.459722222222226],[-115.54055555555556,38.43805555555555],[-115.56666666666666,38.433611111111105],[-115.68305555555555,38.41222222222222],[-115.71027777777778,38.40694444444444],[-115.82722222222222,38.38472222222222],[-115.85472222222222,38.37972222222222],[-115.97111111111111,38.35805555555556],[-115.99694444444445,38.35305555555556],[-116.11388888888888,38.33083333333334],[-116.14055555555557,38.325833333333335],[-116.25611111111111,38.30361111111111],[-116.28527777777778,38.29805555555556],[-116.4025,38.275555555555556],[-116.43083333333334,38.27027777777778],[-116.54527777777777,38.24805555555556],[-116.57388888888889,38.2425],[-116.68944444444445,38.22],[-116.71805555555555,38.214444444444446],[-116.83388888888888,38.19166666666666],[-116.8611111111111,38.186388888888885],[-116.97638888888889,38.16361111111111],[-117.00333333333333,38.15833333333333],[-117.11805555555554,38.13527777777778],[-117.14472222222223,38.13],[-117.24027777777778,38.111111111111114],[-117.29666666666667,38.099722222222226],[-117.38305555555554,38.08222222222223],[-117.43777777777778,38.071111111111115],[-117.52472222222222,38.05361111111111],[-117.57944444444443,38.0425],[-117.66472222222222,38.02722222222222],[-117.72111111111111,38.021388888888886],[-117.86638888888888,38.00555555555555],[-117.95583333333333,37.99583333333334],[-118.0111111111111,37.989444444444445],[-118.09888888888888,37.980000000000004],[-118.15611111111112,37.97361111111111],[-118.24361111111111,37.96361111111111],[-118.2975,37.9575],[-118.38666666666667,37.9475],[-118.44,37.94138888888889],[-118.52888888888889,37.93111111111111],[-118.67027777777778,37.914722222222224],[-118.80944444444444,37.89861111111111],[-118.94666666666667,37.882222222222225],[-119.09166666666667,37.86472222222223],[-119.22805555555556,37.84805555555556],[-119.36611111111111,37.831388888888895],[-119.50916666666667,37.81388888888888],[-119.65222222222222,37.795833333333334],[-119.7936111111111,37.778055555555554],[-119.93277777777779,37.76027777777778],[-120.0761111111111,37.742222222222225],[-120.22055555555556,37.723333333333336],[-120.26666666666667,37.71666666666667],[-120.35916666666667,37.70527777777778],[-120.49333333333334,37.68888888888888],[-120.6211111111111,37.67388888888889],[-120.75,37.666666666666664],[-120.86666666666666,37.65],[-120.98333333333333,37.63333333333333],[-121.11666666666666,37.61666666666667],[-121.21666666666667,37.6],[-121.21055555555556,37.599722222222226],[-121.32249999999999,37.58583333333333],[-121.43333333333334,37.56666666666667],[-121.53333333333333,37.56666666666667],[-121.52972222222222,37.56166666666666],[-121.62305555555555,37.55083333333333],[-121.71444444444445,37.529444444444444],[-121.7975,37.50944444444445],[-121.88194444444444,37.49138888888889],[-121.96694444444445,37.49333333333333],[-122.06666666666666,37.516666666666666],[-122.13333333333334,37.53333333333333],[-122.18666666666667,37.55888888888889],[-122.25,37.583333333333336],[-122.2975,37.59388888888889],[-122.33333333333333,37.6],[-122.34222222222222,37.60777777777778]]}
}
