{
  "id": 2048240723,
  "type": "Feature",
  "properties": {
    "geom:area": 0,
    "geom:bbox": "-122.357860,37.471100,-121.257510,37.613800",
    "geom:latitude": 37.54187444334416,
    "geom:longitude": -121.81191234407288,
    "src:alt_label": "swim-approach",
    "src:geom": "swim",
    "swim:elevations": [
      5111,
      4936,
      4642,
      4439,
      4067,
      3628,
      3433,
      3228,
      3088,
      3018,
      2826,
      2754,
      2511,
      2394,
      2290,
      2134,
      2134,
      1918,
      1678,
      1582,
      1524,
      1485,
      1220,
      1198,
      1065,
      889,
      806,
      726,
      460,
      366,
      334,
      287,
      116,
      0
    ],
    "swim:geom": "approach",
    "swim:timestamps": [
      1788427226,
      1788427249,
      1788427283,
      1788427301,
      1788427340,
      1788427369,
      1788427387,
      1788427424,
      1788427454,
      1788427485,
      1788427520,
      1788427532,
      1788427573,
      1788427610,
      1788427621,
      1788427665,
      1788427681,
      1788427714,
      1788427762,
      1788427787,
      1788427818,
      1788427837,
      1788427876,
      1788427883,
      1788427908,
      1788427945,
      1788427963,
      1788427980,
      1788428032,
      1788428056,
      1788428066,
      1788428079,
      1788428123,
      1788428147
    ],
    "wof:geomhash": "b0a623cf45c170fb0708633d6504fee6",
    "wof:id": 2048240723,
    "wof:repo": "sfomuseum-data-flights-2026-09"
  },
  "bbox": [
    -122.35786,
    37.4711,
    -121.25751,
    37.6138
  ],
  "geometry": {"type":"LineString","coordinates":[[-121.25751,37.59329],[-121.29704,37.58829],[-121.35226,37.58249],[-121.38202,37.57925],[-121.44614,37.57192],[-121.49446,37.56601],[-121.52426,37.56258],[-121.58319,37.55581],[-121.62555,37.55048],[-121.66607,37.54069],[-121.70733,37.52545],[-121.7197,37.51836],[-121.76365,37.49344],[-121.80263,37.47251],[-121.81638,37.4711],[-121.87289,37.47994],[-121.89259,37.4823],[-121.9352,37.48744],[-121.99757,37.49757],[-122.02761,37.50756],[-122.062,37.51881],[-122.08127,37.52496],[-122.1205,37.53753],[-122.12745,37.53991],[-122.1517,37.54755],[-122.18771,37.55956],[-122.20443,37.56501],[-122.2213,37.57042],[-122.2702,37.58548],[-122.2892,37.59106],[-122.29682,37.59343],[-122.30706,37.59652],[-122.34017,37.60678],[-122.35786,37.6138]]}
}
