{
  "id": 2048262979,
  "type": "Feature",
  "properties": {
    "geom:area": 0,
    "geom:bbox": "-122.536470,36.723720,-121.447220,37.667930",
    "geom:latitude": 37.212690681302256,
    "geom:longitude": -122.06960411741473,
    "src:alt_label": "swim-takeoff",
    "src:geom": "swim",
    "swim:elevations": [
      152,
      484,
      954,
      1067,
      1295,
      1825,
      1899,
      2518,
      2833,
      3005,
      3756,
      4103,
      4490,
      4762,
      4996,
      5327,
      5774,
      6119,
      6301,
      6745,
      7021,
      7090,
      7364,
      7670,
      7949,
      8304,
      8373,
      8598,
      8806,
      9072,
      9227,
      9540
    ],
    "swim:geom": "takeoff",
    "swim:timestamps": [
      1788648946,
      1788648971,
      1788649016,
      1788649037,
      1788649073,
      1788649108,
      1788649113,
      1788649168,
      1788649190,
      1788649202,
      1788649247,
      1788649278,
      1788649317,
      1788649344,
      1788649365,
      1788649389,
      1788649431,
      1788649466,
      1788649487,
      1788649526,
      1788649556,
      1788649565,
      1788649594,
      1788649629,
      1788649665,
      1788649707,
      1788649719,
      1788649749,
      1788649781,
      1788649820,
      1788649841,
      1788649884
    ],
    "wof:geomhash": "3f63f97258e14415565116e7bb415480",
    "wof:id": 2048262979,
    "wof:repo": "sfomuseum-data-flights-2026-09"
  },
  "bbox": [
    -122.53647,
    36.72372,
    -121.44722,
    37.66793
  ],
  "geometry": {"type":"LineString","coordinates":[[-122.38481,37.62281],[-122.40319,37.63061],[-122.43743,37.64476],[-122.45495,37.65242],[-122.49325,37.66793],[-122.53319,37.65579],[-122.53647,37.65155],[-122.52455,37.59346],[-122.51124,37.56723],[-122.50417,37.55267],[-122.4772,37.49664],[-122.44126,37.46571],[-122.38822,37.42629],[-122.34926,37.3976],[-122.31798,37.37455],[-122.28199,37.34808],[-122.21715,37.30013],[-122.16265,37.25976],[-122.12896,37.23482],[-122.06676,37.18868],[-122.01716,37.15175],[-122.00236,37.14075],[-121.9547,37.10537],[-121.89574,37.06118],[-121.83502,37.01617],[-121.763,36.96193],[-121.74131,36.94682],[-121.68885,36.90751],[-121.63274,36.86521],[-121.56402,36.81149],[-121.52613,36.78307],[-121.44722,36.72372]]}
}
