{
  "id": 2048480317,
  "type": "Feature",
  "properties": {
    "geom:area": 0,
    "geom:bbox": "-122.366667,37.633333,-77.466667,42.235278",
    "geom:latitude": 41.058526095024405,
    "geom:longitude": -100.03391190046958,
    "src:alt_label": "swim-path",
    "src:geom": "swim",
    "swim:altitudes": [
      "006",
      "034",
      "038",
      "049",
      "056",
      "073",
      "086",
      "099",
      "115",
      "136",
      "158",
      "183",
      "200",
      "219",
      "237",
      "253",
      "268",
      "282",
      "296",
      "309",
      "325",
      "340",
      "350C",
      "350C",
      "350C",
      "350C",
      "350C",
      "350C",
      "350C",
      "350C",
      "350C",
      "350C",
      "350",
      "359",
      "369C",
      "370C",
      "370C",
      "370C",
      "370C",
      "370C",
      "370C",
      "370C",
      "370C",
      "370C",
      "370C",
      "370C",
      "370C",
      "370C",
      "370C",
      "370C",
      "370C",
      "370C",
      "370C",
      "370C",
      "370C",
      "370C",
      "370C",
      "370C",
      "370C",
      "370C",
      "370C",
      "370C",
      "370C",
      "370C",
      "370C",
      "370C",
      "370C",
      "370C",
      "370C",
      "370C",
      "370C",
      "370C",
      "370C",
      "370C",
      "370C",
      "370C",
      "370C",
      "370C",
      "370C",
      "370C",
      "370C",
      "370C",
      "370C",
      "370C",
      "370C",
      "370C",
      "370C",
      "370C",
      "370C",
      "370C",
      "370C",
      "370C",
      "370C",
      "370C",
      "370C",
      "370C",
      "370C",
      "370C",
      "370C",
      "370C",
      "370C",
      "370C",
      "370C",
      "370C",
      "370C",
      "370C",
      "370C",
      "370C",
      "370C",
      "370C",
      "370C",
      "370C",
      "370C",
      "370C",
      "370C",
      "370C",
      "370C",
      "370C",
      "370C",
      "370C",
      "370C",
      "370C",
      "370C",
      "370C",
      "370C",
      "370C",
      "370C",
      "370C",
      "370C",
      "370C",
      "370C",
      "370C",
      "370C",
      "370C",
      "370C",
      "370C",
      "370C",
      "370C",
      "370C",
      "370C",
      "370C",
      "370C",
      "370C",
      "370C",
      "370C",
      "370C",
      "370C",
      "370C",
      "370C",
      "370C",
      "370C",
      "370C",
      "370C",
      "370C",
      "370C",
      "370C",
      "370C",
      "370C",
      "370C",
      "370C",
      "370C",
      "370C",
      "370C",
      "370C",
      "370C",
      "370C",
      "370C",
      "370C",
      "370C",
      "370C",
      "370C",
      "370C",
      "370C",
      "370C",
      "370C",
      "370C",
      "370C",
      "370C",
      "370C",
      "370C",
      "370C",
      "370C",
      "370C",
      "370C",
      "370C",
      "370C",
      "370C",
      "370C",
      "370C",
      "370C",
      "370",
      "375",
      "377",
      "384",
      "387",
      "390C",
      "390C",
      "390C",
      "390C",
      "390C",
      "390C",
      "390C",
      "390C",
      "390C",
      "390C",
      "390C",
      "390C",
      "390C",
      "390C",
      "390C",
      "390C",
      "390C",
      "390C",
      "390C",
      "390C",
      "390C",
      "390C",
      "390C",
      "390C",
      "390C",
      "390C",
      "390C",
      "390C",
      "390C",
      "390C",
      "390C",
      "390C",
      "390C",
      "390C",
      "390C",
      "390C",
      "390C",
      "390C",
      "390C",
      "390C",
      "390C",
      "390C",
      "390C",
      "390C",
      "390C",
      "390C",
      "390C",
      "390C",
      "390C",
      "390C",
      "390C",
      "390C",
      "390C",
      "390C",
      "390C",
      "390C",
      "390C",
      "390C",
      "390C",
      "390C",
      "390C",
      "390C",
      "390C",
      "390C",
      "390C",
      "390C",
      "390C",
      "390C",
      "390C",
      "390C",
      "390C",
      "390C",
      "390C",
      "390C",
      "390C",
      "390C",
      "390C",
      "390C",
      "390C",
      "390C",
      "390C",
      "390C",
      "390C",
      "390C",
      "390C",
      "390C",
      "390C",
      "390C",
      "390C",
      "390C",
      "390C",
      "390C",
      "390C",
      "390C",
      "390C",
      "390C",
      "390C",
      "390C",
      "390C",
      "390C",
      "390C",
      "390C",
      "390C",
      "390C",
      "390C",
      "390C",
      "390C",
      "390C",
      "390C",
      "390C",
      "390C",
      "390C",
      "390C",
      "390C",
      "390C",
      "390C",
      "390C",
      "390C",
      "390C",
      "390C",
      "390C",
      "390C",
      "390C",
      "390C",
      "390C",
      "390C",
      "390C",
      "390C",
      "390C",
      "390C",
      "390C",
      "390C",
      "390C",
      "390C",
      "390C",
      "390C",
      "390C",
      "390C",
      "390C",
      "390C",
      "390C",
      "390C",
      "390C",
      "390C",
      "390C",
      "390C",
      "390C",
      "390C",
      "390C",
      "390C",
      "390C",
      "390C",
      "390C",
      "390C",
      "390C",
      "390C",
      "390C",
      "390C",
      "390C",
      "390C",
      "390C",
      "390C",
      "390C",
      "390C",
      "390C",
      "390C",
      "390C",
      "390C",
      "390C",
      "390C",
      "390C",
      "390C",
      "390",
      "389",
      "389",
      "385",
      "380",
      "375",
      "371",
      "369",
      "362",
      "356",
      "346",
      "339",
      "329",
      "320",
      "312",
      "305",
      "302",
      "295",
      "288",
      "285",
      "277",
      "270",
      "267",
      "259",
      "254",
      "251",
      "249",
      "245",
      "240",
      "232",
      "214",
      "195",
      "179",
      "170",
      "160",
      "153",
      "145",
      "133",
      "131",
      "118",
      "117",
      "112",
      "109",
      "109",
      "101",
      "095",
      "091",
      "089",
      "091",
      "090",
      "088",
      "082",
      "078",
      "074",
      "070",
      "066",
      "063",
      "060",
      "061",
      "060",
      "060",
      "060",
      "061",
      "057",
      "046",
      "044",
      "034",
      "030",
      "023",
      "020",
      "014",
      "007",
      "005",
      "003"
    ],
    "swim:geom": "path",
    "swim:speeds": [
      174,
      177,
      206,
      239,
      263,
      266,
      275,
      284,
      325,
      355,
      365,
      378,
      387,
      400,
      410,
      421,
      434,
      447,
      460,
      472,
      469,
      470,
      469,
      469,
      466,
      462,
      460,
      457,
      459,
      459,
      459,
      459,
      466,
      464,
      464,
      471,
      473,
      472,
      471,
      470,
      469,
      469,
      470,
      470,
      471,
      472,
      473,
      474,
      475,
      475,
      475,
      474,
      474,
      474,
      474,
      474,
      475,
      475,
      476,
      476,
      475,
      473,
      472,
      471,
      468,
      468,
      469,
      469,
      469,
      469,
      469,
      468,
      469,
      468,
      468,
      468,
      468,
      467,
      466,
      464,
      463,
      461,
      459,
      457,
      456,
      455,
      453,
      452,
      452,
      451,
      451,
      450,
      450,
      449,
      449,
      449,
      449,
      449,
      449,
      450,
      450,
      451,
      451,
      452,
      453,
      456,
      457,
      461,
      462,
      465,
      466,
      467,
      469,
      469,
      470,
      470,
      470,
      470,
      469,
      469,
      469,
      468,
      467,
      466,
      464,
      460,
      457,
      453,
      452,
      450,
      450,
      447,
      445,
      444,
      444,
      445,
      448,
      451,
      455,
      457,
      458,
      460,
      461,
      460,
      460,
      459,
      458,
      459,
      463,
      462,
      462,
      467,
      466,
      469,
      468,
      471,
      469,
      472,
      473,
      473,
      473,
      474,
      473,
      475,
      474,
      476,
      475,
      477,
      476,
      477,
      476,
      477,
      476,
      478,
      477,
      479,
      478,
      480,
      479,
      481,
      480,
      482,
      481,
      483,
      482,
      484,
      483,
      484,
      484,
      484,
      484,
      484,
      484,
      483,
      483,
      482,
      492,
      502,
      509,
      513,
      515,
      516,
      517,
      517,
      516,
      513,
      511,
      508,
      516,
      502,
      501,
      499,
      497,
      498,
      497,
      497,
      497,
      497,
      497,
      498,
      499,
      501,
      503,
      505,
      506,
      508,
      509,
      509,
      510,
      511,
      512,
      513,
      513,
      513,
      513,
      513,
      514,
      514,
      514,
      514,
      515,
      515,
      515,
      515,
      516,
      515,
      516,
      515,
      515,
      515,
      515,
      514,
      515,
      514,
      515,
      514,
      515,
      514,
      515,
      515,
      515,
      515,
      515,
      516,
      516,
      516,
      515,
      517,
      516,
      518,
      516,
      518,
      517,
      519,
      517,
      520,
      518,
      521,
      522,
      521,
      523,
      521,
      522,
      520,
      521,
      519,
      517,
      515,
      515,
      513,
      514,
      512,
      512,
      510,
      510,
      508,
      507,
      506,
      505,
      503,
      501,
      501,
      500,
      498,
      498,
      497,
      497,
      496,
      496,
      496,
      496,
      495,
      496,
      495,
      496,
      496,
      497,
      498,
      498,
      498,
      499,
      499,
      499,
      499,
      499,
      498,
      498,
      498,
      497,
      497,
      497,
      496,
      496,
      496,
      496,
      496,
      496,
      496,
      490,
      496,
      496,
      490,
      496,
      496,
      492,
      495,
      495,
      495,
      495,
      495,
      494,
      494,
      494,
      494,
      494,
      494,
      494,
      493,
      493,
      494,
      492,
      492,
      493,
      492,
      491,
      492,
      491,
      491,
      492,
      491,
      492,
      493,
      490,
      488,
      487,
      487,
      487,
      488,
      488,
      483,
      478,
      477,
      476,
      473,
      474,
      475,
      477,
      482,
      481,
      483,
      482,
      479,
      474,
      472,
      467,
      466,
      462,
      463,
      467,
      468,
      447,
      429,
      414,
      389,
      374,
      375,
      358,
      357,
      322,
      320,
      314,
      314,
      313,
      308,
      312,
      308,
      299,
      303,
      302,
      298,
      301,
      298,
      288,
      293,
      290,
      292,
      289,
      286,
      274,
      275,
      210,
      209,
      208,
      205,
      206,
      191,
      191,
      157,
      137,
      141,
      140
    ],
    "swim:timestamps": [
      1790792191,
      1790792269,
      1790792282,
      1790792329,
      1790792342,
      1790792389,
      1790792407,
      1790792449,
      1790792509,
      1790792569,
      1790792629,
      1790792689,
      1790792750,
      1790792810,
      1790792870,
      1790792930,
      1790792990,
      1790793050,
      1790793110,
      1790793170,
      1790793229,
      1790793289,
      1790793349,
      1790793409,
      1790793471,
      1790793529,
      1790793589,
      1790793651,
      1790793709,
      1790793769,
      1790793829,
      1790793890,
      1790793950,
      1790794010,
      1790794070,
      1790794130,
      1790794190,
      1790794252,
      1790794310,
      1790794370,
      1790794430,
      1790794492,
      1790794552,
      1790794610,
      1790794671,
      1790794731,
      1790794791,
      1790794853,
      1790794911,
      1790794973,
      1790795031,
      1790795091,
      1790795151,
      1790795211,
      1790795271,
      1790795331,
      1790795392,
      1790795452,
      1790795512,
      1790795572,
      1790795632,
      1790795692,
      1790795752,
      1790795812,
      1790795932,
      1790795992,
      1790796052,
      1790796113,
      1790796173,
      1790796293,
      1790796413,
      1790796473,
      1790796533,
      1790796593,
      1790796653,
      1790796713,
      1790796773,
      1790796833,
      1790796894,
      1790796954,
      1790797014,
      1790797074,
      1790797134,
      1790797194,
      1790797254,
      1790797314,
      1790797374,
      1790797434,
      1790797442,
      1790797494,
      1790797502,
      1790797554,
      1790797622,
      1790797675,
      1790797694,
      1790797735,
      1790797754,
      1790797795,
      1790797814,
      1790797855,
      1790797874,
      1790797915,
      1790797934,
      1790797975,
      1790797994,
      1790798035,
      1790798054,
      1790798095,
      1790798114,
      1790798155,
      1790798175,
      1790798215,
      1790798235,
      1790798275,
      1790798295,
      1790798335,
      1790798355,
      1790798396,
      1790798415,
      1790798456,
      1790798475,
      1790798516,
      1790798535,
      1790798576,
      1790798595,
      1790798636,
      1790798655,
      1790798696,
      1790798715,
      1790798756,
      1790798775,
      1790798835,
      1790798896,
      1790798956,
      1790799016,
      1790799076,
      1790799136,
      1790799196,
      1790799256,
      1790799316,
      1790799376,
      1790799436,
      1790799496,
      1790799556,
      1790799617,
      1790799677,
      1790799737,
      1790799797,
      1790799857,
      1790799901,
      1790799961,
      1790799989,
      1790800021,
      1790800049,
      1790800081,
      1790800109,
      1790800141,
      1790800169,
      1790800201,
      1790800229,
      1790800261,
      1790800289,
      1790800321,
      1790800350,
      1790800393,
      1790800410,
      1790800453,
      1790800470,
      1790800513,
      1790800530,
      1790800573,
      1790800590,
      1790800634,
      1790800650,
      1790800694,
      1790800710,
      1790800754,
      1790800770,
      1790800814,
      1790800830,
      1790800874,
      1790800890,
      1790800934,
      1790800950,
      1790800994,
      1790801010,
      1790801054,
      1790801071,
      1790801131,
      1790801174,
      1790801191,
      1790801234,
      1790801251,
      1790801294,
      1790801311,
      1790801355,
      1790801475,
      1790801535,
      1790801595,
      1790801655,
      1790801715,
      1790801775,
      1790801835,
      1790801895,
      1790801955,
      1790802075,
      1790802136,
      1790802256,
      1790802345,
      1790802376,
      1790802405,
      1790802436,
      1790802465,
      1790802496,
      1790802525,
      1790802556,
      1790802585,
      1790802616,
      1790802646,
      1790802676,
      1790802706,
      1790802736,
      1790802766,
      1790802796,
      1790802826,
      1790802857,
      1790802886,
      1790802917,
      1790802946,
      1790802977,
      1790803006,
      1790803037,
      1790803066,
      1790803097,
      1790803126,
      1790803157,
      1790803186,
      1790803217,
      1790803246,
      1790803277,
      1790803307,
      1790803337,
      1790803367,
      1790803427,
      1790803457,
      1790803487,
      1790803517,
      1790803547,
      1790803577,
      1790803607,
      1790803638,
      1790803667,
      1790803698,
      1790803727,
      1790803758,
      1790803847,
      1790803885,
      1790803907,
      1790803946,
      1790803968,
      1790804006,
      1790804028,
      1790804066,
      1790804088,
      1790804126,
      1790804148,
      1790804186,
      1790804208,
      1790804246,
      1790804268,
      1790804306,
      1790804328,
      1790804366,
      1790804388,
      1790804426,
      1790804448,
      1790804486,
      1790804508,
      1790804546,
      1790804566,
      1790804606,
      1790804626,
      1790804667,
      1790804686,
      1790804727,
      1790804746,
      1790804806,
      1790804926,
      1790804964,
      1790804986,
      1790805024,
      1790805046,
      1790805084,
      1790805106,
      1790805144,
      1790805167,
      1790805204,
      1790805227,
      1790805264,
      1790805287,
      1790805325,
      1790805350,
      1790805385,
      1790805407,
      1790805445,
      1790805467,
      1790805505,
      1790805527,
      1790805565,
      1790805587,
      1790805625,
      1790805647,
      1790805685,
      1790805707,
      1790805745,
      1790805767,
      1790805805,
      1790805831,
      1790805865,
      1790805888,
      1790805925,
      1790805948,
      1790805986,
      1790806008,
      1790806046,
      1790806068,
      1790806106,
      1790806129,
      1790806166,
      1790806189,
      1790806226,
      1790806249,
      1790806286,
      1790806309,
      1790806346,
      1790806369,
      1790806406,
      1790806429,
      1790806457,
      1790806466,
      1790806489,
      1790806518,
      1790806526,
      1790806549,
      1790806578,
      1790806586,
      1790806609,
      1790806638,
      1790806647,
      1790806669,
      1790806698,
      1790806707,
      1790806730,
      1790806758,
      1790806767,
      1790806790,
      1790806818,
      1790806827,
      1790806850,
      1790806878,
      1790806887,
      1790806910,
      1790806938,
      1790806947,
      1790806970,
      1790806998,
      1790807007,
      1790807030,
      1790807059,
      1790807067,
      1790807090,
      1790807127,
      1790807150,
      1790807179,
      1790807187,
      1790807210,
      1790807239,
      1790807270,
      1790807299,
      1790807331,
      1790807368,
      1790807391,
      1790807419,
      1790807428,
      1790807451,
      1790807479,
      1790807488,
      1790807511,
      1790807539,
      1790807548,
      1790807571,
      1790807599,
      1790807608,
      1790807631,
      1790807660,
      1790807668,
      1790807691,
      1790807720,
      1790807751,
      1790807780,
      1790807811,
      1790807840,
      1790807871,
      1790807899,
      1790807942,
      1790807960,
      1790808001,
      1790808020,
      1790808056,
      1790808080,
      1790808112,
      1790808140,
      1790808172,
      1790808182,
      1790808200,
      1790808232,
      1790808242,
      1790808261,
      1790808292,
      1790808302,
      1790808321,
      1790808352,
      1790808362,
      1790808381,
      1790808422,
      1790808441,
      1790808482,
      1790808501,
      1790808542,
      1790808561,
      1790808621,
      1790808662,
      1790808681,
      1790808722,
      1790808741,
      1790808782,
      1790808802,
      1790808862,
      1790808903,
      1790808922,
      1790808982
    ],
    "wof:geomhash": "8c8af0d0b23bf703a66cb935720b29e6",
    "wof:id": 2048480317,
    "wof:repo": "sfomuseum-data-flights-2026-09"
  },
  "bbox": [
    -122.36666666666666,
    37.63333333333333,
    -77.46666666666667,
    42.23527777777778
  ],
  "geometry": {"type":"LineString","coordinates":[[-122.36666666666666,37.63333333333333],[-122.31027777777777,37.66833333333333],[-122.28333333333333,37.68333333333333],[-122.24583333333334,37.700833333333335],[-122.21666666666667,37.71666666666667],[-122.1825,37.75388888888889],[-122.15,37.78333333333333],[-122.125,37.816944444444445],[-122.06027777777777,37.88611111111111],[-121.965,37.94972222222222],[-121.86694444444444,38.01611111111111],[-121.7611111111111,38.086666666666666],[-121.65944444444445,38.15611111111111],[-121.55083333333333,38.228611111111114],[-121.43944444444445,38.30277777777778],[-121.32583333333334,38.37638888888889],[-121.20666666666666,38.44916666666666],[-121.08555555555554,38.52388888888889],[-120.93444444444445,38.61694444444444],[-120.80277777777778,38.69777777777777],[-120.6863888888889,38.76583333333333],[-120.55583333333333,38.846944444444446],[-120.42500000000001,38.92611111111111],[-120.29166666666667,39.004444444444445],[-120.14611111111111,39.094722222222224],[-120.03027777777778,39.161944444444444],[-119.9,39.23861111111111],[-119.76916666666666,39.31888888888889],[-119.64194444444445,39.394444444444446],[-119.51027777777777,39.47166666666667],[-119.37777777777777,39.54861111111111],[-119.24444444444444,39.626666666666665],[-119.10972222222222,39.70472222222222],[-118.97555555555556,39.782222222222224],[-118.84138888888889,39.85944444444445],[-118.69333333333334,39.927499999999995],[-118.53916666666666,39.98972222222222],[-118.38722222222223,40.051111111111105],[-118.24,40.11027777777778],[-118.09083333333332,40.17027777777778],[-117.93555555555555,40.224722222222226],[-117.77527777777777,40.2725],[-117.61694444444444,40.31944444444445],[-117.45861111111111,40.36638888888889],[-117.29666666666667,40.41416666666667],[-117.13555555555556,40.461666666666666],[-116.96972222222223,40.50972222222222],[-116.80277777777778,40.558055555555555],[-116.64055555555557,40.60444444444445],[-116.4725,40.652499999999996],[-116.31416666666667,40.697222222222216],[-116.15083333333334,40.74333333333333],[-115.98944444444444,40.788333333333334],[-115.82388888888889,40.83444444444444],[-115.66111111111111,40.879444444444445],[-115.49888888888889,40.92388888888889],[-115.33527777777778,40.968611111111116],[-115.16777777777779,41.01416666666667],[-115.0038888888889,41.058055555555555],[-114.84027777777777,41.10194444444445],[-114.70055555555555,41.138888888888886],[-114.53583333333333,41.1825],[-114.37333333333332,41.225],[-114.20944444444444,41.26777777777777],[-113.88277777777778,41.352222222222224],[-113.71583333333334,41.37972222222222],[-113.54277777777777,41.40138888888889],[-113.37388888888889,41.4225],[-113.2025,41.44416666666666],[-112.85888888888888,41.48638888888889],[-112.5175,41.52722222222222],[-112.34444444444443,41.54611111111111],[-112.16944444444445,41.56444444444444],[-111.99722222222222,41.58222222222223],[-111.82444444444444,41.599722222222226],[-111.65222222222222,41.61694444444444],[-111.47916666666667,41.634166666666665],[-111.30611111111111,41.651111111111106],[-111.13472222222222,41.66722222222222],[-110.96583333333334,41.683055555555555],[-110.79388888888889,41.69916666666666],[-110.62444444444444,41.714444444444446],[-110.45666666666666,41.72944444444445],[-110.28833333333333,41.744166666666665],[-110.12194444444444,41.75861111111111],[-109.95444444444445,41.77305555555555],[-109.78694444444444,41.786944444444444],[-109.61944444444444,41.800555555555555],[-109.59444444444443,41.80277777777778],[-109.45527777777778,41.81388888888888],[-109.42750000000001,41.816111111111105],[-109.28694444444444,41.827222222222225],[-109.09555555555555,41.841944444444444],[-108.95722222222223,41.8525],[-108.93166666666667,41.85444444444445],[-108.79166666666667,41.86472222222223],[-108.73055555555555,41.86944444444445],[-108.6236111111111,41.87722222222222],[-108.56388888888888,41.88138888888889],[-108.4575,41.88916666666667],[-108.39666666666668,41.89333333333333],[-108.28944444444444,41.90083333333333],[-108.22805555555556,41.905],[-108.11972222222222,41.9125],[-108.06027777777777,41.916666666666664],[-107.95666666666666,41.92333333333333],[-107.88972222222223,41.92777777777778],[-107.78583333333333,41.93472222222222],[-107.7175,41.939166666666665],[-107.60305555555556,41.94638888888888],[-107.53833333333333,41.95055555555556],[-107.42666666666668,41.9575],[-107.36,41.961666666666666],[-107.25138888888888,41.96805555555556],[-107.21861111111112,41.97],[-107.0775,41.97833333333333],[-107.01,41.9825],[-106.90555555555557,41.98833333333334],[-106.83472222222221,41.9925],[-106.73055555555555,41.998333333333335],[-106.66250000000001,42.00194444444445],[-106.55638888888889,42.00805555555556],[-106.48972222222223,42.01138888888889],[-106.38611111111112,42.01694444444444],[-106.31694444444445,42.02055555555555],[-106.21444444444445,42.02583333333333],[-106.14722222222223,42.02916666666667],[-106.0475,42.034166666666664],[-105.98027777777779,42.0375],[-105.88083333333333,42.0425],[-105.81583333333333,42.04555555555555],[-105.65027777777779,42.05333333333333],[-105.48472222222222,42.06083333333333],[-105.32166666666666,42.06805555555556],[-105.15583333333333,42.075],[-104.99305555555556,42.08361111111111],[-104.82472222222222,42.092222222222226],[-104.65694444444445,42.10055555555556],[-104.48916666666666,42.10861111111111],[-104.31944444444444,42.11638888888889],[-104.14861111111112,42.12388888888889],[-103.97611111111111,42.13138888888889],[-103.80611111111111,42.13861111111111],[-103.63333333333334,42.14555555555555],[-103.46388888888889,42.15222222222222],[-103.2936111111111,42.15861111111111],[-103.12166666666666,42.164722222222224],[-102.98361111111112,42.169444444444444],[-102.7775,42.17638888888889],[-102.63694444444445,42.17777777777778],[-102.46138888888889,42.18194444444444],[-102.39333333333335,42.18805555555555],[-102.28444444444445,42.189722222222215],[-102.21611111111112,42.19305555555555],[-102.10777777777777,42.19416666666666],[-102.0261111111111,42.198055555555555],[-101.92972222222222,42.2],[-101.84888888888888,42.2025],[-101.75138888888888,42.20416666666667],[-101.67194444444445,42.20638888888889],[-101.57444444444444,42.20861111111111],[-101.49138888888889,42.21055555555556],[-101.39611111111111,42.21194444444445],[-101.31555555555555,42.21388888888889],[-101.18166666666667,42.21611111111111],[-101.13555555555556,42.217222222222226],[-101.00222222222222,42.219166666666666],[-100.955,42.22027777777778],[-100.8236111111111,42.22166666666667],[-100.77527777777777,42.223055555555554],[-100.64611111111111,42.224722222222226],[-100.59666666666666,42.22555555555556],[-100.46666666666667,42.227222222222224],[-100.41638888888889,42.22777777777778],[-100.28361111111111,42.22916666666667],[-100.2388888888889,42.22972222222222],[-100.1,42.23111111111111],[-100.05916666666667,42.231388888888894],[-99.91805555555555,42.2325],[-99.87694444444443,42.23277777777778],[-99.74055555555556,42.23361111111111],[-99.69611111111111,42.23388888888889],[-99.55527777777777,42.23444444444444],[-99.52055555555556,42.234722222222224],[-99.3761111111111,42.235],[-99.33944444444444,42.23527777777778],[-99.19416666666667,42.23527777777778],[-99.15861111111111,42.235],[-98.97666666666667,42.23166666666667],[-98.86416666666666,42.22972222222222],[-98.7936111111111,42.22833333333333],[-98.64805555555556,42.225833333333334],[-98.6125,42.225],[-98.5,42.223055555555554],[-98.43222222222222,42.22166666666667],[-98.285,42.218333333333334],[-97.95527777777778,42.21055555555556],[-97.75472222222223,42.20527777777778],[-97.56138888888889,42.19972222222222],[-97.36888888888888,42.19416666666666],[-97.17583333333334,42.18805555555555],[-96.98277777777778,42.181666666666665],[-96.78722222222223,42.175],[-96.59527777777777,42.168055555555554],[-96.40055555555556,42.160555555555554],[-96.01583333333333,42.144999999999996],[-95.8261111111111,42.136944444444445],[-95.44666666666667,42.11944444444445],[-95.1738888888889,42.098333333333336],[-95.0736111111111,42.088055555555556],[-94.99083333333333,42.07777777777778],[-94.89,42.07],[-94.80833333333334,42.06055555555555],[-94.70527777777778,42.051944444444445],[-94.62638888888888,42.04416666666666],[-94.51972222222223,42.03361111111111],[-94.44194444444445,42.02583333333333],[-94.33611111111111,42.015],[-94.25833333333334,42.00694444444444],[-94.15361111111112,41.99611111111111],[-94.07472222222222,41.98777777777778],[-93.96666666666667,41.97638888888889],[-93.88916666666667,41.96805555555556],[-93.77444444444444,41.95583333333334],[-93.70027777777779,41.94777777777777],[-93.57805555555555,41.93444444444444],[-93.51333333333334,41.92722222222222],[-93.42666666666668,41.9175],[-93.32416666666666,41.90611111111111],[-93.23805555555556,41.896388888888886],[-93.1375,41.885],[-93.04666666666667,41.874722222222225],[-92.94638888888889,41.863055555555555],[-92.85888888888888,41.85305555555556],[-92.76,41.84138888888889],[-92.64611111111111,41.82805555555556],[-92.57111111111111,41.81916666666667],[-92.45666666666666,41.80555555555555],[-92.38138888888888,41.796388888888885],[-92.26888888888888,41.782777777777774],[-92.19611111111111,41.77388888888889],[-92.08027777777778,41.75972222222222],[-92.005,41.750277777777775],[-91.81888888888888,41.72694444444445],[-91.70472222222223,41.712500000000006],[-91.62944444444443,41.70277777777778],[-91.51777777777778,41.68805555555555],[-91.44250000000001,41.67861111111111],[-91.33027777777778,41.66305555555555],[-91.25694444444444,41.65416666666667],[-91.14333333333335,41.638333333333335],[-91.07055555555556,41.62916666666667],[-90.95666666666666,41.613055555555555],[-90.88222222222221,41.60388888888889],[-90.77027777777778,41.588055555555556],[-90.5,41.55138888888889],[-90.385,41.53472222222222],[-90.31416666666667,41.525277777777774],[-90.1975,41.507777777777775],[-90.12444444444444,41.498333333333335],[-90.01166666666667,41.48222222222223],[-89.93527777777778,41.471111111111114],[-89.8236111111111,41.455000000000005],[-89.74777777777778,41.443888888888885],[-89.63611111111112,41.426944444444445],[-89.56055555555555,41.41638888888889],[-89.44972222222222,41.39944444444444],[-89.37166666666666,41.388333333333335],[-89.26277777777777,41.37166666666667],[-89.18222222222222,41.359722222222224],[-89.07472222222222,41.343333333333334],[-88.99694444444445,41.331388888888895],[-88.8875,41.31444444444444],[-88.81194444444444,41.30277777777778],[-88.70138888888889,41.28472222222222],[-88.62416666666665,41.27361111111111],[-88.51388888888889,41.255],[-88.4375,41.24388888888889],[-88.28972222222222,41.22027777777778],[-88.25111111111111,41.21416666666667],[-88.1061111111111,41.19083333333333],[-88.06583333333333,41.18444444444444],[-87.92194444444445,41.16083333333333],[-87.88305555555554,41.154444444444444],[-87.73972222222223,41.130833333333335],[-87.66083333333334,41.11805555555556],[-87.47722222222222,41.08722222222222],[-87.11138888888888,41.025277777777774],[-87.00055555555555,41.00611111111111],[-86.92722222222223,40.99333333333333],[-86.82166666666666,40.97527777777778],[-86.74527777777777,40.961666666666666],[-86.63861111111112,40.94305555555555],[-86.57805555555555,40.9325],[-86.4725,40.91361111111111],[-86.39861111111112,40.900555555555556],[-86.29222222222222,40.88166666666667],[-86.22194444444445,40.869166666666665],[-86.11444444444444,40.849722222222226],[-86.04277777777777,40.836666666666666],[-85.94055555555556,40.81805555555556],[-85.87083333333332,40.805277777777775],[-85.77083333333333,40.786944444444444],[-85.69055555555556,40.77222222222222],[-85.56833333333333,40.74944444444444],[-85.5175,40.74],[-85.39416666666668,40.716944444444444],[-85.34305555555555,40.70722222222223],[-85.21527777777779,40.683055555555555],[-85.16916666666667,40.67444444444444],[-85.03916666666666,40.64944444444444],[-84.96777777777778,40.63583333333333],[-84.88555555555556,40.62],[-84.79388888888889,40.602222222222224],[-84.70722222222223,40.58555555555556],[-84.61777777777777,40.56805555555556],[-84.53083333333333,40.551111111111105],[-84.46194444444444,40.5375],[-84.3536111111111,40.51611111111111],[-84.2911111111111,40.50361111111111],[-84.17805555555556,40.48111111111111],[-84.10722222222222,40.466944444444444],[-84.00194444444445,40.44583333333333],[-83.93194444444445,40.431666666666665],[-83.79805555555555,40.404444444444444],[-83.76555555555555,40.39805555555556],[-83.62277777777777,40.368611111111115],[-83.58,40.36],[-83.44916666666667,40.33277777777778],[-83.40416666666667,40.32361111111111],[-83.2761111111111,40.29694444444444],[-83.22972222222222,40.28722222222222],[-83.10027777777778,40.26],[-83.05444444444444,40.25055555555556],[-82.9263888888889,40.223333333333336],[-82.87888888888888,40.21333333333334],[-82.765,40.18888888888888],[-82.70583333333333,40.17638888888889],[-82.68083333333334,40.16916666666666],[-82.59166666666667,40.151944444444446],[-82.53222222222222,40.13916666666667],[-82.44027777777778,40.12027777777778],[-82.4175,40.115833333333335],[-82.35694444444444,40.103611111111114],[-82.26583333333333,40.084722222222226],[-82.2461111111111,40.08083333333334],[-82.18305555555555,40.0675],[-82.09277777777777,40.04805555555556],[-82.07166666666666,40.04416666666666],[-82.01138888888889,40.031666666666666],[-81.92222222222223,40.0125],[-81.89916666666667,40.00805555555556],[-81.83805555555556,39.995],[-81.75027777777778,39.976111111111116],[-81.74888888888889,39.976111111111116],[-81.66777777777779,39.95888888888889],[-81.57944444444443,39.939722222222215],[-81.56444444444445,39.93666666666666],[-81.49694444444445,39.92222222222222],[-81.40916666666668,39.90333333333333],[-81.39222222222223,39.89972222222222],[-81.3411111111111,39.88861111111111],[-81.24277777777777,39.86833333333333],[-81.21916666666667,39.86388888888889],[-81.16972222222223,39.85416666666667],[-81.07,39.83416666666667],[-81.05,39.83027777777778],[-80.96583333333334,39.81305555555555],[-80.89833333333334,39.799166666666665],[-80.87777777777777,39.794999999999995],[-80.7925,39.777499999999996],[-80.705,39.75944444444445],[-80.625,39.74277777777778],[-80.5611111111111,39.72944444444445],[-80.53666666666666,39.724444444444444],[-80.45694444444445,39.70777777777778],[-80.39055555555557,39.693888888888885],[-80.28861111111111,39.6725],[-80.2213888888889,39.65833333333333],[-80.12083333333332,39.636944444444445],[-80.03083333333333,39.61805555555556],[-79.9588888888889,39.6025],[-79.89416666666668,39.58861111111111],[-79.86749999999999,39.58305555555556],[-79.79472222222222,39.56722222222223],[-79.73166666666667,39.55361111111111],[-79.70055555555555,39.54694444444444],[-79.62805555555555,39.53138888888889],[-79.56555555555555,39.51777777777777],[-79.53388888888888,39.51083333333333],[-79.46388888888889,39.495555555555555],[-79.39833333333334,39.48111111111111],[-79.35416666666666,39.47166666666667],[-79.30166666666666,39.46],[-79.2388888888889,39.44611111111111],[-79.19305555555556,39.436388888888885],[-79.14472222222223,39.426944444444445],[-79.06916666666666,39.41361111111111],[-78.97777777777777,39.3975],[-78.90055555555556,39.38388888888889],[-78.82,39.36972222222222],[-78.75194444444445,39.35722222222223],[-78.6763888888889,39.343611111111116],[-78.6,39.333333333333336],[-78.5,39.31666666666667],[-78.47722222222222,39.3075],[-78.38333333333334,39.28333333333333],[-78.3586111111111,39.280833333333334],[-78.28333333333333,39.25],[-78.26166666666667,39.23222222222223],[-78.20972222222223,39.20444444444445],[-78.16888888888889,39.18277777777777],[-78.12027777777777,39.15694444444444],[-78.1,39.15],[-78.07111111111111,39.13138888888889],[-78.03277777777778,39.111111111111114],[-78,39.1],[-77.9825,39.08444444444444],[-77.93861111111111,39.06111111111111],[-77.91666666666667,39.05],[-77.89472222222223,39.03777777777778],[-77.85249999999999,39.015277777777776],[-77.83333333333333,39],[-77.80916666666667,38.992222222222225],[-77.75,38.96666666666667],[-77.7175,38.96138888888889],[-77.63333333333334,38.95],[-77.61722222222221,38.96277777777778],[-77.58333333333333,39.016666666666666],[-77.56944444444444,39.02638888888889],[-77.5761111111111,39.08833333333334],[-77.56666666666666,39.13333333333333],[-77.56083333333333,39.13666666666666],[-77.5,39.13333333333333],[-77.49722222222222,39.11361111111111],[-77.48333333333333,39.083333333333336],[-77.47694444444444,39.06222222222222],[-77.47361111111111,39.02777777777778],[-77.46666666666667,38.983333333333334],[-77.47416666666666,38.98222222222223],[-77.47472222222223,38.948055555555555]]}
}
