{
  "id": 2048221027,
  "type": "Feature",
  "properties": {
    "geom:area": 0,
    "geom:bbox": "-122.360850,37.492010,-121.263040,37.614240",
    "geom:latitude": 37.54255946838043,
    "geom:longitude": -121.8188340754041,
    "src:alt_label": "swim-approach",
    "src:geom": "swim",
    "swim:elevations": [
      4747,
      4295,
      3926,
      3882,
      3714,
      3536,
      3385,
      3219,
      3109,
      2871,
      2706,
      2533,
      2435,
      2426,
      2277,
      2134,
      2102,
      1847,
      1831,
      1555,
      1384,
      1273,
      1093,
      1003,
      901,
      730,
      578,
      438,
      391,
      333,
      214,
      94,
      0
    ],
    "swim:geom": "approach",
    "swim:timestamps": [
      1788270676,
      1788270727,
      1788270774,
      1788270780,
      1788270799,
      1788270822,
      1788270856,
      1788270879,
      1788270891,
      1788270920,
      1788270941,
      1788270965,
      1788270994,
      1788271032,
      1788271057,
      1788271101,
      1788271114,
      1788271165,
      1788271170,
      1788271220,
      1788271248,
      1788271263,
      1788271297,
      1788271325,
      1788271374,
      1788271405,
      1788271436,
      1788271465,
      1788271477,
      1788271491,
      1788271524,
      1788271556,
      1788271586
    ],
    "wof:geomhash": "eaa6c684775932513a062fedaa999d37",
    "wof:id": 2048221027,
    "wof:repo": "sfomuseum-data-flights-2026-09"
  },
  "bbox": [
    -122.36085,
    37.49201,
    -121.26304,
    37.61424
  ],
  "geometry": {"type":"LineString","coordinates":[[-121.26304,37.59271],[-121.34835,37.5829],[-121.4281,37.57372],[-121.43731,37.57259],[-121.46922,37.56899],[-121.50687,37.56456],[-121.56154,37.55833],[-121.59461,37.55444],[-121.61221,37.55238],[-121.65375,37.54388],[-121.68347,37.53662],[-121.71822,37.52832],[-121.7577,37.51884],[-121.80863,37.50672],[-121.84051,37.49918],[-121.89574,37.49201],[-121.91388,37.49292],[-121.9771,37.49664],[-121.98276,37.49694],[-122.03958,37.50037],[-122.06984,37.50212],[-122.08542,37.5031],[-122.11891,37.51335],[-122.14508,37.52428],[-122.19155,37.54381],[-122.22143,37.55646],[-122.25046,37.56866],[-122.27587,37.57935],[-122.28471,37.58316],[-122.29489,37.58738],[-122.31795,37.59719],[-122.34037,37.60659],[-122.36085,37.61424]]}
}
