{
  "id": 2048292799,
  "type": "Feature",
  "properties": {
    "geom:area": 0,
    "geom:bbox": "-122.351860,37.492000,-121.242680,37.611220",
    "geom:latitude": 37.57360954003626,
    "geom:longitude": -121.74745053165843,
    "src:alt_label": "swim-approach",
    "src:geom": "swim",
    "swim:elevations": [
      5785,
      5536,
      5431,
      5191,
      4937,
      4691,
      4390,
      4189,
      3667,
      3481,
      3097,
      2899,
      2659,
      2380,
      2105,
      1845,
      1768,
      1479,
      1282,
      969,
      741,
      559,
      375,
      320,
      201,
      58,
      4858,
      4493,
      4232,
      3884,
      3749,
      3261,
      3192,
      3138,
      2896
    ],
    "swim:geom": "approach",
    "swim:timestamps": [
      1788937227,
      1788937253,
      1788937266,
      1788937297,
      1788937334,
      1788937365,
      1788937399,
      1788937416,
      1788937468,
      1788937486,
      1788937528,
      1788937548,
      1788937573,
      1788937602,
      1788937631,
      1788937668,
      1788937688,
      1788937732,
      1788937751,
      1788937781,
      1788937818,
      1788937848,
      1788937887,
      1788937902,
      1788937928,
      1788937964,
      1789023350,
      1789023384,
      1789023408,
      1789023442,
      1789023457,
      1789023505,
      1789023525,
      1789023547,
      1789023583
    ],
    "wof:geomhash": "69715793cc728e5972c5092fd3ebc16d",
    "wof:id": 2048292799,
    "wof:repo": "sfomuseum-data-flights-2026-09"
  },
  "bbox": [
    -122.35186,
    37.492,
    -121.24268,
    37.61122
  ],
  "geometry": {"type":"LineString","coordinates":[[-121.2609,37.59302],[-121.30944,37.58733],[-121.33483,37.58458],[-121.39323,37.57778],[-121.4628,37.5697],[-121.51734,37.56333],[-121.57811,37.55617],[-121.60992,37.55243],[-121.69889,37.53317],[-121.72894,37.52595],[-121.79912,37.50915],[-121.83132,37.50141],[-121.87275,37.49245],[-121.92073,37.492],[-121.96892,37.49333],[-122.02594,37.50709],[-122.05493,37.51642],[-122.11026,37.53439],[-122.13447,37.54212],[-122.17238,37.55438],[-122.21661,37.56874],[-122.25015,37.57976],[-122.28802,37.59077],[-122.30099,37.59482],[-122.3224,37.60114],[-122.35186,37.61122],[-121.24268,37.59552],[-121.31217,37.58671],[-121.36078,37.58143],[-121.42777,37.57397],[-121.45639,37.57067],[-121.54916,37.55962],[-121.5875,37.5552],[-121.62641,37.55025],[-121.68402,37.53669]]}
}
