{
  "id": 2048255119,
  "type": "Feature",
  "properties": {
    "date:inception_lower": "2026-09-04",
    "date:inception_upper": "2026-09-04",
    "edtf:cessation": "",
    "edtf:inception": "2026-09-04",
    "flysfo:actual_timestamp": -1,
    "flysfo:airline": "UA",
    "flysfo:base_airline": "",
    "flysfo:base_flight_number": "4186",
    "flysfo:date": "2026-09-04",
    "flysfo:estimated_timestamp": 1788574560,
    "flysfo:event": "D",
    "flysfo:flight_number": "UA589",
    "flysfo:gate": "E7",
    "flysfo:journey": "SFO-SNA",
    "flysfo:scheduled_timestamp": 1788574200,
    "flysfo:timestamp": 1788574560,
    "geom:area": 0,
    "geom:bbox": "-122.370943,33.677724,-117.866280,37.617990",
    "geom:latitude": 35.647857,
    "geom:longitude": -120.1186115,
    "iata:airline": "UA",
    "iata:base_airline": "",
    "icao:airline": "UAL",
    "icao:base_airline": "ACA",
    "lbl:latitude": 37.618874,
    "lbl:longitude": -122.38419,
    "sfomuseum:airline_id": 1159285413,
    "sfomuseum:arrival_id": 102534161,
    "sfomuseum:base_flight_id": "20260904-D-ACA-4186",
    "sfomuseum:departure_id": 102527513,
    "sfomuseum:flight_id": "20260904-D-UAL-589",
    "sfomuseum:flight_number": [
      "UAL589",
      "UA589"
    ],
    "sfomuseum:placetype": "flight",
    "src:geom": "flysfo",
    "wof:belongsto": [
      1947304067,
      102527513,
      1947304511,
      102191575,
      85633793,
      102087579,
      85922583,
      554784711,
      85688637,
      1947304529,
      1947304447,
      102085387
    ],
    "wof:country": "US",
    "wof:created": 1788625014,
    "wof:geomhash": "b700d5ae3794da4176af6b85f6cd6669",
    "wof:hierarchy": [
      {
        "building_id": 1947304067,
        "campus_id": 102527513,
        "concourse_id": 1947304511,
        "continent_id": 102191575,
        "country_id": 85633793,
        "county_id": 102087579,
        "custom_id": 2048255119,
        "flight_id": 2048255119,
        "locality_id": 85922583,
        "postalcode_id": 554784711,
        "region_id": 85688637,
        "venue_id": 1947304529,
        "wing_id": 1947304447
      },
      {
        "building_id": 1947304067,
        "campus_id": 102527513,
        "concourse_id": 1947304511,
        "continent_id": 102191575,
        "country_id": 85633793,
        "county_id": 102085387,
        "custom_id": 2048255119,
        "flight_id": 2048255119,
        "region_id": 85688637,
        "venue_id": 1947304529,
        "wing_id": 1947304447
      }
    ],
    "wof:id": 2048255119,
    "wof:involves": [
      102534161,
      102527513,
      1159285413,
      1947304529,
      1159283597
    ],
    "wof:lastmodified": 1788625014,
    "wof:name": "UA589 (SFO-SNA)",
    "wof:parent_id": 1947304529,
    "wof:placetype": "custom",
    "wof:placetype_alt": [
      "flight"
    ],
    "wof:repo": "sfomuseum-data-flights-2026-09",
    "wof:superseded_by": [],
    "wof:supersedes": []
  },
  "bbox": [
    -122.370943,
    33.677724,
    -117.86628,
    37.61799
  ],
  "geometry": {"type":"MultiPoint","coordinates":[[-122.370943,37.61799],[-117.86628,33.677724]]}
}
