{
  "id": 2048262735,
  "type": "Feature",
  "properties": {
    "geom:area": 0,
    "geom:bbox": "-122.404610,37.625750,-121.265730,38.136000",
    "geom:latitude": 37.922394654259286,
    "geom:longitude": -121.87760946750016,
    "src:alt_label": "swim-takeoff",
    "src:geom": "swim",
    "swim:elevations": [
      122,
      354,
      938,
      1271,
      1363,
      1654,
      2272,
      2406,
      2787,
      3204,
      3424,
      3655,
      3963,
      4401,
      4978,
      5230,
      5484,
      5960,
      6323,
      6655,
      6826,
      7213,
      7483,
      7666,
      7818
    ],
    "swim:geom": "takeoff",
    "swim:timestamps": [
      1788598434,
      1788598450,
      1788598495,
      1788598525,
      1788598537,
      1788598569,
      1788598617,
      1788598643,
      1788598675,
      1788598704,
      1788598725,
      1788598750,
      1788598783,
      1788598817,
      1788598857,
      1788598881,
      1788598908,
      1788598947,
      1788598975,
      1788599006,
      1788599024,
      1788599064,
      1788599094,
      1788599116,
      1788599135
    ],
    "wof:geomhash": "716fb9834d30c0df27f40635862551e7",
    "wof:id": 2048262735,
    "wof:repo": "sfomuseum-data-flights-2026-09"
  },
  "bbox": [
    -122.40461,
    37.62575,
    -121.26573,
    38.136
  ],
  "geometry": {"type":"LineString","coordinates":[[-122.39178,37.62575],[-122.40461,37.63303],[-122.38485,37.66096],[-122.35505,37.67108],[-122.34035,37.67612],[-122.29836,37.69008],[-122.24326,37.72906],[-122.2384,37.76491],[-122.23425,37.8077],[-122.21322,37.8423],[-122.17956,37.85432],[-122.13357,37.86681],[-122.06923,37.88707],[-121.99802,37.90943],[-121.9143,37.93552],[-121.86279,37.95157],[-121.80392,37.96998],[-121.71631,37.99734],[-121.65132,38.01752],[-121.57804,38.04019],[-121.53559,38.05332],[-121.43983,38.08268],[-121.36571,38.10539],[-121.31289,38.12143],[-121.26573,38.136]]}
}
