{
  "id": 2048410857,
  "type": "Feature",
  "properties": {
    "geom:area": 0,
    "geom:bbox": "-122.340278,33.918889,-118.449722,37.603889",
    "geom:latitude": 35.54050497680947,
    "geom:longitude": -120.64991933940975,
    "src:alt_label": "swim-path",
    "src:geom": "swim",
    "swim:altitudes": [
      "014",
      "026",
      "042",
      "062",
      "093",
      "113",
      "131",
      "153",
      "175",
      "199",
      "221",
      "240",
      "255",
      "271",
      "284",
      "302",
      "319",
      "334",
      "340C",
      "340C",
      "340C",
      "340C",
      "340C",
      "340C",
      "340C",
      "340",
      "340",
      "340",
      "340",
      "330",
      "306",
      "285",
      "264",
      "253",
      "243",
      "230",
      "223",
      "209",
      "202",
      "190",
      "177",
      "169",
      "156",
      "149",
      "140",
      "137",
      "124",
      "117",
      "111",
      "102",
      "095",
      "089",
      "084",
      "080",
      "080",
      "076",
      "071",
      "066",
      "061",
      "055",
      "051",
      "041",
      "035",
      "031",
      "025",
      "022",
      "018",
      "011",
      "008",
      "004"
    ],
    "swim:geom": "path",
    "swim:speeds": [
      156,
      213,
      258,
      291,
      302,
      339,
      371,
      391,
      404,
      412,
      413,
      425,
      442,
      452,
      459,
      461,
      460,
      458,
      457,
      457,
      456,
      455,
      454,
      453,
      452,
      451,
      451,
      451,
      452,
      452,
      446,
      432,
      419,
      410,
      407,
      394,
      396,
      384,
      385,
      375,
      372,
      364,
      363,
      342,
      325,
      308,
      283,
      268,
      255,
      257,
      249,
      251,
      249,
      250,
      240,
      244,
      244,
      244,
      239,
      234,
      218,
      198,
      195,
      175,
      171,
      153,
      156,
      148,
      139,
      139
    ],
    "swim:timestamps": [
      1790201353,
      1790201413,
      1790201474,
      1790201534,
      1790201594,
      1790201654,
      1790201714,
      1790201774,
      1790201834,
      1790201894,
      1790201954,
      1790202014,
      1790202074,
      1790202135,
      1790202195,
      1790202255,
      1790202315,
      1790202375,
      1790202435,
      1790202495,
      1790202555,
      1790202615,
      1790202675,
      1790202736,
      1790202796,
      1790202856,
      1790202916,
      1790202976,
      1790203039,
      1790203099,
      1790203160,
      1790203220,
      1790203280,
      1790203311,
      1790203340,
      1790203377,
      1790203400,
      1790203437,
      1790203460,
      1790203491,
      1790203532,
      1790203552,
      1790203592,
      1790203617,
      1790203652,
      1790203671,
      1790203731,
      1790203772,
      1790203792,
      1790203833,
      1790203857,
      1790203893,
      1790203918,
      1790203953,
      1790203977,
      1790204013,
      1790204037,
      1790204073,
      1790204098,
      1790204133,
      1790204157,
      1790204217,
      1790204253,
      1790204277,
      1790204313,
      1790204332,
      1790204373,
      1790204433,
      1790204452,
      1790204494
    ],
    "wof:geomhash": "ad71fd1853a3300f1da1b6a36c6f2469",
    "wof:id": 2048410857,
    "wof:repo": "sfomuseum-data-flights-2026-09"
  },
  "bbox": [
    -122.34027777777777,
    33.91888888888889,
    -118.44972222222222,
    37.60388888888889
  ],
  "geometry": {"type":"LineString","coordinates":[[-118.44972222222222,33.94499999999999],[-118.51388888888889,33.94222222222222],[-118.59583333333333,33.93694444444444],[-118.68944444444445,33.927499999999995],[-118.81138888888889,33.91888888888889],[-118.91972222222223,33.919444444444444],[-119.03055555555555,33.952222222222225],[-119.11888888888888,34.030833333333334],[-119.21194444444444,34.11194444444445],[-119.3086111111111,34.19611111111111],[-119.40361111111112,34.27916666666667],[-119.50333333333333,34.365833333333335],[-119.60499999999999,34.45388888888889],[-119.71166666666667,34.545833333333334],[-119.81722222222221,34.63638888888889],[-119.92583333333334,34.72972222222222],[-120.03305555555555,34.82138888888889],[-120.13611111111112,34.909166666666664],[-120.24194444444444,34.99888888888889],[-120.34916666666666,35.09],[-120.45444444444445,35.178888888888885],[-120.56194444444444,35.26972222222222],[-120.66944444444445,35.35944444444445],[-120.77527777777777,35.4475],[-120.87444444444444,35.54416666666666],[-120.96694444444445,35.64333333333333],[-121.05694444444444,35.74],[-121.15027777777779,35.84],[-121.26555555555555,35.96277777777778],[-121.36027777777777,36.06361111111111],[-121.44194444444445,36.16722222222222],[-121.52222222222223,36.269999999999996],[-121.59861111111111,36.3675],[-121.63333333333334,36.416666666666664],[-121.67333333333333,36.46277777777778],[-121.71666666666667,36.516666666666666],[-121.74638888888889,36.55472222222222],[-121.8,36.61666666666667],[-121.81861111111111,36.64611111111111],[-121.85,36.7],[-121.8963888888889,36.75416666666667],[-121.9,36.78333333333333],[-121.92527777777778,36.85194444444445],[-121.93333333333334,36.9],[-121.95083333333334,36.945277777777775],[-121.96666666666667,36.96666666666667],[-121.98333333333333,37.05],[-122.00972222222222,37.09638888888889],[-122.01666666666667,37.11666666666667],[-122.03583333333333,37.16361111111111],[-122.05,37.2],[-122.07583333333334,37.223888888888894],[-122.1,37.25],[-122.1363888888889,37.27305555555555],[-122.16666666666667,37.3],[-122.19444444444444,37.32194444444445],[-122.2,37.35],[-122.17,37.382777777777775],[-122.15,37.4],[-122.12555555555555,37.43694444444444],[-122.1,37.46666666666667],[-122.11666666666666,37.5],[-122.15166666666667,37.52444444444444],[-122.18333333333334,37.53333333333333],[-122.205,37.54722222222222],[-122.21666666666667,37.55],[-122.2525,37.56722222222223],[-122.29722222222222,37.58583333333333],[-122.31666666666666,37.6],[-122.34027777777777,37.60388888888889]]}
}
