{
  "id": 2048394523,
  "type": "Feature",
  "properties": {
    "geom:area": 0,
    "geom:bbox": "-122.359520,37.492300,-121.283340,37.614320",
    "geom:latitude": 37.5415218396419,
    "geom:longitude": -121.82834180810342,
    "src:alt_label": "swim-approach",
    "src:geom": "swim",
    "swim:elevations": [
      4168,
      3872,
      3584,
      3537,
      3361,
      3197,
      3040,
      2919,
      2810,
      2529,
      2382,
      2163,
      2029,
      1842,
      1714,
      1511,
      1240,
      1119,
      995,
      914,
      816,
      698,
      530,
      466,
      292,
      211,
      91,
      0
    ],
    "swim:geom": "approach",
    "swim:timestamps": [
      1790037168,
      1790037201,
      1790037232,
      1790037240,
      1790037273,
      1790037308,
      1790037353,
      1790037383,
      1790037402,
      1790037448,
      1790037477,
      1790037507,
      1790037531,
      1790037567,
      1790037585,
      1790037617,
      1790037657,
      1790037683,
      1790037711,
      1790037744,
      1790037771,
      1790037795,
      1790037832,
      1790037844,
      1790037892,
      1790037916,
      1790037945,
      1790037964
    ],
    "wof:geomhash": "3f0efd3b9a3273e354d820e12fdbba04",
    "wof:id": 2048394523,
    "wof:repo": "sfomuseum-data-flights-2026-09"
  },
  "bbox": [
    -122.35952,
    37.4923,
    -121.28334,
    37.61432
  ],
  "geometry": {"type":"LineString","coordinates":[[-121.28334,37.58996],[-121.35098,37.58237],[-121.41454,37.57537],[-121.43044,37.57355],[-121.49229,37.56642],[-121.55694,37.55883],[-121.63274,37.5485],[-121.68016,37.53774],[-121.71004,37.53057],[-121.77845,37.51406],[-121.82159,37.50374],[-121.86638,37.49359],[-121.90253,37.4923],[-121.95612,37.49525],[-121.98272,37.49699],[-122.03076,37.49992],[-122.0881,37.50358],[-122.12047,37.514],[-122.15172,37.52706],[-122.18404,37.54062],[-122.2088,37.5511],[-122.23146,37.56064],[-122.2649,37.57477],[-122.27477,37.5789],[-122.30824,37.59309],[-122.32486,37.59993],[-122.34552,37.60871],[-122.35952,37.61432]]}
}
