{
  "id": 2048441749,
  "type": "Feature",
  "properties": {
    "geom:area": 0,
    "geom:bbox": "-122.545556,33.950000,-118.167500,37.666667",
    "geom:latitude": 35.72306160311828,
    "geom:longitude": -120.33467339850192,
    "src:alt_label": "swim-path",
    "src:geom": "swim",
    "swim:altitudes": [
      "004",
      "014",
      "020",
      "032",
      "041",
      "057",
      "084",
      "105",
      "123",
      "129",
      "181",
      "186",
      "273",
      "289",
      "308",
      "323",
      "336",
      "353",
      "365",
      "370C",
      "370C",
      "370C",
      "370C",
      "370C",
      "370",
      "370",
      "370",
      "370",
      "370",
      "370",
      "370",
      "348",
      "321",
      "298",
      "280",
      "257",
      "242",
      "225",
      "197",
      "178",
      "165",
      "146",
      "129",
      "120",
      "106",
      "097",
      "085",
      "074",
      "064",
      "061",
      "054",
      "048",
      "036",
      "030",
      "030",
      "022",
      "014",
      "005",
      "001"
    ],
    "swim:geom": "path",
    "swim:speeds": [
      157,
      160,
      208,
      229,
      257,
      253,
      265,
      299,
      331,
      335,
      353,
      369,
      414,
      423,
      440,
      449,
      451,
      448,
      449,
      455,
      457,
      457,
      455,
      439,
      423,
      415,
      412,
      411,
      408,
      407,
      413,
      413,
      413,
      413,
      406,
      406,
      397,
      387,
      373,
      366,
      361,
      350,
      337,
      299,
      291,
      262,
      240,
      242,
      243,
      243,
      238,
      202,
      199,
      186,
      182,
      181,
      159,
      139,
      136
    ],
    "swim:timestamps": [
      1790469698,
      1790469731,
      1790469759,
      1790469792,
      1790469819,
      1790469852,
      1790469912,
      1790469972,
      1790470026,
      1790470032,
      1790470146,
      1790470152,
      1790470387,
      1790470447,
      1790470513,
      1790470573,
      1790470627,
      1790470693,
      1790470753,
      1790470933,
      1790471048,
      1790471108,
      1790471173,
      1790471228,
      1790471294,
      1790471354,
      1790471408,
      1790471414,
      1790471474,
      1790471534,
      1790471588,
      1790471649,
      1790471714,
      1790471774,
      1790471829,
      1790471894,
      1790471954,
      1790472009,
      1790472082,
      1790472137,
      1790472189,
      1790472249,
      1790472310,
      1790472370,
      1790472430,
      1790472490,
      1790472551,
      1790472612,
      1790472670,
      1790472677,
      1790472730,
      1790472790,
      1790472850,
      1790472911,
      1790472971,
      1790473031,
      1790473091,
      1790473158,
      1790473211
    ],
    "wof:geomhash": "13c6ba42a9c7ae72e2c551066b2bbb09",
    "wof:id": 2048441749,
    "wof:repo": "sfomuseum-data-flights-2026-09"
  },
  "bbox": [
    -122.54555555555555,
    33.95,
    -118.1675,
    37.666666666666664
  ],
  "geometry": {"type":"LineString","coordinates":[[-122.38333333333334,37.61666666666667],[-122.41333333333334,37.63472222222222],[-122.43333333333334,37.65],[-122.47916666666667,37.663333333333334],[-122.51666666666667,37.666666666666664],[-122.54555555555555,37.63777777777778],[-122.515,37.56916666666667],[-122.47555555555556,37.49583333333334],[-122.41583333333334,37.44361111111111],[-122.39361111111111,37.43055555555555],[-122.23722222222223,37.308055555555555],[-122.20916666666668,37.294444444444444],[-121.8286111111111,37.00666666666667],[-121.72,36.92527777777777],[-121.57888888888888,36.82416666666667],[-121.46361111111112,36.73722222222222],[-121.37888888888888,36.67055555555555],[-121.23805555555556,36.566111111111105],[-121.12527777777777,36.47972222222222],[-120.77194444444444,36.22972222222222],[-120.55972222222222,36.08027777777778],[-120.44194444444445,35.9975],[-120.29722222222222,35.89416666666666],[-120.22416666666666,35.81944444444445],[-120.14500000000001,35.71527777777778],[-120.07055555555556,35.61666666666667],[-119.99944444444445,35.52222222222222],[-119.99694444444445,35.51888888888889],[-119.92527777777778,35.42305555555555],[-119.85166666666666,35.32527777777778],[-119.77277777777778,35.23388888888889],[-119.68722222222223,35.14222222222222],[-119.59972222222221,35.047777777777775],[-119.5111111111111,34.95277777777778],[-119.43555555555555,34.869166666666665],[-119.35194444444444,34.775555555555556],[-119.27222222222223,34.68555555555555],[-119.20694444444445,34.61027777777778],[-119.1,34.483333333333334],[-119.03333333333333,34.416666666666664],[-118.98805555555556,34.359722222222224],[-118.91861111111112,34.282222222222224],[-118.84972222222221,34.20722222222223],[-118.78527777777778,34.141666666666666],[-118.72083333333333,34.08222222222223],[-118.65555555555557,34.030277777777776],[-118.55,34.016666666666666],[-118.48333333333333,34.016666666666666],[-118.41277777777778,34.01777777777777],[-118.38333333333334,34.016666666666666],[-118.33333333333333,34.02972222222222],[-118.26277777777777,34.036944444444444],[-118.19722222222222,34.04333333333333],[-118.1675,34.005833333333335],[-118.20805555555556,33.97222222222222],[-118.26666666666667,33.965833333333336],[-118.32277777777777,33.96],[-118.38333333333334,33.95],[-118.41416666666667,33.950833333333335]]}
}
