{
  "id": 2048395593,
  "type": "Feature",
  "properties": {
    "geom:area": 0,
    "geom:bbox": "-122.356280,37.480040,-121.260230,37.613240",
    "geom:latitude": 37.53539041254887,
    "geom:longitude": -121.81445530170663,
    "src:alt_label": "swim-approach",
    "src:geom": "swim",
    "swim:elevations": [
      4537,
      4184,
      4132,
      3877,
      3795,
      3563,
      3504,
      3384,
      3289,
      3171,
      2939,
      2874,
      2748,
      2489,
      2294,
      2131,
      2017,
      1930,
      1806,
      1557,
      1447,
      1397,
      1072,
      1008,
      902,
      652,
      589,
      413,
      367,
      242,
      78,
      8
    ],
    "swim:geom": "approach",
    "swim:timestamps": [
      1789991959,
      1789991994,
      1789992000,
      1789992026,
      1789992035,
      1789992072,
      1789992094,
      1789992137,
      1789992167,
      1789992192,
      1789992234,
      1789992248,
      1789992273,
      1789992310,
      1789992335,
      1789992363,
      1789992410,
      1789992430,
      1789992453,
      1789992502,
      1789992531,
      1789992540,
      1789992595,
      1789992609,
      1789992631,
      1789992685,
      1789992694,
      1789992736,
      1789992750,
      1789992784,
      1789992826,
      1789992842
    ],
    "wof:geomhash": "20682ef0f0d5726cd278de3036a5ca0c",
    "wof:id": 2048395593,
    "wof:repo": "sfomuseum-data-flights-2026-09"
  },
  "bbox": [
    -122.35628,
    37.48004,
    -121.26023,
    37.61324
  ],
  "geometry": {"type":"LineString","coordinates":[[-121.26023,37.59295],[-121.33145,37.58462],[-121.34424,37.58322],[-121.39589,37.5776],[-121.41421,37.57556],[-121.48564,37.56729],[-121.52583,37.56256],[-121.5994,37.55394],[-121.64494,37.54599],[-121.67531,37.52897],[-121.71679,37.49307],[-121.73739,37.48948],[-121.77412,37.48779],[-121.82711,37.48586],[-121.86263,37.48464],[-121.902,37.48347],[-121.96187,37.48169],[-121.98558,37.48086],[-122.01228,37.48004],[-122.06596,37.4906],[-122.09557,37.50305],[-122.10511,37.50725],[-122.15836,37.52984],[-122.17103,37.53521],[-122.19019,37.54328],[-122.23723,37.56306],[-122.24519,37.5664],[-122.28035,37.58128],[-122.29079,37.58557],[-122.31455,37.5956],[-122.34449,37.60827],[-122.35628,37.61324]]}
}
