{
  "id": 2048394585,
  "type": "Feature",
  "properties": {
    "geom:area": 0,
    "geom:bbox": "-122.363540,36.719120,-121.876570,37.613460",
    "geom:latitude": 37.224072265015046,
    "geom:longitude": -122.06802316455386,
    "src:alt_label": "swim-approach",
    "src:geom": "swim",
    "swim:elevations": [
      5471,
      5292,
      4800,
      4741,
      4470,
      3959,
      3820,
      3568,
      3207,
      3125,
      3047,
      2831,
      2634,
      2291,
      2101,
      2019,
      1972,
      1938,
      1738,
      1626,
      1372,
      1223,
      1128,
      1019,
      876,
      693,
      573,
      459,
      338,
      199,
      92,
      0
    ],
    "swim:geom": "approach",
    "swim:timestamps": [
      1789995768,
      1789995787,
      1789995835,
      1789995841,
      1789995870,
      1789995922,
      1789995937,
      1789995963,
      1789996002,
      1789996028,
      1789996058,
      1789996090,
      1789996118,
      1789996167,
      1789996195,
      1789996214,
      1789996228,
      1789996237,
      1789996279,
      1789996298,
      1789996340,
      1789996359,
      1789996393,
      1789996420,
      1789996448,
      1789996488,
      1789996513,
      1789996539,
      1789996574,
      1789996611,
      1789996636,
      1789996662
    ],
    "wof:geomhash": "ffb0397bb2ba3407ab91f62bdc358d4b",
    "wof:id": 2048394585,
    "wof:repo": "sfomuseum-data-flights-2026-09"
  },
  "bbox": [
    -122.36354,
    36.71912,
    -121.87657,
    37.61346
  ],
  "geometry": {"type":"LineString","coordinates":[[-121.87657,36.71912],[-121.89334,36.74718],[-121.91721,36.82463],[-121.9199,36.83407],[-121.93278,36.87892],[-121.95628,36.96011],[-121.96495,36.98241],[-121.97997,37.02164],[-122.00321,37.08018],[-122.01754,37.11753],[-122.03381,37.15865],[-122.05054,37.201],[-122.0642,37.23617],[-122.08838,37.29823],[-122.10293,37.33475],[-122.11212,37.35725],[-122.11789,37.37302],[-122.12051,37.38326],[-122.10182,37.42524],[-122.09136,37.4432],[-122.09497,37.48047],[-122.10045,37.49627],[-122.1296,37.51519],[-122.15595,37.52676],[-122.18457,37.53866],[-122.22367,37.55511],[-122.24693,37.56484],[-122.26779,37.57364],[-122.29433,37.58479],[-122.32306,37.59686],[-122.34317,37.60537],[-122.36354,37.61346]]}
}
