{
  "id": 2048226825,
  "type": "Feature",
  "properties": {
    "date:inception_lower": "2026-09-01",
    "date:inception_upper": "2026-09-01",
    "edtf:cessation": "",
    "edtf:inception": "2026-09-01",
    "flysfo:actual_timestamp": -1,
    "flysfo:airline": "LH",
    "flysfo:base_airline": "",
    "flysfo:base_flight_number": "3528",
    "flysfo:date": "2026-09-01",
    "flysfo:estimated_timestamp": 1788306780,
    "flysfo:event": "D",
    "flysfo:flight_number": "LH8594",
    "flysfo:gate": "D8",
    "flysfo:journey": "SFO-KOA",
    "flysfo:scheduled_timestamp": 1788306900,
    "flysfo:timestamp": 1788306900,
    "geom:area": 0,
    "geom:bbox": "-156.035060,19.732444,-122.370943,37.617990",
    "geom:latitude": 28.675217,
    "geom:longitude": -139.2030015,
    "iata:airline": "LH",
    "iata:base_airline": "",
    "icao:airline": "DLH",
    "icao:base_airline": "ACA",
    "lbl:latitude": 37.617421,
    "lbl:longitude": -122.380916,
    "sfomuseum:airline_id": 1159286015,
    "sfomuseum:arrival_id": 102532939,
    "sfomuseum:base_flight_id": "20260901-D-ACA-3528",
    "sfomuseum:departure_id": 102527513,
    "sfomuseum:flight_id": "20260901-D-DLH-8594",
    "sfomuseum:flight_number": [
      "DLH8594",
      "LH8594"
    ],
    "sfomuseum:placetype": "flight",
    "src:geom": "flysfo",
    "wof:belongsto": [
      1947304067,
      102527513,
      1947304595,
      102191575,
      85633793,
      102087579,
      85922583,
      554784711,
      85688637,
      1947304617,
      1947304591,
      102085387
    ],
    "wof:country": "US",
    "wof:created": 1788365545,
    "wof:geomhash": "ffd2c7b34797175c51fc3517b1c4b69d",
    "wof:hierarchy": [
      {
        "building_id": 1947304067,
        "campus_id": 102527513,
        "concourse_id": 1947304595,
        "continent_id": 102191575,
        "country_id": 85633793,
        "county_id": 102087579,
        "custom_id": 2048226825,
        "flight_id": 2048226825,
        "locality_id": 85922583,
        "postalcode_id": 554784711,
        "region_id": 85688637,
        "venue_id": 1947304617,
        "wing_id": 1947304591
      },
      {
        "building_id": 1947304067,
        "campus_id": 102527513,
        "concourse_id": 1947304595,
        "continent_id": 102191575,
        "country_id": 85633793,
        "county_id": 102085387,
        "custom_id": 2048226825,
        "flight_id": 2048226825,
        "region_id": 85688637,
        "venue_id": 1947304617,
        "wing_id": 1947304591
      }
    ],
    "wof:id": 2048226825,
    "wof:involves": [
      102532939,
      102527513,
      1159286015,
      1947304617,
      1159283597
    ],
    "wof:lastmodified": 1788365545,
    "wof:name": "LH8594 (SFO-KOA)",
    "wof:parent_id": 1947304617,
    "wof:placetype": "custom",
    "wof:placetype_alt": [
      "flight"
    ],
    "wof:repo": "sfomuseum-data-flights-2026-09",
    "wof:superseded_by": [],
    "wof:supersedes": []
  },
  "bbox": [
    -156.03506,
    19.732444,
    -122.370943,
    37.61799
  ],
  "geometry": {"type":"MultiPoint","coordinates":[[-122.370943,37.61799],[-156.03506,19.732444]]}
}
