{
  "id": 2048448833,
  "type": "Feature",
  "properties": {
    "geom:area": 0,
    "geom:bbox": "-122.350780,37.492680,-121.248360,37.610850",
    "geom:latitude": 37.542546312150954,
    "geom:longitude": -121.80648603784329,
    "src:alt_label": "swim-approach",
    "src:geom": "swim",
    "swim:elevations": [
      4758,
      4480,
      4362,
      4268,
      3918,
      3712,
      3311,
      3278,
      3182,
      3156,
      3033,
      2921,
      2743,
      2532,
      2443,
      2311,
      2163,
      2052,
      1841,
      1830,
      1682,
      1499,
      1466,
      1372,
      1216,
      1219,
      1038,
      871,
      821,
      675,
      608,
      472,
      276,
      188,
      168,
      54
    ],
    "swim:geom": "approach",
    "swim:timestamps": [
      1790537453,
      1790537492,
      1790537510,
      1790537535,
      1790537578,
      1790537599,
      1790537637,
      1790537643,
      1790537682,
      1790537702,
      1790537733,
      1790537753,
      1790537780,
      1790537816,
      1790537847,
      1790537869,
      1790537893,
      1790537933,
      1790537965,
      1790537976,
      1790538026,
      1790538053,
      1790538062,
      1790538080,
      1790538111,
      1790538135,
      1790538162,
      1790538207,
      1790538220,
      1790538257,
      1790538272,
      1790538308,
      1790538349,
      1790538373,
      1790538379,
      1790538407
    ],
    "wof:geomhash": "cf4648ec51dc2bc737d93000e041c605",
    "wof:id": 2048448833,
    "wof:repo": "sfomuseum-data-flights-2026-09"
  },
  "bbox": [
    -122.35078,
    37.49268,
    -121.24836,
    37.61085
  ],
  "geometry": {"type":"LineString","coordinates":[[-121.24836,37.59487],[-121.32126,37.58577],[-121.35272,37.5825],[-121.39411,37.57799],[-121.45628,37.57055],[-121.48513,37.56704],[-121.53743,37.56107],[-121.54552,37.56014],[-121.59796,37.55378],[-121.62472,37.55041],[-121.66504,37.54107],[-121.6917,37.53482],[-121.72592,37.5266],[-121.77243,37.51558],[-121.81153,37.50615],[-121.83876,37.49948],[-121.86939,37.49268],[-121.92102,37.49369],[-121.96297,37.49603],[-121.97682,37.4967],[-122.03634,37.5002],[-122.06538,37.50168],[-122.075,37.50216],[-122.09394,37.50422],[-122.12265,37.51466],[-122.14221,37.52296],[-122.16415,37.53233],[-122.19817,37.54657],[-122.2083,37.55093],[-122.23549,37.56241],[-122.24692,37.56714],[-122.27415,37.57865],[-122.30691,37.59253],[-122.32505,37.59999],[-122.3295,37.60186],[-122.35078,37.61085]]}
}
