{
  "id": 2048464833,
  "type": "Feature",
  "properties": {
    "geom:area": 0,
    "geom:bbox": "-122.333333,32.748889,-117.229444,37.600000",
    "geom:latitude": 35.067670937123225,
    "geom:longitude": -120.10554809682084,
    "src:alt_label": "swim-path",
    "src:geom": "swim",
    "swim:altitudes": [
      "019",
      "035",
      "055",
      "081",
      "107",
      "127",
      "152",
      "184",
      "212",
      "230",
      "248",
      "266",
      "284",
      "299",
      "311",
      "324",
      "339",
      "357",
      "371",
      "380C",
      "380C",
      "380C",
      "380C",
      "380",
      "371",
      "363",
      "360C",
      "360C",
      "360C",
      "360C",
      "360C",
      "360C",
      "360C",
      "360C",
      "360C",
      "360C",
      "360C",
      "360C",
      "360C",
      "360C",
      "360C",
      "357",
      "337",
      "318",
      "299",
      "281",
      "280",
      "280",
      "280",
      "280",
      "267",
      "265",
      "242",
      "220",
      "198",
      "176",
      "155",
      "141",
      "131",
      "130",
      "118",
      "117",
      "109",
      "098",
      "097",
      "087",
      "076",
      "076",
      "066",
      "065",
      "060",
      "054",
      "039",
      "030",
      "022",
      "021",
      "013",
      "013",
      "006"
    ],
    "swim:geom": "path",
    "swim:speeds": [
      165,
      217,
      256,
      265,
      283,
      322,
      333,
      340,
      331,
      343,
      358,
      372,
      378,
      387,
      400,
      415,
      419,
      417,
      404,
      402,
      400,
      399,
      398,
      397,
      400,
      403,
      412,
      415,
      414,
      412,
      413,
      414,
      415,
      416,
      418,
      420,
      413,
      406,
      405,
      406,
      405,
      403,
      401,
      393,
      394,
      371,
      365,
      399,
      407,
      408,
      405,
      405,
      394,
      386,
      376,
      362,
      350,
      316,
      278,
      280,
      266,
      268,
      249,
      244,
      247,
      242,
      225,
      230,
      217,
      221,
      229,
      217,
      209,
      198,
      187,
      191,
      175,
      179,
      132
    ],
    "swim:timestamps": [
      1790724814,
      1790724872,
      1790724932,
      1790724994,
      1790725054,
      1790725114,
      1790725174,
      1790725234,
      1790725294,
      1790725355,
      1790725415,
      1790725475,
      1790725535,
      1790725595,
      1790725655,
      1790725715,
      1790725775,
      1790725835,
      1790725895,
      1790725955,
      1790726016,
      1790726076,
      1790726136,
      1790726196,
      1790726256,
      1790726312,
      1790726372,
      1790726432,
      1790726492,
      1790726552,
      1790726612,
      1790726672,
      1790726732,
      1790726792,
      1790726852,
      1790726912,
      1790726972,
      1790727032,
      1790727093,
      1790727153,
      1790727213,
      1790727273,
      1790727333,
      1790727393,
      1790727453,
      1790727513,
      1790727573,
      1790727633,
      1790727693,
      1790727753,
      1790727805,
      1790727814,
      1790727874,
      1790727934,
      1790727994,
      1790728044,
      1790728114,
      1790728165,
      1790728225,
      1790728234,
      1790728285,
      1790728294,
      1790728345,
      1790728405,
      1790728414,
      1790728465,
      1790728525,
      1790728535,
      1790728585,
      1790728595,
      1790728655,
      1790728715,
      1790728775,
      1790728825,
      1790728885,
      1790728895,
      1790728946,
      1790728955,
      1790729011
    ],
    "wof:geomhash": "f8bc11112cbc3ecbf0afb1d3be538f0f",
    "wof:id": 2048464833,
    "wof:repo": "sfomuseum-data-flights-2026-09"
  },
  "bbox": [
    -122.33333333333333,
    32.74888888888889,
    -117.22944444444444,
    37.6
  ],
  "geometry": {"type":"LineString","coordinates":[[-117.22944444444444,32.74888888888889],[-117.28333333333333,32.78333333333333],[-117.35,32.81666666666667],[-117.41583333333334,32.86194444444445],[-117.48833333333333,32.909166666666664],[-117.56472222222222,32.958333333333336],[-117.65277777777779,33.01444444444444],[-117.74111111111111,33.075],[-117.8111111111111,33.14388888888889],[-117.88666666666667,33.214444444444446],[-117.97027777777778,33.28472222222222],[-118.05722222222222,33.35722222222223],[-118.14777777777779,33.433055555555555],[-118.23972222222223,33.50944444444445],[-118.33416666666666,33.588055555555556],[-118.4363888888889,33.66972222222222],[-118.54861111111111,33.74611111111111],[-118.65666666666667,33.82027777777778],[-118.76027777777777,33.89083333333333],[-118.86527777777778,33.96194444444445],[-118.96805555555555,34.032222222222224],[-119.07166666666666,34.10194444444445],[-119.17472222222223,34.17111111111111],[-119.27805555555555,34.24111111111111],[-119.38194444444444,34.31027777777778],[-119.4713888888889,34.369166666666665],[-119.5775,34.44499999999999],[-119.67888888888889,34.530277777777776],[-119.77888888888889,34.611111111111114],[-119.87722222222222,34.69083333333333],[-119.9786111111111,34.77222222222222],[-120.0786111111111,34.85277777777778],[-120.17916666666667,34.933055555555555],[-120.28138888888888,35.014722222222225],[-120.38416666666667,35.09777777777778],[-120.4825,35.18555555555555],[-120.57805555555555,35.270833333333336],[-120.6725,35.35472222222222],[-120.7675,35.43861111111111],[-120.85722222222222,35.52611111111111],[-120.94,35.614444444444445],[-121.0225,35.703611111111115],[-121.10638888888889,35.793055555555554],[-121.20138888888889,35.86555555555556],[-121.33527777777778,35.86944444444445],[-121.45555555555556,35.89861111111111],[-121.50194444444445,35.99138888888889],[-121.54222222222222,36.095555555555556],[-121.58472222222221,36.20416666666667],[-121.62722222222222,36.312777777777775],[-121.66666666666667,36.4],[-121.66944444444445,36.419999999999995],[-121.72,36.52166666666667],[-121.79138888888889,36.61194444444445],[-121.85972222222222,36.69833333333333],[-121.9,36.78333333333333],[-121.93472222222222,36.88666666666666],[-121.96666666666667,36.96666666666667],[-121.98333333333333,37.05],[-121.99361111111111,37.05611111111111],[-122.01666666666667,37.11666666666667],[-122.02305555555556,37.12277777777778],[-122.1,37.166666666666664],[-122.16666666666667,37.2],[-122.17166666666667,37.19611111111111],[-122.25,37.233333333333334],[-122.3,37.266666666666666],[-122.29916666666666,37.27388888888889],[-122.31666666666666,37.333333333333336],[-122.31638888888888,37.33277777777778],[-122.25111111111111,37.365],[-122.20083333333334,37.40694444444444],[-122.18277777777779,37.46333333333334],[-122.16666666666667,37.516666666666666],[-122.21666666666667,37.55],[-122.22361111111111,37.555],[-122.28333333333333,37.583333333333336],[-122.27944444444444,37.578611111111115],[-122.33333333333333,37.6]]}
}
