{
  "id": 2048245885,
  "type": "Feature",
  "properties": {
    "geom:area": 0,
    "geom:bbox": "-122.561640,36.729700,-122.297800,37.667760",
    "geom:latitude": 37.222074893523676,
    "geom:longitude": -122.50317574070233,
    "src:alt_label": "swim-takeoff",
    "src:geom": "swim",
    "swim:elevations": [
      266,
      518,
      1043,
      1198,
      1640,
      2100,
      2460,
      2944,
      3204,
      3712,
      4382,
      4604,
      5105,
      5207,
      5673,
      5741,
      6243,
      6467,
      6941,
      7011,
      7301,
      8201,
      8651,
      8953,
      9348
    ],
    "swim:geom": "takeoff",
    "swim:timestamps": [
      1788428277,
      1788428294,
      1788428324,
      1788428341,
      1788428378,
      1788428405,
      1788428425,
      1788428448,
      1788428461,
      1788428505,
      1788428542,
      1788428556,
      1788428604,
      1788428624,
      1788428667,
      1788428672,
      1788428716,
      1788428736,
      1788428783,
      1788428793,
      1788428825,
      1788428873,
      1788428899,
      1788428921,
      1788428961
    ],
    "wof:geomhash": "83798962375b2b00bff696c96da7cf38",
    "wof:id": 2048245885,
    "wof:repo": "sfomuseum-data-flights-2026-09"
  },
  "bbox": [
    -122.56164,
    36.7297,
    -122.2978,
    37.66776
  ],
  "geometry": {"type":"LineString","coordinates":[[-122.39315,37.62883],[-122.40869,37.63508],[-122.43343,37.64489],[-122.44976,37.65136],[-122.49381,37.66776],[-122.53015,37.6591],[-122.54431,37.63725],[-122.54504,37.60705],[-122.54524,37.59004],[-122.54706,37.52777],[-122.54923,37.46934],[-122.54994,37.44791],[-122.55173,37.36979],[-122.55343,37.33505],[-122.55636,37.25493],[-122.55673,37.24517],[-122.56048,37.15922],[-122.56164,37.11936],[-122.56017,37.02458],[-122.55497,37.00585],[-122.51812,36.94409],[-122.43773,36.86407],[-122.39445,36.82275],[-122.35974,36.78935],[-122.2978,36.7297]]}
}
