{
  "id": 2048318927,
  "type": "Feature",
  "properties": {
    "geom:area": 0,
    "geom:bbox": "-122.526600,37.625190,-121.259510,37.974140",
    "geom:latitude": 37.865829902699026,
    "geom:longitude": -121.99195324738957,
    "src:alt_label": "swim-takeoff",
    "src:geom": "swim",
    "swim:elevations": [
      213,
      469,
      609,
      1053,
      1275,
      1532,
      2126,
      2338,
      2628,
      3041,
      3312,
      3394,
      3518,
      3679,
      3895,
      4197,
      4486,
      4607,
      4882,
      5095,
      5278,
      5280,
      5402,
      5626,
      5730,
      5912
    ],
    "swim:geom": "takeoff",
    "swim:timestamps": [
      1789281591,
      1789281610,
      1789281631,
      1789281688,
      1789281705,
      1789281725,
      1789281772,
      1789281787,
      1789281813,
      1789281851,
      1789281895,
      1789281913,
      1789281936,
      1789281972,
      1789282009,
      1789282041,
      1789282077,
      1789282095,
      1789282136,
      1789282166,
      1789282194,
      1789282197,
      1789282222,
      1789282253,
      1789282273,
      1789282310
    ],
    "wof:geomhash": "ba1d3fb36bbd61e151135e615a1c1906",
    "wof:id": 2048318927,
    "wof:repo": "sfomuseum-data-flights-2026-09"
  },
  "bbox": [
    -122.5266,
    37.62519,
    -121.25951,
    37.97414
  ],
  "geometry": {"type":"LineString","coordinates":[[-122.39003,37.62519],[-122.40495,37.63189],[-122.42238,37.6396],[-122.48444,37.66614],[-122.50544,37.67574],[-122.52217,37.6945],[-122.52588,37.75229],[-122.5266,37.77107],[-122.51366,37.8038],[-122.45293,37.83084],[-122.36694,37.84559],[-122.32726,37.85034],[-122.27508,37.85678],[-122.18814,37.8672],[-122.09309,37.87857],[-122.0109,37.88842],[-121.91466,37.8997],[-121.86733,37.9053],[-121.75695,37.91798],[-121.67381,37.92756],[-121.59427,37.93664],[-121.58581,37.9376],[-121.51604,37.94548],[-121.4262,37.95564],[-121.3679,37.96209],[-121.25951,37.97414]]}
}
