{
  "id": 2048298839,
  "type": "Feature",
  "properties": {
    "geom:area": 0,
    "geom:bbox": "-122.355420,37.491320,-121.270860,37.612780",
    "geom:latitude": 37.54562966557571,
    "geom:longitude": -121.8179201724058,
    "src:alt_label": "swim-approach",
    "src:geom": "swim",
    "swim:elevations": [
      4784,
      4492,
      4353,
      4082,
      3930,
      3741,
      3309,
      3290,
      3171,
      2995,
      2742,
      2688,
      2525,
      2343,
      2221,
      2102,
      1944,
      1844,
      1729,
      1564,
      1468,
      1338,
      1258,
      1030,
      973,
      816,
      601,
      460,
      326,
      228,
      152,
      33
    ],
    "swim:geom": "approach",
    "swim:timestamps": [
      1789077086,
      1789077118,
      1789077137,
      1789077171,
      1789077191,
      1789077215,
      1789077268,
      1789077271,
      1789077310,
      1789077341,
      1789077385,
      1789077394,
      1789077422,
      1789077446,
      1789077465,
      1789077485,
      1789077534,
      1789077562,
      1789077583,
      1789077611,
      1789077624,
      1789077649,
      1789077672,
      1789077717,
      1789077727,
      1789077762,
      1789077808,
      1789077836,
      1789077868,
      1789077895,
      1789077907,
      1789077940
    ],
    "wof:geomhash": "8b6644b0c310ca3d3a8a117a5902b254",
    "wof:id": 2048298839,
    "wof:repo": "sfomuseum-data-flights-2026-09"
  },
  "bbox": [
    -122.35542,
    37.49132,
    -121.27086,
    37.61278
  ],
  "geometry": {"type":"LineString","coordinates":[[-121.27086,37.59172],[-121.32978,37.58515],[-121.36345,37.58131],[-121.42151,37.57451],[-121.45623,37.57049],[-121.49712,37.56578],[-121.58729,37.55509],[-121.59237,37.55447],[-121.65566,37.54335],[-121.7009,37.53266],[-121.7619,37.51787],[-121.77364,37.51506],[-121.80939,37.50656],[-121.83919,37.49962],[-121.86197,37.49418],[-121.88746,37.49132],[-121.94839,37.4928],[-121.98436,37.49487],[-122.00971,37.50179],[-122.04428,37.51289],[-122.05968,37.51793],[-122.08908,37.52736],[-122.11249,37.53519],[-122.15771,37.54981],[-122.16757,37.55293],[-122.20097,37.56379],[-122.24517,37.57799],[-122.27082,37.58585],[-122.29866,37.59407],[-122.32045,37.60038],[-122.32979,37.60316],[-122.35542,37.61278]]}
}
