{
  "id": 2048391501,
  "type": "Feature",
  "properties": {
    "geom:area": 0,
    "geom:bbox": "-122.562420,36.731440,-122.362320,37.663670",
    "geom:latitude": 37.23844545011106,
    "geom:longitude": -122.51502858682703,
    "src:alt_label": "swim-takeoff",
    "src:geom": "swim",
    "swim:elevations": [
      183,
      476,
      1036,
      1157,
      1768,
      2103,
      2810,
      3375,
      3435,
      3665,
      3867,
      4720,
      5039,
      5259,
      5491,
      6151,
      6588,
      6843,
      7184,
      7532,
      7709,
      7916,
      8230,
      8230
    ],
    "swim:geom": "takeoff",
    "swim:timestamps": [
      1789927643,
      1789927665,
      1789927703,
      1789927715,
      1789927767,
      1789927789,
      1789927827,
      1789927855,
      1789927860,
      1789927903,
      1789927923,
      1789927978,
      1789928002,
      1789928020,
      1789928044,
      1789928095,
      1789928128,
      1789928150,
      1789928185,
      1789928216,
      1789928234,
      1789928260,
      1789928305,
      1789928311
    ],
    "wof:geomhash": "70709210b62328513b3b776c94b5c7a0",
    "wof:id": 2048391501,
    "wof:repo": "sfomuseum-data-flights-2026-09"
  },
  "bbox": [
    -122.56242,
    36.73144,
    -122.36232,
    37.66367
  ],
  "geometry": {"type":"LineString","coordinates":[[-122.39011,37.62528],[-122.40844,37.63343],[-122.44445,37.64898],[-122.45592,37.65396],[-122.52489,37.66367],[-122.54483,37.64158],[-122.54955,37.59183],[-122.5506,37.55498],[-122.55076,37.54905],[-122.55196,37.48352],[-122.55292,37.44846],[-122.55556,37.35244],[-122.55666,37.30867],[-122.55745,37.27551],[-122.5585,37.23059],[-122.56087,37.13049],[-122.56242,37.06596],[-122.55972,37.02159],[-122.5273,36.95734],[-122.48618,36.90099],[-122.46389,36.87006],[-122.43109,36.82389],[-122.37061,36.74163],[-122.36232,36.73144]]}
}
