{
  "id": 2048347903,
  "type": "Feature",
  "properties": {
    "geom:area": 0,
    "geom:bbox": "-122.392280,37.623640,-121.350650,38.071980",
    "geom:latitude": 37.922172570572606,
    "geom:longitude": -121.95166943539382,
    "src:alt_label": "swim-takeoff",
    "src:geom": "swim",
    "swim:elevations": [
      183,
      335,
      751,
      1074,
      1116,
      1469,
      1900,
      2239,
      2677,
      3232,
      3391,
      3758,
      4177,
      4323,
      4835,
      4978,
      5324,
      5465,
      5647,
      6006,
      6279,
      6424,
      6571,
      7005,
      7678,
      7941
    ],
    "swim:geom": "takeoff",
    "swim:timestamps": [
      1789465646,
      1789465654,
      1789465696,
      1789465737,
      1789465744,
      1789465785,
      1789465825,
      1789465845,
      1789465872,
      1789465914,
      1789465936,
      1789465973,
      1789466008,
      1789466021,
      1789466065,
      1789466081,
      1789466110,
      1789466126,
      1789466149,
      1789466186,
      1789466217,
      1789466237,
      1789466253,
      1789466296,
      1789466331,
      1789466355
    ],
    "wof:geomhash": "bd997e003ac54006ba55a51548ba4908",
    "wof:id": 2048347903,
    "wof:repo": "sfomuseum-data-flights-2026-09"
  },
  "bbox": [
    -122.39228,
    37.62364,
    -121.35065,
    38.07198
  ],
  "geometry": {"type":"LineString","coordinates":[[-122.38639,37.62364],[-122.39228,37.62678],[-122.38398,37.65084],[-122.34875,37.66286],[-122.34217,37.66526],[-122.2994,37.68731],[-122.29975,37.73343],[-122.3137,37.75714],[-122.3163,37.79323],[-122.31105,37.85196],[-122.29791,37.88332],[-122.23438,37.90958],[-122.15968,37.91461],[-122.13092,37.91677],[-122.03356,37.92424],[-121.99715,37.92702],[-121.93503,37.9397],[-121.90114,37.95239],[-121.85268,37.97081],[-121.77076,38.00185],[-121.7019,38.028],[-121.65465,38.04243],[-121.61329,38.04767],[-121.50272,38.0582],[-121.41209,38.06657],[-121.35065,38.07198]]}
}
