{
  "id": 2048466941,
  "type": "Feature",
  "properties": {
    "geom:area": 0,
    "geom:bbox": "-123.561667,37.433333,-122.138889,49.191389",
    "geom:latitude": 43.07163971649111,
    "geom:longitude": -123.1905790821219,
    "src:alt_label": "swim-path",
    "src:geom": "swim",
    "swim:altitudes": [
      "023",
      "050",
      "080",
      "109",
      "124",
      "144",
      "162",
      "176",
      "202",
      "215",
      "229",
      "239",
      "249",
      "261",
      "272",
      "287",
      "295",
      "304",
      "310C",
      "310C",
      "310C",
      "310C",
      "310C",
      "310C",
      "310C",
      "310C",
      "310C",
      "310C",
      "310C",
      "310C",
      "310C",
      "310C",
      "310C",
      "310C",
      "310C",
      "310C",
      "310C",
      "310C",
      "310C",
      "310C",
      "310C",
      "310C",
      "310C",
      "310C",
      "310C",
      "310C",
      "310C",
      "310C",
      "310C",
      "310C",
      "310C",
      "310C",
      "310C",
      "310C",
      "310C",
      "310C",
      "310C",
      "310C",
      "310C",
      "310C",
      "310C",
      "310C",
      "310C",
      "310C",
      "310C",
      "310C",
      "310C",
      "310C",
      "310C",
      "310C",
      "310C",
      "310C",
      "310C",
      "310C",
      "310C",
      "310C",
      "310C",
      "310C",
      "310C",
      "310C",
      "310C",
      "310C",
      "310C",
      "310C",
      "310C",
      "310C",
      "310C",
      "310C",
      "310C",
      "310C",
      "310C",
      "310C",
      "310C",
      "310C",
      "310C",
      "310C",
      "310C",
      "310C",
      "310C",
      "310C",
      "310C",
      "310C",
      "310C",
      "310C",
      "310C",
      "310",
      "310",
      "310",
      "310",
      "310",
      "310",
      "310",
      "310",
      "310",
      "310",
      "309",
      "282",
      "260",
      "240",
      "219",
      "200",
      "187",
      "180",
      "179",
      "161",
      "142",
      "142",
      "124",
      "110",
      "110C",
      "110C",
      "106",
      "104",
      "091",
      "076",
      "074",
      "058",
      "044",
      "041",
      "040",
      "036",
      "029",
      "023",
      "021",
      "015",
      "013",
      "008",
      "005",
      "110"
    ],
    "swim:geom": "path",
    "swim:speeds": [
      202,
      238,
      259,
      252,
      311,
      331,
      344,
      365,
      367,
      377,
      387,
      400,
      413,
      422,
      429,
      432,
      444,
      453,
      458,
      459,
      459,
      456,
      453,
      452,
      452,
      452,
      452,
      452,
      453,
      455,
      456,
      458,
      459,
      460,
      461,
      461,
      461,
      461,
      461,
      461,
      460,
      460,
      458,
      458,
      458,
      458,
      460,
      461,
      462,
      463,
      464,
      461,
      464,
      462,
      464,
      462,
      463,
      463,
      463,
      463,
      463,
      463,
      464,
      464,
      464,
      465,
      464,
      464,
      464,
      464,
      465,
      465,
      465,
      465,
      464,
      464,
      463,
      462,
      461,
      460,
      459,
      458,
      457,
      456,
      456,
      455,
      455,
      455,
      454,
      454,
      454,
      454,
      454,
      454,
      454,
      455,
      455,
      456,
      455,
      455,
      454,
      453,
      453,
      453,
      453,
      453,
      453,
      453,
      453,
      454,
      454,
      456,
      458,
      459,
      461,
      462,
      466,
      462,
      448,
      434,
      422,
      411,
      408,
      412,
      401,
      385,
      390,
      377,
      348,
      357,
      314,
      270,
      274,
      265,
      251,
      253,
      248,
      209,
      191,
      179,
      183,
      171,
      164,
      168,
      166,
      166,
      155,
      157,
      144
    ],
    "swim:timestamps": [
      1790691746,
      1790691806,
      1790691866,
      1790691926,
      1790691986,
      1790692046,
      1790692106,
      1790692166,
      1790692226,
      1790692286,
      1790692346,
      1790692406,
      1790692466,
      1790692527,
      1790692587,
      1790692647,
      1790692707,
      1790692767,
      1790692827,
      1790692887,
      1790692947,
      1790693007,
      1790693067,
      1790693127,
      1790693187,
      1790693247,
      1790693307,
      1790693367,
      1790693427,
      1790693487,
      1790693548,
      1790693608,
      1790693668,
      1790693728,
      1790693788,
      1790693848,
      1790693908,
      1790693968,
      1790694028,
      1790694088,
      1790694148,
      1790694208,
      1790694268,
      1790694328,
      1790694388,
      1790694449,
      1790694509,
      1790694569,
      1790694629,
      1790694689,
      1790694749,
      1790694791,
      1790694809,
      1790694851,
      1790694869,
      1790694911,
      1790694929,
      1790694971,
      1790694989,
      1790695031,
      1790695049,
      1790695091,
      1790695109,
      1790695151,
      1790695169,
      1790695212,
      1790695229,
      1790695272,
      1790695289,
      1790695332,
      1790695350,
      1790695392,
      1790695410,
      1790695470,
      1790695512,
      1790695530,
      1790695572,
      1790695590,
      1790695632,
      1790695650,
      1790695692,
      1790695710,
      1790695752,
      1790695770,
      1790695812,
      1790695830,
      1790695872,
      1790695890,
      1790695933,
      1790695950,
      1790696010,
      1790696053,
      1790696070,
      1790696113,
      1790696130,
      1790696173,
      1790696191,
      1790696233,
      1790696251,
      1790696293,
      1790696311,
      1790696353,
      1790696371,
      1790696413,
      1790696431,
      1790696473,
      1790696491,
      1790696533,
      1790696551,
      1790696593,
      1790696611,
      1790696654,
      1790696714,
      1790696774,
      1790696834,
      1790696894,
      1790696954,
      1790697014,
      1790697074,
      1790697134,
      1790697194,
      1790697229,
      1790697247,
      1790697254,
      1790697314,
      1790697367,
      1790697374,
      1790697435,
      1790697488,
      1790697507,
      1790697567,
      1790697608,
      1790697627,
      1790697687,
      1790697728,
      1790697747,
      1790697807,
      1790697848,
      1790697867,
      1790697908,
      1790697927,
      1790697987,
      1790698034,
      1790698047,
      1790698088,
      1790698107,
      1790698149,
      1790698168,
      1790698228
    ],
    "wof:geomhash": "f8b16d41b12fcf878491d7a25dd9fb63",
    "wof:id": 2048466941,
    "wof:repo": "sfomuseum-data-flights-2026-09"
  },
  "bbox": [
    -123.56166666666667,
    37.43333333333333,
    -122.1388888888889,
    49.19138888888889
  ],
  "geometry": {"type":"LineString","coordinates":[[-123.28111111111112,49.19138888888889],[-123.36749999999999,49.166666666666664],[-123.44166666666668,49.11388888888889],[-123.51277777777777,49.061388888888885],[-123.56166666666667,48.99583333333334],[-123.55388888888889,48.90416666666667],[-123.54555555555555,48.81111111111111],[-123.53722222222223,48.71194444444445],[-123.52805555555555,48.60166666666667],[-123.51944444444445,48.49888888888889],[-123.51027777777777,48.393055555555556],[-123.50194444444445,48.29111111111111],[-123.4925,48.17444444444444],[-123.48305555555555,48.05888888888889],[-123.4738888888889,47.94777777777777],[-123.46222222222222,47.80361111111111],[-123.45222222222222,47.681666666666665],[-123.44222222222223,47.555277777777775],[-123.43194444444445,47.42833333333333],[-123.42166666666667,47.301944444444445],[-123.41194444444444,47.17527777777777],[-123.40583333333333,47.04888888888889],[-123.4025,46.92611111111111],[-123.39833333333334,46.79944444444444],[-123.39444444444445,46.67527777777777],[-123.39027777777778,46.55],[-123.3863888888889,46.424166666666665],[-123.3825,46.301111111111105],[-123.37888888888888,46.175555555555555],[-123.375,46.04861111111111],[-123.3711111111111,45.92111111111111],[-123.36694444444444,45.79222222222222],[-123.36333333333333,45.664722222222224],[-123.35972222222222,45.53638888888889],[-123.35555555555555,45.407222222222224],[-123.35194444444444,45.28055555555555],[-123.34805555555555,45.151944444444446],[-123.34388888888888,45.02055555555555],[-123.33999999999999,44.89],[-123.33638888888889,44.75972222222222],[-123.33305555555555,44.63055555555555],[-123.32916666666667,44.50277777777778],[-123.32388888888889,44.37416666666667],[-123.31888888888888,44.24888888888889],[-123.31361111111111,44.121944444444445],[-123.30916666666667,44.00361111111111],[-123.30388888888889,43.87416666666667],[-123.29888888888888,43.74583333333334],[-123.29388888888889,43.61666666666667],[-123.28888888888889,43.48694444444445],[-123.28388888888888,43.35777777777778],[-123.27916666666667,43.27444444444444],[-123.27888888888889,43.22916666666667],[-123.27388888888889,43.14527777777778],[-123.27388888888889,43.099722222222226],[-123.26944444444445,43.018055555555556],[-123.26888888888888,42.97083333333334],[-123.26527777777778,42.888888888888886],[-123.26388888888889,42.843611111111116],[-123.26,42.760555555555555],[-123.25916666666667,42.71222222222222],[-123.25527777777778,42.632222222222225],[-123.25416666666666,42.58027777777778],[-123.25083333333333,42.50277777777778],[-123.24916666666667,42.450833333333335],[-123.2461111111111,42.37416666666667],[-123.24444444444444,42.32277777777778],[-123.24166666666667,42.24611111111111],[-123.23972222222223,42.19472222222222],[-123.23666666666666,42.115833333333335],[-123.235,42.06666666666667],[-123.23222222222222,41.987500000000004],[-123.23027777777779,41.93583333333333],[-123.22555555555556,41.80833333333333],[-123.22277777777778,41.73166666666667],[-123.22111111111111,41.68083333333333],[-123.21833333333333,41.603611111111114],[-123.21666666666667,41.553888888888885],[-123.21388888888889,41.475833333333334],[-123.21222222222222,41.42777777777778],[-123.20944444444444,41.350833333333334],[-123.20805555555556,41.30305555555555],[-123.20583333333333,41.211666666666666],[-123.205,41.176944444444445],[-123.20277777777778,41.086111111111116],[-123.20194444444445,41.05027777777777],[-123.19944444444445,40.94916666666666],[-123.19861111111112,40.92305555555555],[-123.19611111111111,40.82222222222222],[-123.19555555555556,40.797777777777775],[-123.19222222222223,40.669999999999995],[-123.19,40.5825],[-123.18916666666667,40.54388888888889],[-123.18666666666667,40.45666666666667],[-123.18583333333333,40.41722222222222],[-123.18361111111112,40.331388888888895],[-123.1825,40.28861111111111],[-123.18055555555556,40.20472222222222],[-123.17972222222222,40.163333333333334],[-123.17750000000001,40.07888888888889],[-123.17666666666668,40.035555555555554],[-123.17444444444445,39.955000000000005],[-123.17277777777778,39.91],[-123.17,39.855555555555554],[-123.16638888888889,39.784166666666664],[-123.16250000000001,39.703611111111115],[-123.16027777777778,39.6575],[-123.15694444444445,39.57916666666667],[-123.15472222222223,39.53055555555555],[-123.15055555555556,39.44],[-123.14888888888889,39.40333333333333],[-123.14500000000001,39.31388888888888],[-123.13916666666667,39.18611111111111],[-123.10972222222222,39.06222222222222],[-123.02055555555556,38.950833333333335],[-122.94861111111112,38.837500000000006],[-122.91000000000001,38.70944444444445],[-122.8736111111111,38.58416666666667],[-122.83749999999999,38.46361111111111],[-122.80277777777778,38.345555555555556],[-122.76944444444445,38.23083333333334],[-122.75,38.15],[-122.73333333333333,38.11666666666667],[-122.73722222222223,38.12],[-122.70583333333333,38.01277777777778],[-122.66666666666667,37.916666666666664],[-122.67444444444445,37.91027777777778],[-122.59972222222221,37.830000000000005],[-122.51666666666667,37.75],[-122.52,37.75472222222222],[-122.43083333333334,37.670833333333334],[-122.38333333333334,37.61666666666667],[-122.36944444444444,37.61277777777778],[-122.3286111111111,37.54666666666667],[-122.3,37.483333333333334],[-122.29166666666667,37.483333333333334],[-122.23388888888888,37.45305555555556],[-122.15,37.43333333333333],[-122.1388888888889,37.44611111111111],[-122.15,37.483333333333334],[-122.14861111111112,37.49388888888889],[-122.17861111111111,37.53361111111111],[-122.21666666666667,37.55],[-122.22888888888889,37.55722222222222],[-122.26666666666667,37.56666666666667],[-122.27944444444444,37.578611111111115],[-122.31666666666666,37.6],[-122.32805555555555,37.598888888888894],[-122.37333333333332,37.61805555555556]]}
}
