{
  "id": 2048475009,
  "type": "Feature",
  "properties": {
    "geom:area": 0,
    "geom:bbox": "-122.354790,37.491310,-121.254240,37.612510",
    "geom:latitude": 37.54611547838766,
    "geom:longitude": -121.80931459347394,
    "src:alt_label": "swim-approach",
    "src:geom": "swim",
    "swim:elevations": [
      4514,
      4268,
      3930,
      3857,
      3806,
      3178,
      3091,
      2927,
      2833,
      2440,
      2438,
      2338,
      2128,
      1971,
      1848,
      1622,
      1542,
      1310,
      1158,
      1017,
      831,
      728,
      553,
      356,
      303,
      149,
      9
    ],
    "swim:geom": "approach",
    "swim:timestamps": [
      1790803787,
      1790803813,
      1790803848,
      1790803856,
      1790803861,
      1790803942,
      1790803971,
      1790804005,
      1790804011,
      1790804064,
      1790804077,
      1790804113,
      1790804146,
      1790804176,
      1790804210,
      1790804247,
      1790804262,
      1790804305,
      1790804328,
      1790804365,
      1790804392,
      1790804410,
      1790804440,
      1790804485,
      1790804494,
      1790804539,
      1790804566
    ],
    "wof:geomhash": "8078e23d67fe0e8a9d2d71d69132eb89",
    "wof:id": 2048475009,
    "wof:repo": "sfomuseum-data-flights-2026-09"
  },
  "bbox": [
    -122.35479,
    37.49131,
    -121.25424,
    37.61251
  ],
  "geometry": {"type":"LineString","coordinates":[[-121.25424,37.59352],[-121.30617,37.58678],[-121.37474,37.57929],[-121.38984,37.57766],[-121.3989,37.57664],[-121.54452,37.55969],[-121.59425,37.55416],[-121.65419,37.54361],[-121.66433,37.54104],[-121.75139,37.52014],[-121.77211,37.51528],[-121.82553,37.50265],[-121.87593,37.49131],[-121.92181,37.49217],[-121.97332,37.49348],[-122.02272,37.50617],[-122.04286,37.5126],[-122.09796,37.53049],[-122.12595,37.53956],[-122.16915,37.55352],[-122.19905,37.56319],[-122.21836,37.56934],[-122.25022,37.57967],[-122.29067,37.5917],[-122.29833,37.59395],[-122.33491,37.60479],[-122.35479,37.61251]]}
}
