{
  "id": 2048370065,
  "type": "Feature",
  "properties": {
    "geom:area": 0,
    "geom:bbox": "-123.490440,36.971790,-122.134550,37.615480",
    "geom:latitude": 37.28959126182907,
    "geom:longitude": -122.717703198516,
    "src:alt_label": "swim-approach",
    "src:geom": "swim",
    "swim:elevations": [
      6322,
      5992,
      5714,
      5329,
      4980,
      4820,
      4628,
      4148,
      3861,
      3590,
      3355,
      3047,
      3048,
      3047,
      2960,
      2887,
      2747,
      2544,
      2437,
      2437,
      2438,
      2370,
      2077,
      1886,
      1829,
      1829,
      1809,
      1459,
      1352,
      1138,
      813,
      790,
      791,
      792,
      792,
      658,
      617,
      481,
      365,
      202,
      29,
      107
    ],
    "swim:geom": "approach",
    "swim:timestamps": [
      1789798028,
      1789798061,
      1789798088,
      1789798132,
      1789798167,
      1789798183,
      1789798202,
      1789798251,
      1789798281,
      1789798308,
      1789798331,
      1789798368,
      1789798390,
      1789798436,
      1789798465,
      1789798484,
      1789798503,
      1789798531,
      1789798555,
      1789798564,
      1789798595,
      1789798628,
      1789798677,
      1789798704,
      1789798734,
      1789798762,
      1789798775,
      1789798827,
      1789798843,
      1789798873,
      1789798918,
      1789798928,
      1789798940,
      1789798961,
      1789798980,
      1789799037,
      1789799048,
      1789799081,
      1789799105,
      1789799146,
      1789799186,
      1789799195
    ],
    "wof:geomhash": "7f15d4f52b1d2317fa840c007cb3b467",
    "wof:id": 2048370065,
    "wof:repo": "sfomuseum-data-flights-2026-09"
  },
  "bbox": [
    -123.49044,
    36.97179,
    -122.13455,
    37.61548
  ],
  "geometry": {"type":"LineString","coordinates":[[-123.49044,36.97179],[-123.42416,37.00133],[-123.37006,37.0259],[-123.28569,37.06492],[-123.21989,37.09521],[-123.18995,37.109],[-123.15422,37.12528],[-123.06468,37.16602],[-123.01038,37.19066],[-122.96232,37.21256],[-122.92206,37.23097],[-122.85474,37.25903],[-122.81536,37.2686],[-122.73508,37.28771],[-122.68795,37.29868],[-122.65956,37.30519],[-122.62979,37.31204],[-122.58809,37.32189],[-122.55173,37.3302],[-122.5382,37.33337],[-122.49174,37.34407],[-122.44236,37.3556],[-122.36842,37.37243],[-122.32928,37.38147],[-122.28637,37.39135],[-122.24892,37.39989],[-122.23253,37.40369],[-122.17006,37.42047],[-122.15846,37.43388],[-122.14296,37.46049],[-122.13455,37.50081],[-122.14191,37.50885],[-122.15099,37.51773],[-122.16595,37.53169],[-122.18191,37.53968],[-122.23545,37.56241],[-122.24509,37.56635],[-122.2718,37.57765],[-122.29127,37.58584],[-122.32402,37.59958],[-122.35529,37.61274],[-122.36242,37.61548]]}
}
