{
  "id": 2048417111,
  "type": "Feature",
  "properties": {
    "geom:area": 0,
    "geom:bbox": "-122.525750,37.623390,-121.248510,38.497860",
    "geom:latitude": 38.067937797823674,
    "geom:longitude": -121.96984564474225,
    "src:alt_label": "swim-takeoff",
    "src:geom": "swim",
    "swim:elevations": [
      122,
      438,
      989,
      1156,
      1199,
      1313,
      1378,
      1486,
      1609,
      1921,
      2247,
      2389,
      2972,
      3275,
      3434,
      3598,
      4145,
      4320,
      4610,
      5015,
      5229,
      5370,
      5541,
      5727,
      6119,
      6358,
      6613,
      6637,
      6736,
      6966,
      7025,
      7045,
      7165,
      7254,
      7455,
      7752,
      7945,
      7960
    ],
    "swim:geom": "takeoff",
    "swim:timestamps": [
      1790230931,
      1790230956,
      1790231009,
      1790231035,
      1790231041,
      1790231065,
      1790231075,
      1790231088,
      1790231100,
      1790231128,
      1790231152,
      1790231164,
      1790231210,
      1790231245,
      1790231276,
      1790231294,
      1790231333,
      1790231353,
      1790231382,
      1790231426,
      1790231448,
      1790231467,
      1790231484,
      1790231504,
      1790231546,
      1790231576,
      1790231608,
      1790231611,
      1790231626,
      1790231662,
      1790231671,
      1790231674,
      1790231692,
      1790231707,
      1790231739,
      1790231784,
      1790231818,
      1790231821
    ],
    "wof:geomhash": "a22dd84a22fc5a0ad258a5ef40b93bc5",
    "wof:id": 2048417111,
    "wof:repo": "sfomuseum-data-flights-2026-09"
  },
  "bbox": [
    -122.52575,
    37.62339,
    -121.24851,
    38.49786
  ],
  "geometry": {"type":"LineString","coordinates":[[-122.38622,37.62339],[-122.40748,37.63291],[-122.45323,37.65254],[-122.47953,37.66373],[-122.48598,37.66652],[-122.51222,37.6797],[-122.52055,37.68912],[-122.5246,37.7056],[-122.52468,37.72097],[-122.52575,37.75713],[-122.52297,37.78978],[-122.51305,37.80424],[-122.44193,37.83442],[-122.38643,37.86089],[-122.33296,37.88678],[-122.30009,37.90269],[-122.22915,37.93719],[-122.19202,37.95514],[-122.13841,37.981],[-122.0523,38.02243],[-122.01075,38.04577],[-121.97693,38.0666],[-121.94356,38.08654],[-121.90437,38.10994],[-121.82231,38.15888],[-121.76318,38.19416],[-121.70058,38.23142],[-121.6946,38.23503],[-121.66431,38.25302],[-121.58996,38.29717],[-121.57113,38.30837],[-121.5649,38.31208],[-121.52737,38.33442],[-121.49568,38.35321],[-121.42766,38.39339],[-121.32964,38.45097],[-121.25509,38.49401],[-121.24851,38.49786]]}
}
