{
  "id": 2048443997,
  "type": "Feature",
  "properties": {
    "geom:area": 0,
    "geom:bbox": "-122.383333,37.663333,-110.966389,45.761667",
    "geom:latitude": 41.416083692327305,
    "geom:longitude": -116.18740091630299,
    "src:alt_label": "swim-path",
    "src:geom": "swim",
    "swim:altitudes": [
      "027",
      "034",
      "048",
      "056",
      "079",
      "088",
      "110",
      "140",
      "166",
      "190",
      "214",
      "235",
      "255",
      "273",
      "287",
      "298",
      "314",
      "330",
      "331",
      "345",
      "346",
      "350C",
      "350",
      "357",
      "358",
      "369C",
      "369C",
      "370C",
      "370C",
      "370C",
      "370C",
      "370C",
      "370C",
      "370C",
      "370C",
      "370C",
      "370C",
      "370C",
      "370C",
      "370C",
      "370C",
      "370C",
      "370C",
      "370C",
      "370C",
      "370C",
      "370C",
      "370C",
      "370C",
      "370C",
      "370C",
      "370C",
      "370C",
      "370C",
      "370C",
      "370C",
      "370C",
      "370C",
      "370C",
      "370C",
      "370C",
      "370C",
      "370C",
      "370C",
      "370C",
      "370C",
      "370C",
      "370C",
      "370C",
      "370C",
      "370C",
      "370C",
      "370C",
      "370C",
      "370C",
      "370C",
      "370C",
      "370C",
      "370C",
      "370C",
      "370C",
      "370C",
      "370C",
      "370C",
      "370C",
      "370C",
      "370C",
      "370C",
      "370C",
      "370C",
      "370C",
      "370C",
      "370C",
      "370C",
      "370C",
      "370C",
      "370C",
      "370C",
      "370C",
      "357",
      "347",
      "337",
      "330C",
      "330",
      "302",
      "280",
      "260",
      "239",
      "220",
      "201",
      "186",
      "182",
      "174",
      "172C",
      "169",
      "163",
      "158",
      "148",
      "144",
      "131",
      "127",
      "120",
      "119",
      "111",
      "108",
      "101",
      "098",
      "087",
      "074",
      "072",
      "065",
      "063",
      "056",
      "054",
      "048"
    ],
    "swim:geom": "path",
    "swim:speeds": [
      187,
      189,
      258,
      267,
      293,
      293,
      346,
      360,
      379,
      395,
      406,
      429,
      445,
      457,
      472,
      487,
      494,
      503,
      494,
      492,
      493,
      492,
      493,
      497,
      498,
      497,
      497,
      497,
      498,
      497,
      497,
      497,
      498,
      497,
      498,
      497,
      498,
      497,
      503,
      497,
      500,
      497,
      497,
      499,
      498,
      499,
      499,
      500,
      500,
      500,
      500,
      501,
      501,
      501,
      501,
      502,
      502,
      502,
      502,
      502,
      502,
      503,
      502,
      503,
      503,
      503,
      503,
      502,
      501,
      500,
      499,
      499,
      499,
      500,
      500,
      500,
      501,
      502,
      502,
      503,
      502,
      501,
      500,
      499,
      499,
      500,
      501,
      502,
      502,
      502,
      502,
      501,
      501,
      500,
      500,
      500,
      501,
      502,
      502,
      503,
      505,
      507,
      503,
      501,
      502,
      488,
      472,
      459,
      445,
      430,
      418,
      420,
      400,
      388,
      335,
      307,
      295,
      289,
      280,
      284,
      290,
      288,
      283,
      283,
      285,
      281,
      290,
      274,
      214,
      200,
      165,
      158,
      155,
      151,
      151
    ],
    "swim:timestamps": [
      1790449638,
      1790449664,
      1790449698,
      1790449724,
      1790449758,
      1790449784,
      1790449844,
      1790449904,
      1790449964,
      1790450024,
      1790450084,
      1790450144,
      1790450204,
      1790450265,
      1790450325,
      1790450385,
      1790450445,
      1790450496,
      1790450505,
      1790450557,
      1790450565,
      1790450617,
      1790450625,
      1790450677,
      1790450685,
      1790450737,
      1790450745,
      1790450805,
      1790450857,
      1790450865,
      1790450926,
      1790450986,
      1790451037,
      1790451046,
      1790451097,
      1790451106,
      1790451157,
      1790451166,
      1790451217,
      1790451226,
      1790451278,
      1790451286,
      1790451346,
      1790451398,
      1790451406,
      1790451458,
      1790451466,
      1790451518,
      1790451526,
      1790451578,
      1790451587,
      1790451638,
      1790451647,
      1790451698,
      1790451707,
      1790451758,
      1790451767,
      1790451818,
      1790451827,
      1790451878,
      1790451887,
      1790451938,
      1790451947,
      1790451998,
      1790452007,
      1790452067,
      1790452119,
      1790452127,
      1790452179,
      1790452239,
      1790452299,
      1790452359,
      1790452419,
      1790452479,
      1790452539,
      1790452599,
      1790452659,
      1790452719,
      1790452780,
      1790452840,
      1790452900,
      1790452960,
      1790453020,
      1790453080,
      1790453140,
      1790453200,
      1790453260,
      1790453320,
      1790453380,
      1790453440,
      1790453500,
      1790453561,
      1790453621,
      1790453681,
      1790453741,
      1790453801,
      1790453861,
      1790453921,
      1790453981,
      1790454161,
      1790454221,
      1790454281,
      1790454342,
      1790454402,
      1790454462,
      1790454522,
      1790454582,
      1790454642,
      1790454702,
      1790454762,
      1790454804,
      1790454822,
      1790454846,
      1790454882,
      1790454900,
      1790454942,
      1790454960,
      1790455002,
      1790455020,
      1790455063,
      1790455081,
      1790455123,
      1790455135,
      1790455183,
      1790455195,
      1790455243,
      1790455255,
      1790455303,
      1790455363,
      1790455375,
      1790455423,
      1790455435,
      1790455483,
      1790455495,
      1790455543
    ],
    "wof:geomhash": "99882c71d830a4eda92a29cc6d3c2979",
    "wof:id": 2048443997,
    "wof:repo": "sfomuseum-data-flights-2026-09"
  },
  "bbox": [
    -122.38333333333334,
    37.663333333333334,
    -110.96638888888889,
    45.76166666666666
  ],
  "geometry": {"type":"LineString","coordinates":[[-122.38333333333334,37.666666666666664],[-122.37277777777777,37.663333333333334],[-122.31666666666666,37.68333333333333],[-122.29305555555555,37.69027777777777],[-122.23333333333333,37.71666666666667],[-122.21861111111112,37.740833333333335],[-122.18305555555555,37.82527777777778],[-122.1036111111111,37.90333333333333],[-122.02055555555556,37.98527777777778],[-121.93472222222222,38.069722222222225],[-121.84444444444443,38.15833333333333],[-121.7375,38.26305555555555],[-121.63861111111112,38.35916666666667],[-121.53194444444445,38.45527777777778],[-121.40055555555556,38.53638888888889],[-121.28527777777778,38.606944444444444],[-121.14083333333333,38.69444444444444],[-121.01055555555556,38.770833333333336],[-121.00305555555556,38.77777777777778],[-120.88083333333333,38.86138888888889],[-120.87305555555555,38.87111111111111],[-120.75222222222222,38.95638888888889],[-120.74444444444444,38.96472222222223],[-120.62166666666666,39.05222222222222],[-120.61277777777777,39.059999999999995],[-120.48083333333334,39.13444444444444],[-120.46888888888888,39.138333333333335],[-120.31805555555555,39.212500000000006],[-120.1763888888889,39.27972222222222],[-120.16638888888889,39.286944444444444],[-120.02666666666667,39.355000000000004],[-119.87416666666665,39.42916666666667],[-119.72361111111111,39.50111111111111],[-119.72222222222223,39.5025],[-119.57111111111111,39.574444444444445],[-119.56972222222223,39.57611111111112],[-119.41888888888889,39.647777777777776],[-119.41805555555555,39.64888888888889],[-119.26777777777778,39.72083333333334],[-119.26472222222222,39.72222222222222],[-119.11083333333333,39.79527777777778],[-119.11083333333333,39.79527777777778],[-118.95527777777778,39.86888888888889],[-118.80194444444444,39.94083333333333],[-118.79972222222221,39.94194444444444],[-118.64611111111111,40.01416666666667],[-118.64611111111111,40.01416666666667],[-118.49333333333334,40.085],[-118.48944444444444,40.08694444444445],[-118.33833333333332,40.156666666666666],[-118.33277777777778,40.159444444444446],[-118.18277777777779,40.228611111111114],[-118.17777777777778,40.23111111111111],[-118.02777777777777,40.29972222222222],[-118.02222222222223,40.30222222222222],[-117.86749999999999,40.37305555555555],[-117.86861111111111,40.3725],[-117.71166666666667,40.44416666666666],[-117.70861111111111,40.445277777777775],[-117.5525,40.51583333333333],[-117.54944444444445,40.51694444444444],[-117.39277777777778,40.58722222222222],[-117.39027777777778,40.58833333333334],[-117.23305555555555,40.659166666666664],[-117.23055555555555,40.66027777777778],[-117.07194444444444,40.73083333333334],[-116.94611111111111,40.78638888888889],[-116.91055555555556,40.80222222222222],[-116.78555555555555,40.856944444444444],[-116.625,40.927499999999995],[-116.4675,40.99611111111111],[-116.30777777777777,41.06583333333333],[-116.14833333333334,41.134166666666665],[-115.98944444444444,41.202222222222225],[-115.82722222222222,41.27166666666667],[-115.66555555555556,41.34027777777778],[-115.50444444444445,41.40833333333333],[-115.34166666666667,41.47666666666667],[-115.17944444444444,41.54416666666666],[-115.02222222222223,41.6175],[-114.88944444444445,41.715],[-114.75888888888889,41.81305555555555],[-114.6286111111111,41.91111111111111],[-114.48805555555556,42.01611111111111],[-114.35388888888889,42.11527777777778],[-114.2225,42.21194444444445],[-114.08749999999999,42.31194444444444],[-113.9525,42.41083333333333],[-113.81777777777778,42.509166666666665],[-113.68277777777779,42.60722222222223],[-113.55916666666667,42.696666666666665],[-113.42555555555556,42.7925],[-113.28916666666666,42.890277777777776],[-113.155,42.98583333333333],[-113.01833333333333,43.0825],[-112.88222222222221,43.17861111111111],[-112.74333333333334,43.27611111111111],[-112.5775,43.39194444444444],[-112.4388888888889,43.48833333333334],[-112.02083333333333,43.775555555555556],[-111.87805555555555,43.87277777777778],[-111.7363888888889,43.968611111111116],[-111.62472222222222,44.081944444444446],[-111.54555555555555,44.2075],[-111.46472222222222,44.33416666666667],[-111.38722222222223,44.45666666666667],[-111.315,44.57083333333334],[-111.24222222222222,44.68444444444444],[-111.17055555555557,44.796388888888885],[-111.10027777777778,44.90472222222222],[-111.04583333333333,44.99138888888889],[-111.03138888888888,45.01083333333333],[-110.99944444444445,45.06166666666666],[-110.96638888888889,45.117777777777775],[-110.9713888888889,45.151666666666664],[-111.0125,45.20166666666667],[-111.03305555555555,45.223888888888894],[-111.07527777777777,45.270833333333336],[-111.09666666666666,45.29194444444444],[-111.13583333333334,45.337500000000006],[-111.15555555555557,45.356944444444444],[-111.19472222222223,45.40222222222222],[-111.2063888888889,45.41972222222222],[-111.22944444444444,45.47805555555556],[-111.23861111111111,45.495555555555555],[-111.2525,45.555277777777775],[-111.23972222222223,45.57055555555556],[-111.16333333333334,45.596111111111114],[-111.10055555555554,45.640277777777776],[-111.09472222222222,45.650277777777774],[-111.08027777777778,45.68333333333333],[-111.08555555555554,45.69444444444444],[-111.10166666666666,45.72416666666667],[-111.10777777777777,45.73277777777778],[-111.12916666666666,45.76166666666666]]}
}
