{
  "id": 2048309693,
  "type": "Feature",
  "properties": {
    "geom:area": 0,
    "geom:bbox": "-122.359270,37.495220,-121.254210,37.613840",
    "geom:latitude": 37.550333682545414,
    "geom:longitude": -121.81090170959433,
    "src:alt_label": "swim-approach",
    "src:geom": "swim",
    "swim:elevations": [
      4801,
      4606,
      4136,
      3966,
      3835,
      3744,
      3610,
      3166,
      3047,
      3048,
      2822,
      2587,
      2397,
      2244,
      2076,
      1883,
      1829,
      1829,
      1773,
      1542,
      1337,
      1141,
      1066,
      913,
      847,
      632,
      548,
      542,
      369,
      224,
      152,
      0
    ],
    "swim:geom": "approach",
    "swim:timestamps": [
      1789138027,
      1789138066,
      1789138106,
      1789138126,
      1789138152,
      1789138174,
      1789138202,
      1789138256,
      1789138281,
      1789138299,
      1789138344,
      1789138368,
      1789138395,
      1789138430,
      1789138458,
      1789138486,
      1789138521,
      1789138539,
      1789138575,
      1789138616,
      1789138644,
      1789138667,
      1789138683,
      1789138724,
      1789138751,
      1789138787,
      1789138827,
      1789138853,
      1789138883,
      1789138908,
      1789138930,
      1789138971
    ],
    "wof:geomhash": "cd6c2e74845246d6354f2351df9decb7",
    "wof:id": 2048309693,
    "wof:repo": "sfomuseum-data-flights-2026-09"
  },
  "bbox": [
    -122.35927,
    37.49522,
    -121.25421,
    37.61384
  ],
  "geometry": {"type":"LineString","coordinates":[[-121.25421,37.59404],[-121.32651,37.58521],[-121.39485,37.57765],[-121.4307,37.57357],[-121.47499,37.56822],[-121.5097,37.56432],[-121.55227,37.55928],[-121.62812,37.55534],[-121.66164,37.56177],[-121.68678,37.56524],[-121.73424,37.5357],[-121.76032,37.51953],[-121.7977,37.5149],[-121.84487,37.5095],[-121.8806,37.50551],[-121.91605,37.50152],[-121.95943,37.49664],[-121.98216,37.49522],[-122.0253,37.50695],[-122.06821,37.52085],[-122.09715,37.53027],[-122.11978,37.5376],[-122.13651,37.54298],[-122.1731,37.55481],[-122.19714,37.56263],[-122.22726,37.57244],[-122.25877,37.58256],[-122.27715,37.58781],[-122.29887,37.5942],[-122.31666,37.59962],[-122.33214,37.60427],[-122.35927,37.61384]]}
}
