{
  "id": 2048296847,
  "type": "Feature",
  "properties": {
    "geom:area": 0,
    "geom:bbox": "-122.563740,36.719340,-122.354000,37.667490",
    "geom:latitude": 37.2358771831091,
    "geom:longitude": -122.51650861402615,
    "src:alt_label": "swim-takeoff",
    "src:geom": "swim",
    "swim:elevations": [
      152,
      729,
      1061,
      1271,
      1646,
      1895,
      2451,
      2972,
      3470,
      3550,
      3778,
      3983,
      4362,
      4696,
      4902,
      5357,
      5699,
      5837,
      6124,
      6326,
      6660,
      6836,
      7255,
      7317,
      7646,
      7669
    ],
    "swim:geom": "takeoff",
    "swim:timestamps": [
      1788955456,
      1788955498,
      1788955521,
      1788955553,
      1788955584,
      1788955603,
      1788955638,
      1788955669,
      1788955707,
      1788955719,
      1788955756,
      1788955772,
      1788955796,
      1788955820,
      1788955836,
      1788955878,
      1788955914,
      1788955927,
      1788955964,
      1788955988,
      1788956031,
      1788956048,
      1788956096,
      1788956106,
      1788956154,
      1788956162
    ],
    "wof:geomhash": "61ad6dbf16364501966c14fc797aebf9",
    "wof:id": 2048296847,
    "wof:repo": "sfomuseum-data-flights-2026-09"
  },
  "bbox": [
    -122.56374,
    36.71934,
    -122.354,
    37.66749
  ],
  "geometry": {"type":"LineString","coordinates":[[-122.39094,37.62525],[-122.43008,37.64181],[-122.45225,37.65178],[-122.48898,37.66749],[-122.53391,37.66326],[-122.55214,37.64445],[-122.56039,37.59872],[-122.56004,37.55718],[-122.56054,37.50518],[-122.56062,37.48776],[-122.561,37.42761],[-122.5613,37.40063],[-122.56167,37.36055],[-122.56206,37.31884],[-122.5623,37.29138],[-122.56266,37.2193],[-122.56311,37.15531],[-122.56322,37.13162],[-122.56374,37.06383],[-122.56069,37.01913],[-122.5179,36.94393],[-122.49697,36.91514],[-122.43696,36.83305],[-122.42448,36.81607],[-122.36386,36.73327],[-122.354,36.71934]]}
}
