{
  "id": 2048424045,
  "type": "Feature",
  "properties": {
    "geom:area": 0,
    "geom:bbox": "-122.242550,37.839800,-122.180200,38.486050",
    "geom:latitude": 38.162841484720325,
    "geom:longitude": -122.20964193519384,
    "src:alt_label": "swim-takeoff",
    "src:geom": "swim",
    "swim:elevations": [
      2712,
      2960,
      3241,
      3261,
      4172,
      4631,
      5235,
      5658,
      6031,
      6267,
      6467,
      6751
    ],
    "swim:geom": "takeoff",
    "swim:timestamps": [
      1790272082,
      1790272098,
      1790272133,
      1790272140,
      1790272228,
      1790272269,
      1790272313,
      1790272347,
      1790272378,
      1790272400,
      1790272420,
      1790272450
    ],
    "wof:geomhash": "37b026abf79ffa8f4d204440b490e629",
    "wof:id": 2048424045,
    "wof:repo": "sfomuseum-data-flights-2026-09"
  },
  "bbox": [
    -122.24255,
    37.8398,
    -122.1802,
    38.48605
  ],
  "geometry": {"type":"LineString","coordinates":[[-122.19509,37.8398],[-122.19134,37.86249],[-122.18241,37.91487],[-122.18062,37.92577],[-122.1802,38.07524],[-122.19383,38.14716],[-122.2244,38.2249],[-122.24134,38.28585],[-122.24255,38.34532],[-122.24236,38.38772],[-122.24213,38.42646],[-122.24168,38.48605]]}
}
