{
  "id": 2048246005,
  "type": "Feature",
  "properties": {
    "geom:area": 0,
    "geom:bbox": "-122.527920,37.626330,-121.449830,38.504720",
    "geom:latitude": 38.077389660760474,
    "geom:longitude": -122.06848817966294,
    "src:alt_label": "swim-takeoff",
    "src:geom": "swim",
    "swim:elevations": [
      183,
      322,
      757,
      1056,
      1101,
      1410,
      1560,
      1696,
      2039,
      2242,
      2659,
      3004,
      3263,
      3293,
      3471,
      3715,
      3893,
      4276,
      4608,
      4833,
      5180,
      5555,
      5766,
      5995,
      6225,
      6411,
      6636,
      6823,
      6903
    ],
    "swim:geom": "takeoff",
    "swim:timestamps": [
      1788445581,
      1788445592,
      1788445636,
      1788445678,
      1788445697,
      1788445735,
      1788445748,
      1788445762,
      1788445791,
      1788445810,
      1788445847,
      1788445876,
      1788445913,
      1788445922,
      1788445959,
      1788445988,
      1788446010,
      1788446056,
      1788446093,
      1788446116,
      1788446146,
      1788446184,
      1788446216,
      1788446244,
      1788446272,
      1788446298,
      1788446334,
      1788446360,
      1788446371
    ],
    "wof:geomhash": "ba43897622c7fa5dac046ee9d31c3d32",
    "wof:id": 2048246005,
    "wof:repo": "sfomuseum-data-flights-2026-09"
  },
  "bbox": [
    -122.52792,
    37.62633,
    -121.44983,
    38.50472
  ],
  "geometry": {"type":"LineString","coordinates":[[-122.39261,37.62633],[-122.40251,37.63084],[-122.44338,37.64797],[-122.48369,37.66517],[-122.50543,37.67453],[-122.52792,37.71274],[-122.52776,37.72953],[-122.52739,37.74853],[-122.52465,37.7863],[-122.508,37.80906],[-122.45419,37.83946],[-122.41328,37.86549],[-122.35798,37.90165],[-122.34519,37.91031],[-122.28483,37.95191],[-122.2338,37.98708],[-122.19369,38.01413],[-122.10737,38.07201],[-122.03364,38.12132],[-121.98866,38.15169],[-121.92784,38.1925],[-121.8523,38.24355],[-121.78569,38.28802],[-121.72668,38.32746],[-121.66928,38.36642],[-121.61397,38.40381],[-121.5351,38.45427],[-121.47466,38.49019],[-121.44983,38.50472]]}
}
