{
  "id": 2048260325,
  "type": "Feature",
  "properties": {
    "geom:area": 0,
    "geom:bbox": "-122.405510,37.628050,-121.242650,38.427080",
    "geom:latitude": 38.026410057163595,
    "geom:longitude": -121.83606743907784,
    "src:alt_label": "swim-takeoff",
    "src:geom": "swim",
    "swim:elevations": [
      319,
      571,
      631,
      718,
      1065,
      1576,
      1866,
      2122,
      2459,
      2728,
      3033,
      3235,
      3369,
      3478,
      3631,
      3930,
      4145,
      4321,
      4410,
      4793,
      4989,
      5145,
      5301,
      5485,
      5669,
      5770,
      5983
    ],
    "swim:geom": "takeoff",
    "swim:timestamps": [
      1788632209,
      1788632243,
      1788632262,
      1788632286,
      1788632315,
      1788632366,
      1788632393,
      1788632419,
      1788632453,
      1788632479,
      1788632506,
      1788632546,
      1788632577,
      1788632599,
      1788632634,
      1788632667,
      1788632694,
      1788632723,
      1788632735,
      1788632785,
      1788632814,
      1788632837,
      1788632863,
      1788632893,
      1788632923,
      1788632940,
      1788632974
    ],
    "wof:geomhash": "24c4fa2c23b494768257a77e406a32a6",
    "wof:id": 2048260325,
    "wof:repo": "sfomuseum-data-flights-2026-09"
  },
  "bbox": [
    -122.40551,
    37.62805,
    -121.24265,
    38.42708
  ],
  "geometry": {"type":"LineString","coordinates":[[-122.39599,37.62805],[-122.40551,37.65253],[-122.38882,37.66498],[-122.35567,37.67545],[-122.31381,37.68641],[-122.23582,37.71033],[-122.2009,37.73156],[-122.1755,37.76],[-122.14132,37.79835],[-122.11504,37.82756],[-122.08655,37.85868],[-122.03807,37.90066],[-121.98959,37.93299],[-121.95394,37.95704],[-121.89456,37.99718],[-121.83621,38.03651],[-121.78849,38.06861],[-121.7361,38.10367],[-121.71401,38.11849],[-121.61997,38.1816],[-121.56573,38.21796],[-121.52084,38.24796],[-121.47027,38.28175],[-121.41107,38.32124],[-121.35121,38.36065],[-121.31592,38.38254],[-121.24265,38.42708]]}
}
