{
  "id": 2048394569,
  "type": "Feature",
  "properties": {
    "geom:area": 0,
    "geom:bbox": "-122.359340,37.491880,-121.544130,37.614630",
    "geom:latitude": 37.5361240537566,
    "geom:longitude": -121.95490896910026,
    "src:alt_label": "swim-approach",
    "src:geom": "swim",
    "swim:elevations": [
      3307,
      3159,
      3047,
      3023,
      2925,
      2701,
      2473,
      2409,
      2181,
      2144,
      1917,
      1803,
      1682,
      1357,
      1210,
      1145,
      1048,
      915,
      832,
      694,
      530,
      420,
      305,
      167,
      197
    ],
    "swim:geom": "approach",
    "swim:timestamps": [
      1790020823,
      1790020852,
      1790020873,
      1790020888,
      1790020897,
      1790020934,
      1790020971,
      1790020998,
      1790021038,
      1790021043,
      1790021096,
      1790021124,
      1790021142,
      1790021187,
      1790021214,
      1790021226,
      1790021250,
      1790021277,
      1790021296,
      1790021324,
      1790021360,
      1790021381,
      1790021414,
      1790021453,
      1790021486
    ],
    "wof:geomhash": "d2601502c8767aee7e2c1ff33a33fc45",
    "wof:id": 2048394569,
    "wof:repo": "sfomuseum-data-flights-2026-09"
  },
  "bbox": [
    -122.35934,
    37.49188,
    -121.54413,
    37.61463
  ],
  "geometry": {"type":"LineString","coordinates":[[-121.54413,37.56024],[-121.59155,37.55471],[-121.62403,37.55023],[-121.64662,37.54561],[-121.66074,37.54238],[-121.71634,37.52906],[-121.77338,37.51532],[-121.81384,37.50547],[-121.86887,37.49268],[-121.87551,37.49188],[-121.95019,37.49272],[-121.98848,37.49578],[-122.01219,37.50235],[-122.07128,37.5216],[-122.10639,37.53316],[-122.12088,37.53791],[-122.14737,37.54654],[-122.1748,37.55552],[-122.1951,37.56204],[-122.22346,37.5711],[-122.26034,37.58286],[-122.28009,37.58877],[-122.30581,37.59618],[-122.33551,37.60433],[-122.35934,37.61463]]}
}
