{
  "id": 2048314017,
  "type": "Feature",
  "properties": {
    "geom:area": 0,
    "geom:bbox": "-122.404960,37.627580,-121.244050,37.965910",
    "geom:latitude": 37.83316180646251,
    "geom:longitude": -121.84403780998406,
    "src:alt_label": "swim-takeoff",
    "src:geom": "swim",
    "swim:elevations": [
      213,
      436,
      772,
      1109,
      1359,
      1687,
      2336,
      2455,
      3040,
      3293,
      3332,
      3955,
      4097,
      4456,
      4648,
      5179,
      5367,
      5589,
      5800,
      6090,
      6330,
      6561,
      6792,
      6874
    ],
    "swim:geom": "takeoff",
    "swim:timestamps": [
      1789152292,
      1789152306,
      1789152337,
      1789152373,
      1789152408,
      1789152432,
      1789152477,
      1789152488,
      1789152530,
      1789152566,
      1789152571,
      1789152627,
      1789152639,
      1789152676,
      1789152694,
      1789152747,
      1789152766,
      1789152786,
      1789152808,
      1789152837,
      1789152863,
      1789152894,
      1789152922,
      1789152932
    ],
    "wof:geomhash": "b85e8717c3166e39d6e38bb0a22c621e",
    "wof:id": 2048314017,
    "wof:repo": "sfomuseum-data-flights-2026-09"
  },
  "bbox": [
    -122.40496,
    37.62758,
    -121.24405,
    37.96591
  ],
  "geometry": {"type":"LineString","coordinates":[[-122.39625,37.62758],[-122.40496,37.63509],[-122.39356,37.65782],[-122.35513,37.6717],[-122.30828,37.68656],[-122.27245,37.69831],[-122.20475,37.72301],[-122.18922,37.73091],[-122.12934,37.762],[-122.0723,37.79141],[-122.0641,37.79569],[-121.95906,37.83496],[-121.93448,37.83973],[-121.85574,37.85451],[-121.81642,37.86182],[-121.69597,37.88418],[-121.65298,37.89215],[-121.60614,37.90071],[-121.55397,37.91005],[-121.48219,37.92294],[-121.41813,37.93444],[-121.34127,37.94835],[-121.26941,37.96135],[-121.24405,37.96591]]}
}
