{
  "id": 2048387515,
  "type": "Feature",
  "properties": {
    "geom:area": 0,
    "geom:bbox": "-123.446180,37.263280,-122.108880,37.613850",
    "geom:latitude": 37.38231485956986,
    "geom:longitude": -122.66767912926704,
    "src:alt_label": "swim-approach",
    "src:geom": "swim",
    "swim:elevations": [
      5183,
      5055,
      4596,
      4459,
      4421,
      4103,
      3768,
      3486,
      3365,
      3154,
      3049,
      3048,
      3048,
      3048,
      3048,
      2991,
      2893,
      2792,
      2565,
      2378,
      2382,
      2230,
      2134,
      2171,
      2104,
      2012,
      1826,
      1829,
      1829,
      1581,
      1304,
      1172,
      1056,
      849,
      672,
      606,
      428,
      356,
      0,
      58,
      0
    ],
    "swim:geom": "approach",
    "swim:timestamps": [
      1789898995,
      1789899009,
      1789899058,
      1789899072,
      1789899076,
      1789899109,
      1789899145,
      1789899173,
      1789899188,
      1789899223,
      1789899265,
      1789899287,
      1789899319,
      1789899349,
      1789899379,
      1789899415,
      1789899436,
      1789899450,
      1789899487,
      1789899536,
      1789899540,
      1789899580,
      1789899628,
      1789899650,
      1789899687,
      1789899707,
      1789899740,
      1789899769,
      1789899785,
      1789899836,
      1789899864,
      1789899887,
      1789899915,
      1789899951,
      1789899988,
      1789900005,
      1789900045,
      1789900061,
      1789900100,
      1789900134,
      1789900144
    ],
    "wof:geomhash": "67d4d3b1b3801a9dd1d05c41ca5e6acc",
    "wof:id": 2048387515,
    "wof:repo": "sfomuseum-data-flights-2026-09"
  },
  "bbox": [
    -123.44618,
    37.26328,
    -122.10888,
    37.61385
  ],
  "geometry": {"type":"LineString","coordinates":[[-123.44618,37.43292],[-123.4173,37.42433],[-123.31631,37.39414],[-123.2875,37.3856],[-123.27898,37.38306],[-123.2114,37.36269],[-123.13797,37.34073],[-123.08115,37.3236],[-123.05125,37.31453],[-122.98396,37.2942],[-122.90335,37.26989],[-122.86128,37.26328],[-122.79697,37.27275],[-122.73661,37.28694],[-122.68258,37.30003],[-122.62301,37.31408],[-122.5897,37.32174],[-122.56759,37.32671],[-122.50945,37.34003],[-122.43448,37.35728],[-122.42868,37.3587],[-122.37295,37.37146],[-122.30832,37.38167],[-122.27796,37.38478],[-122.22827,37.39038],[-122.20102,37.39357],[-122.15555,37.39865],[-122.12494,37.4129],[-122.11665,37.4275],[-122.10888,37.47244],[-122.12365,37.49673],[-122.1358,37.51587],[-122.16185,37.53131],[-122.19823,37.54652],[-122.23224,37.56101],[-122.24828,37.56773],[-122.28168,37.5818],[-122.29398,37.58701],[-122.32445,37.60026],[-122.35037,37.61072],[-122.35796,37.61385]]}
}
