{
  "id": 2048288619,
  "type": "Feature",
  "properties": {
    "geom:area": 0,
    "geom:bbox": "-122.292520,37.939940,-122.220270,38.506420",
    "geom:latitude": 38.230120105998246,
    "geom:longitude": -122.23357264593075,
    "src:alt_label": "swim-takeoff",
    "src:geom": "swim",
    "swim:elevations": [
      3498,
      3778,
      4034,
      4315,
      4944,
      5101,
      5326,
      5933,
      6138,
      6458,
      6677,
      6706,
      6706
    ],
    "swim:geom": "takeoff",
    "swim:timestamps": [
      1788886675,
      1788886696,
      1788886716,
      1788886745,
      1788886797,
      1788886812,
      1788886839,
      1788886883,
      1788886897,
      1788886920,
      1788886945,
      1788886970,
      1788886986
    ],
    "wof:geomhash": "36291eee53fce184bb807c7943bd42b1",
    "wof:id": 2048288619,
    "wof:repo": "sfomuseum-data-flights-2026-09"
  },
  "bbox": [
    -122.29252,
    37.93994,
    -122.22027,
    38.50642
  ],
  "geometry": {"type":"LineString","coordinates":[[-122.22027,37.93994],[-122.2214,37.97845],[-122.22243,38.01362],[-122.22391,38.06558],[-122.22658,38.16389],[-122.22742,38.192],[-122.22876,38.24246],[-122.23094,38.32772],[-122.23165,38.35401],[-122.23337,38.39619],[-122.24608,38.44078],[-122.27481,38.48211],[-122.29252,38.50642]]}
}
