{
  "id": 2048480337,
  "type": "Feature",
  "properties": {
    "geom:area": 0,
    "geom:bbox": "-122.369500,37.623810,-121.243280,38.427260",
    "geom:latitude": 38.03685708147551,
    "geom:longitude": -121.81663679143931,
    "src:alt_label": "swim-takeoff",
    "src:geom": "swim",
    "swim:elevations": [
      152,
      366,
      492,
      909,
      1263,
      1660,
      1823,
      1912,
      2504,
      2750,
      3082,
      3511,
      3692,
      3910,
      4122,
      4774,
      5308,
      5633,
      5805,
      5865,
      5984,
      6371,
      7213,
      7642,
      7935,
      8108,
      8377,
      8796,
      9095,
      9435
    ],
    "swim:geom": "takeoff",
    "swim:timestamps": [
      1790759366,
      1790759379,
      1790759387,
      1790759409,
      1790759436,
      1790759469,
      1790759480,
      1790759486,
      1790759515,
      1790759531,
      1790759551,
      1790759577,
      1790759595,
      1790759614,
      1790759626,
      1790759662,
      1790759693,
      1790759712,
      1790759754,
      1790759787,
      1790759796,
      1790759817,
      1790759878,
      1790759912,
      1790759940,
      1790759956,
      1790759984,
      1790760024,
      1790760057,
      1790760081
    ],
    "wof:geomhash": "8301ce39d12b11c5dbd751389c580ad3",
    "wof:id": 2048480337,
    "wof:repo": "sfomuseum-data-flights-2026-09"
  },
  "bbox": [
    -122.3695,
    37.62381,
    -121.24328,
    38.42726
  ],
  "geometry": {"type":"LineString","coordinates":[[-122.3695,37.62381],[-122.36417,37.63211],[-122.35936,37.63624],[-122.34268,37.64556],[-122.32201,37.6584],[-122.28942,37.67774],[-122.27703,37.68499],[-122.26979,37.68912],[-122.23275,37.70865],[-122.21231,37.72167],[-122.19103,37.74331],[-122.16381,37.77387],[-122.1444,37.79541],[-122.12135,37.82107],[-122.10607,37.83802],[-122.05565,37.88714],[-122.00267,37.92364],[-121.96859,37.94687],[-121.89285,37.99834],[-121.83317,38.03876],[-121.8168,38.04981],[-121.77774,38.07614],[-121.66431,38.15241],[-121.6004,38.19528],[-121.54556,38.23244],[-121.5129,38.25446],[-121.45377,38.29345],[-121.37151,38.34865],[-121.29793,38.39405],[-121.24328,38.42726]]}
}
