{
  "id": 2048466733,
  "type": "Feature",
  "properties": {
    "geom:area": 0,
    "geom:bbox": "-122.350000,26.090000,-80.048889,38.330278",
    "geom:latitude": 34.098712915200885,
    "geom:longitude": -100.37657565635818,
    "src:alt_label": "swim-path",
    "src:geom": "swim",
    "swim:altitudes": [
      "021",
      "046",
      "063",
      "092",
      "113",
      "130",
      "133",
      "155",
      "172",
      "187",
      "207",
      "223",
      "236",
      "249",
      "263",
      "277",
      "289",
      "300C",
      "300C",
      "300C",
      "300C",
      "300C",
      "300C",
      "300C",
      "300C",
      "300C",
      "300C",
      "300C",
      "300C",
      "300C",
      "300C",
      "300C",
      "300C",
      "300C",
      "300C",
      "300C",
      "300C",
      "300C",
      "300C",
      "300C",
      "300C",
      "300C",
      "300C",
      "300C",
      "300C",
      "300C",
      "300C",
      "300C",
      "300C",
      "300C",
      "300C",
      "300C",
      "300C",
      "300C",
      "300C",
      "300C",
      "300C",
      "300C",
      "300C",
      "300C",
      "300C",
      "300C",
      "300C",
      "300C",
      "300C",
      "300C",
      "300C",
      "300C",
      "300C",
      "300C",
      "300C",
      "300C",
      "300C",
      "300C",
      "300C",
      "300C",
      "300C",
      "300C",
      "300C",
      "300C",
      "300C",
      "300C",
      "300C",
      "300C",
      "300C",
      "300C",
      "300",
      "302",
      "320C",
      "320C",
      "320C",
      "320C",
      "320C",
      "320C",
      "320C",
      "320C",
      "320C",
      "320C",
      "320C",
      "320C",
      "320C",
      "320C",
      "320C",
      "320C",
      "320C",
      "320C",
      "320C",
      "320C",
      "320C",
      "320C",
      "320C",
      "320C",
      "320C",
      "320C",
      "320C",
      "320C",
      "320C",
      "320C",
      "320C",
      "320C",
      "320C",
      "320C",
      "320C",
      "320C",
      "320C",
      "320C",
      "320C",
      "320C",
      "320C",
      "320C",
      "320C",
      "320C",
      "320C",
      "320C",
      "320C",
      "320C",
      "320C",
      "320C",
      "320C",
      "320C",
      "320C",
      "320C",
      "320C",
      "320C",
      "320C",
      "320C",
      "320C",
      "320C",
      "320C",
      "320C",
      "320C",
      "320C",
      "320C",
      "320C",
      "320C",
      "320C",
      "320C",
      "320C",
      "320C",
      "320C",
      "320C",
      "320C",
      "320C",
      "320C",
      "320C",
      "320C",
      "320C",
      "320C",
      "320C",
      "320C",
      "320C",
      "320C",
      "320C",
      "320C",
      "320C",
      "320C",
      "320C",
      "320C",
      "320C",
      "320C",
      "320C",
      "320C",
      "320C",
      "320C",
      "320C",
      "320C",
      "320C",
      "320C",
      "320C",
      "320C",
      "320C",
      "320C",
      "320C",
      "320C",
      "320C",
      "320C",
      "320C",
      "320C",
      "320C",
      "320C",
      "320C",
      "320C",
      "320C",
      "320C",
      "320C",
      "320C",
      "320C",
      "320C",
      "320C",
      "320C",
      "320C",
      "320C",
      "320C",
      "320C",
      "320C",
      "320C",
      "320C",
      "320C",
      "320C",
      "320C",
      "320C",
      "320C",
      "320C",
      "320C",
      "320C",
      "320C",
      "320C",
      "320C",
      "320C",
      "320C",
      "320C",
      "320C",
      "320C",
      "320C",
      "320C",
      "320C",
      "320C",
      "320C",
      "320C",
      "320C",
      "320C",
      "320C",
      "320C",
      "320C",
      "320C",
      "320C",
      "320C",
      "320C",
      "320C",
      "320C",
      "320C",
      "320C",
      "320C",
      "320C",
      "320C",
      "320C",
      "320C",
      "320C",
      "320",
      "321",
      "331",
      "333",
      "347",
      "351",
      "360C",
      "360C",
      "360C",
      "360C",
      "360C",
      "360C",
      "360C",
      "360C",
      "360C",
      "360C",
      "360C",
      "360C",
      "360C",
      "360C",
      "360C",
      "360C",
      "360C",
      "360C",
      "360",
      "360",
      "380C",
      "380C",
      "380C",
      "380C",
      "380C",
      "380C",
      "380C",
      "380C",
      "380C",
      "380C",
      "380C",
      "380C",
      "380C",
      "380C",
      "380C",
      "380C",
      "380C",
      "380C",
      "380C",
      "380C",
      "380C",
      "380C",
      "380C",
      "380C",
      "380C",
      "380C",
      "380C",
      "380C",
      "380C",
      "380C",
      "380C",
      "380C",
      "380C",
      "380C",
      "380C",
      "380C",
      "380C",
      "380C",
      "380C",
      "380C",
      "380C",
      "380C",
      "380C",
      "380C",
      "380C",
      "380C",
      "380C",
      "380C",
      "380C",
      "380C",
      "380C",
      "380C",
      "380C",
      "380C",
      "380C",
      "380C",
      "380C",
      "380C",
      "380C",
      "380C",
      "380C",
      "380C",
      "380C",
      "380C",
      "380C",
      "380C",
      "380C",
      "380C",
      "380C",
      "380C",
      "380C",
      "380C",
      "380C",
      "380C",
      "380C",
      "380C",
      "380C",
      "380C",
      "380C",
      "380C",
      "380C",
      "380C",
      "380C",
      "380C",
      "380C",
      "380C",
      "380C",
      "380C",
      "380C",
      "380C",
      "380C",
      "380C",
      "380C",
      "380C",
      "380C",
      "380C",
      "380C",
      "380C",
      "380C",
      "380C",
      "380C",
      "380C",
      "380C",
      "380C",
      "380C",
      "380C",
      "380C",
      "380C",
      "380C",
      "380C",
      "380C",
      "380C",
      "380C",
      "380C",
      "380C",
      "380C",
      "380C",
      "380C",
      "380C",
      "380C",
      "380C",
      "380C",
      "380C",
      "380C",
      "380C",
      "380C",
      "380C",
      "380C",
      "380C",
      "380C",
      "380C",
      "380C",
      "380C",
      "380C",
      "380C",
      "380C",
      "380C",
      "380C",
      "380C",
      "380C",
      "380C",
      "380C",
      "380C",
      "380C",
      "380C",
      "380C",
      "380C",
      "380C",
      "380C",
      "380C",
      "380C",
      "380C",
      "380C",
      "380C",
      "380C",
      "380",
      "372",
      "362",
      "353",
      "343",
      "333",
      "324",
      "319",
      "298",
      "281",
      "270",
      "259",
      "250",
      "238",
      "228",
      "216",
      "208",
      "194",
      "185",
      "171",
      "161",
      "149",
      "140",
      "127",
      "121",
      "105",
      "103",
      "097",
      "094",
      "085",
      "079",
      "072",
      "068",
      "063",
      "061",
      "059",
      "054",
      "045",
      "040",
      "033",
      "030",
      "022",
      "019",
      "013",
      "010",
      "005",
      "002"
    ],
    "swim:geom": "path",
    "swim:speeds": [
      231,
      266,
      274,
      283,
      305,
      339,
      338,
      349,
      367,
      372,
      388,
      391,
      402,
      419,
      431,
      434,
      439,
      444,
      446,
      448,
      447,
      446,
      444,
      443,
      441,
      440,
      441,
      441,
      433,
      433,
      433,
      433,
      433,
      434,
      434,
      434,
      435,
      435,
      436,
      437,
      437,
      438,
      444,
      453,
      454,
      454,
      454,
      454,
      454,
      454,
      453,
      453,
      452,
      452,
      451,
      451,
      451,
      451,
      450,
      443,
      442,
      439,
      437,
      436,
      436,
      433,
      432,
      433,
      431,
      431,
      431,
      430,
      428,
      431,
      431,
      432,
      433,
      434,
      434,
      435,
      435,
      435,
      436,
      436,
      435,
      434,
      433,
      436,
      443,
      442,
      442,
      443,
      442,
      443,
      450,
      453,
      449,
      449,
      448,
      449,
      449,
      451,
      451,
      451,
      450,
      449,
      448,
      447,
      439,
      431,
      430,
      429,
      430,
      430,
      431,
      431,
      432,
      432,
      433,
      433,
      434,
      434,
      433,
      432,
      438,
      441,
      443,
      443,
      445,
      446,
      447,
      447,
      448,
      449,
      450,
      451,
      451,
      453,
      454,
      455,
      455,
      455,
      455,
      455,
      455,
      455,
      455,
      455,
      455,
      455,
      454,
      454,
      454,
      454,
      453,
      453,
      453,
      452,
      452,
      451,
      451,
      451,
      451,
      451,
      451,
      450,
      452,
      452,
      451,
      452,
      453,
      453,
      454,
      454,
      453,
      452,
      451,
      450,
      448,
      447,
      445,
      444,
      444,
      443,
      441,
      441,
      441,
      442,
      443,
      445,
      448,
      449,
      450,
      449,
      447,
      447,
      446,
      445,
      445,
      445,
      445,
      447,
      446,
      447,
      446,
      447,
      447,
      447,
      446,
      447,
      446,
      446,
      445,
      445,
      445,
      445,
      445,
      445,
      446,
      448,
      448,
      450,
      448,
      448,
      448,
      447,
      447,
      440,
      439,
      437,
      437,
      436,
      437,
      436,
      436,
      433,
      432,
      430,
      431,
      429,
      428,
      428,
      428,
      428,
      427,
      427,
      427,
      430,
      429,
      426,
      427,
      426,
      427,
      427,
      427,
      427,
      427,
      426,
      427,
      424,
      425,
      425,
      418,
      413,
      398,
      397,
      396,
      395,
      395,
      395,
      396,
      396,
      398,
      399,
      402,
      403,
      405,
      405,
      408,
      408,
      409,
      410,
      412,
      412,
      380,
      377,
      374,
      374,
      375,
      375,
      375,
      375,
      383,
      383,
      385,
      386,
      388,
      389,
      391,
      391,
      393,
      392,
      394,
      393,
      394,
      393,
      395,
      395,
      389,
      393,
      397,
      396,
      399,
      399,
      400,
      403,
      400,
      400,
      406,
      402,
      408,
      403,
      408,
      405,
      408,
      406,
      407,
      406,
      407,
      406,
      408,
      406,
      408,
      407,
      408,
      407,
      411,
      407,
      414,
      409,
      417,
      417,
      422,
      423,
      425,
      426,
      427,
      427,
      429,
      429,
      429,
      429,
      431,
      431,
      433,
      434,
      437,
      437,
      439,
      439,
      441,
      442,
      443,
      443,
      444,
      444,
      447,
      448,
      451,
      452,
      454,
      454,
      455,
      455,
      456,
      457,
      458,
      460,
      463,
      470,
      476,
      477,
      474,
      473,
      473,
      472,
      466,
      463,
      461,
      459,
      458,
      457,
      457,
      458,
      459,
      462,
      462,
      465,
      463,
      467,
      468,
      468,
      469,
      470,
      470,
      470,
      470,
      470,
      470,
      470,
      469,
      468,
      468,
      468,
      468,
      467,
      467,
      467,
      467,
      461,
      459,
      458,
      458,
      457,
      458,
      458,
      458,
      458,
      458,
      458,
      458,
      457,
      457,
      457,
      456,
      456,
      457,
      457,
      456,
      457,
      459,
      458,
      457,
      457,
      459,
      460,
      460,
      459,
      447,
      436,
      430,
      428,
      418,
      407,
      404,
      396,
      393,
      384,
      384,
      375,
      375,
      367,
      368,
      361,
      362,
      344,
      317,
      302,
      288,
      282,
      271,
      256,
      246,
      231,
      220,
      217,
      215,
      220,
      217,
      205,
      194,
      187,
      176,
      158,
      146,
      138
    ],
    "swim:timestamps": [
      1790701329,
      1790701389,
      1790701449,
      1790701510,
      1790701570,
      1790701631,
      1790701693,
      1790701754,
      1790701811,
      1790701874,
      1790701934,
      1790701992,
      1790702054,
      1790702114,
      1790702172,
      1790702234,
      1790702294,
      1790702352,
      1790702414,
      1790702475,
      1790702532,
      1790702595,
      1790702655,
      1790702715,
      1790702773,
      1790702835,
      1790702895,
      1790702905,
      1790702955,
      1790702965,
      1790703015,
      1790703025,
      1790703075,
      1790703085,
      1790703135,
      1790703145,
      1790703195,
      1790703206,
      1790703266,
      1790703316,
      1790703326,
      1790703376,
      1790703386,
      1790703446,
      1790703496,
      1790703506,
      1790703556,
      1790703566,
      1790703616,
      1790703626,
      1790703676,
      1790703686,
      1790703736,
      1790703746,
      1790703796,
      1790703806,
      1790703856,
      1790703867,
      1790703916,
      1790703977,
      1790704036,
      1790704096,
      1790704156,
      1790704216,
      1790704276,
      1790704336,
      1790704396,
      1790704456,
      1790704516,
      1790704577,
      1790704637,
      1790704697,
      1790704757,
      1790704817,
      1790704877,
      1790704937,
      1790704997,
      1790705057,
      1790705117,
      1790705177,
      1790705238,
      1790705298,
      1790705358,
      1790705418,
      1790705478,
      1790705538,
      1790705598,
      1790705658,
      1790705718,
      1790705778,
      1790705838,
      1790705899,
      1790705959,
      1790706019,
      1790706079,
      1790706139,
      1790706199,
      1790706259,
      1790706319,
      1790706379,
      1790706439,
      1790706511,
      1790706572,
      1790706632,
      1790706692,
      1790706752,
      1790706812,
      1790706872,
      1790706932,
      1790706992,
      1790707052,
      1790707064,
      1790707112,
      1790707124,
      1790707172,
      1790707184,
      1790707232,
      1790707244,
      1790707293,
      1790707304,
      1790707353,
      1790707364,
      1790707413,
      1790707425,
      1790707473,
      1790707485,
      1790707533,
      1790707545,
      1790707593,
      1790707653,
      1790707665,
      1790707713,
      1790707725,
      1790707773,
      1790707785,
      1790707833,
      1790707845,
      1790707905,
      1790707953,
      1790707965,
      1790708013,
      1790708025,
      1790708074,
      1790708085,
      1790708134,
      1790708146,
      1790708194,
      1790708206,
      1790708254,
      1790708266,
      1790708314,
      1790708326,
      1790708374,
      1790708386,
      1790708446,
      1790708494,
      1790708506,
      1790708554,
      1790708566,
      1790708626,
      1790708674,
      1790708686,
      1790708746,
      1790708795,
      1790708806,
      1790708855,
      1790708867,
      1790708927,
      1790708987,
      1790709047,
      1790709107,
      1790709167,
      1790709227,
      1790709287,
      1790709347,
      1790709407,
      1790709467,
      1790709527,
      1790709588,
      1790709648,
      1790709708,
      1790709768,
      1790709828,
      1790709888,
      1790709948,
      1790710008,
      1790710068,
      1790710128,
      1790710188,
      1790710248,
      1790710309,
      1790710369,
      1790710429,
      1790710489,
      1790710549,
      1790710609,
      1790710669,
      1790710729,
      1790710789,
      1790710849,
      1790710909,
      1790710916,
      1790710969,
      1790710976,
      1790711030,
      1790711036,
      1790711090,
      1790711096,
      1790711150,
      1790711156,
      1790711210,
      1790711217,
      1790711277,
      1790711330,
      1790711337,
      1790711390,
      1790711397,
      1790711450,
      1790711457,
      1790711510,
      1790711517,
      1790711577,
      1790711630,
      1790711637,
      1790711697,
      1790711751,
      1790711757,
      1790711811,
      1790711817,
      1790711871,
      1790711878,
      1790711931,
      1790711938,
      1790711991,
      1790711998,
      1790712051,
      1790712058,
      1790712111,
      1790712118,
      1790712178,
      1790712231,
      1790712238,
      1790712298,
      1790712358,
      1790712418,
      1790712478,
      1790712539,
      1790712586,
      1790712646,
      1790712659,
      1790712706,
      1790712719,
      1790712766,
      1790712779,
      1790712826,
      1790712839,
      1790712886,
      1790712899,
      1790712947,
      1790712959,
      1790713007,
      1790713019,
      1790713067,
      1790713079,
      1790713127,
      1790713139,
      1790713187,
      1790713200,
      1790713247,
      1790713260,
      1790713307,
      1790713320,
      1790713367,
      1790713380,
      1790713427,
      1790713440,
      1790713487,
      1790713500,
      1790713547,
      1790713557,
      1790713607,
      1790713620,
      1790713667,
      1790713680,
      1790713728,
      1790713737,
      1790713788,
      1790713797,
      1790713848,
      1790713858,
      1790713908,
      1790713918,
      1790713968,
      1790713978,
      1790714028,
      1790714038,
      1790714088,
      1790714098,
      1790714148,
      1790714158,
      1790714208,
      1790714221,
      1790714268,
      1790714281,
      1790714328,
      1790714341,
      1790714388,
      1790714449,
      1790714455,
      1790714516,
      1790714569,
      1790714576,
      1790714629,
      1790714636,
      1790714696,
      1790714749,
      1790714756,
      1790714816,
      1790714869,
      1790714876,
      1790714929,
      1790714936,
      1790714989,
      1790714996,
      1790715049,
      1790715056,
      1790715109,
      1790715116,
      1790715170,
      1790715176,
      1790715230,
      1790715236,
      1790715290,
      1790715297,
      1790715350,
      1790715357,
      1790715410,
      1790715417,
      1790715470,
      1790715477,
      1790715530,
      1790715537,
      1790715590,
      1790715597,
      1790715650,
      1790715657,
      1790715710,
      1790715717,
      1790715770,
      1790715777,
      1790715830,
      1790715837,
      1790715891,
      1790715897,
      1790715951,
      1790715957,
      1790716011,
      1790716018,
      1790716071,
      1790716078,
      1790716131,
      1790716138,
      1790716191,
      1790716198,
      1790716251,
      1790716258,
      1790716311,
      1790716318,
      1790716371,
      1790716378,
      1790716431,
      1790716438,
      1790716491,
      1790716498,
      1790716551,
      1790716558,
      1790716618,
      1790716678,
      1790716738,
      1790716799,
      1790716859,
      1790716919,
      1790716979,
      1790717039,
      1790717099,
      1790717159,
      1790717219,
      1790717279,
      1790717339,
      1790717399,
      1790717459,
      1790717520,
      1790717580,
      1790717640,
      1790717660,
      1790717700,
      1790717720,
      1790717760,
      1790717780,
      1790717820,
      1790717840,
      1790717880,
      1790717900,
      1790717940,
      1790717960,
      1790718000,
      1790718020,
      1790718060,
      1790718080,
      1790718120,
      1790718140,
      1790718180,
      1790718201,
      1790718241,
      1790718261,
      1790718301,
      1790718321,
      1790718361,
      1790718381,
      1790718421,
      1790718441,
      1790718481,
      1790718501,
      1790718541,
      1790718561,
      1790718601,
      1790718621,
      1790718661,
      1790718681,
      1790718721,
      1790718741,
      1790718781,
      1790718801,
      1790718841,
      1790718861,
      1790718913,
      1790718922,
      1790718982,
      1790719042,
      1790719102,
      1790719162,
      1790719222,
      1790719282,
      1790719342,
      1790719402,
      1790719462,
      1790719522,
      1790719582,
      1790719643,
      1790719662,
      1790719703,
      1790719717,
      1790719763,
      1790719777,
      1790719823,
      1790719832,
      1790719883,
      1790719897,
      1790719943,
      1790719957,
      1790720003,
      1790720017,
      1790720063,
      1790720071,
      1790720123,
      1790720131,
      1790720183,
      1790720197,
      1790720243,
      1790720257,
      1790720304,
      1790720317,
      1790720364,
      1790720377,
      1790720424,
      1790720438,
      1790720484,
      1790720497,
      1790720544,
      1790720557,
      1790720604,
      1790720617,
      1790720664,
      1790720677,
      1790720724,
      1790720737
    ],
    "wof:geomhash": "00f574ea3eec71843d90d82f82d31e89",
    "wof:id": 2048466733,
    "wof:repo": "sfomuseum-data-flights-2026-09"
  },
  "bbox": [
    -122.35,
    26.09,
    -80.04888888888888,
    38.33027777777778
  ],
  "geometry": {"type":"LineString","coordinates":[[-80.07416666666666,26.09],[-80.04888888888888,26.154444444444444],[-80.08194444444445,26.223611111111108],[-80.16111111111111,26.25638888888889],[-80.23666666666666,26.30388888888889],[-80.31722222222221,26.35638888888889],[-80.40527777777778,26.419444444444444],[-80.48138888888889,26.490555555555556],[-80.55583333333333,26.564444444444444],[-80.63583333333334,26.645],[-80.71777777777778,26.726666666666667],[-80.79777777777778,26.80388888888889],[-80.88555555555556,26.892222222222223],[-80.97500000000001,26.980277777777776],[-81.05944444444444,27.0625],[-81.15833333333335,27.160555555555554],[-81.24361111111111,27.24361111111111],[-81.34472222222222,27.342499999999998],[-81.43138888888889,27.426944444444445],[-81.52638888888889,27.519444444444442],[-81.62138888888889,27.611944444444447],[-81.71277777777777,27.700833333333332],[-81.80611111111111,27.790555555555557],[-81.89833333333334,27.879722222222224],[-81.99638888888889,27.974444444444444],[-82.10166666666666,28.075833333333332],[-82.1888888888889,28.170555555555556],[-82.16694444444445,28.153055555555554],[-82.30888888888889,28.223888888888887],[-82.30666666666666,28.223055555555554],[-82.43277777777779,28.272222222222222],[-82.43277777777779,28.271944444444443],[-82.55638888888889,28.32],[-82.58166666666666,28.329722222222223],[-82.6825,28.368333333333332],[-82.70777777777778,28.378055555555555],[-82.80777777777777,28.41638888888889],[-82.83305555555555,28.426111111111112],[-82.9588888888889,28.473888888888887],[-83.06277777777777,28.51361111111111],[-83.08611111111111,28.522499999999997],[-83.1875,28.566666666666666],[-83.20777777777778,28.581944444444446],[-83.29944444444445,28.680833333333336],[-83.3711111111111,28.760833333333334],[-83.38805555555557,28.779722222222222],[-83.46111111111111,28.861666666666668],[-83.47833333333334,28.88111111111111],[-83.54916666666666,28.96],[-83.56666666666666,28.97972222222222],[-83.63861111111112,29.059444444444445],[-83.63861111111112,29.059166666666666],[-83.72666666666667,29.15722222222222],[-83.72666666666667,29.15722222222222],[-83.81444444444445,29.25888888888889],[-83.81416666666667,29.25888888888889],[-83.89861111111112,29.360555555555557],[-83.89861111111112,29.360555555555557],[-83.98388888888888,29.461111111111112],[-84.06888888888888,29.560833333333335],[-84.13444444444445,29.63861111111111],[-84.21833333333333,29.735833333333336],[-84.30166666666666,29.833055555555557],[-84.38805555555557,29.93277777777778],[-84.46972222222223,30.030833333333334],[-84.53527777777778,30.10666666666667],[-84.63416666666667,30.221944444444443],[-84.71694444444445,30.31861111111111],[-84.79888888888888,30.413888888888888],[-84.88222222222221,30.508055555555554],[-84.96416666666667,30.603333333333335],[-85.04722222222222,30.697777777777777],[-85.16388888888889,30.785555555555558],[-85.27944444444444,30.791111111111114],[-85.41972222222223,30.795555555555556],[-85.55972222222222,30.799166666666668],[-85.69638888888889,30.803055555555556],[-85.83666666666666,30.806944444444444],[-86.005,30.811111111111114],[-86.14277777777778,30.814444444444444],[-86.2825,30.817777777777778],[-86.42111111111112,30.820833333333333],[-86.56472222222222,30.823888888888888],[-86.7063888888889,30.830277777777777],[-86.83972222222222,30.85],[-86.97666666666667,30.869722222222222],[-87.10749999999999,30.88888888888889],[-87.24916666666667,30.909444444444443],[-87.38805555555557,30.929166666666667],[-87.53083333333333,30.949444444444445],[-87.67055555555557,30.969166666666666],[-87.81833333333333,30.989444444444445],[-87.95861111111111,31.009166666666665],[-88.10027777777778,31.028333333333332],[-88.2475,31.033333333333335],[-88.39305555555556,31.03388888888889],[-88.535,31.055833333333332],[-88.65166666666667,31.073333333333334],[-88.80083333333333,31.095555555555553],[-88.96111111111111,31.11916666666667],[-89.10583333333332,31.140555555555554],[-89.27805555555555,31.16583333333333],[-89.42222222222223,31.186666666666667],[-89.56555555555555,31.20722222222222],[-89.71055555555556,31.228055555555553],[-89.84833333333333,31.247500000000002],[-89.9925,31.2675],[-90.1325,31.286944444444448],[-90.27166666666666,31.310555555555556],[-90.40138888888889,31.35666666666667],[-90.53,31.403055555555554],[-90.57888888888888,31.420833333333334],[-90.65861111111111,31.449722222222224],[-90.70666666666666,31.466944444444444],[-90.78583333333333,31.495833333333334],[-90.83611111111111,31.51388888888889],[-90.91583333333334,31.5425],[-90.96638888888889,31.560555555555556],[-91.04444444444444,31.58833333333333],[-91.09722222222221,31.606944444444444],[-91.17555555555556,31.634999999999998],[-91.22555555555556,31.652777777777775],[-91.30472222222222,31.680833333333336],[-91.3561111111111,31.698888888888888],[-91.43527777777778,31.72694444444444],[-91.48777777777778,31.745555555555555],[-91.56833333333333,31.773888888888887],[-91.62249999999999,31.79277777777778],[-91.70305555555557,31.82111111111111],[-91.83722222222222,31.86777777777778],[-91.89083333333333,31.886666666666667],[-91.9725,31.915],[-92.02694444444444,31.933888888888887],[-92.125,31.967499999999998],[-92.16250000000001,31.980555555555554],[-92.26388888888889,32.01555555555556],[-92.29944444444445,32.028055555555554],[-92.4375,32.07527777777778],[-92.53972222222222,32.11027777777778],[-92.575,32.12222222222222],[-92.67861111111111,32.1575],[-92.71361111111112,32.169444444444444],[-92.8236111111111,32.206944444444446],[-92.85055555555554,32.215833333333336],[-92.96166666666667,32.25333333333333],[-92.98916666666666,32.2625],[-93.09944444444444,32.29944444444444],[-93.13111111111111,32.309999999999995],[-93.2388888888889,32.34638888888889],[-93.27194444444444,32.35722222222223],[-93.375,32.391666666666666],[-93.40972222222223,32.40333333333333],[-93.51416666666667,32.437777777777775],[-93.54888888888888,32.44916666666666],[-93.68833333333333,32.49527777777778],[-93.78583333333333,32.52722222222222],[-93.82722222222222,32.54083333333333],[-93.91972222222223,32.57138888888889],[-93.96527777777779,32.586111111111116],[-94.10416666666666,32.63138888888889],[-94.19694444444445,32.66138888888889],[-94.24472222222222,32.676944444444445],[-94.38472222222222,32.72222222222222],[-94.47500000000001,32.75138888888889],[-94.52416666666666,32.76694444444444],[-94.61305555555555,32.795833333333334],[-94.66305555555556,32.811388888888885],[-94.80388888888889,32.85638888888889],[-94.94194444444445,32.9],[-95.08305555555555,32.94444444444444],[-95.22500000000001,32.98916666666667],[-95.36638888888888,33.03333333333333],[-95.50666666666666,33.07666666666667],[-95.61972222222222,33.11194444444445],[-95.76277777777777,33.15611111111111],[-95.90305555555557,33.19916666666666],[-96.045,33.2425],[-96.18222222222222,33.28444444444444],[-96.32277777777777,33.32694444444445],[-96.46083333333334,33.368611111111115],[-96.60083333333333,33.410555555555554],[-96.7375,33.45166666666667],[-96.87805555555555,33.49305555555556],[-97.01583333333333,33.53388888888889],[-97.15472222222223,33.57472222222223],[-97.31222222222222,33.62111111111111],[-97.45166666666667,33.66166666666666],[-97.58999999999999,33.70194444444445],[-97.72944444444444,33.742222222222225],[-97.86861111111111,33.782222222222224],[-98.01138888888889,33.823055555555555],[-98.15361111111112,33.86333333333334],[-98.29666666666667,33.90361111111111],[-98.4375,33.94361111111111],[-98.5775,33.98277777777778],[-98.71138888888889,34.036944444444444],[-98.84527777777777,34.09277777777778],[-98.98694444444445,34.151666666666664],[-99.11916666666666,34.206944444444446],[-99.25444444444445,34.26277777777778],[-99.3875,34.3175],[-99.39166666666668,34.31916666666667],[-99.525,34.37361111111111],[-99.52694444444444,34.37444444444444],[-99.66027777777778,34.42916666666667],[-99.66250000000001,34.43],[-99.79416666666667,34.48361111111111],[-99.79638888888888,34.48444444444444],[-99.93111111111112,34.53916666666667],[-99.93361111111112,34.54],[-100.05833333333334,34.59027777777778],[-100.06722222222221,34.59388888888889],[-100.20277777777778,34.64833333333333],[-100.33305555555555,34.70055555555556],[-100.33777777777777,34.7025],[-100.46833333333333,34.754444444444445],[-100.47083333333333,34.75527777777778],[-100.60222222222221,34.81027777777778],[-100.60416666666666,34.81111111111111],[-100.70333333333333,34.8675],[-100.73083333333334,34.88305555555556],[-100.85583333333332,34.95416666666667],[-100.97722222222222,35.02361111111111],[-100.97916666666667,35.02472222222222],[-101.10277777777777,35.09583333333334],[-101.2238888888889,35.16777777777777],[-101.22611111111111,35.16888888888889],[-101.35138888888888,35.22972222222222],[-101.36361111111111,35.23305555555556],[-101.49166666666667,35.269999999999996],[-101.50527777777778,35.27388888888889],[-101.63194444444444,35.309999999999995],[-101.64555555555556,35.31388888888888],[-101.76055555555556,35.34583333333334],[-101.77694444444444,35.35027777777778],[-101.89750000000001,35.38361111111111],[-101.91555555555556,35.38861111111111],[-102.03444444444445,35.421388888888885],[-102.03444444444445,35.421388888888885],[-102.17194444444445,35.45944444444445],[-102.31027777777777,35.49722222222222],[-102.31027777777777,35.49722222222222],[-102.47583333333334,35.54194444444444],[-102.61472222222221,35.57972222222222],[-102.75138888888888,35.61638888888889],[-102.88972222222223,35.65333333333333],[-103.01888888888888,35.6875],[-103.12777777777777,35.71555555555556],[-103.26527777777778,35.75222222222222],[-103.29388888888889,35.76],[-103.40444444444445,35.78805555555555],[-103.43222222222222,35.796388888888885],[-103.54388888888889,35.825],[-103.57249999999999,35.83277777777778],[-103.68277777777779,35.86055555555556],[-103.71111111111111,35.868611111111115],[-103.82222222222222,35.895833333333336],[-103.84972222222221,35.904444444444444],[-103.96055555555556,35.93138888888889],[-103.98861111111111,35.94],[-104.09944444444444,35.968333333333334],[-104.12472222222222,35.974722222222226],[-104.2375,36.00333333333333],[-104.2575,36.00833333333333],[-104.36805555555554,36.03611111111111],[-104.38527777777779,36.04055555555556],[-104.49638888888889,36.06805555555556],[-104.51361111111112,36.072500000000005],[-104.6261111111111,36.100833333333334],[-104.64361111111111,36.105000000000004],[-104.75805555555556,36.13361111111111],[-104.77388888888889,36.1375],[-104.88861111111112,36.16583333333333],[-104.905,36.16972222222222],[-105.02305555555556,36.19888888888889],[-105.03888888888889,36.20277777777778],[-105.16361111111112,36.233333333333334],[-105.17194444444445,36.23527777777778],[-105.2961111111111,36.26555555555556],[-105.30749999999999,36.26833333333333],[-105.43416666666667,36.29888888888889],[-105.44333333333334,36.301111111111105],[-105.57805555555555,36.333333333333336],[-105.59833333333333,36.33833333333334],[-105.71194444444444,36.36555555555556],[-105.73,36.37],[-105.82694444444444,36.3925],[-105.84638888888888,36.39722222222222],[-105.9538888888889,36.422777777777775],[-105.97194444444445,36.426944444444445],[-106.08,36.4525],[-106.09972222222221,36.45722222222223],[-106.20916666666668,36.48277777777778],[-106.2286111111111,36.487500000000004],[-106.3286111111111,36.510555555555555],[-106.36027777777777,36.518055555555556],[-106.46027777777778,36.54111111111111],[-106.48222222222222,36.54611111111111],[-106.58361111111111,36.56944444444445],[-106.60777777777777,36.575],[-106.71388888888889,36.599444444444444],[-106.74,36.60527777777778],[-106.84722222222221,36.62972222222222],[-106.87277777777777,36.635555555555555],[-106.97666666666667,36.659166666666664],[-107.00305555555556,36.665],[-107.10888888888888,36.68888888888888],[-107.24,36.71805555555556],[-107.26416666666667,36.722500000000004],[-107.39666666666668,36.7525],[-107.50555555555556,36.77722222222222],[-107.53194444444445,36.780833333333334],[-107.6375,36.80611111111111],[-107.66805555555555,36.81027777777778],[-107.80166666666666,36.84055555555556],[-107.90833333333335,36.86555555555556],[-107.9375,36.87],[-108.07305555555556,36.89944444444444],[-108.17944444444444,36.92388888888889],[-108.21027777777778,36.92861111111111],[-108.31694444444445,36.95333333333333],[-108.34638888888888,36.95916666666667],[-108.45333333333333,36.98222222222223],[-108.48555555555555,36.98777777777778],[-108.59027777777777,37.01111111111111],[-108.62249999999999,37.016666666666666],[-108.72500000000001,37.03916666666667],[-108.7575,37.04555555555555],[-108.85916666666667,37.07027777777778],[-108.89444444444445,37.07638888888889],[-108.99555555555555,37.105555555555554],[-109.03111111111112,37.11333333333334],[-109.15583333333333,37.14611111111111],[-109.16416666666667,37.1475],[-109.29222222222222,37.18055555555555],[-109.30194444444444,37.18194444444444],[-109.42750000000001,37.215],[-109.4375,37.21611111111111],[-109.56611111111111,37.249722222222225],[-109.57305555555556,37.25138888888889],[-109.70694444444445,37.28472222222222],[-109.71333333333334,37.28638888888889],[-109.84666666666666,37.31916666666667],[-109.85416666666666,37.321111111111115],[-109.98916666666666,37.35444444444445],[-109.99638888888889,37.35638888888889],[-110.13305555555554,37.38944444444444],[-110.14027777777778,37.39111111111111],[-110.25638888888889,37.41972222222222],[-110.28333333333333,37.42611111111111],[-110.39861111111112,37.45416666666667],[-110.42861111111111,37.46138888888889],[-110.56916666666666,37.495],[-110.57388888888889,37.49611111111111],[-110.6888888888889,37.52361111111111],[-110.72027777777778,37.53111111111111],[-110.83805555555556,37.559444444444445],[-110.86722222222221,37.56638888888889],[-110.98694444444445,37.59444444444445],[-111.01666666666667,37.60138888888889],[-111.135,37.62916666666667],[-111.16555555555556,37.63638888888889],[-111.28416666666666,37.66416666666667],[-111.31444444444445,37.671388888888885],[-111.43305555555555,37.698611111111106],[-111.46583333333334,37.70638888888889],[-111.58472222222221,37.73361111111111],[-111.61527777777778,37.74055555555556],[-111.73694444444445,37.76861111111111],[-111.76972222222223,37.77611111111111],[-111.89194444444445,37.803888888888885],[-111.92500000000001,37.81111111111111],[-112.04805555555555,37.836666666666666],[-112.08972222222222,37.844166666666666],[-112.20472222222223,37.86527777777778],[-112.2461111111111,37.87277777777778],[-112.40333333333334,37.90138888888889],[-112.56472222222222,37.93],[-112.72305555555556,37.95805555555556],[-112.88361111111112,37.986111111111114],[-113.04861111111111,38.014722222222225],[-113.21333333333334,38.04333333333333],[-113.37333333333332,38.07055555555556],[-113.53694444444444,38.09805555555556],[-113.69777777777779,38.125277777777775],[-113.86027777777777,38.15222222222222],[-114.02027777777778,38.17861111111111],[-114.17944444444444,38.20444444444445],[-114.33833333333332,38.23027777777778],[-114.49527777777777,38.25527777777778],[-114.6525,38.28055555555555],[-114.80916666666667,38.305],[-114.96888888888888,38.32777777777778],[-115.13027777777778,38.33027777777778],[-115.17333333333333,38.33027777777778],[-115.2936111111111,38.32027777777778],[-115.33694444444444,38.31583333333333],[-115.46611111111112,38.30166666666666],[-115.50138888888888,38.29861111111111],[-115.63055555555555,38.28361111111111],[-115.66694444444445,38.27972222222222],[-115.79583333333333,38.265277777777776],[-115.85305555555556,38.259166666666665],[-115.96111111111111,38.246944444444445],[-115.995,38.24305555555556],[-116.12694444444443,38.22777777777778],[-116.15916666666668,38.22416666666667],[-116.29027777777777,38.20916666666667],[-116.325,38.205000000000005],[-116.45583333333333,38.19],[-116.48777777777778,38.186388888888885],[-116.61777777777777,38.17111111111111],[-116.65305555555557,38.16694444444444],[-116.74722222222222,38.155277777777776],[-116.81444444444445,38.1475],[-116.90944444444445,38.13583333333333],[-116.9786111111111,38.1275],[-117.07527777777777,38.115833333333335],[-117.14500000000001,38.106944444444444],[-117.24666666666667,38.09444444444445],[-117.3086111111111,38.08694444444445],[-117.4075,38.074444444444445],[-117.47277777777778,38.06638888888889],[-117.56611111111111,38.05444444444444],[-117.63222222222221,38.04611111111111],[-117.72722222222222,38.03388888888889],[-117.79083333333332,38.025555555555556],[-117.88611111111112,38.013333333333335],[-117.95277777777778,38.004444444444445],[-118.04638888888888,37.9925],[-118.10888888888888,37.98416666666667],[-118.20444444444445,37.97138888888889],[-118.27,37.96277777777778],[-118.3625,37.95027777777778],[-118.42750000000001,37.94166666666666],[-118.52083333333333,37.928888888888885],[-118.58749999999999,37.91972222222222],[-118.74277777777777,37.89861111111111],[-118.90305555555557,37.88],[-119.06194444444444,37.86194444444445],[-119.22222222222223,37.843333333333334],[-119.38305555555554,37.824444444444445],[-119.54027777777777,37.80555555555555],[-119.69888888888889,37.78666666666666],[-119.85888888888888,37.76722222222222],[-120.02055555555556,37.74722222222222],[-120.18055555555556,37.727222222222224],[-120.33916666666666,37.7075],[-120.46416666666667,37.69194444444444],[-120.53333333333333,37.68333333333333],[-120.61472222222221,37.67472222222222],[-120.68333333333334,37.666666666666664],[-120.75833333333334,37.657777777777774],[-120.81666666666666,37.65],[-120.90055555555556,37.64055555555556],[-120.95,37.63333333333333],[-121.03555555555555,37.623333333333335],[-121.08333333333333,37.61666666666667],[-121.16805555555555,37.605555555555554],[-121.21666666666667,37.6],[-121.30166666666666,37.588055555555556],[-121.35,37.583333333333336],[-121.42833333333334,37.573888888888895],[-121.46666666666667,37.56666666666667],[-121.5525,37.55916666666666],[-121.58333333333333,37.55],[-121.6713888888889,37.53972222222222],[-121.7,37.53333333333333],[-121.76388888888889,37.5175],[-121.8,37.516666666666666],[-121.85527777777777,37.495555555555555],[-121.88333333333334,37.483333333333334],[-121.94361111111111,37.49277777777778],[-121.96666666666667,37.5],[-122.01972222222223,37.505],[-122.05,37.516666666666666],[-122.0886111111111,37.52722222222222],[-122.11666666666666,37.53333333333333],[-122.15944444444445,37.55027777777777],[-122.18333333333334,37.55],[-122.22416666666666,37.571111111111115],[-122.25,37.583333333333336],[-122.28333333333333,37.589444444444446],[-122.3,37.6],[-122.3325,37.60416666666667],[-122.35,37.61666666666667]]}
}
