{
  "id": 2048351485,
  "type": "Feature",
  "properties": {
    "geom:area": 0,
    "geom:bbox": "-122.358050,37.443330,-121.246940,37.614040",
    "geom:latitude": 37.53034873392774,
    "geom:longitude": -121.81010497853404,
    "src:alt_label": "swim-approach",
    "src:geom": "swim",
    "swim:elevations": [
      4666,
      4642,
      4154,
      3834,
      3636,
      3336,
      3199,
      3077,
      2969,
      2571,
      2381,
      2347,
      2241,
      2149,
      2134,
      2134,
      2134,
      2055,
      1887,
      1828,
      1769,
      1665,
      1401,
      1197,
      1140,
      892,
      669,
      553,
      416,
      365,
      291,
      112,
      96
    ],
    "swim:geom": "approach",
    "swim:timestamps": [
      1789584116,
      1789584120,
      1789584175,
      1789584208,
      1789584227,
      1789584261,
      1789584278,
      1789584313,
      1789584339,
      1789584373,
      1789584418,
      1789584423,
      1789584462,
      1789584492,
      1789584510,
      1789584552,
      1789584597,
      1789584623,
      1789584650,
      1789584673,
      1789584687,
      1789584701,
      1789584740,
      1789584771,
      1789584783,
      1789584822,
      1789584865,
      1789584891,
      1789584921,
      1789584936,
      1789584960,
      1789585003,
      1789585030
    ],
    "wof:geomhash": "3aafa1f7c3e7071c6eb7e0dfe8682edf",
    "wof:id": 2048351485,
    "wof:repo": "sfomuseum-data-flights-2026-09"
  },
  "bbox": [
    -122.35805,
    37.44333,
    -121.24694,
    37.61404
  ],
  "geometry": {"type":"LineString","coordinates":[[-121.24694,37.59462],[-121.25305,37.5938],[-121.35462,37.5815],[-121.41479,37.57503],[-121.44981,37.57106],[-121.51115,37.56385],[-121.54215,37.56018],[-121.59954,37.5536],[-121.6396,37.54719],[-121.68809,37.53527],[-121.74988,37.51774],[-121.75506,37.51365],[-121.77694,37.4773],[-121.79436,37.45046],[-121.81483,37.44333],[-121.86982,37.4489],[-121.92829,37.45598],[-121.96049,37.45966],[-121.99441,37.46365],[-122.02245,37.4728],[-122.03911,37.47947],[-122.05584,37.48638],[-122.09944,37.50489],[-122.1349,37.51988],[-122.14931,37.52598],[-122.19189,37.544],[-122.23354,37.56158],[-122.2566,37.57128],[-122.27916,37.58071],[-122.29051,37.58544],[-122.30804,37.5929],[-122.3385,37.60568],[-122.35805,37.61404]]}
}
