{
  "id": 2048466983,
  "type": "Feature",
  "properties": {
    "geom:area": 0,
    "geom:bbox": "-122.362590,37.468160,-121.260560,37.613950",
    "geom:latitude": 37.538157051278574,
    "geom:longitude": -121.82042124211118,
    "src:alt_label": "swim-approach",
    "src:geom": "swim",
    "swim:elevations": [
      4357,
      4087,
      3971,
      3884,
      3718,
      3548,
      3477,
      3277,
      3031,
      2970,
      2874,
      2626,
      2442,
      2391,
      2148,
      2066,
      1951,
      1829,
      1829,
      1829,
      1733,
      1354,
      1232,
      912,
      914,
      779,
      495,
      338,
      242,
      213,
      100
    ],
    "swim:geom": "approach",
    "swim:timestamps": [
      1790669933,
      1790669959,
      1790669972,
      1790669983,
      1790670010,
      1790670049,
      1790670067,
      1790670105,
      1790670138,
      1790670150,
      1790670161,
      1790670200,
      1790670231,
      1790670246,
      1790670289,
      1790670308,
      1790670331,
      1790670386,
      1790670404,
      1790670430,
      1790670456,
      1790670500,
      1790670514,
      1790670560,
      1790670583,
      1790670613,
      1790670654,
      1790670687,
      1790670716,
      1790670725,
      1790670776
    ],
    "wof:geomhash": "099189da46768496a2a39bc0832d3308",
    "wof:id": 2048466983,
    "wof:repo": "sfomuseum-data-flights-2026-09"
  },
  "bbox": [
    -122.36259,
    37.46816,
    -121.26056,
    37.61395
  ],
  "geometry": {"type":"LineString","coordinates":[[-121.26056,37.59299],[-121.31693,37.58604],[-121.34243,37.58324],[-121.3659,37.58076],[-121.42338,37.57437],[-121.49767,37.5657],[-121.53063,37.56181],[-121.59401,37.55444],[-121.64971,37.54492],[-121.66895,37.54045],[-121.68703,37.53614],[-121.74993,37.52089],[-121.79845,37.50927],[-121.82182,37.50366],[-121.88607,37.48812],[-121.91419,37.48074],[-121.94604,37.47203],[-122.01745,37.46816],[-122.03807,37.47647],[-122.06363,37.48745],[-122.08775,37.49853],[-122.12754,37.51607],[-122.14057,37.52177],[-122.18624,37.53936],[-122.20807,37.54847],[-122.23505,37.55969],[-122.27007,37.57462],[-122.2961,37.58538],[-122.31769,37.59475],[-122.32395,37.59746],[-122.36259,37.61395]]}
}
