{
  "id": 2048448495,
  "type": "Feature",
  "properties": {
    "geom:area": 0,
    "geom:bbox": "-123.887500,37.344722,-122.133333,47.614167",
    "geom:latitude": 42.35627014443299,
    "geom:longitude": -123.16599157725392,
    "src:alt_label": "swim-path",
    "src:geom": "swim",
    "swim:altitudes": [
      "030",
      "034",
      "050",
      "068",
      "085",
      "116",
      "142",
      "166",
      "190",
      "213",
      "233",
      "245",
      "262",
      "277",
      "292",
      "305",
      "319",
      "335",
      "347",
      "350C",
      "350C",
      "350C",
      "350C",
      "350C",
      "350C",
      "350C",
      "350C",
      "350C",
      "350C",
      "350C",
      "350C",
      "350C",
      "351",
      "358",
      "368C",
      "370C",
      "370C",
      "371C",
      "370C",
      "370C",
      "370C",
      "370C",
      "370C",
      "370C",
      "370C",
      "370C",
      "370C",
      "369C",
      "370C",
      "370C",
      "370C",
      "370C",
      "370C",
      "370C",
      "370C",
      "370C",
      "370C",
      "370C",
      "370C",
      "370C",
      "370C",
      "370C",
      "370C",
      "370C",
      "370C",
      "370C",
      "370C",
      "370C",
      "370C",
      "370C",
      "370C",
      "370C",
      "370C",
      "370C",
      "370C",
      "370C",
      "370C",
      "370C",
      "370C",
      "370C",
      "370",
      "370",
      "369",
      "360",
      "350",
      "340",
      "320",
      "297",
      "278",
      "257",
      "239",
      "220",
      "205",
      "185",
      "183",
      "175",
      "164",
      "155",
      "147",
      "138",
      "123",
      "118",
      "113",
      "111",
      "110C",
      "110",
      "110C",
      "110",
      "099",
      "088",
      "082",
      "074",
      "068",
      "063",
      "060",
      "060",
      "057",
      "051",
      "049",
      "047",
      "040",
      "030",
      "030",
      "027",
      "022",
      "018",
      "013",
      "011",
      "007",
      "004"
    ],
    "swim:geom": "path",
    "swim:speeds": [
      181,
      216,
      261,
      274,
      272,
      281,
      305,
      327,
      340,
      350,
      356,
      385,
      397,
      409,
      421,
      435,
      444,
      441,
      436,
      442,
      455,
      456,
      456,
      457,
      458,
      459,
      460,
      460,
      460,
      459,
      459,
      460,
      461,
      464,
      473,
      462,
      463,
      467,
      468,
      467,
      466,
      466,
      465,
      465,
      465,
      466,
      465,
      464,
      462,
      461,
      463,
      460,
      461,
      460,
      459,
      459,
      458,
      456,
      454,
      452,
      451,
      451,
      451,
      448,
      434,
      432,
      431,
      431,
      430,
      432,
      435,
      454,
      456,
      473,
      475,
      475,
      476,
      467,
      464,
      462,
      461,
      459,
      457,
      454,
      456,
      444,
      443,
      437,
      397,
      393,
      368,
      368,
      351,
      345,
      347,
      344,
      345,
      339,
      339,
      330,
      320,
      316,
      319,
      301,
      265,
      250,
      251,
      250,
      239,
      243,
      239,
      240,
      239,
      236,
      242,
      243,
      242,
      232,
      226,
      201,
      190,
      182,
      181,
      181,
      179,
      171,
      149,
      127,
      129,
      120
    ],
    "swim:timestamps": [
      1790548201,
      1790548221,
      1790548262,
      1790548293,
      1790548322,
      1790548382,
      1790548442,
      1790548502,
      1790548562,
      1790548622,
      1790548682,
      1790548742,
      1790548802,
      1790548862,
      1790548922,
      1790548982,
      1790549043,
      1790549103,
      1790549163,
      1790549223,
      1790549283,
      1790549343,
      1790549403,
      1790549463,
      1790549523,
      1790549583,
      1790549643,
      1790549703,
      1790549763,
      1790549824,
      1790549884,
      1790549944,
      1790550004,
      1790550064,
      1790550124,
      1790550184,
      1790550244,
      1790550364,
      1790550424,
      1790550484,
      1790550544,
      1790550604,
      1790550665,
      1790550725,
      1790550785,
      1790550845,
      1790550905,
      1790550965,
      1790551025,
      1790551085,
      1790551151,
      1790551205,
      1790551271,
      1790551331,
      1790551385,
      1790551391,
      1790551445,
      1790551506,
      1790551566,
      1790551626,
      1790551686,
      1790551746,
      1790551752,
      1790551812,
      1790551872,
      1790551926,
      1790551932,
      1790551986,
      1790551992,
      1790552052,
      1790552112,
      1790552166,
      1790552172,
      1790552232,
      1790552286,
      1790552292,
      1790552352,
      1790552407,
      1790552473,
      1790552533,
      1790552593,
      1790552653,
      1790552713,
      1790552773,
      1790552833,
      1790552893,
      1790552953,
      1790553013,
      1790553073,
      1790553133,
      1790553194,
      1790553254,
      1790553314,
      1790553360,
      1790553374,
      1790553391,
      1790553434,
      1790553450,
      1790553494,
      1790553511,
      1790553554,
      1790553571,
      1790553614,
      1790553631,
      1790553674,
      1790553696,
      1790553734,
      1790553752,
      1790553811,
      1790553854,
      1790553872,
      1790553914,
      1790553975,
      1790553991,
      1790554035,
      1790554052,
      1790554095,
      1790554116,
      1790554155,
      1790554177,
      1790554237,
      1790554297,
      1790554335,
      1790554358,
      1790554395,
      1790554417,
      1790554455,
      1790554477,
      1790554515,
      1790554537
    ],
    "wof:geomhash": "4302e485024564b2f6665d9b51663f6e",
    "wof:id": 2048448495,
    "wof:repo": "sfomuseum-data-flights-2026-09"
  },
  "bbox": [
    -123.8875,
    37.344722222222224,
    -122.13333333333334,
    47.61416666666667
  ],
  "geometry": {"type":"LineString","coordinates":[[-122.30611111111111,47.506388888888885],[-122.30749999999999,47.52333333333333],[-122.32083333333333,47.57027777777778],[-122.35694444444444,47.60027777777778],[-122.40361111111112,47.61416666666667],[-122.50916666666667,47.59638888888889],[-122.59444444444443,47.53861111111111],[-122.69055555555556,47.47527777777778],[-122.78999999999999,47.40972222222222],[-122.89305555555556,47.34166666666667],[-122.99666666666667,47.272777777777776],[-123.09861111111111,47.190555555555555],[-123.19611111111111,47.100833333333334],[-123.29527777777777,47.00888888888889],[-123.38222222222221,46.909166666666664],[-123.39777777777779,46.79055555555556],[-123.3938888888889,46.66722222222222],[-123.39,46.544999999999995],[-123.3863888888889,46.42527777777777],[-123.38277777777778,46.31333333333333],[-123.3786111111111,46.18583333333333],[-123.37472222222222,46.05972222222222],[-123.37083333333332,45.93138888888889],[-123.36694444444444,45.805],[-123.36333333333333,45.67805555555555],[-123.35972222222222,45.549166666666665],[-123.35583333333332,45.421388888888885],[-123.35222222222221,45.29277777777778],[-123.34833333333333,45.165],[-123.34444444444443,45.036944444444444],[-123.34083333333332,44.904444444444444],[-123.33722222222222,44.77444444444444],[-123.33333333333333,44.64416666666666],[-123.32972222222222,44.515277777777776],[-123.32472222222222,44.38361111111111],[-123.31944444444444,44.25527777777778],[-123.31416666666667,44.12388888888889],[-123.30388888888889,43.86611111111111],[-123.29861111111111,43.73527777777778],[-123.2936111111111,43.60611111111111],[-123.28833333333333,43.4775],[-123.28333333333333,43.34805555555556],[-123.27833333333334,43.21944444444445],[-123.27305555555556,43.089444444444446],[-123.26833333333333,42.958333333333336],[-123.26333333333334,42.830000000000005],[-123.25805555555556,42.70194444444445],[-123.25333333333333,42.56722222222223],[-123.24833333333333,42.44083333333333],[-123.24388888888889,42.31222222222222],[-123.23916666666666,42.18583333333333],[-123.23444444444445,42.058611111111105],[-123.22972222222222,41.93083333333333],[-123.22527777777778,41.80416666666667],[-123.22083333333333,41.678888888888885],[-123.22083333333333,41.677499999999995],[-123.21638888888889,41.55166666666666],[-123.21222222222222,41.425],[-123.20805555555556,41.311388888888885],[-123.205,41.186388888888885],[-123.20194444444445,41.06194444444444],[-123.19888888888889,40.93583333333333],[-123.19805555555556,40.91027777777778],[-123.21277777777777,40.78666666666666],[-123.31694444444445,40.69611111111111],[-123.42833333333334,40.65472222222222],[-123.4563888888889,40.64416666666666],[-123.57,40.60166666666667],[-123.59861111111111,40.59111111111111],[-123.71944444444445,40.515],[-123.82722222222222,40.42472222222222],[-123.88666666666667,40.31861111111112],[-123.8875,40.30888888888889],[-123.8425,40.181666666666665],[-123.78805555555556,40.08444444444444],[-123.77388888888889,40.059444444444445],[-123.70555555555556,39.93722222222222],[-123.65277777777779,39.843611111111116],[-123.57305555555556,39.700833333333335],[-123.5075,39.583333333333336],[-123.44305555555556,39.467222222222226],[-123.38388888888889,39.36],[-123.31972222222223,39.243611111111115],[-123.25583333333333,39.1275],[-123.19222222222223,39.01083333333333],[-123.13027777777778,38.8975],[-123.06833333333333,38.78361111111111],[-123.00777777777778,38.67222222222222],[-122.95194444444445,38.56777777777778],[-122.89750000000001,38.468333333333334],[-122.84694444444445,38.37277777777778],[-122.79638888888888,38.27916666666667],[-122.75638888888889,38.18527777777778],[-122.73333333333333,38.1],[-122.72888888888889,38.091944444444444],[-122.71666666666667,38.05],[-122.70222222222222,37.999722222222225],[-122.68333333333334,37.96666666666667],[-122.67611111111111,37.91083333333333],[-122.65,37.88333333333333],[-122.59722222222221,37.82777777777778],[-122.58333333333333,37.8],[-122.5261111111111,37.76083333333333],[-122.5,37.733333333333334],[-122.46194444444444,37.70055555555556],[-122.43333333333334,37.68333333333333],[-122.40555555555557,37.64722222222222],[-122.38333333333334,37.63333333333333],[-122.35,37.56666666666667],[-122.32138888888889,37.53111111111111],[-122.31666666666666,37.516666666666666],[-122.30277777777778,37.46888888888889],[-122.31972222222223,37.40361111111111],[-122.33333333333333,37.38333333333333],[-122.30555555555556,37.344722222222224],[-122.28333333333333,37.35],[-122.22777777777777,37.361111111111114],[-122.2,37.38333333333333],[-122.17666666666668,37.406666666666666],[-122.16666666666667,37.43333333333333],[-122.13333333333334,37.483333333333334],[-122.15,37.516666666666666],[-122.17611111111111,37.535],[-122.2,37.55],[-122.23083333333334,37.558055555555555],[-122.25,37.56666666666667],[-122.28083333333333,37.57916666666667],[-122.3,37.583333333333336],[-122.31972222222223,37.595555555555556],[-122.33333333333333,37.6]]}
}
