{
  "id": 2048284371,
  "type": "Feature",
  "properties": {
    "geom:area": 0,
    "geom:bbox": "-122.361830,37.463390,-121.256590,37.615000",
    "geom:latitude": 37.54532697473996,
    "geom:longitude": -121.81077720283272,
    "src:alt_label": "swim-approach",
    "src:geom": "swim",
    "swim:elevations": [
      4905,
      4691,
      4443,
      4181,
      3827,
      3704,
      3626,
      3596,
      3577,
      3417,
      3352,
      3353,
      3278,
      2986,
      2864,
      2721,
      2537,
      2425,
      2208,
      2134,
      2134,
      1968,
      1852,
      1596,
      1469,
      1213,
      1149,
      1068,
      980,
      818,
      729,
      584,
      486,
      370,
      236,
      180,
      29,
      0
    ],
    "swim:geom": "approach",
    "swim:timestamps": [
      1788857366,
      1788857390,
      1788857416,
      1788857444,
      1788857481,
      1788857498,
      1788857521,
      1788857530,
      1788857534,
      1788857573,
      1788857586,
      1788857621,
      1788857651,
      1788857694,
      1788857716,
      1788857740,
      1788857766,
      1788857776,
      1788857805,
      1788857841,
      1788857850,
      1788857885,
      1788857918,
      1788857959,
      1788857983,
      1788858025,
      1788858035,
      1788858053,
      1788858066,
      1788858100,
      1788858118,
      1788858145,
      1788858166,
      1788858187,
      1788858219,
      1788858235,
      1788858263,
      1788858271
    ],
    "wof:geomhash": "45ee24cb9fb7eeb9e390b6436e3a34c9",
    "wof:id": 2048284371,
    "wof:repo": "sfomuseum-data-flights-2026-09"
  },
  "bbox": [
    -122.36183,
    37.46339,
    -121.25659,
    37.615
  ],
  "geometry": {"type":"LineString","coordinates":[[-121.25659,37.59362],[-121.3,37.58823],[-121.3463,37.58331],[-121.39497,37.57753],[-121.45991,37.57013],[-121.48879,37.5669],[-121.52574,37.56239],[-121.53837,37.56087],[-121.54505,37.56009],[-121.60157,37.56616],[-121.61888,37.5703],[-121.66655,37.58164],[-121.70717,37.58212],[-121.73762,37.54282],[-121.74863,37.51994],[-121.76056,37.49603],[-121.77461,37.47104],[-121.78501,37.46339],[-121.82337,37.46544],[-121.87322,37.47398],[-121.88624,37.47619],[-121.934,37.48469],[-121.98033,37.49286],[-122.03493,37.50995],[-122.06703,37.52028],[-122.11892,37.5372],[-122.13049,37.54092],[-122.14979,37.5472],[-122.16376,37.55172],[-122.20046,37.56355],[-122.21976,37.56981],[-122.24874,37.57919],[-122.27015,37.58587],[-122.29078,37.59163],[-122.31894,37.59992],[-122.33247,37.6041],[-122.35474,37.61249],[-122.36183,37.615]]}
}
