{
  "id": 2048232619,
  "type": "Feature",
  "properties": {
    "geom:area": 0,
    "geom:bbox": "-122.358330,37.492160,-121.632720,37.613590",
    "geom:latitude": 37.53376061716987,
    "geom:longitude": -121.99773407059325,
    "src:alt_label": "swim-approach",
    "src:geom": "swim",
    "swim:elevations": [
      3189,
      3129,
      2749,
      2616,
      2462,
      2294,
      2161,
      2134,
      1956,
      1886,
      1645,
      1524,
      1524,
      1318,
      1124,
      903,
      781,
      609,
      547,
      375,
      278,
      214,
      120,
      0
    ],
    "swim:geom": "approach",
    "swim:timestamps": [
      1788375171,
      1788375180,
      1788375232,
      1788375251,
      1788375295,
      1788375318,
      1788375339,
      1788375365,
      1788375414,
      1788375426,
      1788375464,
      1788375499,
      1788375523,
      1788375563,
      1788375585,
      1788375616,
      1788375639,
      1788375678,
      1788375697,
      1788375741,
      1788375769,
      1788375788,
      1788375820,
      1788375856
    ],
    "wof:geomhash": "43acaa4b2482dc87e38051a3c71ada92",
    "wof:id": 2048232619,
    "wof:repo": "sfomuseum-data-flights-2026-09"
  },
  "bbox": [
    -122.35833,
    37.49216,
    -121.63272,
    37.61359
  ],
  "geometry": {"type":"LineString","coordinates":[[-121.63272,37.54903],[-121.64559,37.54596],[-121.71942,37.52812],[-121.74538,37.52201],[-121.80757,37.50717],[-121.84039,37.49933],[-121.87023,37.49234],[-121.90793,37.49216],[-121.97276,37.49357],[-121.98671,37.49522],[-122.0288,37.50827],[-122.06562,37.52005],[-122.08901,37.52752],[-122.12788,37.54005],[-122.1498,37.54708],[-122.1797,37.5567],[-122.20029,37.56338],[-122.23392,37.5744],[-122.25025,37.57958],[-122.2838,37.58978],[-122.30313,37.59536],[-122.31587,37.59913],[-122.33695,37.60543],[-122.35833,37.61359]]}
}
