{
  "id": 2048267399,
  "type": "Feature",
  "properties": {
    "date:cessation_lower": "2026-09-06",
    "date:cessation_upper": "2026-09-06",
    "date:inception_lower": "1970-01-01",
    "date:inception_upper": "1970-01-01",
    "edtf:cessation": "2026-09-06T13:53:48-07:00",
    "edtf:inception": "1970-01-01T00:00:00Z",
    "flysfo:actual_timestamp": -1,
    "flysfo:airline": "UA",
    "flysfo:base_airline": "",
    "flysfo:base_flight_number": "4052",
    "flysfo:date": "2026-09-06",
    "flysfo:estimated_timestamp": 1788753480,
    "flysfo:event": "A",
    "flysfo:flight_number": "UA639",
    "flysfo:gate": "D12",
    "flysfo:journey": "RNO-SFO",
    "flysfo:scheduled_timestamp": 1788750480,
    "flysfo:timestamp": 1788753480,
    "geom:area": 0,
    "geom:bbox": "-122.370943,37.617990,-119.772167,39.505219",
    "geom:latitude": 38.5616045,
    "geom:longitude": -121.07155499999999,
    "iata:airline": "UA",
    "iata:base_airline": "",
    "icao:aircraft": "A320",
    "icao:airline": "UAL",
    "icao:base_airline": "ACA",
    "lbl:latitude": 37.618249,
    "lbl:longitude": -122.381477,
    "sfomuseum:aircraft_id": 1159292085,
    "sfomuseum:airline_id": 1159285413,
    "sfomuseum:arrival_id": 102527513,
    "sfomuseum:base_flight_id": "20260906-A-ACA-4052",
    "sfomuseum:departure_id": 102525535,
    "sfomuseum:flight_id": "20260906-A-UAL-639",
    "sfomuseum:flight_number": [
      "UAL639",
      "UA639"
    ],
    "sfomuseum:placetype": "flight",
    "src:geom": "flysfo",
    "src:geom_alt": [
      "swim-approach"
    ],
    "swim:tail_number": "N447UA",
    "wof:belongsto": [
      1947304067,
      102527513,
      1947304595,
      102191575,
      85633793,
      102087579,
      85922583,
      554784711,
      85688637,
      1947304631,
      1947304591,
      102085387
    ],
    "wof:country": "US",
    "wof:created": 1788797298,
    "wof:geomhash": "a4d4dc469296ca0f5ad383dc766835b1",
    "wof:hierarchy": [
      {
        "building_id": 1947304067,
        "campus_id": 102527513,
        "concourse_id": 1947304595,
        "continent_id": 102191575,
        "country_id": 85633793,
        "county_id": 102087579,
        "custom_id": 2048267399,
        "flight_id": 2048267399,
        "locality_id": 85922583,
        "postalcode_id": 554784711,
        "region_id": 85688637,
        "venue_id": 1947304631,
        "wing_id": 1947304591
      },
      {
        "building_id": 1947304067,
        "campus_id": 102527513,
        "concourse_id": 1947304595,
        "continent_id": 102191575,
        "country_id": 85633793,
        "county_id": 102085387,
        "custom_id": 2048267399,
        "flight_id": 2048267399,
        "region_id": 85688637,
        "venue_id": 1947304631,
        "wing_id": 1947304591
      }
    ],
    "wof:id": 2048267399,
    "wof:involves": [
      102525535,
      1159285413,
      1947304631,
      1159283597,
      1159292085,
      102527513
    ],
    "wof:lastmodified": 1788797857,
    "wof:name": "UA639 (RNO-SFO)",
    "wof:parent_id": 1947304631,
    "wof:placetype": "custom",
    "wof:placetype_alt": [
      "flight"
    ],
    "wof:repo": "sfomuseum-data-flights-2026-09",
    "wof:superseded_by": [],
    "wof:supersedes": []
  },
  "bbox": [
    -122.370943,
    37.61799,
    -119.772167,
    39.505219
  ],
  "geometry": {"type":"MultiPoint","coordinates":[[-119.772167,39.505219],[-122.370943,37.61799]]}
}
