{
  "id": 2048372431,
  "type": "Feature",
  "properties": {
    "geom:area": 0,
    "geom:bbox": "-122.561920,36.719810,-122.208900,37.669180",
    "geom:latitude": 37.21426247363091,
    "geom:longitude": -122.47542889913414,
    "src:alt_label": "swim-takeoff",
    "src:geom": "swim",
    "swim:elevations": [
      244,
      478,
      616,
      1240,
      1545,
      1775,
      2315,
      2812,
      3017,
      3335,
      3429,
      3955,
      4175,
      4617,
      4984,
      5157,
      5473,
      5753,
      6031,
      6312,
      6693,
      6810,
      7143,
      7414,
      7455
    ],
    "swim:geom": "takeoff",
    "swim:timestamps": [
      1789715300,
      1789715325,
      1789715349,
      1789715395,
      1789715426,
      1789715442,
      1789715482,
      1789715516,
      1789715531,
      1789715574,
      1789715592,
      1789715637,
      1789715655,
      1789715693,
      1789715727,
      1789715742,
      1789715776,
      1789715803,
      1789715833,
      1789715861,
      1789715899,
      1789715914,
      1789715958,
      1789715996,
      1789716002
    ],
    "wof:geomhash": "286523856fe8f9600c3398c581312c98",
    "wof:id": 2048372431,
    "wof:repo": "sfomuseum-data-flights-2026-09"
  },
  "bbox": [
    -122.56192,
    36.71981,
    -122.2089,
    37.66918
  ],
  "geometry": {"type":"LineString","coordinates":[[-122.39742,37.62808],[-122.42116,37.6383],[-122.44656,37.64982],[-122.50503,37.66918],[-122.54574,37.65093],[-122.55426,37.63149],[-122.55497,37.57692],[-122.55643,37.52854],[-122.55691,37.50722],[-122.55751,37.44184],[-122.55746,37.41216],[-122.55786,37.33455],[-122.55866,37.30145],[-122.56023,37.23205],[-122.56141,37.17107],[-122.56192,37.14129],[-122.55119,37.07819],[-122.51643,37.03583],[-122.47209,36.99072],[-122.429,36.94665],[-122.37131,36.88737],[-122.34785,36.86314],[-122.27929,36.79242],[-122.21859,36.72975],[-122.2089,36.71981]]}
}
