{
  "id": 2048475955,
  "type": "Feature",
  "properties": {
    "geom:area": 0,
    "geom:bbox": "-122.360400,37.492870,-121.367640,37.614740",
    "geom:latitude": 37.54259813516917,
    "geom:longitude": -121.86827889844467,
    "src:alt_label": "swim-approach",
    "src:geom": "swim",
    "swim:elevations": [
      4011,
      3636,
      3138,
      2995,
      2688,
      2267,
      1936,
      1551,
      1377,
      1285,
      1162,
      1073,
      836,
      712,
      613,
      454,
      299,
      274,
      91,
      184
    ],
    "swim:geom": "approach",
    "swim:timestamps": [
      1790789861,
      1790789899,
      1790789968,
      1790790025,
      1790790071,
      1790790135,
      1790790216,
      1790790300,
      1790790334,
      1790790350,
      1790790379,
      1790790397,
      1790790448,
      1790790475,
      1790790498,
      1790790532,
      1790790568,
      1790790573,
      1790790619,
      1790790640
    ],
    "wof:geomhash": "a271ee4ec02f00a65079c26ea044bb72",
    "wof:id": 2048475955,
    "wof:repo": "sfomuseum-data-flights-2026-09"
  },
  "bbox": [
    -122.3604,
    37.49287,
    -121.36764,
    37.61474
  ],
  "geometry": {"type":"LineString","coordinates":[[-121.36764,37.58062],[-121.44582,37.57194],[-121.58345,37.55559],[-121.68101,37.53741],[-121.75162,37.52062],[-121.84692,37.49777],[-121.95261,37.49287],[-122.0465,37.51354],[-122.08174,37.52502],[-122.09934,37.53079],[-122.12974,37.54066],[-122.14716,37.54632],[-122.19665,37.56219],[-122.22109,37.57009],[-122.24195,37.57698],[-122.27289,37.58648],[-122.30303,37.59507],[-122.30752,37.59637],[-122.34482,37.6084],[-122.3604,37.61474]]}
}
