{
  "id": 2048359571,
  "type": "Feature",
  "properties": {
    "geom:area": 0,
    "geom:bbox": "-122.356920,36.719450,-121.958490,37.611060",
    "geom:latitude": 37.170876254981486,
    "geom:longitude": -122.16492611361372,
    "src:alt_label": "swim-approach",
    "src:geom": "swim",
    "swim:elevations": [
      5162,
      5088,
      5018,
      4876,
      4877,
      4726,
      4407,
      4370,
      3935,
      3845,
      3637,
      3459,
      3285,
      3259,
      3080,
      3048,
      3020,
      2743,
      2748,
      2743,
      2743,
      2743,
      2533,
      2439,
      2301,
      2126,
      1829,
      1829,
      1829,
      1775,
      1522,
      1512,
      1325,
      1219,
      1219,
      1219,
      1199,
      1024,
      918,
      914,
      846,
      638,
      459,
      426,
      305,
      162,
      46,
      0
    ],
    "swim:geom": "approach",
    "swim:timestamps": [
      1789654489,
      1789654512,
      1789654544,
      1789654585,
      1789654600,
      1789654643,
      1789654678,
      1789654684,
      1789654737,
      1789654753,
      1789654782,
      1789654808,
      1789654837,
      1789654853,
      1789654884,
      1789654907,
      1789654921,
      1789654972,
      1789654980,
      1789655022,
      1789655040,
      1789655072,
      1789655112,
      1789655136,
      1789655180,
      1789655203,
      1789655248,
      1789655252,
      1789655288,
      1789655325,
      1789655364,
      1789655376,
      1789655412,
      1789655454,
      1789655478,
      1789655513,
      1789655534,
      1789655558,
      1789655583,
      1789655619,
      1789655642,
      1789655688,
      1789655729,
      1789655737,
      1789655773,
      1789655812,
      1789655847,
      1789655853
    ],
    "wof:geomhash": "7287a616ea983f816b9cc4dfea617b63",
    "wof:id": 2048359571,
    "wof:repo": "sfomuseum-data-flights-2026-09"
  },
  "bbox": [
    -122.35692,
    36.71945,
    -121.95849,
    37.61106
  ],
  "geometry": {"type":"LineString","coordinates":[[-122.06239,36.71945],[-122.09761,36.72759],[-122.14829,36.73913],[-122.19841,36.7716],[-122.19654,36.79507],[-122.13501,36.84117],[-122.07702,36.87417],[-122.06851,36.8791],[-121.98061,36.92864],[-121.96027,36.94675],[-121.95849,36.98713],[-121.98908,37.00783],[-122.0293,37.02322],[-122.05073,37.03119],[-122.08907,37.04466],[-122.1189,37.05499],[-122.13563,37.0615],[-122.19229,37.09292],[-122.20213,37.09852],[-122.23575,37.13396],[-122.24588,37.15171],[-122.26445,37.18392],[-122.28783,37.22365],[-122.30213,37.24762],[-122.3279,37.29073],[-122.32817,37.31579],[-122.32339,37.36489],[-122.32278,37.36908],[-122.28642,37.388],[-122.23499,37.38577],[-122.18256,37.38386],[-122.16796,37.38297],[-122.12849,37.38734],[-122.1001,37.41906],[-122.09029,37.43881],[-122.09983,37.46974],[-122.10577,37.48786],[-122.11643,37.50786],[-122.13889,37.51909],[-122.17202,37.53336],[-122.19326,37.54231],[-122.2346,37.55963],[-122.26936,37.57432],[-122.27594,37.57705],[-122.30152,37.58784],[-122.32914,37.59946],[-122.35272,37.60932],[-122.35692,37.61106]]}
}
