{
  "id": 2048349097,
  "type": "Feature",
  "properties": {
    "geom:area": 0,
    "geom:bbox": "-122.821890,37.352740,-122.093880,38.363500",
    "geom:latitude": 37.72549346208906,
    "geom:longitude": -122.44908876112243,
    "src:alt_label": "swim-approach",
    "src:geom": "swim",
    "swim:elevations": [
      7468,
      7364,
      7089,
      6921,
      6725,
      6444,
      6236,
      5698,
      5574,
      5182,
      4818,
      4688,
      4345,
      3600,
      3382,
      3374,
      3349,
      3353,
      3353,
      3308,
      3107,
      2971,
      2877,
      2695,
      2502,
      2172,
      2108,
      1864,
      1853,
      1831,
      1799,
      1556,
      1379,
      1220,
      1220,
      1075,
      1007,
      914,
      879,
      755,
      562,
      520,
      400,
      351,
      217,
      139,
      36
    ],
    "swim:geom": "approach",
    "swim:timestamps": [
      1789551496,
      1789551506,
      1789551531,
      1789551545,
      1789551562,
      1789551587,
      1789551606,
      1789551657,
      1789551667,
      1789551703,
      1789551740,
      1789551754,
      1789551785,
      1789551833,
      1789551859,
      1789551897,
      1789551904,
      1789551933,
      1789551988,
      1789552047,
      1789552075,
      1789552100,
      1789552114,
      1789552154,
      1789552179,
      1789552227,
      1789552238,
      1789552275,
      1789552317,
      1789552343,
      1789552375,
      1789552402,
      1789552420,
      1789552454,
      1789552478,
      1789552518,
      1789552536,
      1789552585,
      1789552602,
      1789552638,
      1789552678,
      1789552691,
      1789552728,
      1789552742,
      1789552780,
      1789552804,
      1789552838
    ],
    "wof:geomhash": "0468a6a6adbf718e81dc3e78ed0530b0",
    "wof:id": 2048349097,
    "wof:repo": "sfomuseum-data-flights-2026-09"
  },
  "bbox": [
    -122.82189,
    37.35274,
    -122.09388,
    38.3635
  ],
  "geometry": {"type":"LineString","coordinates":[[-122.82189,38.3635],[-122.81517,38.34643],[-122.79828,38.30352],[-122.78889,38.27961],[-122.77787,38.25158],[-122.76256,38.20822],[-122.75302,38.17502],[-122.7279,38.08924],[-122.72339,38.07347],[-122.70629,38.01375],[-122.68824,37.95195],[-122.68191,37.93033],[-122.65498,37.88289],[-122.59275,37.824],[-122.55782,37.79065],[-122.50821,37.74394],[-122.49963,37.7359],[-122.46747,37.70556],[-122.41095,37.65241],[-122.35933,37.59342],[-122.34102,37.56328],[-122.32463,37.53675],[-122.31561,37.52197],[-122.31591,37.4788],[-122.32256,37.45178],[-122.33393,37.40117],[-122.33661,37.38923],[-122.31659,37.35274],[-122.25903,37.3575],[-122.22584,37.36944],[-122.18503,37.3856],[-122.15438,37.40179],[-122.13392,37.41262],[-122.09905,37.43686],[-122.09388,37.46199],[-122.11374,37.49883],[-122.12705,37.51143],[-122.16945,37.53224],[-122.18378,37.5383],[-122.21314,37.55068],[-122.24654,37.5647],[-122.25608,37.56876],[-122.28171,37.57949],[-122.29086,37.58331],[-122.31746,37.59455],[-122.33307,37.60114],[-122.35647,37.61095]]}
}
