{
  "id": 2048295487,
  "type": "Feature",
  "properties": {
    "date:inception_lower": "2026-09-09",
    "date:inception_upper": "2026-09-09",
    "edtf:cessation": "",
    "edtf:inception": "2026-09-09",
    "flysfo:actual_timestamp": -1,
    "flysfo:airline": "VN",
    "flysfo:date": "2026-09-09",
    "flysfo:estimated_timestamp": 1789019400,
    "flysfo:event": "D",
    "flysfo:flight_number": "VN99",
    "flysfo:gate": "A8",
    "flysfo:journey": "SFO-SGN",
    "flysfo:scheduled_timestamp": 1789019400,
    "flysfo:timestamp": 1789019400,
    "geom:area": 0,
    "geom:bbox": "-122.370943,10.810137,106.663189,37.617990",
    "geom:latitude": 24.214063499999998,
    "geom:longitude": -7.853876999999997,
    "iata:airline": "VN",
    "icao:airline": "HVN",
    "lbl:latitude": 37.612048,
    "lbl:longitude": -122.389573,
    "sfomuseum:airline_id": 1159285479,
    "sfomuseum:arrival_id": 102559025,
    "sfomuseum:departure_id": 102527513,
    "sfomuseum:flight_id": "20260909-D-HVN-99",
    "sfomuseum:flight_number": [
      "HVN99",
      "VN99"
    ],
    "sfomuseum:placetype": "flight",
    "src:geom": "flysfo",
    "wof:belongsto": [
      1947304067,
      102527513,
      1947304073,
      102191575,
      85633793,
      102087579,
      85922583,
      554784711,
      85688637,
      1947304097,
      1947304069,
      102085387
    ],
    "wof:country": "US",
    "wof:created": 1789056824,
    "wof:geomhash": "a9bd12f81c63da183812f670f2a99bda",
    "wof:hierarchy": [
      {
        "building_id": 1947304067,
        "campus_id": 102527513,
        "concourse_id": 1947304073,
        "continent_id": 102191575,
        "country_id": 85633793,
        "county_id": 102087579,
        "custom_id": 2048295487,
        "flight_id": 2048295487,
        "locality_id": 85922583,
        "postalcode_id": 554784711,
        "region_id": 85688637,
        "venue_id": 1947304097,
        "wing_id": 1947304069
      },
      {
        "building_id": 1947304067,
        "campus_id": 102527513,
        "concourse_id": 1947304073,
        "continent_id": 102191575,
        "country_id": 85633793,
        "county_id": 102085387,
        "custom_id": 2048295487,
        "flight_id": 2048295487,
        "region_id": 85688637,
        "venue_id": 1947304097,
        "wing_id": 1947304069
      }
    ],
    "wof:id": 2048295487,
    "wof:involves": [
      102559025,
      102527513,
      1159285479,
      1947304097
    ],
    "wof:lastmodified": 1789056824,
    "wof:name": "VN99 (SFO-SGN)",
    "wof:parent_id": 1947304097,
    "wof:placetype": "custom",
    "wof:placetype_alt": [
      "flight"
    ],
    "wof:repo": "sfomuseum-data-flights-2026-09",
    "wof:superseded_by": [],
    "wof:supersedes": []
  },
  "bbox": [
    -122.370943,
    10.810137,
    106.663189,
    37.61799
  ],
  "geometry": {"type":"MultiPoint","coordinates":[[-122.370943,37.61799],[106.663189,10.810137]]}
}
