{
  "id": 2048416897,
  "type": "Feature",
  "properties": {
    "geom:area": 0,
    "geom:bbox": "-121.335556,33.950000,-118.100000,36.640278",
    "geom:latitude": 35.09124031317037,
    "geom:longitude": -119.59731298666672,
    "src:alt_label": "swim-path",
    "src:geom": "swim",
    "swim:altitudes": [
      "298",
      "311",
      "330C",
      "330C",
      "330C",
      "330C",
      "330C",
      "330C",
      "330C",
      "330",
      "330",
      "330",
      "313",
      "291",
      "271",
      "251",
      "232",
      "213",
      "196",
      "179",
      "163",
      "162",
      "147",
      "132",
      "132",
      "125",
      "113",
      "113",
      "101",
      "101",
      "090",
      "090",
      "081",
      "080",
      "071",
      "071",
      "056",
      "056",
      "041",
      "040",
      "027",
      "026",
      "026",
      "026",
      "026",
      "026",
      "022",
      "022",
      "022",
      "021",
      "016",
      "016",
      "008",
      "008",
      "001"
    ],
    "swim:geom": "path",
    "swim:speeds": [
      473,
      470,
      468,
      468,
      468,
      466,
      465,
      465,
      465,
      465,
      467,
      467,
      450,
      440,
      430,
      422,
      410,
      399,
      383,
      379,
      359,
      364,
      356,
      336,
      341,
      307,
      281,
      286,
      283,
      280,
      261,
      266,
      263,
      263,
      232,
      230,
      235,
      232,
      231,
      232,
      230,
      232,
      202,
      202,
      190,
      191,
      180,
      186,
      166,
      169,
      153,
      157,
      146,
      147,
      146
    ],
    "swim:timestamps": [
      1790221075,
      1790221135,
      1790221315,
      1790221376,
      1790221436,
      1790221496,
      1790221556,
      1790221616,
      1790221676,
      1790221736,
      1790221916,
      1790221976,
      1790222036,
      1790222096,
      1790222156,
      1790222216,
      1790222277,
      1790222337,
      1790222396,
      1790222456,
      1790222509,
      1790222516,
      1790222577,
      1790222629,
      1790222637,
      1790222697,
      1790222749,
      1790222757,
      1790222810,
      1790222817,
      1790222869,
      1790222877,
      1790222929,
      1790222937,
      1790222990,
      1790222997,
      1790223050,
      1790223057,
      1790223110,
      1790223117,
      1790223170,
      1790223177,
      1790223230,
      1790223290,
      1790223350,
      1790223358,
      1790223410,
      1790223418,
      1790223470,
      1790223478,
      1790223530,
      1790223538,
      1790223590,
      1790223598,
      1790223658
    ],
    "wof:geomhash": "c0aa62d2880d6ca16c5bbd1e94186b2a",
    "wof:id": 2048416897,
    "wof:repo": "sfomuseum-data-flights-2026-09"
  },
  "bbox": [
    -121.33555555555554,
    33.95,
    -118.1,
    36.640277777777776
  ],
  "geometry": {"type":"LineString","coordinates":[[-121.33555555555554,36.640277777777776],[-121.21861111111112,36.551111111111105],[-120.85833333333333,36.29],[-120.7363888888889,36.20472222222222],[-120.61583333333333,36.12],[-120.49416666666667,36.034166666666664],[-120.37416666666665,35.94944444444444],[-120.27944444444444,35.88],[-120.18833333333333,35.77305555555555],[-120.10499999999999,35.6625],[-119.85222222222221,35.32555555555556],[-119.75944444444444,35.21944444444445],[-119.66583333333334,35.119166666666665],[-119.57055555555556,35.01694444444444],[-119.485,34.92472222222222],[-119.40111111111112,34.831388888888895],[-119.31916666666666,34.739444444444445],[-119.24027777777778,34.64861111111111],[-119.16583333333334,34.5625],[-119.0911111111111,34.47833333333333],[-119.01666666666667,34.4],[-119.01944444444445,34.39666666666667],[-118.94972222222222,34.316111111111105],[-118.88333333333334,34.233333333333334],[-118.88,34.24027777777778],[-118.81472222222222,34.169444444444444],[-118.75,34.1],[-118.75027777777778,34.109722222222224],[-118.68333333333334,34.05],[-118.6888888888889,34.05277777777778],[-118.6,34.016666666666666],[-118.61,34.02472222222222],[-118.51666666666667,34.016666666666666],[-118.5225,34.01638888888889],[-118.43333333333334,34.016666666666666],[-118.44166666666668,34.0125],[-118.36666666666666,34.03333333333333],[-118.36472222222221,34.02583333333333],[-118.28333333333333,34.03333333333333],[-118.2875,34.034166666666664],[-118.21666666666667,34.05],[-118.20944444444444,34.04277777777778],[-118.13333333333334,34.05],[-118.1,34.016666666666666],[-118.15,33.983333333333334],[-118.14722222222223,33.98277777777778],[-118.2,33.96666666666667],[-118.2063888888889,33.973888888888894],[-118.26666666666667,33.96666666666667],[-118.2611111111111,33.96638888888889],[-118.31666666666666,33.96666666666667],[-118.31333333333333,33.961111111111116],[-118.36666666666666,33.95],[-118.3625,33.95611111111111],[-118.40972222222223,33.95138888888889]]}
}
