{
  "id": 2048415635,
  "type": "Feature",
  "properties": {
    "geom:area": 0,
    "geom:bbox": "-122.396490,37.625670,-121.448650,38.507780",
    "geom:latitude": 38.04876058723936,
    "geom:longitude": -121.9222326420315,
    "src:alt_label": "swim-takeoff",
    "src:geom": "swim",
    "swim:elevations": [
      244,
      394,
      925,
      1158,
      1276,
      1469,
      2004,
      2191,
      2854,
      3273,
      3433,
      3732,
      3916,
      4505,
      4805,
      5261,
      5477,
      5684,
      6258,
      6560,
      6686,
      7016,
      7115,
      7388,
      7648,
      8109
    ],
    "swim:geom": "takeoff",
    "swim:timestamps": [
      1790184712,
      1790184726,
      1790184767,
      1790184793,
      1790184808,
      1790184830,
      1790184868,
      1790184881,
      1790184924,
      1790184953,
      1790184977,
      1790185017,
      1790185033,
      1790185077,
      1790185096,
      1790185133,
      1790185153,
      1790185175,
      1790185227,
      1790185257,
      1790185269,
      1790185303,
      1790185312,
      1790185344,
      1790185378,
      1790185432
    ],
    "wof:geomhash": "9b6c24bf150b8a3bb18ba149e18f9d1d",
    "wof:id": 2048415635,
    "wof:repo": "sfomuseum-data-flights-2026-09"
  },
  "bbox": [
    -122.39649,
    37.62567,
    -121.44865,
    38.50778
  ],
  "geometry": {"type":"LineString","coordinates":[[-122.38561,37.62567],[-122.39649,37.63139],[-122.39061,37.65864],[-122.36482,37.66597],[-122.34792,37.67124],[-122.3197,37.681],[-122.26463,37.69984],[-122.24549,37.70648],[-122.18985,37.7429],[-122.1617,37.77605],[-122.13632,37.80398],[-122.0862,37.85881],[-122.06624,37.88083],[-122.00803,37.94533],[-121.98354,37.97229],[-121.93203,38.02888],[-121.90509,38.05846],[-121.87321,38.09334],[-121.79871,38.17453],[-121.75401,38.22326],[-121.73582,38.2432],[-121.68345,38.30029],[-121.66868,38.31642],[-121.61855,38.3709],[-121.56321,38.42846],[-121.44865,38.50778]]}
}
