{
  "id": 2048452833,
  "type": "Feature",
  "properties": {
    "geom:area": 0,
    "geom:bbox": "-118.865833,40.005000,-70.950000,43.520556",
    "geom:latitude": 42.70831202825318,
    "geom:longitude": -94.57242729325314,
    "src:alt_label": "swim-path",
    "src:geom": "swim",
    "swim:altitudes": [
      "310C",
      "310C",
      "310C",
      "310C",
      "310C",
      "310C",
      "310C",
      "310C",
      "310C",
      "310C",
      "310C",
      "310C",
      "310C",
      "310C",
      "310C",
      "310C",
      "310C",
      "310C",
      "310C",
      "310C",
      "310C",
      "310C",
      "310C",
      "310C",
      "310C",
      "310C",
      "310C",
      "310C",
      "310C",
      "310C",
      "310C",
      "310C",
      "310",
      "313",
      "322",
      "324",
      "330C",
      "330C",
      "330C",
      "330C",
      "330C",
      "330C",
      "330C",
      "330C",
      "330C",
      "330C",
      "330C",
      "330C",
      "330C",
      "330C",
      "330C",
      "330C",
      "330C",
      "330C",
      "330C",
      "330C",
      "330C",
      "330C",
      "330C",
      "330C",
      "330C",
      "330C",
      "330C",
      "330C",
      "330C",
      "330C",
      "330C",
      "330C",
      "330C",
      "330C",
      "330C",
      "330C",
      "330C",
      "330C",
      "330C",
      "330C",
      "330C",
      "330C",
      "330C",
      "330C",
      "330C",
      "330C",
      "330C",
      "330C",
      "330C",
      "330C",
      "330C",
      "330C",
      "330C",
      "330C",
      "330C",
      "330C",
      "330C",
      "330C",
      "330C",
      "330C",
      "330C",
      "330C",
      "330C",
      "330C",
      "330C",
      "330C",
      "330C",
      "330C",
      "330C",
      "330C",
      "330C",
      "330C",
      "330C",
      "330C",
      "330C",
      "330C",
      "330C",
      "330C",
      "330C",
      "330C",
      "330C",
      "330C",
      "330C",
      "330C",
      "330C",
      "330C",
      "330C",
      "330C",
      "330C",
      "330C",
      "330C",
      "330C",
      "330C",
      "330C",
      "330C",
      "330C",
      "330C",
      "330C",
      "330C",
      "330C",
      "330C",
      "330C",
      "330C",
      "330C",
      "330C",
      "330C",
      "330C",
      "330C",
      "330C",
      "330C",
      "330C",
      "330C",
      "330C",
      "330C",
      "330C",
      "330C",
      "330C",
      "330C",
      "330C",
      "330C",
      "330C",
      "330C",
      "330C",
      "330C",
      "330C",
      "330C",
      "330C",
      "330C",
      "330C",
      "330C",
      "330C",
      "330C",
      "330C",
      "330C",
      "330C",
      "330C",
      "330C",
      "330C",
      "330C",
      "330C",
      "330C",
      "330C",
      "330C",
      "330C",
      "330C",
      "330C",
      "330C",
      "330C",
      "330C",
      "330C",
      "330C",
      "330C",
      "330C",
      "330C",
      "330C",
      "330C",
      "330C",
      "330C",
      "330C",
      "330C",
      "330C",
      "330C",
      "330C",
      "330C",
      "330C",
      "330C",
      "330C",
      "330C",
      "330C",
      "330C",
      "330C",
      "330C",
      "330C",
      "330C",
      "330C",
      "330C",
      "330C",
      "330C",
      "330C",
      "330C",
      "330C",
      "330C",
      "330C",
      "330C",
      "330C",
      "330C",
      "330C",
      "330C",
      "330C",
      "330C",
      "350C",
      "350C",
      "350C",
      "350C",
      "350C",
      "350C",
      "350C",
      "350C",
      "350C",
      "350C",
      "350C",
      "350C",
      "350C",
      "350C",
      "350C",
      "350C",
      "350C",
      "350C",
      "350C",
      "350C",
      "350C",
      "350C",
      "350C",
      "350C",
      "277",
      "258",
      "240",
      "219",
      "201",
      "182",
      "159",
      "151",
      "147",
      "134",
      "129",
      "119",
      "120",
      "111",
      "106",
      "099",
      "101",
      "097",
      "097",
      "096",
      "092",
      "080",
      "076",
      "064",
      "061",
      "060",
      "061",
      "060",
      "061",
      "060",
      "060",
      "060",
      "058",
      "051",
      "046",
      "036",
      "033",
      "030",
      "031",
      "030",
      "031",
      "030",
      "031",
      "030",
      "031",
      "029",
      "024",
      "020",
      "021",
      "020",
      "021",
      "018",
      "015",
      "010",
      "008",
      "003",
      "002"
    ],
    "swim:geom": "path",
    "swim:speeds": [
      507,
      507,
      507,
      508,
      509,
      509,
      510,
      511,
      512,
      510,
      511,
      510,
      511,
      512,
      513,
      514,
      515,
      516,
      517,
      522,
      525,
      526,
      527,
      528,
      529,
      530,
      532,
      533,
      533,
      529,
      527,
      526,
      526,
      532,
      533,
      535,
      540,
      543,
      544,
      544,
      544,
      544,
      544,
      543,
      542,
      541,
      540,
      540,
      540,
      539,
      539,
      541,
      543,
      547,
      547,
      548,
      548,
      517,
      549,
      548,
      548,
      549,
      550,
      546,
      543,
      541,
      539,
      538,
      538,
      538,
      538,
      538,
      538,
      538,
      537,
      537,
      535,
      534,
      532,
      530,
      529,
      527,
      525,
      524,
      523,
      523,
      523,
      523,
      523,
      523,
      524,
      523,
      522,
      521,
      521,
      515,
      516,
      516,
      514,
      513,
      510,
      510,
      510,
      512,
      513,
      514,
      514,
      514,
      513,
      513,
      513,
      513,
      513,
      513,
      513,
      514,
      514,
      514,
      515,
      516,
      517,
      518,
      519,
      520,
      521,
      521,
      520,
      518,
      516,
      514,
      511,
      509,
      507,
      506,
      506,
      505,
      502,
      500,
      498,
      496,
      495,
      495,
      496,
      497,
      499,
      500,
      501,
      501,
      499,
      498,
      498,
      497,
      496,
      495,
      489,
      487,
      484,
      482,
      481,
      480,
      480,
      481,
      483,
      484,
      485,
      485,
      485,
      485,
      485,
      485,
      485,
      484,
      483,
      483,
      487,
      484,
      485,
      485,
      484,
      483,
      484,
      486,
      486,
      486,
      485,
      484,
      482,
      480,
      479,
      478,
      479,
      480,
      479,
      480,
      480,
      480,
      480,
      480,
      480,
      480,
      480,
      480,
      480,
      480,
      480,
      479,
      480,
      479,
      479,
      479,
      479,
      478,
      478,
      477,
      477,
      476,
      476,
      474,
      472,
      472,
      472,
      471,
      472,
      472,
      472,
      472,
      467,
      458,
      458,
      458,
      458,
      458,
      458,
      458,
      458,
      457,
      457,
      458,
      458,
      458,
      459,
      460,
      462,
      463,
      463,
      461,
      460,
      457,
      455,
      453,
      413,
      400,
      389,
      384,
      374,
      368,
      351,
      348,
      352,
      340,
      341,
      320,
      315,
      306,
      309,
      295,
      288,
      285,
      284,
      240,
      244,
      235,
      238,
      223,
      222,
      220,
      218,
      224,
      222,
      243,
      239,
      217,
      219,
      214,
      217,
      211,
      211,
      207,
      209,
      196,
      189,
      168,
      169,
      178,
      174,
      177,
      175,
      156,
      156,
      154,
      155,
      157,
      148,
      139,
      142,
      144,
      142
    ],
    "swim:timestamps": [
      1790581327,
      1790581387,
      1790581410,
      1790581447,
      1790581470,
      1790581507,
      1790581530,
      1790581567,
      1790581627,
      1790581687,
      1790581710,
      1790581747,
      1790581770,
      1790581830,
      1790581867,
      1790581890,
      1790581927,
      1790581950,
      1790581987,
      1790582010,
      1790582047,
      1790582070,
      1790582107,
      1790582130,
      1790582190,
      1790582250,
      1790582310,
      1790582370,
      1790582430,
      1790582490,
      1790582551,
      1790582611,
      1790582671,
      1790582731,
      1790582791,
      1790582851,
      1790582911,
      1790582971,
      1790583031,
      1790583091,
      1790583151,
      1790583211,
      1790583271,
      1790583331,
      1790583391,
      1790583451,
      1790583511,
      1790583571,
      1790583631,
      1790583691,
      1790583751,
      1790583811,
      1790583869,
      1790583929,
      1790583991,
      1790584051,
      1790584111,
      1790584169,
      1790584230,
      1790584290,
      1790584350,
      1790584410,
      1790584470,
      1790584530,
      1790584590,
      1790584650,
      1790584710,
      1790584770,
      1790584830,
      1790584890,
      1790584950,
      1790585010,
      1790585070,
      1790585130,
      1790585190,
      1790585250,
      1790585310,
      1790585370,
      1790585430,
      1790585490,
      1790585550,
      1790585610,
      1790585670,
      1790585730,
      1790585790,
      1790585850,
      1790585910,
      1790585971,
      1790586031,
      1790586091,
      1790586151,
      1790586211,
      1790586271,
      1790586331,
      1790586391,
      1790586459,
      1790586519,
      1790586571,
      1790586579,
      1790586639,
      1790586699,
      1790586751,
      1790586759,
      1790586819,
      1790586871,
      1790586931,
      1790586939,
      1790586999,
      1790587051,
      1790587111,
      1790587119,
      1790587171,
      1790587179,
      1790587239,
      1790587291,
      1790587299,
      1790587351,
      1790587359,
      1790587419,
      1790587479,
      1790587539,
      1790587599,
      1790587659,
      1790587719,
      1790587780,
      1790587840,
      1790587900,
      1790587960,
      1790588020,
      1790588080,
      1790588140,
      1790588200,
      1790588260,
      1790588320,
      1790588380,
      1790588440,
      1790588500,
      1790588560,
      1790588620,
      1790588680,
      1790588740,
      1790588800,
      1790588860,
      1790588920,
      1790588980,
      1790589040,
      1790589100,
      1790589160,
      1790589223,
      1790589283,
      1790589340,
      1790589400,
      1790589406,
      1790589460,
      1790589520,
      1790589580,
      1790589640,
      1790589700,
      1790589760,
      1790589824,
      1790589881,
      1790589941,
      1790590001,
      1790590061,
      1790590121,
      1790590181,
      1790590241,
      1790590301,
      1790590361,
      1790590421,
      1790590481,
      1790590541,
      1790590601,
      1790590661,
      1790590721,
      1790590784,
      1790590841,
      1790590901,
      1790590907,
      1790590961,
      1790591021,
      1790591081,
      1790591141,
      1790591201,
      1790591264,
      1790591325,
      1790591385,
      1790591445,
      1790591506,
      1790591517,
      1790591566,
      1790591624,
      1790591637,
      1790591684,
      1790591697,
      1790591744,
      1790591757,
      1790591804,
      1790591817,
      1790591864,
      1790591877,
      1790591925,
      1790591937,
      1790591985,
      1790591997,
      1790592046,
      1790592057,
      1790592105,
      1790592117,
      1790592166,
      1790592178,
      1790592226,
      1790592238,
      1790592286,
      1790592298,
      1790592346,
      1790592358,
      1790592418,
      1790592538,
      1790592598,
      1790592658,
      1790593259,
      1790593319,
      1790593379,
      1790593439,
      1790593500,
      1790594040,
      1790594398,
      1790594458,
      1790594518,
      1790594578,
      1790594638,
      1790594698,
      1790594759,
      1790594819,
      1790594879,
      1790594939,
      1790594999,
      1790595059,
      1790595120,
      1790595180,
      1790595240,
      1790595300,
      1790595360,
      1790595420,
      1790595480,
      1790595540,
      1790595600,
      1790595661,
      1790595721,
      1790596261,
      1790596322,
      1790596382,
      1790596442,
      1790596502,
      1790596562,
      1790596633,
      1790596663,
      1790596683,
      1790596717,
      1790596743,
      1790596777,
      1790596803,
      1790596837,
      1790596863,
      1790596898,
      1790596923,
      1790596963,
      1790596983,
      1790597017,
      1790597043,
      1790597077,
      1790597103,
      1790597143,
      1790597160,
      1790597203,
      1790597220,
      1790597263,
      1790597280,
      1790597324,
      1790597341,
      1790597384,
      1790597401,
      1790597438,
      1790597461,
      1790597497,
      1790597521,
      1790597557,
      1790597593,
      1790597618,
      1790597654,
      1790597678,
      1790597714,
      1790597738,
      1790597775,
      1790597798,
      1790597835,
      1790597858,
      1790597895,
      1790597930,
      1790597955,
      1790597984,
      1790598015,
      1790598050,
      1790598075,
      1790598104,
      1790598135
    ],
    "wof:geomhash": "15b6b2e5d51f2ba8cf67a524d88254c7",
    "wof:id": 2048452833,
    "wof:repo": "sfomuseum-data-flights-2026-09"
  },
  "bbox": [
    -118.86583333333333,
    40.005,
    -70.95,
    43.52055555555555
  ],
  "geometry": {"type":"LineString","coordinates":[[-118.86583333333333,40.005],[-118.70333333333333,40.074444444444445],[-118.64027777777778,40.10138888888889],[-118.5436111111111,40.14222222222222],[-118.47972222222222,40.16916666666666],[-118.38055555555555,40.21083333333333],[-118.31722222222221,40.237500000000004],[-118.21444444444445,40.28055555555555],[-118.04555555555555,40.33583333333333],[-117.86833333333333,40.373333333333335],[-117.79805555555555,40.388333333333335],[-117.68833333333333,40.41138888888889],[-117.61833333333333,40.42611111111111],[-117.43944444444445,40.463055555555556],[-117.32555555555555,40.486666666666665],[-117.25638888888889,40.50083333333333],[-117.14416666666668,40.52388888888889],[-117.07194444444444,40.53861111111111],[-116.95611111111111,40.56222222222222],[-116.88472222222222,40.57944444444445],[-116.77027777777778,40.61055555555556],[-116.69972222222222,40.62972222222222],[-116.58527777777778,40.66083333333333],[-116.51416666666667,40.68],[-116.33166666666666,40.72916666666667],[-116.14777777777779,40.77833333333333],[-115.96305555555556,40.827222222222225],[-115.77722222222222,40.87583333333333],[-115.59222222222222,40.924166666666665],[-115.41055555555556,40.971111111111114],[-115.22777777777777,41.018055555555556],[-115.04638888888888,41.064166666666665],[-114.86138888888888,41.111111111111114],[-114.70444444444445,41.150555555555556],[-114.51833333333333,41.19694444444444],[-114.32972222222222,41.243611111111115],[-114.13777777777779,41.29055555555556],[-113.94694444444445,41.33722222222222],[-113.75361111111111,41.37888888888889],[-113.55833333333334,41.41444444444444],[-113.36166666666666,41.45027777777778],[-113.16611111111112,41.485],[-112.9675,41.52027777777778],[-112.7713888888889,41.55472222222222],[-112.57833333333333,41.588055555555556],[-112.38277777777778,41.62138888888889],[-112.18555555555555,41.65472222222222],[-111.98833333333333,41.687777777777775],[-111.79027777777777,41.720555555555556],[-111.59527777777777,41.7525],[-111.39666666666668,41.78444444444444],[-111.2,41.81583333333333],[-111.0225,41.847500000000004],[-110.82249999999999,41.8775],[-110.58083333333333,41.91277777777778],[-110.38027777777778,41.94305555555555],[-110.18166666666667,41.97277777777778],[-110.01944444444445,41.998333333333335],[-109.80333333333333,42.04111111111111],[-109.62555555555555,42.08166666666667],[-109.42805555555556,42.12361111111111],[-109.22805555555556,42.16583333333333],[-109.04027777777777,42.20583333333334],[-108.83472222222221,42.24861111111111],[-108.63944444444445,42.28916666666667],[-108.44444444444444,42.32888888888889],[-108.24888888888889,42.36833333333333],[-108.05583333333333,42.407222222222224],[-107.8611111111111,42.44583333333333],[-107.66555555555556,42.48444444444444],[-107.47027777777778,42.5225],[-107.27416666666666,42.56027777777778],[-107.07555555555555,42.59805555555556],[-106.86277777777777,42.638333333333335],[-106.66555555555556,42.675],[-106.4713888888889,42.711111111111116],[-106.27555555555556,42.746944444444445],[-106.07944444444443,42.782777777777774],[-105.88138888888888,42.80777777777777],[-105.685,42.82944444444445],[-105.48944444444444,42.85055555555556],[-105.28944444444444,42.87166666666667],[-105.09527777777777,42.89194444444444],[-104.89750000000001,42.91222222222222],[-104.69888888888889,42.93222222222222],[-104.50138888888888,42.95194444444445],[-104.34305555555555,42.9675],[-104.14555555555556,42.98638888888889],[-103.94833333333334,43.006388888888885],[-103.75055555555555,43.03055555555555],[-103.55361111111111,43.05444444444444],[-103.35749999999999,43.07777777777778],[-103.16388888888889,43.10027777777778],[-102.96666666666667,43.12305555555555],[-102.77166666666666,43.14527777777778],[-102.54888888888888,43.169999999999995],[-102.35472222222222,43.19138888888889],[-102.19083333333333,43.20916666666667],[-102.16416666666667,43.21194444444445],[-101.97194444444445,43.2325],[-101.78111111111112,43.25222222222222],[-101.58749999999999,43.27222222222222],[-101.58888888888889,43.27194444444444],[-101.39750000000001,43.29111111111111],[-101.20305555555557,43.31055555555555],[-101.00861111111111,43.32944444444445],[-101.00694444444444,43.32972222222222],[-100.81361111111111,43.34805555555556],[-100.6211111111111,43.36638888888889],[-100.42555555555556,43.37833333333333],[-100.42694444444444,43.37833333333333],[-100.23472222222222,43.39],[-100.23277777777778,43.39],[-100.03999999999999,43.401111111111106],[-99.845,43.41222222222222],[-99.84305555555555,43.4125],[-99.64972222222222,43.422777777777775],[-99.60833333333333,43.425],[-99.41472222222222,43.43527777777778],[-99.21861111111112,43.445277777777775],[-99.02194444444444,43.45527777777778],[-98.82277777777777,43.46472222222223],[-98.62638888888888,43.47361111111111],[-98.44305555555556,43.48166666666667],[-98.2425,43.49],[-98.04416666666667,43.49805555555556],[-97.8475,43.50333333333333],[-97.65166666666667,43.50555555555555],[-97.45555555555556,43.50861111111111],[-97.2611111111111,43.51138888888889],[-97.06638888888888,43.513888888888886],[-96.87527777777777,43.51583333333333],[-96.68305555555555,43.51722222222222],[-96.49305555555556,43.51861111111111],[-96.30111111111111,43.519444444444446],[-96.10972222222222,43.52027777777778],[-95.9175,43.52055555555555],[-95.72916666666667,43.519999999999996],[-95.53972222222222,43.519999999999996],[-95.35166666666666,43.519444444444446],[-95.16222222222223,43.51833333333333],[-94.97333333333333,43.51722222222222],[-94.78555555555555,43.51555555555556],[-94.5936111111111,43.51361111111111],[-94.40361111111112,43.51138888888889],[-94.21027777777778,43.50888888888889],[-94.0261111111111,43.50611111111111],[-93.83416666666666,43.50277777777778],[-93.60666666666665,43.49861111111111],[-93.41777777777779,43.49805555555556],[-93.26416666666667,43.49916666666667],[-93.075,43.500277777777775],[-93.03777777777778,43.500277777777775],[-92.88694444444445,43.50083333333333],[-92.70083333333334,43.50111111111111],[-92.5175,43.50111111111111],[-92.33333333333333,43.50111111111111],[-92.14777777777779,43.50055555555556],[-91.965,43.496944444444445],[-91.7475,43.47805555555556],[-91.59833333333333,43.464444444444446],[-91.41305555555556,43.44777777777777],[-91.23083333333334,43.43083333333333],[-91.04555555555555,43.41361111111111],[-90.86138888888888,43.395833333333336],[-90.67722222222223,43.37777777777778],[-90.49222222222222,43.359722222222224],[-90.3111111111111,43.34138888888889],[-90.12666666666667,43.322500000000005],[-89.94416666666667,43.30361111111111],[-89.76222222222222,43.284166666666664],[-89.57972222222222,43.264722222222225],[-89.39777777777779,43.24472222222222],[-89.21722222222222,43.224722222222226],[-89.04333333333334,43.205000000000005],[-88.82694444444444,43.18055555555555],[-88.68444444444445,43.163333333333334],[-88.50527777777778,43.141666666666666],[-88.46638888888889,43.138333333333335],[-88.31833333333333,43.12138888888889],[-88.13472222222222,43.12444444444444],[-87.91666666666667,43.13472222222222],[-87.73138888888889,43.14333333333333],[-87.54972222222221,43.15138888888889],[-87.37055555555555,43.159444444444446],[-87.1888888888889,43.166666666666664],[-87.00611111111111,43.174166666666665],[-86.825,43.18111111111111],[-86.6438888888889,43.18805555555555],[-86.60777777777777,43.18888888888888],[-86.46194444444444,43.19416666666666],[-86.27666666666667,43.20055555555556],[-86.24277777777777,43.20166666666667],[-86.09444444444443,43.20638888888889],[-86.05611111111111,43.2075],[-85.905,43.21222222222222],[-85.86999999999999,43.213055555555556],[-85.72,43.2175],[-85.68527777777778,43.218333333333334],[-85.5363888888889,43.222500000000004],[-85.50361111111111,43.223333333333336],[-85.3561111111111,43.22694444444445],[-85.31888888888888,43.22805555555556],[-85.17027777777778,43.231388888888894],[-85.13722222222223,43.23222222222223],[-84.98916666666666,43.23555555555556],[-84.9538888888889,43.23638888888889],[-84.80833333333334,43.23916666666667],[-84.77388888888889,43.24],[-84.62472222222222,43.24277777777778],[-84.59083333333332,43.243611111111115],[-84.44361111111111,43.24611111111111],[-84.40833333333335,43.24666666666667],[-84.26388888888889,43.24888888888889],[-84.2286111111111,43.24944444444444],[-84.08138888888888,43.25138888888889],[-84.04805555555555,43.25194444444445],[-83.88805555555557,43.25388888888889],[-83.5286111111111,43.257777777777775],[-83.3475,43.259166666666665],[-83.16722222222222,43.26027777777778],[-81.40138888888889,43.12138888888889],[-81.22694444444444,43.09],[-81.05111111111111,43.06472222222222],[-80.8736111111111,43.05722222222222],[-80.70027777777779,43.03111111111111],[-79.11916666666666,42.981388888888894],[-78.07416666666666,42.955000000000005],[-77.89777777777779,42.94944444444444],[-77.7238888888889,42.94361111111111],[-77.55055555555555,42.93805555555555],[-77.375,42.931666666666665],[-77.19972222222222,42.92527777777777],[-77.02583333333334,42.91833333333333],[-76.85111111111111,42.91138888888889],[-76.67833333333334,42.90416666666667],[-76.51638888888888,42.8975],[-76.34527777777777,42.88972222222222],[-76.1725,42.88166666666667],[-76.00027777777778,42.87361111111111],[-75.82916666666667,42.86527777777778],[-75.65333333333334,42.85638888888889],[-75.44666666666667,42.845555555555556],[-75.27416666666666,42.836111111111116],[-75.1,42.82638888888889],[-74.92888888888889,42.81666666666667],[-74.75916666666667,42.80694444444444],[-74.58694444444444,42.796388888888885],[-74.41861111111112,42.78611111111111],[-74.24833333333333,42.775555555555556],[-72.77277777777778,42.70111111111111],[-72.62305555555555,42.68333333333333],[-72.48555555555555,42.66694444444444],[-72.32888888888888,42.6475],[-72.19361111111111,42.63166666666667],[-72.05666666666666,42.615833333333335],[-71.88333333333334,42.6],[-71.83333333333333,42.583333333333336],[-71.79694444444445,42.58277777777778],[-71.71666666666667,42.56666666666667],[-71.67194444444445,42.562777777777775],[-71.58333333333333,42.55],[-71.55444444444444,42.5425],[-71.48333333333333,42.53333333333333],[-71.44277777777778,42.51916666666666],[-71.36666666666666,42.5],[-71.33722222222222,42.4975],[-71.25,42.483333333333334],[-71.235,42.477222222222224],[-71.16666666666667,42.483333333333334],[-71.14861111111112,42.49444444444445],[-71.1,42.516666666666666],[-71.06361111111111,42.52611111111111],[-71,42.55],[-70.98555555555555,42.544999999999995],[-70.96666666666667,42.5],[-70.96055555555556,42.48916666666667],[-70.95,42.45],[-70.95916666666668,42.428888888888885],[-71,42.4],[-71.01833333333333,42.37888888888889],[-71.06666666666666,42.35],[-71.07444444444444,42.33083333333334],[-71.1,42.3],[-71.12555555555555,42.288333333333334],[-71.16666666666667,42.266666666666666],[-71.17888888888889,42.244166666666665],[-71.21666666666667,42.21666666666667],[-71.24111111111111,42.190555555555555],[-71.25,42.166666666666664],[-71.23805555555556,42.13777777777778],[-71.23333333333333,42.11666666666667],[-71.19944444444445,42.105555555555554],[-71.16666666666667,42.11666666666667],[-71.14444444444445,42.129444444444445],[-71.11666666666666,42.15],[-71.10138888888888,42.165],[-71.1,42.18333333333333],[-71.08166666666666,42.20611111111111],[-71.06666666666666,42.233333333333334],[-71.0625,42.24638888888889],[-71.05,42.266666666666666],[-71.04305555555555,42.28638888888889],[-71.03333333333333,42.31666666666667],[-71.02527777777777,42.32333333333334],[-71.01666666666667,42.35],[-71.0111111111111,42.3525]]}
}
