{
  "id": 2048438303,
  "type": "Feature",
  "properties": {
    "geom:area": 0,
    "geom:bbox": "-122.348040,37.491560,-121.305290,37.609680",
    "geom:latitude": 37.54378461203548,
    "geom:longitude": -121.83108157517097,
    "src:alt_label": "swim-approach",
    "src:geom": "swim",
    "swim:elevations": [
      4410,
      3991,
      3954,
      3815,
      3721,
      3537,
      3447,
      3075,
      2957,
      2712,
      2624,
      2511,
      2468,
      2198,
      2145,
      2134,
      2134,
      2128,
      1934,
      1830,
      1776,
      1593,
      1511,
      1266,
      1025,
      971,
      915,
      763,
      583,
      459,
      432,
      329,
      265,
      214,
      86
    ],
    "swim:geom": "approach",
    "swim:timestamps": [
      1790450827,
      1790450872,
      1790450882,
      1790450907,
      1790450929,
      1790450967,
      1790450979,
      1790451023,
      1790451041,
      1790451087,
      1790451099,
      1790451136,
      1790451154,
      1790451202,
      1790451217,
      1790451236,
      1790451241,
      1790451254,
      1790451285,
      1790451325,
      1790451333,
      1790451355,
      1790451366,
      1790451399,
      1790451446,
      1790451458,
      1790451481,
      1790451530,
      1790451567,
      1790451596,
      1790451607,
      1790451634,
      1790451652,
      1790451666,
      1790451703
    ],
    "wof:geomhash": "5d6a57c31250138141ac64c2925f6008",
    "wof:id": 2048438303,
    "wof:repo": "sfomuseum-data-flights-2026-09"
  },
  "bbox": [
    -122.34804,
    37.49156,
    -121.30529,
    37.60968
  ],
  "geometry": {"type":"LineString","coordinates":[[-121.30529,37.5874],[-121.39081,37.57803],[-121.41079,37.57584],[-121.45379,37.57095],[-121.48945,37.56677],[-121.5472,37.55993],[-121.56511,37.55785],[-121.62614,37.54999],[-121.65066,37.54469],[-121.71129,37.53016],[-121.72633,37.52657],[-121.77456,37.51499],[-121.79777,37.50935],[-121.85832,37.49488],[-121.87587,37.49184],[-121.89771,37.49156],[-121.90333,37.49171],[-121.91867,37.49193],[-121.95453,37.49284],[-122.00085,37.4989],[-122.00955,37.50158],[-122.03732,37.51048],[-122.04985,37.51477],[-122.08644,37.52684],[-122.13411,37.54224],[-122.14545,37.54588],[-122.1672,37.55293],[-122.21388,37.56788],[-122.2461,37.57838],[-122.27142,37.58601],[-122.27953,37.58849],[-122.29909,37.59423],[-122.31225,37.59816],[-122.32203,37.60105],[-122.34804,37.60968]]}
}
