{
  "id": 2048464921,
  "type": "Feature",
  "properties": {
    "geom:area": 0,
    "geom:bbox": "-122.324167,37.491944,-77.041944,39.487222",
    "geom:latitude": 38.87122112738194,
    "geom:longitude": -99.73754797451987,
    "src:alt_label": "swim-path",
    "src:geom": "swim",
    "swim:altitudes": [
      "011",
      "029",
      "054",
      "081",
      "108",
      "124",
      "147",
      "171",
      "189",
      "207",
      "225",
      "241",
      "256",
      "270",
      "291",
      "304",
      "315",
      "328",
      "336",
      "348",
      "355",
      "360C",
      "360C",
      "360C",
      "360C",
      "360C",
      "360C",
      "360C",
      "360C",
      "360C",
      "360C",
      "360C",
      "360C",
      "360C",
      "360C",
      "360C",
      "360C",
      "360C",
      "360C",
      "360C",
      "360C",
      "360C",
      "360C",
      "360C",
      "360C",
      "360C",
      "360C",
      "360C",
      "360C",
      "360C",
      "360C",
      "360C",
      "360C",
      "360C",
      "360C",
      "360C",
      "360C",
      "360C",
      "360C",
      "360C",
      "360C",
      "360C",
      "360C",
      "360C",
      "360C",
      "360C",
      "360C",
      "360C",
      "360C",
      "360C",
      "360C",
      "360C",
      "360C",
      "360C",
      "360C",
      "360C",
      "360C",
      "360C",
      "360C",
      "360C",
      "360C",
      "360C",
      "360C",
      "360C",
      "360C",
      "360C",
      "360C",
      "360C",
      "360C",
      "360C",
      "360C",
      "360C",
      "360C",
      "360C",
      "360C",
      "360C",
      "360C",
      "360C",
      "360C",
      "360C",
      "360C",
      "360C",
      "360C",
      "360C",
      "360C",
      "360C",
      "360C",
      "360C",
      "360C",
      "360C",
      "360C",
      "360C",
      "360C",
      "360C",
      "360C",
      "360C",
      "360C",
      "360C",
      "360C",
      "360C",
      "360C",
      "360C",
      "360C",
      "360C",
      "360C",
      "360C",
      "360C",
      "360C",
      "360C",
      "360C",
      "360C",
      "360C",
      "360C",
      "360C",
      "360C",
      "360C",
      "360C",
      "360C",
      "360C",
      "360C",
      "360C",
      "360C",
      "360C",
      "360C",
      "360C",
      "360C",
      "360C",
      "360C",
      "360C",
      "360C",
      "360C",
      "360C",
      "360C",
      "360C",
      "360C",
      "360C",
      "360C",
      "360C",
      "360C",
      "360C",
      "360C",
      "360C",
      "360C",
      "360C",
      "360C",
      "360C",
      "360C",
      "360C",
      "360C",
      "360C",
      "360C",
      "360C",
      "360C",
      "360C",
      "360C",
      "360C",
      "360C",
      "360C",
      "360C",
      "360C",
      "360C",
      "360C",
      "360C",
      "360C",
      "360C",
      "360C",
      "360C",
      "360C",
      "360C",
      "360C",
      "360C",
      "360C",
      "360C",
      "360C",
      "360C",
      "360C",
      "360C",
      "360C",
      "360C",
      "360C",
      "360C",
      "360C",
      "360C",
      "360C",
      "360C",
      "360C",
      "360C",
      "360C",
      "360C",
      "360C",
      "360C",
      "360C",
      "360C",
      "360C",
      "360C",
      "360C",
      "360C",
      "360C",
      "360C",
      "360C",
      "360C",
      "360C",
      "360C",
      "360C",
      "360C",
      "360C",
      "360C",
      "360C",
      "360C",
      "360C",
      "360C",
      "360C",
      "360C",
      "360C",
      "360C",
      "360C",
      "360C",
      "360C",
      "360C",
      "360C",
      "360C",
      "360C",
      "360C",
      "360C",
      "360C",
      "360C",
      "360C",
      "360C",
      "360C",
      "360C",
      "360C",
      "360C",
      "360C",
      "360C",
      "360C",
      "360C",
      "360C",
      "360C",
      "360C",
      "360C",
      "360C",
      "360C",
      "360C",
      "360C",
      "360C",
      "360C",
      "360C",
      "360C",
      "360C",
      "360C",
      "360C",
      "360C",
      "360C",
      "360C",
      "360C",
      "360C",
      "360C",
      "360C",
      "360C",
      "360C",
      "360C",
      "360C",
      "360C",
      "360C",
      "360C",
      "360C",
      "360C",
      "360C",
      "360C",
      "360C",
      "360C",
      "360C",
      "360C",
      "360C",
      "360C",
      "360C",
      "360C",
      "360C",
      "360",
      "360",
      "368",
      "379C",
      "380C",
      "380C",
      "380C",
      "380C",
      "380C",
      "380C",
      "380C",
      "380C",
      "380C",
      "380C",
      "380C",
      "380C",
      "380C",
      "380C",
      "380C",
      "380C",
      "380C",
      "380C",
      "380C",
      "380C",
      "380C",
      "380C",
      "380C",
      "380C",
      "380C",
      "380C",
      "380C",
      "380C",
      "380C",
      "380C",
      "380C",
      "380C",
      "380C",
      "380C",
      "380C",
      "380C",
      "380C",
      "380C",
      "380C",
      "380C",
      "380C",
      "380C",
      "380C",
      "380C",
      "380C",
      "380C",
      "380C",
      "380C",
      "380C",
      "380C",
      "380C",
      "380C",
      "380C",
      "380C",
      "380C",
      "380C",
      "380C",
      "380C",
      "380C",
      "380C",
      "380C",
      "380C",
      "380C",
      "380C",
      "380C",
      "380C",
      "380C",
      "380C",
      "380C",
      "380C",
      "380C",
      "380C",
      "380C",
      "380C",
      "380C",
      "380C",
      "380C",
      "380C",
      "380",
      "380",
      "380",
      "362",
      "336",
      "312",
      "292",
      "282",
      "272",
      "252",
      "232",
      "212",
      "192",
      "171",
      "157",
      "138",
      "120",
      "102",
      "102",
      "091",
      "080",
      "080",
      "070",
      "069",
      "062",
      "053",
      "043",
      "033",
      "024",
      "016",
      "007",
      "006"
    ],
    "swim:geom": "path",
    "swim:speeds": [
      175,
      225,
      258,
      279,
      297,
      355,
      371,
      376,
      388,
      400,
      413,
      417,
      427,
      435,
      446,
      447,
      449,
      449,
      449,
      449,
      447,
      448,
      447,
      446,
      446,
      444,
      441,
      439,
      437,
      437,
      440,
      444,
      445,
      446,
      447,
      447,
      446,
      446,
      448,
      449,
      449,
      449,
      448,
      447,
      445,
      443,
      442,
      440,
      439,
      440,
      437,
      439,
      431,
      429,
      430,
      427,
      429,
      427,
      428,
      427,
      430,
      429,
      436,
      436,
      437,
      437,
      438,
      437,
      439,
      437,
      438,
      437,
      437,
      437,
      435,
      437,
      433,
      433,
      430,
      431,
      429,
      431,
      428,
      430,
      427,
      429,
      425,
      427,
      425,
      427,
      426,
      427,
      426,
      427,
      425,
      426,
      423,
      424,
      421,
      422,
      410,
      409,
      408,
      407,
      407,
      407,
      407,
      408,
      409,
      409,
      410,
      410,
      411,
      411,
      411,
      412,
      411,
      411,
      410,
      409,
      409,
      409,
      409,
      408,
      408,
      407,
      407,
      407,
      407,
      408,
      410,
      411,
      413,
      414,
      415,
      416,
      417,
      418,
      419,
      418,
      417,
      416,
      414,
      414,
      414,
      415,
      417,
      418,
      419,
      419,
      419,
      417,
      415,
      414,
      413,
      413,
      413,
      413,
      412,
      408,
      406,
      405,
      406,
      407,
      408,
      408,
      408,
      406,
      404,
      402,
      401,
      401,
      397,
      393,
      386,
      391,
      386,
      389,
      386,
      388,
      386,
      387,
      386,
      387,
      386,
      386,
      386,
      386,
      387,
      387,
      387,
      387,
      387,
      387,
      387,
      387,
      388,
      388,
      389,
      389,
      390,
      389,
      390,
      390,
      390,
      390,
      391,
      391,
      391,
      391,
      391,
      391,
      391,
      392,
      392,
      392,
      392,
      392,
      392,
      393,
      394,
      395,
      395,
      395,
      395,
      395,
      396,
      397,
      399,
      401,
      404,
      406,
      407,
      408,
      408,
      413,
      407,
      407,
      412,
      408,
      412,
      409,
      409,
      408,
      409,
      408,
      409,
      409,
      409,
      410,
      411,
      410,
      413,
      410,
      414,
      416,
      416,
      418,
      417,
      418,
      417,
      417,
      418,
      417,
      418,
      417,
      418,
      417,
      417,
      416,
      415,
      417,
      415,
      416,
      417,
      417,
      417,
      419,
      417,
      420,
      426,
      424,
      425,
      427,
      427,
      427,
      426,
      425,
      425,
      425,
      425,
      426,
      426,
      426,
      427,
      428,
      427,
      428,
      430,
      429,
      431,
      430,
      430,
      431,
      431,
      433,
      433,
      433,
      432,
      433,
      437,
      439,
      440,
      440,
      441,
      442,
      444,
      446,
      447,
      449,
      451,
      452,
      452,
      451,
      450,
      449,
      449,
      449,
      451,
      454,
      457,
      476,
      459,
      465,
      461,
      465,
      465,
      467,
      467,
      468,
      468,
      469,
      469,
      468,
      468,
      467,
      467,
      467,
      467,
      467,
      467,
      467,
      468,
      468,
      468,
      468,
      468,
      468,
      467,
      466,
      466,
      466,
      466,
      465,
      465,
      464,
      463,
      462,
      462,
      463,
      464,
      465,
      465,
      465,
      465,
      462,
      460,
      451,
      451,
      450,
      449,
      448,
      448,
      444,
      442,
      442,
      434,
      429,
      421,
      407,
      394,
      380,
      371,
      359,
      347,
      345,
      338,
      324,
      331,
      305,
      285,
      292,
      264,
      274,
      238,
      213,
      204,
      185,
      180,
      166,
      158,
      160
    ],
    "swim:timestamps": [
      1790722821,
      1790722881,
      1790722941,
      1790723001,
      1790723061,
      1790723122,
      1790723182,
      1790723242,
      1790723302,
      1790723362,
      1790723422,
      1790723482,
      1790723542,
      1790723602,
      1790723722,
      1790723782,
      1790723842,
      1790723902,
      1790723963,
      1790724023,
      1790724083,
      1790724143,
      1790724203,
      1790724263,
      1790724323,
      1790724383,
      1790724443,
      1790724503,
      1790724563,
      1790724623,
      1790724684,
      1790724744,
      1790724804,
      1790724864,
      1790724924,
      1790724984,
      1790725044,
      1790725104,
      1790725164,
      1790725224,
      1790725284,
      1790725345,
      1790725405,
      1790725465,
      1790725525,
      1790725585,
      1790725645,
      1790725705,
      1790725765,
      1790725785,
      1790725825,
      1790725845,
      1790725885,
      1790725905,
      1790725945,
      1790725966,
      1790726006,
      1790726026,
      1790726066,
      1790726086,
      1790726126,
      1790726146,
      1790726186,
      1790726206,
      1790726246,
      1790726266,
      1790726306,
      1790726326,
      1790726366,
      1790726386,
      1790726426,
      1790726446,
      1790726486,
      1790726506,
      1790726546,
      1790726566,
      1790726606,
      1790726627,
      1790726667,
      1790726687,
      1790726727,
      1790726747,
      1790726787,
      1790726807,
      1790726847,
      1790726867,
      1790726907,
      1790726927,
      1790726967,
      1790726987,
      1790727027,
      1790727047,
      1790727087,
      1790727107,
      1790727147,
      1790727167,
      1790727207,
      1790727227,
      1790727267,
      1790727288,
      1790727328,
      1790727348,
      1790727388,
      1790727408,
      1790727448,
      1790727468,
      1790727508,
      1790727528,
      1790727568,
      1790727588,
      1790727628,
      1790727648,
      1790727688,
      1790727708,
      1790727748,
      1790727768,
      1790727808,
      1790727828,
      1790727888,
      1790727948,
      1790728009,
      1790728069,
      1790728129,
      1790728189,
      1790728249,
      1790728309,
      1790728369,
      1790728429,
      1790728489,
      1790728549,
      1790728609,
      1790728669,
      1790728730,
      1790728790,
      1790728850,
      1790728910,
      1790728970,
      1790729030,
      1790729090,
      1790729150,
      1790729210,
      1790729270,
      1790729330,
      1790729390,
      1790729451,
      1790729511,
      1790729571,
      1790729631,
      1790729691,
      1790729751,
      1790729812,
      1790729872,
      1790729932,
      1790729992,
      1790730052,
      1790730112,
      1790730172,
      1790730232,
      1790730293,
      1790730354,
      1790730414,
      1790730474,
      1790730534,
      1790730594,
      1790730652,
      1790730712,
      1790730772,
      1790730833,
      1790730893,
      1790730953,
      1790731013,
      1790731073,
      1790731133,
      1790731193,
      1790731236,
      1790731253,
      1790731296,
      1790731313,
      1790731356,
      1790731373,
      1790731416,
      1790731433,
      1790731476,
      1790731493,
      1790731536,
      1790731554,
      1790731596,
      1790731614,
      1790731656,
      1790731674,
      1790731716,
      1790731734,
      1790731777,
      1790731794,
      1790731837,
      1790731854,
      1790731897,
      1790731914,
      1790731957,
      1790731974,
      1790732017,
      1790732034,
      1790732077,
      1790732094,
      1790732137,
      1790732155,
      1790732197,
      1790732215,
      1790732257,
      1790732275,
      1790732317,
      1790732335,
      1790732377,
      1790732437,
      1790732498,
      1790732558,
      1790732618,
      1790732678,
      1790732738,
      1790732798,
      1790732858,
      1790732918,
      1790732978,
      1790733038,
      1790733098,
      1790733158,
      1790733219,
      1790733279,
      1790733339,
      1790733399,
      1790733459,
      1790733519,
      1790733579,
      1790733639,
      1790733699,
      1790733753,
      1790733759,
      1790733819,
      1790733873,
      1790733879,
      1790733934,
      1790733940,
      1790734000,
      1790734054,
      1790734060,
      1790734114,
      1790734174,
      1790734180,
      1790734234,
      1790734240,
      1790734300,
      1790734354,
      1790734360,
      1790734414,
      1790734420,
      1790734480,
      1790734534,
      1790734540,
      1790734594,
      1790734600,
      1790734654,
      1790734715,
      1790734721,
      1790734775,
      1790734781,
      1790734835,
      1790734841,
      1790734901,
      1790734955,
      1790735021,
      1790735081,
      1790735135,
      1790735141,
      1790735201,
      1790735255,
      1790735315,
      1790735375,
      1790735381,
      1790735436,
      1790735496,
      1790735556,
      1790735562,
      1790735622,
      1790735682,
      1790735736,
      1790735742,
      1790735796,
      1790735862,
      1790735916,
      1790735922,
      1790735982,
      1790736036,
      1790736096,
      1790736102,
      1790736157,
      1790736222,
      1790736229,
      1790736289,
      1790736342,
      1790736349,
      1790736409,
      1790736463,
      1790736529,
      1790736583,
      1790736589,
      1790736649,
      1790736709,
      1790736769,
      1790736829,
      1790736889,
      1790736950,
      1790737010,
      1790737070,
      1790737130,
      1790737190,
      1790737250,
      1790737310,
      1790737370,
      1790737430,
      1790737490,
      1790737550,
      1790737610,
      1790737671,
      1790737731,
      1790737791,
      1790737851,
      1790737911,
      1790737971,
      1790738031,
      1790738091,
      1790738151,
      1790738182,
      1790738211,
      1790738242,
      1790738271,
      1790738302,
      1790738362,
      1790738452,
      1790738482,
      1790738512,
      1790738542,
      1790738572,
      1790738602,
      1790738632,
      1790738662,
      1790738692,
      1790738722,
      1790738752,
      1790738782,
      1790738812,
      1790738842,
      1790738872,
      1790738902,
      1790738932,
      1790738962,
      1790738992,
      1790739022,
      1790739052,
      1790739082,
      1790739112,
      1790739143,
      1790739172,
      1790739203,
      1790739233,
      1790739263,
      1790739293,
      1790739323,
      1790739353,
      1790739383,
      1790739413,
      1790739443,
      1790739473,
      1790739503,
      1790739533,
      1790739563,
      1790739623,
      1790739683,
      1790739743,
      1790739803,
      1790739863,
      1790739923,
      1790739983,
      1790740043,
      1790740103,
      1790740164,
      1790740224,
      1790740284,
      1790740310,
      1790740344,
      1790740404,
      1790740464,
      1790740524,
      1790740584,
      1790740644,
      1790740704,
      1790740764,
      1790740836,
      1790740887,
      1790740896,
      1790740947,
      1790741007,
      1790741016,
      1790741067,
      1790741076,
      1790741136,
      1790741196,
      1790741257,
      1790741307,
      1790741377,
      1790741427,
      1790741487,
      1790741497
    ],
    "wof:geomhash": "7dc6f127847fbbbd50abd0b7a9cee742",
    "wof:id": 2048464921,
    "wof:repo": "sfomuseum-data-flights-2026-09"
  },
  "bbox": [
    -122.32416666666666,
    37.49194444444444,
    -77.04194444444444,
    39.48722222222222
  ],
  "geometry": {"type":"LineString","coordinates":[[-77.04194444444444,38.875],[-77.09944444444444,38.91166666666666],[-77.15194444444445,38.96666666666667],[-77.24583333333334,38.98166666666667],[-77.35111111111111,38.96277777777778],[-77.46416666666667,38.926944444444445],[-77.58416666666666,38.88972222222222],[-77.72055555555556,38.86944444444445],[-77.85694444444444,38.849722222222226],[-77.99861111111112,38.84861111111111],[-78.1463888888889,38.85333333333333],[-78.29583333333333,38.85416666666667],[-78.44944444444445,38.85138888888889],[-78.60472222222222,38.849444444444444],[-78.92333333333333,38.84444444444445],[-79.0825,38.84277777777778],[-79.24138888888889,38.839444444444446],[-79.40166666666667,38.836111111111116],[-79.55916666666667,38.83277777777778],[-79.71833333333333,38.82944444444445],[-79.87722222222222,38.825833333333335],[-80.03611111111111,38.82194444444445],[-80.19277777777778,38.81777777777778],[-80.35027777777778,38.81361111111111],[-80.50861111111111,38.80888888888889],[-80.66722222222222,38.803888888888885],[-80.82277777777777,38.799166666666665],[-80.9786111111111,38.79416666666666],[-81.135,38.78861111111111],[-81.28888888888889,38.78333333333333],[-81.44805555555556,38.77722222222222],[-81.595,38.77166666666667],[-81.75027777777778,38.76555555555556],[-81.94027777777778,38.7575],[-82.10083333333333,38.75111111111111],[-82.25833333333334,38.745555555555555],[-82.41527777777779,38.73916666666667],[-82.57527777777777,38.7325],[-82.73444444444445,38.726111111111116],[-82.89361111111111,38.719166666666666],[-83.05555555555556,38.71194444444445],[-83.21194444444444,38.70444444444445],[-83.36999999999999,38.697222222222216],[-83.53055555555555,38.689166666666665],[-83.6863888888889,38.68111111111111],[-83.8436111111111,38.67333333333333],[-83.99833333333333,38.665277777777774],[-84.12416666666665,38.65833333333333],[-84.27833333333334,38.64972222222222],[-84.34083333333332,38.64416666666666],[-84.44250000000001,38.64333333333333],[-84.49472222222222,38.641666666666666],[-84.58472222222221,38.65472222222222],[-84.64416666666668,38.654444444444444],[-84.73527777777778,38.66611111111111],[-84.79527777777777,38.66777777777777],[-84.88861111111112,38.677499999999995],[-84.94805555555556,38.68083333333333],[-85.03916666666666,38.68888888888888],[-85.1,38.69277777777778],[-85.19194444444445,38.69611111111111],[-85.25416666666666,38.695277777777775],[-85.34638888888888,38.68333333333333],[-85.4088888888889,38.67611111111111],[-85.50166666666667,38.669444444444444],[-85.56388888888888,38.66277777777778],[-85.65805555555556,38.65555555555555],[-85.71833333333333,38.647777777777776],[-85.81138888888889,38.641666666666666],[-85.87388888888889,38.63472222222222],[-85.96694444444445,38.62722222222222],[-86.02805555555555,38.62083333333334],[-86.12249999999999,38.61277777777778],[-86.18111111111112,38.60666666666667],[-86.27388888888889,38.59805555555556],[-86.33305555555555,38.59166666666667],[-86.42694444444444,38.583333333333336],[-86.48444444444445,38.57777777777778],[-86.5786111111111,38.56861111111112],[-86.63416666666667,38.56388888888888],[-86.7286111111111,38.553888888888885],[-86.78472222222221,38.54972222222222],[-86.87777777777777,38.538888888888884],[-86.935,38.533055555555556],[-87.02944444444444,38.52333333333333],[-87.08,38.51833333333333],[-87.19944444444445,38.505833333333335],[-87.23388888888888,38.50222222222222],[-87.34555555555555,38.49055555555556],[-87.37527777777777,38.487500000000004],[-87.495,38.474722222222226],[-87.52305555555556,38.471944444444446],[-87.64361111111111,38.45888888888889],[-87.67305555555556,38.455555555555556],[-87.79333333333334,38.442499999999995],[-87.82249999999999,38.43944444444444],[-87.93916666666667,38.42666666666666],[-87.97,38.42305555555555],[-88.08805555555556,38.41],[-88.115,38.40694444444444],[-88.23277777777778,38.41138888888889],[-88.26055555555556,38.41555555555556],[-88.37333333333332,38.431666666666665],[-88.40194444444445,38.43555555555555],[-88.515,38.45166666666667],[-88.5436111111111,38.45583333333334],[-88.65833333333335,38.47166666666667],[-88.68861111111111,38.476111111111116],[-88.80111111111111,38.49166666666667],[-88.83527777777778,38.49638888888889],[-88.94444444444444,38.51138888888889],[-88.97777777777777,38.51583333333333],[-89.0911111111111,38.53138888888889],[-89.11861111111111,38.535],[-89.23555555555555,38.55083333333333],[-89.26416666666667,38.55472222222222],[-89.37805555555555,38.569722222222225],[-89.40861111111111,38.573888888888895],[-89.55083333333333,38.59277777777778],[-89.69472222222223,38.61138888888889],[-89.83777777777777,38.63],[-89.97972222222222,38.64833333333333],[-90.13694444444445,38.66833333333333],[-90.28111111111112,38.686388888888885],[-90.42527777777778,38.70416666666667],[-90.57,38.721944444444446],[-90.7125,38.73916666666667],[-90.85083333333333,38.75611111111111],[-90.99388888888889,38.77305555555555],[-91.13833333333334,38.79],[-91.28138888888888,38.806666666666665],[-91.42861111111111,38.82361111111111],[-91.57333333333332,38.84027777777778],[-91.71916666666667,38.85666666666667],[-91.86722222222221,38.87305555555555],[-92.01333333333334,38.88638888888889],[-92.16000000000001,38.86361111111111],[-92.30611111111111,38.840833333333336],[-92.44194444444445,38.81944444444445],[-92.58666666666666,38.79694444444444],[-92.73111111111112,38.775],[-92.875,38.753055555555555],[-93.02083333333333,38.760555555555555],[-93.165,38.77638888888889],[-93.3125,38.7925],[-93.45833333333334,38.808611111111105],[-93.60527777777777,38.824444444444445],[-93.75416666666666,38.84027777777778],[-93.90666666666667,38.85638888888889],[-94.05638888888889,38.871944444444445],[-94.20277777777778,38.88722222222222],[-94.34916666666666,38.901944444444446],[-94.49638888888889,38.916666666666664],[-94.64083333333333,38.93083333333333],[-94.78805555555556,38.94555555555555],[-94.93388888888889,38.959722222222226],[-95.0825,38.97361111111111],[-95.22888888888889,38.987500000000004],[-95.37638888888888,39.00111111111111],[-95.52194444444444,39.01416666666667],[-95.66611111111112,39.02722222222222],[-95.80833333333334,39.04],[-95.95444444444445,39.052499999999995],[-96.09888888888888,39.065],[-96.245,39.0775],[-96.39,39.08972222222222],[-96.53277777777778,39.10138888888889],[-96.67861111111111,39.11333333333334],[-96.82027777777778,39.12444444444444],[-96.96166666666667,39.135555555555555],[-97.10527777777777,39.14666666666667],[-97.24666666666667,39.1575],[-97.38722222222223,39.168055555555554],[-97.52555555555556,39.17805555555555],[-97.625,39.18555555555555],[-97.66388888888889,39.18833333333333],[-97.76361111111112,39.195277777777775],[-97.80194444444444,39.198055555555555],[-97.90305555555557,39.20527777777778],[-97.92472222222223,39.20666666666667],[-98.03999999999999,39.21472222222223],[-98.06138888888889,39.21611111111111],[-98.17916666666667,39.22416666666667],[-98.21472222222222,39.22638888888889],[-98.31722222222221,39.233333333333334],[-98.34222222222222,39.235],[-98.45416666666667,39.242222222222225],[-98.47944444444444,39.24388888888889],[-98.5925,39.25111111111111],[-98.62805555555555,39.25333333333333],[-98.7325,39.26],[-98.76555555555555,39.26222222222222],[-98.87027777777777,39.26861111111111],[-98.91416666666667,39.271388888888886],[-99.00111111111111,39.27638888888889],[-99.05222222222221,39.279444444444444],[-99.14,39.28472222222222],[-99.19277777777778,39.28777777777778],[-99.28,39.293055555555554],[-99.33027777777778,39.295833333333334],[-99.41888888888889,39.30083333333333],[-99.46944444444445,39.30361111111111],[-99.55944444444444,39.308611111111105],[-99.60833333333333,39.311388888888885],[-99.70055555555555,39.31638888888889],[-99.73305555555555,39.318333333333335],[-99.83944444444444,39.323888888888895],[-99.87194444444444,39.32555555555556],[-99.97916666666667,39.33111111111111],[-100.01055555555556,39.33277777777778],[-100.12055555555555,39.33833333333334],[-100.15194444444445,39.34],[-100.25972222222222,39.34527777777778],[-100.40138888888889,39.352222222222224],[-100.54138888888889,39.35888888888889],[-100.6825,39.36555555555556],[-100.82222222222222,39.37166666666667],[-100.9625,39.37777777777778],[-101.10277777777777,39.38388888888889],[-101.24416666666667,39.38972222222222],[-101.38527777777779,39.39527777777778],[-101.52694444444444,39.40083333333333],[-101.66972222222223,39.406388888888884],[-101.81305555555555,39.41138888888889],[-101.95416666666667,39.41638888888889],[-102.09472222222222,39.42111111111111],[-102.23833333333333,39.42583333333333],[-102.38083333333333,39.43055555555555],[-102.52833333333334,39.43472222222222],[-102.6725,39.439166666666665],[-102.81833333333333,39.44305555555555],[-102.96666666666667,39.447222222222216],[-103.11222222222221,39.45055555555556],[-103.25777777777778,39.45416666666667],[-103.40583333333333,39.4575],[-103.51916666666666,39.45861111111111],[-103.55138888888888,39.46055555555556],[-103.69777777777779,39.46361111111111],[-103.81361111111111,39.465],[-103.84277777777777,39.46638888888889],[-103.95777777777778,39.46805555555556],[-103.99166666666667,39.469166666666666],[-104.13777777777779,39.47138888888889],[-104.24916666666667,39.473055555555554],[-104.28611111111111,39.47361111111111],[-104.39583333333334,39.474444444444444],[-104.54666666666667,39.47694444444445],[-104.58083333333333,39.4775],[-104.69472222222223,39.4775],[-104.73194444444445,39.47944444444445],[-104.88416666666667,39.48083333333334],[-104.9961111111111,39.481388888888894],[-105.03416666666666,39.48222222222223],[-105.14444444444445,39.48305555555556],[-105.18361111111112,39.483333333333334],[-105.33416666666666,39.48416666666667],[-105.44611111111111,39.484722222222224],[-105.48416666666667,39.485],[-105.59527777777777,39.48416666666667],[-105.63611111111112,39.48527777777778],[-105.74638888888889,39.484722222222224],[-105.89444444444445,39.485],[-105.93388888888889,39.486111111111114],[-106.04583333333333,39.48722222222222],[-106.08388888888888,39.48583333333333],[-106.19444444444444,39.486111111111114],[-106.22083333333333,39.48583333333333],[-106.37138888888889,39.48527777777778],[-106.49444444444444,39.48527777777778],[-106.6725,39.48388888888889],[-106.82111111111111,39.48277777777778],[-106.94111111111111,39.48166666666667],[-106.96944444444445,39.48166666666667],[-107.12083333333332,39.48027777777778],[-107.24055555555556,39.47888888888889],[-107.39055555555557,39.477222222222224],[-107.54138888888889,39.47555555555556],[-107.57638888888889,39.475],[-107.69277777777778,39.473055555555554],[-107.84555555555555,39.470555555555556],[-107.99916666666667,39.468333333333334],[-108.04138888888889,39.4675],[-108.165,39.46527777777778],[-108.32027777777778,39.46222222222222],[-108.46055555555556,39.45944444444445],[-108.47555555555556,39.45888888888889],[-108.61527777777778,39.45583333333334],[-108.79972222222221,39.45166666666667],[-108.92583333333334,39.44833333333333],[-108.95361111111112,39.44777777777777],[-109.10833333333333,39.44361111111111],[-109.23194444444445,39.440555555555555],[-109.38666666666667,39.43583333333333],[-109.41527777777779,39.434999999999995],[-109.53944444444444,39.43111111111111],[-109.72277777777778,39.425555555555555],[-109.72527777777778,39.425555555555555],[-109.87833333333333,39.42027777777778],[-110.0325,39.415],[-110.0325,39.415],[-110.18833333333333,39.40972222222222],[-110.3411111111111,39.403888888888886],[-110.495,39.39805555555556],[-110.65,39.39194444444444],[-110.65,39.391666666666666],[-110.80611111111111,39.385555555555555],[-110.96111111111111,39.37888888888889],[-111.11583333333333,39.37222222222222],[-111.26861111111111,39.36527777777778],[-111.41805555555555,39.358333333333334],[-111.57416666666666,39.35111111111111],[-111.73166666666667,39.343333333333334],[-111.89027777777778,39.33527777777778],[-112.0475,39.327222222222225],[-112.20444444444445,39.31888888888889],[-112.36527777777778,39.309999999999995],[-112.52527777777777,39.29805555555556],[-112.67972222222222,39.26833333333333],[-112.84666666666666,39.23555555555556],[-113.00277777777778,39.20472222222222],[-113.15777777777778,39.17388888888889],[-113.315,39.14222222222222],[-113.47055555555556,39.11055555555556],[-113.62472222222222,39.07916666666667],[-113.78083333333333,39.04722222222222],[-113.93472222222222,39.015277777777776],[-114.08805555555556,38.98305555555556],[-114.24194444444444,38.950833333333335],[-114.39666666666668,38.918055555555554],[-114.55333333333333,38.885],[-114.71305555555556,38.85055555555556],[-114.80805555555555,38.82944444444445],[-114.87027777777777,38.81666666666667],[-114.96611111111112,38.79555555555555],[-115.0286111111111,38.78194444444444],[-115.1261111111111,38.760555555555555],[-115.28583333333333,38.726111111111116],[-115.51194444444444,38.675555555555555],[-115.60805555555555,38.653888888888886],[-115.6713888888889,38.63944444444444],[-115.76888888888888,38.6175],[-115.83166666666666,38.60333333333333],[-115.92777777777778,38.58166666666667],[-115.98916666666666,38.5675],[-116.08583333333333,38.54555555555555],[-116.14944444444446,38.53111111111111],[-116.24638888888889,38.50861111111111],[-116.30722222222222,38.49444444444445],[-116.40444444444445,38.471944444444446],[-116.4675,38.4575],[-116.56444444444445,38.43472222222222],[-116.62527777777777,38.42055555555555],[-116.72222222222223,38.397777777777776],[-116.78305555555555,38.38333333333333],[-116.88055555555555,38.36027777777778],[-116.94250000000001,38.34527777777778],[-117.03833333333333,38.32277777777778],[-117.09805555555555,38.308611111111105],[-117.18472222222222,38.28777777777778],[-117.25111111111111,38.27194444444444],[-117.34055555555555,38.250277777777775],[-117.43611111111112,38.22694444444445],[-117.49861111111112,38.211666666666666],[-117.59194444444444,38.189166666666665],[-117.6538888888889,38.17388888888889],[-117.74666666666667,38.151111111111106],[-117.81083333333333,38.13527777777778],[-117.90111111111112,38.113055555555555],[-117.965,38.09722222222222],[-118.05666666666666,38.074444444444445],[-118.12138888888889,38.05833333333333],[-118.21472222222222,38.03527777777778],[-118.27888888888889,38.01888888888889],[-118.37055555555555,37.99583333333334],[-118.43416666666667,37.97972222222222],[-118.58638888888889,37.941111111111105],[-118.74138888888889,37.90138888888889],[-118.8963888888889,37.88055555555555],[-119.05888888888889,37.86194444444445],[-119.21472222222222,37.844166666666666],[-119.36944444444444,37.825833333333335],[-119.52527777777777,37.8075],[-119.68111111111112,37.788888888888884],[-119.83638888888889,37.769999999999996],[-119.9875,37.75138888888889],[-120.14194444444445,37.73222222222223],[-120.29277777777777,37.71333333333334],[-120.36666666666666,37.7],[-120.43833333333333,37.69499999999999],[-120.57888888888888,37.678888888888885],[-120.71666666666667,37.6625],[-120.84972222222221,37.64666666666667],[-120.97722222222222,37.63138888888889],[-121.10194444444444,37.614444444444445],[-121.20527777777778,37.60055555555556],[-121.32416666666666,37.58583333333333],[-121.44027777777778,37.572500000000005],[-121.58333333333333,37.55],[-121.57722222222222,37.55611111111111],[-121.68333333333334,37.53333333333333],[-121.78333333333333,37.516666666666666],[-121.78194444444445,37.51305555555555],[-121.88333333333334,37.5],[-121.87416666666665,37.49194444444444],[-121.96111111111111,37.49305555555556],[-122.03194444444445,37.50888888888889],[-122.09805555555555,37.53055555555555],[-122.16666666666667,37.55],[-122.21666666666667,37.56861111111112],[-122.26666666666667,37.583333333333336],[-122.31666666666666,37.6],[-122.32416666666666,37.60138888888889]]}
}
