{
  "id": 2048370203,
  "type": "Feature",
  "properties": {
    "geom:area": 0,
    "geom:bbox": "-122.359940,37.440630,-121.351160,37.623340",
    "geom:latitude": 37.54081406923416,
    "geom:longitude": -121.85585460966556,
    "src:alt_label": "swim-approach",
    "src:geom": "swim",
    "swim:elevations": [
      4323,
      3995,
      3964,
      3713,
      3504,
      3333,
      3133,
      3048,
      3048,
      3048,
      3048,
      2868,
      2700,
      2535,
      2438,
      2425,
      2315,
      2225,
      1980,
      1886,
      1829,
      1791,
      1676,
      1566,
      1454,
      1399,
      1323,
      924,
      731,
      608,
      484,
      333,
      243,
      126,
      102
    ],
    "swim:geom": "approach",
    "swim:timestamps": [
      1789732690,
      1789732732,
      1789732741,
      1789732781,
      1789732813,
      1789732849,
      1789732876,
      1789732904,
      1789732925,
      1789732962,
      1789732989,
      1789733046,
      1789733093,
      1789733114,
      1789733157,
      1789733166,
      1789733209,
      1789733239,
      1789733275,
      1789733290,
      1789733335,
      1789733355,
      1789733387,
      1789733409,
      1789733433,
      1789733444,
      1789733460,
      1789733511,
      1789733531,
      1789733573,
      1789733597,
      1789733635,
      1789733655,
      1789733687,
      1789733717
    ],
    "wof:geomhash": "ffa61304aeb9f1e8e12ed70d2ba10fbf",
    "wof:id": 2048370203,
    "wof:repo": "sfomuseum-data-flights-2026-09"
  },
  "bbox": [
    -122.35994,
    37.44063,
    -121.35116,
    37.62334
  ],
  "geometry": {"type":"LineString","coordinates":[[-121.35116,37.58209],[-121.42731,37.57416],[-121.44154,37.5724],[-121.50924,37.56356],[-121.5599,37.55791],[-121.61374,37.55193],[-121.65053,37.56045],[-121.68461,37.57607],[-121.70948,37.58768],[-121.75494,37.60825],[-121.78884,37.62334],[-121.85699,37.60148],[-121.83736,37.55073],[-121.81636,37.53278],[-121.78662,37.49211],[-121.78984,37.48143],[-121.83845,37.45318],[-121.87922,37.44728],[-121.92721,37.44063],[-121.94745,37.44241],[-122.00144,37.46246],[-122.0242,37.47216],[-122.061,37.48835],[-122.08707,37.49971],[-122.11436,37.5117],[-122.12554,37.51639],[-122.14267,37.52362],[-122.19351,37.54439],[-122.21402,37.55302],[-122.24938,37.56845],[-122.26889,37.57653],[-122.29865,37.58902],[-122.31467,37.59582],[-122.33834,37.60549],[-122.35994,37.61451]]}
}
