{
  "id": 2048362297,
  "type": "Feature",
  "properties": {
    "geom:area": 0,
    "geom:bbox": "-123.495490,37.631750,-122.406010,37.750780",
    "geom:latitude": 37.70127725304672,
    "geom:longitude": -122.94749592603489,
    "src:alt_label": "swim-takeoff",
    "src:geom": "swim",
    "swim:elevations": [
      434,
      475,
      564,
      803,
      1038,
      1167,
      1439,
      1820,
      1986,
      2313,
      2585,
      3128,
      3201,
      3898,
      4422,
      4982,
      5621
    ],
    "swim:geom": "takeoff",
    "swim:timestamps": [
      1789689834,
      1789689837,
      1789689846,
      1789689879,
      1789689919,
      1789689949,
      1789689987,
      1789690017,
      1789690029,
      1789690056,
      1789690080,
      1789690126,
      1789690141,
      1789690224,
      1789690310,
      1789690364,
      1789690454
    ],
    "wof:geomhash": "9afebbdf897b3ccdee26a53251faa617",
    "wof:id": 2048362297,
    "wof:repo": "sfomuseum-data-flights-2026-09"
  },
  "bbox": [
    -123.49549,
    37.63175,
    -122.40601,
    37.75078
  ],
  "geometry": {"type":"LineString","coordinates":[[-122.40601,37.63175],[-122.40847,37.63281],[-122.41577,37.63605],[-122.44475,37.64905],[-122.48306,37.66592],[-122.51995,37.67712],[-122.57905,37.68006],[-122.62784,37.68259],[-122.64833,37.68375],[-122.69275,37.68645],[-122.7327,37.68866],[-122.8085,37.69331],[-122.83511,37.69482],[-122.98884,37.70381],[-123.17385,37.71428],[-123.29365,37.72311],[-123.49549,37.75078]]}
}
