{
  "id": 2048430619,
  "type": "Feature",
  "properties": {
    "geom:area": 0,
    "geom:bbox": "-122.831290,37.387260,-122.120800,38.479310",
    "geom:latitude": 37.87515078058186,
    "geom:longitude": -122.57178233821794,
    "src:alt_label": "swim-approach",
    "src:geom": "swim",
    "swim:elevations": [
      7021,
      6927,
      6684,
      6649,
      6393,
      6118,
      5919,
      5624,
      5507,
      5485,
      5486,
      5486,
      5486,
      5486,
      5486,
      5486,
      5486,
      5486,
      5486,
      5486,
      5486,
      5486,
      5486,
      5486,
      5486,
      5486,
      5455,
      5347,
      5337,
      5237,
      5182,
      5178,
      4995,
      4905,
      4739,
      4631,
      4489,
      4434,
      4295,
      4196,
      3964,
      3879,
      3421,
      3355,
      3353,
      3353,
      3353,
      3306,
      3141,
      3122,
      2868,
      2543,
      1920,
      1804,
      1607,
      1524,
      1503,
      1426,
      1220,
      1202,
      943,
      926,
      729,
      647,
      538,
      368,
      312,
      255,
      182,
      87,
      163
    ],
    "swim:geom": "approach",
    "swim:timestamps": [
      1790342996,
      1790343007,
      1790343035,
      1790343041,
      1790343072,
      1790343103,
      1790343129,
      1790343165,
      1790343182,
      1790343192,
      1790343230,
      1790343244,
      1790343263,
      1790343272,
      1790343327,
      1790343337,
      1790343358,
      1790343365,
      1790343408,
      1790343418,
      1790343443,
      1790343457,
      1790343491,
      1790343536,
      1790343556,
      1790343577,
      1790343606,
      1790343654,
      1790343663,
      1790343700,
      1790343714,
      1790343722,
      1790343766,
      1790343787,
      1790343834,
      1790343863,
      1790343897,
      1790343905,
      1790343949,
      1790343965,
      1790343990,
      1790344020,
      1790344096,
      1790344121,
      1790344168,
      1790344176,
      1790344207,
      1790344236,
      1790344272,
      1790344275,
      1790344310,
      1790344339,
      1790344407,
      1790344435,
      1790344468,
      1790344518,
      1790344548,
      1790344562,
      1790344613,
      1790344625,
      1790344676,
      1790344685,
      1790344729,
      1790344747,
      1790344775,
      1790344817,
      1790344837,
      1790344848,
      1790344871,
      1790344896,
      1790344923
    ],
    "wof:geomhash": "e5213746b47a2cfeb89cd9fb372671e8",
    "wof:id": 2048430619,
    "wof:repo": "sfomuseum-data-flights-2026-09"
  },
  "bbox": [
    -122.83129,
    37.38726,
    -122.1208,
    38.47931
  ],
  "geometry": {"type":"LineString","coordinates":[[-122.83129,38.47931],[-122.82672,38.46079],[-122.81386,38.40953],[-122.81116,38.39876],[-122.79727,38.3439],[-122.78317,38.28764],[-122.77166,38.2414],[-122.75448,38.1785],[-122.74569,38.14886],[-122.74115,38.13336],[-122.72262,38.07087],[-122.71648,38.04972],[-122.70895,38.02358],[-122.7053,38.01096],[-122.68357,37.93506],[-122.67998,37.92252],[-122.67213,37.89352],[-122.67178,37.88379],[-122.71092,37.83854],[-122.72609,37.83457],[-122.76524,37.83749],[-122.7837,37.84649],[-122.80884,37.88679],[-122.82616,37.94667],[-122.83051,37.97321],[-122.82714,38.00212],[-122.82055,38.04242],[-122.80942,38.10955],[-122.8074,38.12172],[-122.78986,38.17087],[-122.77336,38.18495],[-122.76098,38.19133],[-122.68322,38.18924],[-122.65642,38.16778],[-122.64961,38.09731],[-122.655,38.05248],[-122.6616,37.99745],[-122.66313,37.98475],[-122.66813,37.91569],[-122.6591,37.89115],[-122.62963,37.85828],[-122.59042,37.82185],[-122.50439,37.73995],[-122.47987,37.71681],[-122.43497,37.67466],[-122.42712,37.66729],[-122.39771,37.63955],[-122.36943,37.6128],[-122.34481,37.57665],[-122.34304,37.57363],[-122.3227,37.53872],[-122.3061,37.51026],[-122.26556,37.44089],[-122.24653,37.4128],[-122.20736,37.3955],[-122.13956,37.38726],[-122.1208,37.41376],[-122.12116,37.42942],[-122.13452,37.47853],[-122.13931,37.48937],[-122.16959,37.52533],[-122.17509,37.5315],[-122.21432,37.55123],[-122.22988,37.55774],[-122.25446,37.5681],[-122.28795,37.58214],[-122.30251,37.58825],[-122.31037,37.5916],[-122.32599,37.59813],[-122.34337,37.60543],[-122.3616,37.61301]]}
}
