{
  "id": 2048415983,
  "type": "Feature",
  "properties": {
    "geom:area": 0,
    "geom:bbox": "-123.501250,37.634200,-122.412780,37.732530",
    "geom:latitude": 37.69991298484422,
    "geom:longitude": -122.95325513085366,
    "src:alt_label": "swim-takeoff",
    "src:geom": "swim",
    "swim:elevations": [
      377,
      585,
      763,
      973,
      1369,
      1744,
      2114,
      2365,
      2801,
      3062,
      3264,
      3352,
      3464,
      3625,
      3948,
      4021,
      4326,
      4668,
      4797,
      4977
    ],
    "swim:geom": "takeoff",
    "swim:timestamps": [
      1790204664,
      1790204696,
      1790204743,
      1790204777,
      1790204816,
      1790204852,
      1790204891,
      1790204914,
      1790204960,
      1790204996,
      1790205028,
      1790205054,
      1790205081,
      1790205108,
      1790205147,
      1790205153,
      1790205193,
      1790205230,
      1790205252,
      1790205273
    ],
    "wof:geomhash": "b187a65bf69b4a8f81da0c8fc15f9e25",
    "wof:id": 2048415983,
    "wof:repo": "sfomuseum-data-flights-2026-09"
  },
  "bbox": [
    -123.50125,
    37.6342,
    -122.41278,
    37.73253
  ],
  "geometry": {"type":"LineString","coordinates":[[-122.41278,37.6342],[-122.44316,37.64795],[-122.49621,37.67161],[-122.54679,37.67828],[-122.60824,37.68138],[-122.66625,37.68489],[-122.73014,37.6887],[-122.76791,37.69097],[-122.84576,37.69559],[-122.91007,37.69929],[-122.96829,37.70281],[-123.01758,37.7057],[-123.07457,37.70896],[-123.13242,37.71229],[-123.21765,37.7171],[-123.23082,37.71783],[-123.31915,37.7227],[-123.40367,37.7273],[-123.45201,37.72992],[-123.50125,37.73253]]}
}
