{
  "id": 2048475811,
  "type": "Feature",
  "properties": {
    "geom:area": 0,
    "geom:bbox": "-105.087222,35.661111,-78.813333,38.338889",
    "geom:latitude": 37.01396492785729,
    "geom:longitude": -91.92901604816338,
    "src:alt_label": "swim-path",
    "src:geom": "swim",
    "swim:altitudes": [
      "011",
      "023",
      "037",
      "050",
      "060",
      "060",
      "073",
      "107",
      "120",
      "141",
      "164",
      "180",
      "199",
      "214",
      "227",
      "238",
      "254",
      "271",
      "280",
      "280",
      "280",
      "280",
      "280",
      "280",
      "280",
      "290",
      "302",
      "314",
      "323",
      "334",
      "340C",
      "340C",
      "340C",
      "340C",
      "340C",
      "340C",
      "340C",
      "340C",
      "340C",
      "340C",
      "340C",
      "340C",
      "340C",
      "340C",
      "340",
      "340",
      "340",
      "340",
      "340",
      "340",
      "333",
      "331",
      "324",
      "323",
      "320C",
      "320C",
      "320C",
      "320C",
      "320C",
      "320C",
      "320C",
      "320C",
      "320C",
      "320C",
      "320C",
      "320C",
      "320C",
      "320C",
      "320C",
      "320C",
      "320C",
      "320C",
      "320C",
      "320C",
      "320C",
      "320C",
      "320C",
      "320C",
      "320C",
      "320C",
      "320C",
      "320C",
      "320C",
      "320C",
      "320C",
      "320C",
      "320C",
      "320C",
      "320C",
      "320C",
      "320",
      "320",
      "324",
      "333",
      "340",
      "343",
      "345",
      "351",
      "355",
      "360C",
      "360C",
      "360C",
      "360C",
      "360C",
      "360C",
      "360C",
      "360C",
      "360C",
      "360C",
      "360C",
      "360C",
      "360C",
      "360C",
      "360C",
      "360C",
      "360C",
      "360C",
      "360C",
      "360C",
      "360C",
      "360C",
      "360C",
      "360C",
      "360C",
      "360C",
      "360C",
      "360C",
      "360C",
      "360C",
      "360C",
      "360C",
      "360C",
      "360C",
      "360C",
      "360C",
      "360C",
      "360C",
      "360C",
      "360C",
      "360C",
      "360C",
      "360C",
      "360C",
      "360C",
      "360C",
      "360C",
      "360C",
      "360C",
      "360C",
      "360C",
      "360C",
      "360C",
      "360C",
      "360C",
      "360C",
      "360C",
      "360C",
      "360C",
      "360C",
      "360C",
      "360C",
      "360C",
      "360C",
      "360C",
      "360C",
      "360C",
      "360C",
      "360C",
      "360C",
      "360C",
      "360C",
      "360C",
      "360C",
      "360C",
      "360C",
      "360C",
      "360C",
      "360C",
      "360C",
      "360C",
      "360C",
      "360C",
      "360C",
      "360C",
      "360C",
      "360C",
      "360C",
      "360C",
      "360C",
      "360C",
      "360C",
      "360C",
      "360C",
      "360C",
      "360C",
      "360C",
      "360C",
      "360C",
      "360C",
      "360C",
      "360C",
      "360C",
      "360C",
      "360C",
      "360C",
      "360C",
      "360C",
      "360C",
      "360C",
      "360C",
      "360C",
      "360C",
      "360C",
      "360C",
      "360C",
      "360C",
      "360C",
      "360C"
    ],
    "swim:geom": "path",
    "swim:speeds": [
      188,
      215,
      227,
      268,
      270,
      268,
      277,
      291,
      350,
      368,
      375,
      396,
      405,
      414,
      426,
      435,
      446,
      449,
      450,
      452,
      452,
      452,
      452,
      452,
      451,
      452,
      454,
      457,
      458,
      460,
      459,
      458,
      457,
      456,
      455,
      455,
      455,
      455,
      455,
      455,
      455,
      455,
      455,
      454,
      454,
      453,
      454,
      453,
      454,
      454,
      454,
      453,
      452,
      451,
      449,
      449,
      448,
      447,
      447,
      447,
      447,
      447,
      447,
      447,
      446,
      446,
      445,
      443,
      442,
      440,
      439,
      437,
      436,
      436,
      436,
      436,
      436,
      435,
      436,
      434,
      435,
      434,
      434,
      434,
      434,
      435,
      435,
      437,
      436,
      439,
      443,
      440,
      444,
      448,
      446,
      440,
      441,
      441,
      441,
      440,
      438,
      437,
      437,
      437,
      437,
      437,
      437,
      437,
      437,
      436,
      436,
      436,
      434,
      434,
      432,
      432,
      431,
      431,
      430,
      431,
      431,
      431,
      431,
      431,
      430,
      430,
      429,
      429,
      428,
      428,
      428,
      428,
      428,
      428,
      429,
      429,
      430,
      430,
      432,
      431,
      433,
      432,
      434,
      433,
      434,
      433,
      433,
      433,
      432,
      432,
      431,
      429,
      427,
      425,
      424,
      423,
      423,
      424,
      424,
      424,
      424,
      425,
      426,
      427,
      427,
      428,
      428,
      428,
      427,
      426,
      424,
      423,
      423,
      423,
      423,
      423,
      424,
      424,
      424,
      425,
      425,
      424,
      423,
      422,
      421,
      420,
      420,
      422,
      425,
      428,
      429,
      429,
      428,
      427,
      426,
      426,
      427,
      427,
      429,
      429,
      431,
      436,
      438,
      441,
      442,
      441,
      440,
      439,
      438,
      439,
      440,
      442,
      444,
      446,
      448,
      449,
      450,
      451
    ],
    "swim:timestamps": [
      1790805655,
      1790805697,
      1790805736,
      1790805769,
      1790805829,
      1790805856,
      1790805890,
      1790805977,
      1790806037,
      1790806097,
      1790806157,
      1790806217,
      1790806277,
      1790806337,
      1790806397,
      1790806457,
      1790806518,
      1790806578,
      1790806638,
      1790806698,
      1790806758,
      1790806818,
      1790806882,
      1790806942,
      1790807002,
      1790807062,
      1790807122,
      1790807182,
      1790807242,
      1790807302,
      1790807362,
      1790807422,
      1790807483,
      1790807543,
      1790807603,
      1790807663,
      1790807723,
      1790807783,
      1790807831,
      1790807843,
      1790807891,
      1790807903,
      1790807951,
      1790807963,
      1790808012,
      1790808023,
      1790808072,
      1790808084,
      1790808132,
      1790808144,
      1790808192,
      1790808204,
      1790808252,
      1790808264,
      1790808312,
      1790808324,
      1790808372,
      1790808384,
      1790808432,
      1790808444,
      1790808492,
      1790808504,
      1790808552,
      1790808564,
      1790808625,
      1790808672,
      1790808733,
      1790808793,
      1790808853,
      1790808913,
      1790808973,
      1790809033,
      1790809093,
      1790809125,
      1790809153,
      1790809185,
      1790809246,
      1790809273,
      1790809306,
      1790809333,
      1790809366,
      1790809393,
      1790809426,
      1790809453,
      1790809486,
      1790809514,
      1790809546,
      1790809574,
      1790809606,
      1790809634,
      1790809666,
      1790809694,
      1790809726,
      1790809754,
      1790809786,
      1790809814,
      1790809846,
      1790809874,
      1790809907,
      1790809934,
      1790809967,
      1790809994,
      1790810027,
      1790810054,
      1790810087,
      1790810147,
      1790810174,
      1790810207,
      1790810235,
      1790810267,
      1790810295,
      1790810327,
      1790810355,
      1790810387,
      1790810415,
      1790810447,
      1790810475,
      1790810507,
      1790810535,
      1790810568,
      1790810595,
      1790810628,
      1790810655,
      1790810688,
      1790810715,
      1790810748,
      1790810775,
      1790810808,
      1790810835,
      1790810895,
      1790810928,
      1790810955,
      1790810988,
      1790811016,
      1790811048,
      1790811076,
      1790811108,
      1790811136,
      1790811168,
      1790811196,
      1790811229,
      1790811256,
      1790811289,
      1790811316,
      1790811349,
      1790811376,
      1790811409,
      1790811436,
      1790811469,
      1790811496,
      1790811529,
      1790811589,
      1790811649,
      1790811709,
      1790811769,
      1790811829,
      1790811889,
      1790811950,
      1790812010,
      1790812070,
      1790812130,
      1790812190,
      1790812250,
      1790812310,
      1790812370,
      1790812430,
      1790812490,
      1790812550,
      1790812611,
      1790812671,
      1790812731,
      1790812851,
      1790812911,
      1790812971,
      1790813031,
      1790813091,
      1790813151,
      1790813211,
      1790813272,
      1790813332,
      1790813392,
      1790813452,
      1790813512,
      1790813572,
      1790813632,
      1790813692,
      1790813748,
      1790814529,
      1790814589,
      1790814649,
      1790814710,
      1790814770,
      1790814830,
      1790814890,
      1790814950,
      1790815010,
      1790815070,
      1790815130,
      1790815190,
      1790815250,
      1790815310,
      1790815370,
      1790815431,
      1790815491,
      1790815551,
      1790815611,
      1790815671,
      1790815731,
      1790815851,
      1790815911,
      1790815971,
      1790816031,
      1790816091,
      1790816152,
      1790816212,
      1790816272,
      1790816332,
      1790816392
    ],
    "wof:geomhash": "d31405a96a9121c2b8f68a8de734eb9d",
    "wof:id": 2048475811,
    "wof:repo": "sfomuseum-data-flights-2026-09"
  },
  "bbox": [
    -105.08722222222222,
    35.66111111111111,
    -78.81333333333333,
    38.33888888888889
  ],
  "geometry": {"type":"LineString","coordinates":[[-78.81333333333333,35.86527777777778],[-78.84833333333333,35.83722222222222],[-78.88138888888888,35.81055555555555],[-78.93472222222222,35.808611111111105],[-79.02777777777777,35.81111111111111],[-79.0611111111111,35.81111111111111],[-79.12055555555555,35.811388888888885],[-79.25638888888889,35.81361111111111],[-79.37166666666666,35.81583333333333],[-79.49722222222222,35.81722222222223],[-79.62416666666665,35.802499999999995],[-79.75916666666667,35.77972222222222],[-79.89555555555556,35.75611111111111],[-80.03194444444445,35.7325],[-80.15416666666667,35.711111111111116],[-80.2713888888889,35.690555555555555],[-80.44861111111112,35.66111111111111],[-80.63222222222221,35.670833333333334],[-80.78722222222223,35.683611111111105],[-80.93777777777778,35.69611111111111],[-81.0911111111111,35.70888888888889],[-81.2475,35.72166666666667],[-81.39111111111112,35.73305555555556],[-81.5425,35.745],[-81.69666666666667,35.75694444444444],[-81.85083333333333,35.76861111111111],[-82.00472222222223,35.78],[-82.16111111111111,35.79138888888889],[-82.31444444444445,35.80222222222222],[-82.47111111111111,35.81361111111111],[-82.62777777777777,35.824444444444445],[-82.78388888888888,35.834722222222226],[-82.94,35.84527777777778],[-83.0961111111111,35.85583333333334],[-83.26361111111112,35.86666666666667],[-83.41805555555555,35.876111111111115],[-83.57166666666666,35.885555555555555],[-83.72916666666667,35.89527777777778],[-83.85166666666666,35.901666666666664],[-83.88277777777778,35.90416666666667],[-84.00777777777778,35.913888888888884],[-84.03805555555556,35.91833333333333],[-84.16305555555556,35.93],[-84.1913888888889,35.93277777777777],[-84.31583333333333,35.94416666666666],[-84.34583333333333,35.94694444444444],[-84.47166666666666,35.95805555555556],[-84.50194444444445,35.96083333333333],[-84.62583333333333,35.97166666666667],[-84.655,35.97416666666667],[-84.78,35.98583333333333],[-84.80916666666667,35.98861111111111],[-84.92527777777778,35.998333333333335],[-84.95194444444445,36.00083333333333],[-85.07333333333332,36.01083333333333],[-85.10416666666666,36.013333333333335],[-85.22444444444444,36.02388888888889],[-85.25222222222222,36.02611111111111],[-85.37666666666667,36.03638888888889],[-85.40444444444445,36.03861111111111],[-85.5286111111111,36.04861111111111],[-85.55638888888889,36.05083333333333],[-85.68027777777779,36.06083333333333],[-85.71111111111111,36.06361111111111],[-85.86083333333333,36.07527777777778],[-86.015,36.08694444444445],[-86.16611111111112,36.09861111111111],[-86.31694444444445,36.11],[-86.46611111111112,36.12111111111111],[-86.61722222222221,36.13194444444444],[-86.73777777777778,36.14722222222222],[-86.88611111111112,36.17638888888889],[-87.03388888888888,36.205000000000005],[-87.11277777777777,36.22027777777778],[-87.18166666666667,36.23361111111111],[-87.25777777777778,36.2475],[-87.4038888888889,36.275277777777774],[-87.47305555555556,36.28944444444444],[-87.54972222222221,36.30333333333333],[-87.61722222222221,36.31638888888889],[-87.69527777777778,36.33083333333334],[-87.765,36.344166666666666],[-87.84055555555555,36.35861111111111],[-87.90944444444445,36.37138888888889],[-87.98722222222223,36.38527777777778],[-88.05694444444444,36.39833333333333],[-88.13444444444445,36.411944444444444],[-88.2225,36.428888888888885],[-88.28222222222222,36.44],[-88.37305555555555,36.45666666666667],[-88.43194444444445,36.46666666666667],[-88.46055555555556,36.47222222222222],[-88.57527777777777,36.50888888888889],[-88.6613888888889,36.5375],[-88.71916666666667,36.5575],[-88.80055555555555,36.584722222222226],[-88.85972222222222,36.599722222222226],[-88.94805555555556,36.61527777777778],[-89.00888888888889,36.626111111111115],[-89.09388888888888,36.64083333333333],[-89.15833333333335,36.65222222222222],[-89.24138888888889,36.66638888888889],[-89.30944444444444,36.67833333333333],[-89.38583333333334,36.69166666666666],[-89.45527777777778,36.703611111111115],[-89.60388888888889,36.72972222222222],[-89.67944444444444,36.74305555555556],[-89.75027777777778,36.75527777777778],[-89.8261111111111,36.768055555555556],[-89.88611111111112,36.778055555555554],[-89.94472222222223,36.788333333333334],[-90.03388888888888,36.80305555555555],[-90.12083333333332,36.81777777777778],[-90.18027777777779,36.82777777777778],[-90.26527777777778,36.841944444444444],[-90.32249999999999,36.85194444444445],[-90.41166666666668,36.86666666666667],[-90.47,36.87638888888889],[-90.55722222222222,36.89055555555556],[-90.61472222222221,36.9],[-90.70527777777778,36.914722222222224],[-90.76138888888889,36.92388888888889],[-90.85138888888888,36.93833333333333],[-90.90833333333335,36.9475],[-90.99666666666667,36.961666666666666],[-91.05472222222222,36.971111111111114],[-91.12694444444443,36.98277777777778],[-91.21611111111112,36.99666666666667],[-91.27361111111111,37.00555555555555],[-91.39111111111112,37.02472222222222],[-91.50861111111111,37.043055555555554],[-91.565,37.05166666666666],[-91.655,37.06527777777777],[-91.71222222222222,37.073888888888895],[-91.80166666666666,37.088055555555556],[-91.86083333333333,37.09722222222222],[-91.94972222222222,37.11055555555556],[-92.00944444444444,37.119166666666665],[-92.09833333333333,37.132777777777775],[-92.15666666666667,37.14138888888889],[-92.24861111111112,37.15555555555555],[-92.30611111111111,37.16416666666667],[-92.39750000000001,37.177499999999995],[-92.45527777777778,37.18583333333333],[-92.54694444444445,37.19916666666666],[-92.60666666666665,37.20777777777778],[-92.69611111111111,37.221111111111114],[-92.75277777777778,37.22916666666667],[-92.84472222222222,37.242222222222225],[-92.87166666666666,37.24611111111111],[-92.99111111111111,37.263333333333335],[-93.1388888888889,37.284166666666664],[-93.28555555555555,37.30472222222222],[-93.42944444444444,37.32472222222223],[-93.5775,37.345],[-93.72277777777778,37.365],[-93.86833333333333,37.38472222222222],[-94.01388888888889,37.403888888888886],[-94.13444444444445,37.41972222222222],[-94.28055555555555,37.439166666666665],[-94.42722222222223,37.45861111111111],[-94.575,37.4775],[-94.72222222222223,37.495555555555555],[-94.87166666666666,37.514722222222225],[-95.01888888888888,37.533055555555556],[-95.16833333333334,37.55166666666666],[-95.31416666666667,37.569722222222225],[-95.48972222222223,37.590833333333336],[-95.63722222222223,37.60805555555556],[-95.78361111111111,37.625277777777775],[-95.92805555555556,37.64222222222222],[-96.21138888888889,37.675],[-96.35749999999999,37.69166666666666],[-96.50472222222223,37.7075],[-96.65,37.72361111111111],[-96.79833333333333,37.73972222222222],[-96.94555555555556,37.75611111111111],[-97.09277777777777,37.771388888888886],[-97.24138888888889,37.78722222222222],[-97.38777777777779,37.80222222222222],[-97.53527777777778,37.8175],[-97.68305555555555,37.8325],[-97.83166666666666,37.846944444444446],[-97.97694444444444,37.86138888888889],[-98.12333333333332,37.87583333333333],[-98.28194444444445,37.89111111111111],[-98.39055555555557,37.901944444444446],[-100.32694444444444,38.06805555555556],[-100.47638888888889,38.07888888888889],[-100.62416666666665,38.09055555555556],[-100.77472222222222,38.10194444444445],[-100.92305555555556,38.112500000000004],[-101.07083333333333,38.12277777777778],[-101.22111111111111,38.13361111111111],[-101.36861111111111,38.14361111111111],[-101.5175,38.15361111111111],[-101.66722222222222,38.163888888888884],[-101.81555555555555,38.17305555555555],[-101.96722222222222,38.18333333333333],[-102.11638888888888,38.19277777777778],[-102.26888888888888,38.20166666666667],[-102.42222222222223,38.211111111111116],[-102.57638888888889,38.22027777777778],[-102.7325,38.22944444444445],[-102.88666666666667,38.238055555555555],[-103.04194444444444,38.24611111111111],[-103.21305555555556,38.25555555555555],[-103.36583333333333,38.263888888888886],[-103.6725,38.27833333333333],[-103.8275,38.28611111111111],[-103.98138888888889,38.29333333333333],[-104.13833333333334,38.300555555555555],[-104.29305555555555,38.30722222222222],[-104.45138888888889,38.31388888888888],[-104.61083333333333,38.32055555555556],[-104.76916666666666,38.32666666666667],[-104.9263888888889,38.33277777777778],[-105.08722222222222,38.33888888888889]]}
}
