{
  "id": 2048465963,
  "type": "Feature",
  "properties": {
    "geom:area": 0,
    "geom:bbox": "-122.353460,37.491090,-121.265330,37.611960",
    "geom:latitude": 37.545635440305375,
    "geom:longitude": -121.81414858269592,
    "src:alt_label": "swim-approach",
    "src:geom": "swim",
    "swim:elevations": [
      4568,
      4496,
      4097,
      3791,
      3456,
      3266,
      3188,
      2983,
      2768,
      2560,
      2438,
      2408,
      2124,
      2107,
      2045,
      1972,
      1829,
      1797,
      1499,
      1435,
      1294,
      1205,
      1077,
      1035,
      905,
      717,
      491,
      416,
      286,
      117,
      34
    ],
    "swim:geom": "approach",
    "swim:timestamps": [
      1790669811,
      1790669820,
      1790669865,
      1790669899,
      1790669938,
      1790669959,
      1790669972,
      1790669996,
      1790670013,
      1790670030,
      1790670082,
      1790670095,
      1790670147,
      1790670150,
      1790670164,
      1790670182,
      1790670231,
      1790670246,
      1790670294,
      1790670303,
      1790670344,
      1790670360,
      1790670392,
      1790670401,
      1790670424,
      1790670456,
      1790670500,
      1790670517,
      1790670550,
      1790670592,
      1790670609
    ],
    "wof:geomhash": "c64acc0933cdf2a95dbc3de9ad561600",
    "wof:id": 2048465963,
    "wof:repo": "sfomuseum-data-flights-2026-09"
  },
  "bbox": [
    -122.35346,
    37.49109,
    -121.26533,
    37.61196
  ],
  "geometry": {"type":"LineString","coordinates":[[-121.26533,37.59235],[-121.28561,37.58963],[-121.38078,37.57861],[-121.45019,37.57091],[-121.52807,37.56156],[-121.56803,37.55689],[-121.59035,37.55435],[-121.63469,37.54838],[-121.66589,37.54079],[-121.69636,37.53328],[-121.7823,37.51298],[-121.80379,37.50795],[-121.87939,37.49115],[-121.88357,37.49109],[-121.90364,37.49174],[-121.92755,37.49242],[-121.99271,37.49607],[-122.01058,37.50204],[-122.0672,37.52047],[-122.07882,37.52422],[-122.12371,37.53863],[-122.1399,37.54392],[-122.16908,37.55345],[-122.17745,37.55617],[-122.19745,37.56264],[-122.22546,37.57171],[-122.26384,37.58398],[-122.27841,37.58814],[-122.30572,37.59602],[-122.33994,37.60664],[-122.35346,37.61196]]}
}
