{
  "id": 2048335477,
  "type": "Feature",
  "properties": {
    "geom:area": 0,
    "geom:bbox": "-122.357560,37.491310,-121.262890,37.613740",
    "geom:latitude": 37.54618475455652,
    "geom:longitude": -121.81508006321486,
    "src:alt_label": "swim-approach",
    "src:geom": "swim",
    "swim:elevations": [
      4483,
      4207,
      3853,
      3584,
      3277,
      3108,
      3047,
      2996,
      2755,
      2645,
      2508,
      2305,
      2153,
      2074,
      2002,
      1786,
      1521,
      1323,
      1238,
      1126,
      980,
      856,
      721,
      585,
      394,
      304,
      203,
      49,
      0
    ],
    "swim:geom": "approach",
    "swim:timestamps": [
      1789417251,
      1789417280,
      1789417316,
      1789417346,
      1789417376,
      1789417406,
      1789417438,
      1789417448,
      1789417496,
      1789417520,
      1789417547,
      1789417586,
      1789417615,
      1789417631,
      1789417657,
      1789417704,
      1789417738,
      1789417763,
      1789417777,
      1789417805,
      1789417852,
      1789417887,
      1789417909,
      1789417935,
      1789417978,
      1789418006,
      1789418028,
      1789418067,
      1789418075
    ],
    "wof:geomhash": "0f7ae93c0ddb541e2285acdf4ece4c74",
    "wof:id": 2048335477,
    "wof:repo": "sfomuseum-data-flights-2026-09"
  },
  "bbox": [
    -122.35756,
    37.49131,
    -121.26289,
    37.61374
  ],
  "geometry": {"type":"LineString","coordinates":[[-121.26289,37.59274],[-121.31939,37.58629],[-121.39061,37.57805],[-121.4502,37.57119],[-121.51015,37.56408],[-121.5682,37.5573],[-121.62425,37.5502],[-121.63863,37.54744],[-121.70869,37.53075],[-121.74314,37.52256],[-121.78118,37.51351],[-121.83365,37.50087],[-121.87236,37.49244],[-121.8957,37.49131],[-121.93071,37.49241],[-121.99408,37.49703],[-122.0364,37.51042],[-122.06673,37.52008],[-122.0824,37.52519],[-122.11114,37.53481],[-122.15896,37.55013],[-122.19511,37.56178],[-122.21832,37.56921],[-122.24374,37.57747],[-122.28299,37.58932],[-122.30397,37.59554],[-122.32267,37.60103],[-122.35237,37.61148],[-122.35756,37.61374]]}
}
