{
  "id": 2048424657,
  "type": "Feature",
  "properties": {
    "geom:area": 0,
    "geom:bbox": "-122.402990,37.626390,-121.266360,38.413130",
    "geom:latitude": 38.08139898868502,
    "geom:longitude": -121.94022199016915,
    "src:alt_label": "swim-takeoff",
    "src:geom": "swim",
    "swim:elevations": [
      274,
      605,
      759,
      974,
      1076,
      1189,
      1275,
      1396,
      1656,
      2194,
      2574,
      2895,
      3155,
      3305,
      3584,
      3649,
      4037,
      4403,
      4683,
      5059,
      5169,
      5489,
      5790,
      5850,
      6033,
      6142,
      6198,
      6412,
      6614,
      6644,
      6779,
      6972,
      7127,
      7403
    ],
    "swim:geom": "takeoff",
    "swim:timestamps": [
      1790316537,
      1790316564,
      1790316585,
      1790316612,
      1790316631,
      1790316652,
      1790316666,
      1790316696,
      1790316723,
      1790316764,
      1790316797,
      1790316831,
      1790316858,
      1790316883,
      1790316926,
      1790316932,
      1790316968,
      1790317003,
      1790317035,
      1790317075,
      1790317087,
      1790317123,
      1790317162,
      1790317168,
      1790317193,
      1790317205,
      1790317210,
      1790317237,
      1790317262,
      1790317270,
      1790317284,
      1790317311,
      1790317328,
      1790317359
    ],
    "wof:geomhash": "05e57f809e348346f4d0b3cf54e6c365",
    "wof:id": 2048424657,
    "wof:repo": "sfomuseum-data-flights-2026-09"
  },
  "bbox": [
    -122.40299,
    37.62639,
    -121.26636,
    38.41313
  ],
  "geometry": {"type":"LineString","coordinates":[[-122.39308,37.62639],[-122.40299,37.64253],[-122.39431,37.65678],[-122.37932,37.67418],[-122.3676,37.68785],[-122.35369,37.70464],[-122.34406,37.71636],[-122.33882,37.74729],[-122.3536,37.77804],[-122.37718,37.82699],[-122.38586,37.8704],[-122.38261,37.91819],[-122.35507,37.95175],[-122.31086,37.97026],[-122.22788,38.00371],[-122.21583,38.00861],[-122.14358,38.03785],[-122.07238,38.06644],[-122.00341,38.094],[-121.9178,38.12818],[-121.89132,38.13879],[-121.81085,38.17066],[-121.72105,38.206],[-121.70704,38.21152],[-121.64931,38.23431],[-121.62132,38.2453],[-121.60849,38.25036],[-121.54451,38.27553],[-121.48513,38.2989],[-121.46705,38.30596],[-121.43167,38.31985],[-121.36897,38.3496],[-121.33266,38.37197],[-121.26636,38.41313]]}
}
