{
  "id": 2048361023,
  "type": "Feature",
  "properties": {
    "geom:area": 0,
    "geom:bbox": "-123.451220,37.224600,-122.111260,37.607000",
    "geom:latitude": 37.3375987668056,
    "geom:longitude": -122.64155561984042,
    "src:alt_label": "swim-approach",
    "src:geom": "swim",
    "swim:elevations": [
      5637,
      5326,
      4970,
      4787,
      4468,
      4281,
      4039,
      4016,
      3658,
      3336,
      3085,
      3024,
      2870,
      2746,
      2743,
      2689,
      2643,
      2478,
      2438,
      2318,
      2209,
      2132,
      2115,
      1919,
      1828,
      1829,
      1829,
      1829,
      1829,
      1829,
      1829,
      1678,
      1525,
      1461,
      1365,
      1220,
      1219,
      1158,
      1032,
      921,
      796,
      732,
      552,
      483,
      355,
      288,
      180,
      126,
      74
    ],
    "swim:geom": "approach",
    "swim:timestamps": [
      1789673511,
      1789673546,
      1789673578,
      1789673597,
      1789673633,
      1789673666,
      1789673696,
      1789673700,
      1789673748,
      1789673785,
      1789673813,
      1789673842,
      1789673872,
      1789673908,
      1789673933,
      1789673959,
      1789673971,
      1789674000,
      1789674042,
      1789674082,
      1789674100,
      1789674120,
      1789674137,
      1789674172,
      1789674194,
      1789674220,
      1789674242,
      1789674282,
      1789674322,
      1789674350,
      1789674373,
      1789674417,
      1789674446,
      1789674470,
      1789674498,
      1789674533,
      1789674563,
      1789674580,
      1789674609,
      1789674634,
      1789674657,
      1789674674,
      1789674717,
      1789674736,
      1789674767,
      1789674791,
      1789674816,
      1789674831,
      1789674846
    ],
    "wof:geomhash": "ce4df17226cac72cc751852235a3fa08",
    "wof:id": 2048361023,
    "wof:repo": "sfomuseum-data-flights-2026-09"
  },
  "bbox": [
    -123.45122,
    37.2246,
    -122.11126,
    37.607
  ],
  "geometry": {"type":"LineString","coordinates":[[-123.45122,37.30185],[-123.36779,37.29582],[-123.28999,37.29013],[-123.24604,37.2869],[-123.16567,37.28094],[-123.09831,37.27585],[-123.03869,37.27109],[-123.03148,37.27052],[-122.94108,37.26367],[-122.87622,37.25921],[-122.8281,37.26598],[-122.78227,37.27661],[-122.73362,37.28791],[-122.67673,37.29106],[-122.64138,37.28282],[-122.60477,37.27431],[-122.5887,37.27058],[-122.54833,37.26141],[-122.49091,37.24859],[-122.43706,37.237],[-122.41201,37.23142],[-122.38578,37.22568],[-122.36178,37.2246],[-122.33154,37.24999],[-122.33555,37.27339],[-122.3447,37.29962],[-122.35265,37.32216],[-122.36576,37.36242],[-122.33289,37.38963],[-122.29589,37.39203],[-122.26394,37.39407],[-122.20351,37.3984],[-122.16488,37.40157],[-122.13923,37.41447],[-122.12551,37.43888],[-122.11126,37.46838],[-122.12324,37.49357],[-122.13495,37.50661],[-122.15554,37.52545],[-122.17819,37.53602],[-122.19906,37.54474],[-122.21418,37.55108],[-122.25079,37.56652],[-122.26567,37.57275],[-122.28871,37.58251],[-122.30657,37.58996],[-122.32505,37.59771],[-122.3359,37.60224],[-122.34727,37.607]]}
}
