{
  "id": 2048365087,
  "type": "Feature",
  "properties": {
    "geom:area": 0,
    "geom:bbox": "-122.511240,36.744660,-121.460820,37.653130",
    "geom:latitude": 37.21361309456678,
    "geom:longitude": -122.04770661536317,
    "src:alt_label": "swim-takeoff",
    "src:geom": "swim",
    "swim:elevations": [
      152,
      505,
      1119,
      1504,
      1760,
      2044,
      3194,
      3522,
      4062,
      4444,
      5146,
      5695,
      5913,
      6620,
      6957,
      7497,
      7610,
      8173,
      8607,
      9039,
      9508,
      9694,
      9938,
      10401,
      10559,
      10668,
      10668,
      10668
    ],
    "swim:geom": "takeoff",
    "swim:timestamps": [
      1789646570,
      1789646595,
      1789646637,
      1789646666,
      1789646682,
      1789646702,
      1789646755,
      1789646781,
      1789646803,
      1789646822,
      1789646867,
      1789646906,
      1789646925,
      1789646966,
      1789646988,
      1789647025,
      1789647033,
      1789647077,
      1789647113,
      1789647146,
      1789647176,
      1789647192,
      1789647212,
      1789647259,
      1789647276,
      1789647325,
      1789647355,
      1789647365
    ],
    "wof:geomhash": "c066dbd925492ad209e39fd32f28b552",
    "wof:id": 2048365087,
    "wof:repo": "sfomuseum-data-flights-2026-09"
  },
  "bbox": [
    -122.51124,
    36.74466,
    -121.46082,
    37.65313
  ],
  "geometry": {"type":"LineString","coordinates":[[-122.38622,37.6235],[-122.40789,37.63335],[-122.45055,37.65109],[-122.48692,37.65313],[-122.50399,37.64211],[-122.51124,37.61992],[-122.47569,37.5561],[-122.45442,37.52296],[-122.431,37.49313],[-122.4067,37.47203],[-122.33736,37.41956],[-122.27471,37.37191],[-122.24213,37.3472],[-122.17581,37.2968],[-122.13873,37.26841],[-122.07489,37.2196],[-122.06165,37.20938],[-121.98487,37.15],[-121.91969,37.10011],[-121.85808,37.05286],[-121.80322,37.01093],[-121.77489,36.98901],[-121.73927,36.96113],[-121.65368,36.89519],[-121.62422,36.87151],[-121.535,36.80219],[-121.47959,36.75908],[-121.46082,36.74466]]}
}
