{
  "id": 2048271001,
  "type": "Feature",
  "properties": {
    "geom:area": 0,
    "geom:bbox": "-122.549760,36.720470,-121.439860,37.666140",
    "geom:latitude": 37.210406492050716,
    "geom:longitude": -122.06799427382629,
    "src:alt_label": "swim-takeoff",
    "src:geom": "swim",
    "swim:elevations": [
      367,
      591,
      919,
      1290,
      1763,
      1806,
      2105,
      2445,
      2781,
      3271,
      3518,
      3874,
      4480,
      4861,
      5260,
      5906,
      6114,
      6291,
      6810,
      7213,
      7441,
      7747,
      8049,
      8098,
      8571,
      8673,
      9015,
      9143,
      9311,
      9631,
      9712
    ],
    "swim:geom": "takeoff",
    "swim:timestamps": [
      1788721466,
      1788721481,
      1788721511,
      1788721554,
      1788721588,
      1788721591,
      1788721612,
      1788721638,
      1788721656,
      1788721695,
      1788721718,
      1788721743,
      1788721788,
      1788721819,
      1788721840,
      1788721888,
      1788721908,
      1788721923,
      1788721972,
      1788722007,
      1788722029,
      1788722063,
      1788722093,
      1788722100,
      1788722154,
      1788722168,
      1788722212,
      1788722231,
      1788722255,
      1788722297,
      1788722315
    ],
    "wof:geomhash": "9d0a232db90b41d8c463e95b9b256c8f",
    "wof:id": 2048271001,
    "wof:repo": "sfomuseum-data-flights-2026-09"
  },
  "bbox": [
    -122.54976,
    36.72047,
    -121.43986,
    37.66614
  ],
  "geometry": {"type":"LineString","coordinates":[[-122.39827,37.62893],[-122.40987,37.63383],[-122.43518,37.6448],[-122.48463,37.66614],[-122.53044,37.6619],[-122.53408,37.65953],[-122.54976,37.63678],[-122.53987,37.60386],[-122.52662,37.58075],[-122.4978,37.53069],[-122.47809,37.49879],[-122.44412,37.46696],[-122.37408,37.41591],[-122.3223,37.37819],[-122.28787,37.35287],[-122.21126,37.29614],[-122.17687,37.27051],[-122.15195,37.25194],[-122.06949,37.19095],[-122.00704,37.14463],[-121.96974,37.11683],[-121.91004,37.07232],[-121.85497,37.03108],[-121.84299,37.0221],[-121.74457,36.94939],[-121.71647,36.92957],[-121.63503,36.8683],[-121.59943,36.84179],[-121.55283,36.80681],[-121.47353,36.74638],[-121.43986,36.72047]]}
}
