{
  "id": 2048475857,
  "type": "Feature",
  "properties": {
    "geom:area": 0,
    "geom:bbox": "-101.830000,40.633333,-74.250000,43.940556",
    "geom:latitude": 42.943908815437034,
    "geom:longitude": -87.83204971960892,
    "src:alt_label": "swim-path",
    "src:geom": "swim",
    "swim:altitudes": [
      "028",
      "036",
      "047",
      "058",
      "070",
      "073",
      "087",
      "096",
      "101",
      "106",
      "118",
      "135",
      "156",
      "175",
      "192",
      "207",
      "223",
      "238",
      "250",
      "262",
      "273",
      "280C",
      "280C",
      "280C",
      "280C",
      "280C",
      "280C",
      "280C",
      "280C",
      "280C",
      "280C",
      "280C",
      "280C",
      "280C",
      "280C",
      "280C",
      "280C",
      "280C",
      "280C",
      "280C",
      "280C",
      "280C",
      "280C",
      "280C",
      "280C",
      "280C",
      "280C",
      "280C",
      "280C",
      "280C",
      "280C",
      "280C",
      "280C",
      "280C",
      "280C",
      "280C",
      "292",
      "300C",
      "300C",
      "300C",
      "300C",
      "300C",
      "300C",
      "300C",
      "300C",
      "300C",
      "300C",
      "300C",
      "300C",
      "300C",
      "300C",
      "300C",
      "300C",
      "300C",
      "300C",
      "300C",
      "300C",
      "300C",
      "300C",
      "300C",
      "300C",
      "300C",
      "300C",
      "300C",
      "300C",
      "300C",
      "300C",
      "300C",
      "300C",
      "300C",
      "300C",
      "300C",
      "300C",
      "300C",
      "300C",
      "300C",
      "300C",
      "300",
      "307",
      "320C",
      "320C",
      "320C",
      "320C",
      "320C",
      "320C",
      "320C",
      "320C",
      "320C",
      "320C",
      "320C",
      "320C",
      "320C",
      "320C",
      "320C",
      "320C",
      "320C",
      "320C",
      "320C",
      "320C",
      "320C",
      "320C",
      "320C",
      "320C",
      "320C",
      "320C",
      "320C",
      "320C",
      "320C",
      "320C",
      "320C",
      "320C",
      "320C",
      "320",
      "320",
      "324",
      "339C",
      "340C",
      "340C",
      "340C",
      "340C",
      "340C",
      "340C",
      "340C",
      "340C",
      "340C",
      "340C",
      "340C",
      "340C",
      "340C",
      "340C",
      "340C",
      "340C",
      "340C",
      "340C",
      "360C",
      "360C",
      "360C",
      "360C",
      "360C",
      "360C",
      "360C",
      "359C",
      "360C",
      "359C",
      "359C",
      "360C",
      "360C",
      "360C",
      "360C",
      "360C",
      "360C",
      "360C",
      "360C",
      "360C",
      "360C",
      "360C",
      "360C",
      "360C",
      "360C",
      "360C",
      "360C",
      "360C",
      "360C",
      "360C",
      "360C",
      "360C",
      "360C",
      "360C",
      "360C",
      "360C",
      "360C",
      "360C",
      "360C",
      "360C",
      "360C",
      "360C",
      "360C",
      "360C",
      "360C",
      "360C",
      "360C"
    ],
    "swim:geom": "path",
    "swim:speeds": [
      214,
      220,
      256,
      262,
      282,
      283,
      284,
      290,
      292,
      301,
      351,
      374,
      387,
      392,
      402,
      413,
      424,
      425,
      433,
      441,
      448,
      455,
      462,
      465,
      465,
      465,
      465,
      464,
      464,
      465,
      465,
      464,
      464,
      463,
      463,
      462,
      460,
      458,
      457,
      455,
      454,
      453,
      452,
      452,
      452,
      452,
      451,
      450,
      450,
      449,
      448,
      446,
      445,
      445,
      445,
      446,
      445,
      438,
      436,
      435,
      436,
      436,
      437,
      437,
      437,
      436,
      434,
      432,
      430,
      431,
      431,
      430,
      431,
      431,
      432,
      432,
      433,
      433,
      434,
      436,
      435,
      437,
      437,
      437,
      437,
      437,
      437,
      437,
      437,
      437,
      438,
      438,
      438,
      438,
      438,
      438,
      437,
      437,
      437,
      433,
      431,
      428,
      426,
      425,
      425,
      424,
      424,
      425,
      424,
      424,
      425,
      424,
      424,
      424,
      425,
      425,
      427,
      428,
      429,
      429,
      430,
      429,
      429,
      429,
      430,
      430,
      430,
      431,
      431,
      432,
      432,
      436,
      437,
      436,
      437,
      436,
      432,
      428,
      424,
      420,
      418,
      416,
      416,
      415,
      414,
      414,
      413,
      414,
      415,
      416,
      418,
      421,
      426,
      431,
      433,
      433,
      433,
      433,
      434,
      434,
      434,
      435,
      435,
      435,
      436,
      435,
      436,
      435,
      434,
      436,
      436,
      436,
      436,
      437,
      436,
      437,
      437,
      438,
      438,
      438,
      438,
      436,
      439,
      436,
      439,
      439,
      437,
      440,
      440,
      441,
      442,
      441,
      441,
      443,
      441,
      443,
      441,
      443,
      443,
      443,
      443
    ],
    "swim:timestamps": [
      1790805866,
      1790805893,
      1790805921,
      1790805953,
      1790805986,
      1790806013,
      1790806041,
      1790806073,
      1790806101,
      1790806133,
      1790806193,
      1790806253,
      1790806313,
      1790806373,
      1790806433,
      1790806494,
      1790806554,
      1790806614,
      1790806674,
      1790806734,
      1790806794,
      1790806854,
      1790806910,
      1790806974,
      1790807030,
      1790807090,
      1790807155,
      1790807215,
      1790807275,
      1790807335,
      1790807391,
      1790807455,
      1790807515,
      1790807575,
      1790807635,
      1790807695,
      1790807751,
      1790807811,
      1790807871,
      1790807932,
      1790807992,
      1790808052,
      1790808112,
      1790808172,
      1790808232,
      1790808292,
      1790808352,
      1790808412,
      1790808472,
      1790808533,
      1790808593,
      1790808653,
      1790808713,
      1790808773,
      1790808833,
      1790808893,
      1790809013,
      1790809073,
      1790809134,
      1790809194,
      1790809254,
      1790809314,
      1790809374,
      1790809434,
      1790809494,
      1790809554,
      1790809614,
      1790809682,
      1790809735,
      1790809742,
      1790809802,
      1790809855,
      1790809862,
      1790809915,
      1790809975,
      1790809994,
      1790810035,
      1790810054,
      1790810107,
      1790810155,
      1790810174,
      1790810215,
      1790810234,
      1790810275,
      1790810295,
      1790810335,
      1790810355,
      1790810407,
      1790810456,
      1790810475,
      1790810516,
      1790810535,
      1790810576,
      1790810588,
      1790810595,
      1790810655,
      1790810715,
      1790810775,
      1790810835,
      1790810895,
      1790810948,
      1790811008,
      1790811076,
      1790811136,
      1790811196,
      1790811256,
      1790811316,
      1790811376,
      1790811429,
      1790811489,
      1790811496,
      1790811549,
      1790811616,
      1790811676,
      1790811736,
      1790811797,
      1790811857,
      1790811917,
      1790811977,
      1790812037,
      1790812090,
      1790812097,
      1790812150,
      1790812217,
      1790812271,
      1790812337,
      1790812397,
      1790812451,
      1790812457,
      1790812511,
      1790812578,
      1790812638,
      1790812691,
      1790812698,
      1790812751,
      1790812818,
      1790812878,
      1790812938,
      1790812998,
      1790813058,
      1790813118,
      1790813172,
      1790813178,
      1790813232,
      1790813292,
      1790813299,
      1790813359,
      1790813419,
      1790813479,
      1790813539,
      1790813599,
      1790813659,
      1790813719,
      1790813779,
      1790814560,
      1790814620,
      1790814680,
      1790814740,
      1790814801,
      1790814861,
      1790814921,
      1790814981,
      1790815041,
      1790815101,
      1790815161,
      1790815221,
      1790815281,
      1790815326,
      1790815334,
      1790815395,
      1790815446,
      1790815455,
      1790815507,
      1790815522,
      1790815567,
      1790815575,
      1790815582,
      1790815642,
      1790815702,
      1790815755,
      1790815822,
      1790815867,
      1790815882,
      1790815927,
      1790815935,
      1790815942,
      1790815987,
      1790816002,
      1790816047,
      1790816062,
      1790816116,
      1790816122,
      1790816167,
      1790816182,
      1790816228,
      1790816242,
      1790816288,
      1790816303,
      1790816348,
      1790816356,
      1790816363
    ],
    "wof:geomhash": "293c7247965e5ce2595fa8bb13e23977",
    "wof:id": 2048475857,
    "wof:repo": "sfomuseum-data-flights-2026-09"
  },
  "bbox": [
    -101.83,
    40.63333333333333,
    -74.25,
    43.940555555555555
  ],
  "geometry": {"type":"LineString","coordinates":[[-74.25,40.63333333333333],[-74.27583333333334,40.63444444444444],[-74.31666666666666,40.63333333333333],[-74.3536111111111,40.655277777777776],[-74.36666666666666,40.7],[-74.37583333333333,40.73222222222223],[-74.38333333333334,40.766666666666666],[-74.39555555555556,40.81583333333333],[-74.4,40.85],[-74.42500000000001,40.894999999999996],[-74.50416666666666,40.967222222222226],[-74.585,41.03972222222222],[-74.68694444444445,41.126666666666665],[-74.8025,41.183611111111105],[-74.93972222222223,41.2425],[-75.06583333333333,41.29694444444444],[-75.20666666666666,41.35777777777778],[-75.33444444444444,41.4125],[-75.47416666666666,41.47083333333334],[-75.625,41.51722222222222],[-75.78472222222221,41.5625],[-75.94333333333334,41.6075],[-76.08222222222221,41.64666666666667],[-76.26583333333333,41.69833333333333],[-76.40666666666667,41.73777777777778],[-76.56888888888888,41.782777777777774],[-76.76222222222222,41.836111111111116],[-76.92416666666666,41.88027777777778],[-77.08833333333332,41.92472222222222],[-77.25111111111111,41.968611111111116],[-77.38444444444445,42.004444444444445],[-77.57722222222222,42.056666666666665],[-77.74055555555556,42.100833333333334],[-77.90611111111112,42.14527777777778],[-78.0675,42.18833333333333],[-78.23027777777779,42.23166666666667],[-78.36388888888888,42.26583333333333],[-78.52777777777777,42.30583333333333],[-78.69083333333333,42.34583333333334],[-78.85222222222221,42.38527777777778],[-79.03305555555555,42.42166666666667],[-79.19861111111112,42.44194444444444],[-79.35027777777778,42.459722222222226],[-79.51833333333333,42.47916666666667],[-79.68666666666667,42.49861111111111],[-79.85416666666666,42.5175],[-80.02555555555556,42.53666666666666],[-80.19222222222223,42.55472222222222],[-80.35694444444444,42.57277777777778],[-80.52555555555556,42.59055555555556],[-80.69083333333333,42.60805555555556],[-80.85749999999999,42.625277777777775],[-81.02222222222223,42.64222222222222],[-81.19,42.659166666666664],[-81.35388888888889,42.67638888888889],[-81.52111111111111,42.69638888888888],[-81.86388888888888,42.734722222222224],[-82.02583333333334,42.75277777777778],[-82.18833333333333,42.77055555555555],[-82.35083333333333,42.78805555555555],[-82.51416666666667,42.805277777777775],[-82.67472222222223,42.825833333333335],[-82.83749999999999,42.84861111111111],[-83.00166666666667,42.870555555555555],[-83.16194444444444,42.89138888888889],[-83.32555555555555,42.91138888888889],[-83.48694444444445,42.92611111111111],[-83.65972222222223,42.941111111111105],[-83.80222222222221,42.95333333333333],[-83.82194444444444,42.955000000000005],[-83.98305555555555,42.96888888888889],[-84.12444444444444,42.980555555555554],[-84.14333333333335,42.981944444444444],[-84.28583333333333,42.993611111111115],[-84.46888888888888,43.00833333333333],[-84.50055555555555,43.01083333333333],[-84.63361111111112,43.02166666666667],[-84.665,43.025555555555556],[-84.79527777777777,43.041666666666664],[-84.95833333333334,43.059999999999995],[-84.99222222222222,43.06388888888888],[-85.12222222222222,43.07805555555556],[-85.15694444444445,43.08166666666667],[-85.2863888888889,43.09583333333334],[-85.31972222222223,43.099444444444444],[-85.44944444444445,43.11333333333334],[-85.485,43.117222222222225],[-85.64805555555556,43.13444444444444],[-85.77777777777777,43.14805555555556],[-85.81138888888889,43.15138888888889],[-85.93611111111112,43.16444444444444],[-85.9725,43.168055555555554],[-86.0961111111111,43.18055555555555],[-86.13222222222221,43.18416666666666],[-86.16472222222222,43.1875],[-86.32944444444443,43.196666666666665],[-86.49305555555556,43.19138888888889],[-86.65861111111111,43.18555555555555],[-86.82416666666666,43.17944444444444],[-86.98722222222223,43.17361111111111],[-87.11583333333333,43.16861111111111],[-87.27527777777777,43.16222222222222],[-87.46555555555555,43.154444444444444],[-87.62777777777777,43.1475],[-87.78833333333333,43.140277777777776],[-87.94916666666667,43.132777777777775],[-88.11222222222221,43.125277777777775],[-88.27277777777778,43.11805555555556],[-88.40055555555556,43.118611111111115],[-88.56083333333333,43.12138888888889],[-88.59388888888888,43.12],[-88.72583333333334,43.12388888888889],[-88.91888888888889,43.12638888888889],[-89.08111111111111,43.12777777777778],[-89.24333333333334,43.12916666666667],[-89.40583333333333,43.13055555555555],[-89.56888888888888,43.13055555555555],[-89.74,43.13333333333333],[-89.90138888888889,43.13388888888889],[-90.06583333333333,43.13444444444444],[-90.19083333333333,43.13472222222222],[-90.22916666666667,43.13472222222222],[-90.36722222222221,43.13472222222222],[-90.53194444444445,43.13444444444444],[-90.69444444444444,43.13388888888889],[-90.85805555555555,43.13333333333333],[-90.98694444444445,43.1325],[-91.18194444444445,43.13027777777778],[-91.18194444444445,43.13027777777778],[-91.3425,43.10944444444445],[-91.50305555555556,43.08833333333334],[-91.69888888888889,43.095],[-91.83055555555555,43.105555555555554],[-91.86277777777777,43.108333333333334],[-91.99194444444444,43.119166666666665],[-92.18944444444445,43.13583333333333],[-92.35055555555554,43.14888888888889],[-92.51055555555556,43.16138888888889],[-92.66972222222223,43.17388888888889],[-92.8275,43.18611111111111],[-92.98444444444445,43.19777777777777],[-93.10888888888888,43.206944444444446],[-93.14055555555557,43.20944444444445],[-93.26416666666667,43.218333333333334],[-93.41972222222223,43.22916666666667],[-93.45361111111112,43.231388888888894],[-93.61,43.24166666666667],[-93.76555555555555,43.25194444444445],[-93.92111111111112,43.261944444444445],[-94.08138888888888,43.27194444444444],[-94.24027777777778,43.281666666666666],[-94.4038888888889,43.29138888888889],[-94.56777777777778,43.306666666666665],[-94.72694444444444,43.33277777777778],[-96.81638888888888,43.65222222222222],[-96.98138888888889,43.66555555555556],[-97.14583333333334,43.67805555555555],[-97.31166666666667,43.69083333333333],[-97.47944444444444,43.70333333333333],[-97.64444444444445,43.71527777777778],[-97.80944444444444,43.727222222222224],[-97.97555555555556,43.73888888888889],[-98.14305555555556,43.750277777777775],[-98.30888888888889,43.76138888888889],[-98.4775,43.7725],[-98.64277777777778,43.783055555555556],[-98.7875,43.79222222222222],[-98.91833333333334,43.80083333333333],[-98.95555555555556,43.802499999999995],[-99.12277777777777,43.8125],[-99.25472222222223,43.81944444444445],[-99.2911111111111,43.822500000000005],[-99.42305555555556,43.82944444444445],[-99.45805555555556,43.831944444444446],[-99.5911111111111,43.83916666666667],[-99.625,43.84111111111111],[-99.625,43.84111111111111],[-99.795,43.85027777777778],[-99.9625,43.85916666666667],[-100.13027777777778,43.867777777777775],[-100.3,43.876111111111115],[-100.44361111111111,43.88194444444444],[-100.46944444444445,43.884166666666665],[-100.57833333333333,43.88861111111111],[-100.63722222222223,43.89222222222222],[-100.63611111111112,43.89194444444444],[-100.78083333333333,43.89722222222222],[-100.80611111111111,43.89972222222222],[-100.95055555555555,43.904444444444444],[-100.97777777777777,43.907222222222224],[-101.14777777777779,43.91444444444444],[-101.1463888888889,43.91416666666667],[-101.29027777777777,43.91777777777777],[-101.31722222222221,43.92111111111111],[-101.45944444444444,43.92472222222222],[-101.49,43.92777777777778],[-101.63,43.930277777777775],[-101.66055555555556,43.93444444444444],[-101.8025,43.93944444444444],[-101.83,43.940555555555555],[-101.83,43.94027777777777]]}
}
