{
  "id": 2048443617,
  "type": "Feature",
  "properties": {
    "geom:area": 0,
    "geom:bbox": "-122.396960,37.624500,-121.435410,38.514420",
    "geom:latitude": 38.12000694153255,
    "geom:longitude": -122.01711977156084,
    "src:alt_label": "swim-takeoff",
    "src:geom": "swim",
    "swim:elevations": [
      122,
      245,
      925,
      1178,
      1329,
      1738,
      2076,
      2302,
      3314,
      3351,
      3839,
      3918,
      4469,
      4667,
      5136,
      5760,
      6030,
      6243,
      6510,
      6761,
      6872,
      7102,
      7468,
      7526,
      7805
    ],
    "swim:geom": "takeoff",
    "swim:timestamps": [
      1790466778,
      1790466787,
      1790466838,
      1790466868,
      1790466895,
      1790466928,
      1790466952,
      1790466967,
      1790467044,
      1790467050,
      1790467107,
      1790467114,
      1790467165,
      1790467183,
      1790467227,
      1790467285,
      1790467311,
      1790467337,
      1790467370,
      1790467401,
      1790467416,
      1790467440,
      1790467490,
      1790467502,
      1790467537
    ],
    "wof:geomhash": "a2c93d6f831fd5955b6b3591dad3ff7a",
    "wof:id": 2048443617,
    "wof:repo": "sfomuseum-data-flights-2026-09"
  },
  "bbox": [
    -122.39696,
    37.6245,
    -121.43541,
    38.51442
  ],
  "geometry": {"type":"LineString","coordinates":[[-122.38911,37.6245],[-122.39696,37.62775],[-122.39483,37.66274],[-122.37139,37.68283],[-122.34977,37.70824],[-122.33789,37.74882],[-122.35245,37.77896],[-122.36259,37.7979],[-122.38429,37.90563],[-122.38343,37.91509],[-122.30795,37.98583],[-122.29596,37.99329],[-122.20582,38.049],[-122.17253,38.0694],[-122.08784,38.12086],[-121.97606,38.18865],[-121.92302,38.2207],[-121.87141,38.25182],[-121.80272,38.29307],[-121.73565,38.33348],[-121.7034,38.35282],[-121.65132,38.38391],[-121.54206,38.44929],[-121.51516,38.46546],[-121.43541,38.51442]]}
}
