{
  "id": 2048431339,
  "type": "Feature",
  "properties": {
    "geom:area": 0,
    "geom:bbox": "-122.377778,37.483333,-74.139722,40.806389",
    "geom:latitude": 39.684609031416024,
    "geom:longitude": -98.33362922519512,
    "src:alt_label": "swim-path",
    "src:geom": "swim",
    "swim:altitudes": [
      "026",
      "036",
      "043",
      "051",
      "057",
      "077",
      "090",
      "110",
      "133",
      "156",
      "172",
      "186",
      "207",
      "224",
      "242",
      "258",
      "274",
      "285",
      "299",
      "312",
      "325",
      "341",
      "352",
      "361C",
      "360",
      "345",
      "341C",
      "341C",
      "341C",
      "341C",
      "341C",
      "341C",
      "341C",
      "341C",
      "341C",
      "341C",
      "341C",
      "341C",
      "341C",
      "341C",
      "341C",
      "344",
      "358C",
      "361C",
      "361C",
      "361C",
      "361C",
      "361C",
      "361C",
      "361C",
      "361C",
      "361C",
      "361C",
      "361C",
      "361C",
      "361C",
      "361C",
      "361C",
      "361C",
      "361C",
      "361C",
      "361C",
      "361C",
      "361C",
      "361C",
      "361C",
      "361C",
      "361C",
      "361C",
      "361C",
      "361C",
      "361C",
      "361C",
      "361C",
      "361C",
      "361C",
      "361C",
      "361C",
      "361C",
      "361C",
      "361C",
      "361C",
      "361C",
      "361C",
      "361C",
      "361C",
      "361C",
      "361C",
      "361C",
      "361C",
      "361C",
      "361C",
      "361C",
      "361C",
      "361C",
      "361C",
      "361C",
      "361C",
      "361C",
      "361C",
      "361C",
      "361C",
      "361C",
      "361C",
      "361C",
      "361C",
      "361C",
      "361C",
      "361C",
      "361C",
      "361C",
      "361C",
      "361C",
      "361C",
      "361C",
      "361C",
      "361C",
      "361C",
      "361C",
      "361C",
      "361C",
      "361C",
      "361C",
      "361C",
      "361C",
      "361C",
      "361C",
      "361C",
      "361C",
      "361C",
      "361C",
      "361C",
      "361C",
      "361C",
      "361C",
      "361C",
      "361C",
      "361C",
      "361C",
      "361C",
      "361C",
      "361C",
      "361C",
      "361C",
      "361C",
      "361C",
      "361C",
      "361C",
      "361C",
      "361C",
      "361C",
      "361C",
      "361C",
      "361C",
      "361C",
      "361C",
      "361C",
      "361C",
      "361C",
      "361C",
      "361C",
      "361C",
      "361C",
      "361C",
      "361C",
      "361C",
      "361C",
      "361C",
      "361C",
      "361C",
      "361C",
      "361C",
      "361C",
      "361C",
      "361C",
      "361",
      "361",
      "367",
      "372",
      "380C",
      "381C",
      "381C",
      "381C",
      "381C",
      "381C",
      "381C",
      "381C",
      "381C",
      "381C",
      "381C",
      "381C",
      "381C",
      "381C",
      "381C",
      "381C",
      "381C",
      "381C",
      "381C",
      "381C",
      "381C",
      "381C",
      "381C",
      "381C",
      "381C",
      "381C",
      "381C",
      "381C",
      "381C",
      "381C",
      "381C",
      "381C",
      "381C",
      "381C",
      "381C",
      "381C",
      "381C",
      "381C",
      "381C",
      "381C",
      "381C",
      "381C",
      "381C",
      "381C",
      "381C",
      "381C",
      "381C",
      "381C",
      "381C",
      "381C",
      "381C",
      "381C",
      "381C",
      "381C",
      "381C",
      "381C",
      "381C",
      "381C",
      "381C",
      "381C",
      "381C",
      "381C",
      "381C",
      "381C",
      "381C",
      "381C",
      "381C",
      "380C",
      "380C",
      "381C",
      "380C",
      "380C",
      "380C",
      "381C",
      "380C",
      "381C",
      "380C",
      "381C",
      "380C",
      "381C",
      "380C",
      "381C",
      "381C",
      "381C",
      "381C",
      "381C",
      "381C",
      "380C",
      "381C",
      "381C",
      "381C",
      "381C",
      "380C",
      "381C",
      "381C",
      "381C",
      "381C",
      "381C",
      "381C",
      "381C",
      "381C",
      "381C",
      "381C",
      "381C",
      "381C",
      "381C",
      "381C",
      "381C",
      "381C",
      "381C",
      "381C",
      "381C",
      "381C",
      "381C",
      "381C",
      "381C",
      "381C",
      "381C",
      "381C",
      "381C",
      "381C",
      "381C",
      "381C",
      "381C",
      "381C",
      "381C",
      "381C",
      "381C",
      "381C",
      "381C",
      "381C",
      "381C",
      "381C",
      "381C",
      "381C",
      "381C",
      "381C",
      "381C",
      "381C",
      "381C",
      "381C",
      "381C",
      "381C",
      "381C",
      "381C",
      "381C",
      "381C",
      "381C",
      "381C",
      "381C",
      "381C",
      "381C",
      "381C",
      "381C",
      "381C",
      "381C",
      "381C",
      "381C",
      "381C",
      "381C",
      "381C",
      "381C",
      "381C",
      "381C",
      "381C",
      "381C",
      "381C",
      "381C",
      "381C",
      "381C",
      "381C",
      "381C",
      "381C",
      "381C",
      "381C",
      "381C",
      "381C",
      "381C",
      "381C",
      "381C",
      "381C",
      "381C",
      "381C",
      "381C",
      "381C",
      "381C",
      "381C",
      "381C",
      "381C",
      "381C",
      "381C",
      "381C",
      "381C",
      "381C",
      "381C",
      "381C",
      "381C",
      "381C",
      "381C",
      "381C",
      "381C",
      "381C",
      "381C",
      "381C",
      "381C",
      "381C",
      "380C",
      "381C",
      "381C",
      "380C",
      "381C",
      "381C",
      "381C",
      "381C",
      "381C",
      "381C",
      "381C",
      "381C",
      "381C",
      "381C",
      "381C",
      "381C",
      "381C",
      "381C",
      "381C",
      "381C",
      "381C",
      "381C",
      "381C",
      "381C",
      "381C",
      "381C",
      "381C",
      "381",
      "376",
      "373",
      "361C",
      "361C",
      "361C",
      "361C",
      "361C",
      "361C",
      "361C",
      "361C",
      "361C",
      "361C",
      "361C",
      "361C",
      "361C",
      "361C",
      "361C",
      "361C",
      "361C",
      "361C",
      "361",
      "361",
      "358",
      "335",
      "308",
      "301",
      "286",
      "278",
      "265",
      "258",
      "245",
      "241",
      "228",
      "221",
      "208",
      "188",
      "181",
      "167",
      "161",
      "148",
      "142",
      "130",
      "122",
      "118",
      "109",
      "104",
      "095",
      "090",
      "084",
      "083",
      "075",
      "069",
      "066",
      "063",
      "058",
      "054",
      "047",
      "043",
      "036",
      "032",
      "026",
      "023",
      "017",
      "014",
      "010",
      "008",
      "004",
      "70"
    ],
    "swim:geom": "path",
    "swim:speeds": [
      161,
      255,
      280,
      302,
      298,
      299,
      302,
      338,
      366,
      381,
      404,
      430,
      432,
      439,
      444,
      445,
      446,
      448,
      453,
      452,
      451,
      451,
      452,
      451,
      450,
      446,
      449,
      452,
      460,
      465,
      470,
      472,
      473,
      475,
      474,
      473,
      472,
      467,
      464,
      460,
      459,
      458,
      454,
      449,
      448,
      447,
      446,
      445,
      445,
      445,
      444,
      445,
      445,
      445,
      444,
      442,
      440,
      439,
      438,
      437,
      435,
      434,
      432,
      430,
      429,
      430,
      429,
      430,
      429,
      430,
      429,
      429,
      429,
      430,
      430,
      430,
      431,
      430,
      432,
      431,
      433,
      432,
      432,
      432,
      432,
      432,
      431,
      431,
      430,
      430,
      432,
      428,
      429,
      428,
      427,
      428,
      426,
      427,
      427,
      426,
      427,
      427,
      426,
      427,
      427,
      426,
      426,
      426,
      426,
      426,
      427,
      427,
      427,
      427,
      427,
      427,
      427,
      426,
      426,
      426,
      426,
      426,
      425,
      425,
      425,
      424,
      424,
      423,
      423,
      424,
      422,
      422,
      423,
      422,
      422,
      423,
      422,
      422,
      423,
      423,
      423,
      423,
      424,
      424,
      424,
      424,
      424,
      424,
      424,
      425,
      425,
      425,
      425,
      426,
      426,
      426,
      426,
      426,
      426,
      426,
      426,
      426,
      426,
      426,
      426,
      425,
      425,
      425,
      425,
      424,
      424,
      424,
      424,
      424,
      424,
      424,
      424,
      422,
      418,
      410,
      409,
      407,
      406,
      406,
      406,
      407,
      407,
      408,
      409,
      410,
      410,
      411,
      411,
      411,
      412,
      412,
      412,
      412,
      412,
      412,
      413,
      412,
      412,
      412,
      412,
      412,
      412,
      412,
      413,
      413,
      413,
      414,
      414,
      414,
      414,
      415,
      415,
      416,
      416,
      417,
      417,
      418,
      419,
      420,
      422,
      424,
      426,
      427,
      429,
      430,
      430,
      430,
      430,
      430,
      431,
      431,
      430,
      430,
      429,
      424,
      425,
      424,
      424,
      423,
      423,
      422,
      423,
      421,
      419,
      420,
      419,
      419,
      419,
      419,
      418,
      419,
      418,
      418,
      417,
      417,
      417,
      417,
      416,
      417,
      417,
      417,
      419,
      418,
      419,
      418,
      419,
      418,
      418,
      419,
      417,
      417,
      416,
      416,
      416,
      415,
      415,
      416,
      417,
      429,
      422,
      422,
      422,
      422,
      422,
      422,
      422,
      422,
      423,
      424,
      424,
      424,
      424,
      425,
      425,
      426,
      427,
      427,
      435,
      427,
      429,
      433,
      437,
      437,
      443,
      444,
      444,
      444,
      444,
      444,
      444,
      440,
      444,
      440,
      442,
      441,
      441,
      441,
      441,
      441,
      442,
      442,
      442,
      442,
      441,
      441,
      439,
      436,
      434,
      433,
      433,
      433,
      433,
      433,
      433,
      433,
      434,
      434,
      435,
      435,
      435,
      435,
      436,
      436,
      437,
      437,
      437,
      437,
      438,
      438,
      438,
      438,
      438,
      438,
      438,
      438,
      438,
      438,
      438,
      438,
      438,
      439,
      439,
      438,
      438,
      437,
      437,
      436,
      436,
      435,
      434,
      432,
      431,
      430,
      429,
      428,
      428,
      426,
      425,
      423,
      422,
      423,
      421,
      422,
      421,
      421,
      421,
      422,
      422,
      422,
      422,
      422,
      422,
      422,
      422,
      422,
      422,
      422,
      422,
      422,
      422,
      411,
      408,
      406,
      406,
      405,
      404,
      404,
      404,
      404,
      405,
      405,
      403,
      409,
      413,
      415,
      414,
      415,
      416,
      416,
      415,
      414,
      413,
      407,
      405,
      404,
      403,
      403,
      404,
      406,
      409,
      410,
      412,
      417,
      421,
      418,
      408,
      406,
      400,
      393,
      376,
      371,
      364,
      364,
      356,
      349,
      350,
      343,
      340,
      333,
      300,
      260,
      235,
      230,
      236,
      234,
      236,
      234,
      224,
      230,
      231,
      229,
      225,
      228,
      228,
      214,
      207,
      205,
      186,
      183,
      179,
      170,
      142,
      128,
      122,
      125,
      96
    ],
    "swim:timestamps": [
      1790349969,
      1790350004,
      1790350029,
      1790350059,
      1790350089,
      1790350119,
      1790350149,
      1790350209,
      1790350269,
      1790350329,
      1790350389,
      1790350449,
      1790350509,
      1790350570,
      1790350630,
      1790350690,
      1790350750,
      1790350810,
      1790350870,
      1790350930,
      1790350990,
      1790351050,
      1790351110,
      1790351170,
      1790351231,
      1790351291,
      1790351351,
      1790351411,
      1790351471,
      1790351531,
      1790351591,
      1790351651,
      1790351711,
      1790351773,
      1790351833,
      1790351893,
      1790351953,
      1790352013,
      1790352073,
      1790352133,
      1790352193,
      1790352253,
      1790352313,
      1790352373,
      1790352434,
      1790352494,
      1790352554,
      1790352614,
      1790352674,
      1790352734,
      1790352794,
      1790352854,
      1790352914,
      1790352974,
      1790353034,
      1790353095,
      1790353148,
      1790353155,
      1790353208,
      1790353215,
      1790353275,
      1790353335,
      1790353395,
      1790353515,
      1790353569,
      1790353587,
      1790353635,
      1790353647,
      1790353689,
      1790353707,
      1790353749,
      1790353767,
      1790353809,
      1790353827,
      1790353869,
      1790353888,
      1790353929,
      1790353948,
      1790353990,
      1790354008,
      1790354050,
      1790354068,
      1790354110,
      1790354128,
      1790354170,
      1790354188,
      1790354230,
      1790354248,
      1790354290,
      1790354308,
      1790354326,
      1790354350,
      1790354368,
      1790354386,
      1790354410,
      1790354428,
      1790354446,
      1790354470,
      1790354489,
      1790354506,
      1790354530,
      1790354549,
      1790354566,
      1790354590,
      1790354609,
      1790354626,
      1790354651,
      1790354669,
      1790354686,
      1790354711,
      1790354729,
      1790354746,
      1790354771,
      1790354789,
      1790354806,
      1790354831,
      1790354866,
      1790354891,
      1790354909,
      1790354927,
      1790354951,
      1790354969,
      1790354987,
      1790355011,
      1790355030,
      1790355047,
      1790355071,
      1790355090,
      1790355107,
      1790355131,
      1790355150,
      1790355167,
      1790355191,
      1790355210,
      1790355227,
      1790355251,
      1790355270,
      1790355287,
      1790355312,
      1790355330,
      1790355347,
      1790355390,
      1790355407,
      1790355450,
      1790355467,
      1790355510,
      1790355527,
      1790355570,
      1790355588,
      1790355631,
      1790355648,
      1790355691,
      1790355708,
      1790355751,
      1790355768,
      1790355811,
      1790355828,
      1790355871,
      1790355888,
      1790355931,
      1790355948,
      1790355991,
      1790356008,
      1790356051,
      1790356068,
      1790356111,
      1790356128,
      1790356172,
      1790356188,
      1790356232,
      1790356249,
      1790356292,
      1790356321,
      1790356352,
      1790356381,
      1790356412,
      1790356441,
      1790356472,
      1790356501,
      1790356532,
      1790356561,
      1790356592,
      1790356621,
      1790356652,
      1790356681,
      1790356712,
      1790356741,
      1790356772,
      1790356801,
      1790356833,
      1790356861,
      1790356893,
      1790356922,
      1790356953,
      1790356982,
      1790357013,
      1790357042,
      1790357073,
      1790357102,
      1790357133,
      1790357162,
      1790357193,
      1790357234,
      1790357253,
      1790357294,
      1790357313,
      1790357354,
      1790357373,
      1790357414,
      1790357434,
      1790357466,
      1790357494,
      1790357534,
      1790357595,
      1790357655,
      1790357715,
      1790357767,
      1790357835,
      1790357895,
      1790357947,
      1790357955,
      1790358007,
      1790358067,
      1790358135,
      1790358195,
      1790358253,
      1790358307,
      1790358368,
      1790358428,
      1790358488,
      1790358548,
      1790358613,
      1790358668,
      1790358728,
      1790358793,
      1790358848,
      1790358908,
      1790358974,
      1790359034,
      1790359099,
      1790359149,
      1790359159,
      1790359219,
      1790359269,
      1790359279,
      1790359329,
      1790359339,
      1790359399,
      1790359449,
      1790359459,
      1790359509,
      1790359519,
      1790359569,
      1790359579,
      1790359629,
      1790359640,
      1790359689,
      1790359700,
      1790359760,
      1790359810,
      1790359820,
      1790359870,
      1790359880,
      1790359930,
      1790359940,
      1790359990,
      1790360000,
      1790360050,
      1790360060,
      1790360110,
      1790360120,
      1790360170,
      1790360180,
      1790360230,
      1790360240,
      1790360300,
      1790360361,
      1790360421,
      1790360481,
      1790360541,
      1790360601,
      1790360661,
      1790360721,
      1790360776,
      1790360836,
      1790360896,
      1790360956,
      1790361016,
      1790361076,
      1790361137,
      1790361197,
      1790361257,
      1790361317,
      1790361377,
      1790361437,
      1790361497,
      1790361557,
      1790361617,
      1790361677,
      1790361737,
      1790361797,
      1790361857,
      1790361863,
      1790361918,
      1790361978,
      1790362038,
      1790362098,
      1790362158,
      1790362218,
      1790362278,
      1790362338,
      1790362398,
      1790362458,
      1790362518,
      1790362578,
      1790362584,
      1790362638,
      1790362644,
      1790362699,
      1790362759,
      1790362819,
      1790362879,
      1790362939,
      1790363011,
      1790363071,
      1790363131,
      1790363191,
      1790363251,
      1790363311,
      1790363371,
      1790363432,
      1790363492,
      1790363552,
      1790363605,
      1790363624,
      1790363665,
      1790363684,
      1790363725,
      1790363744,
      1790363785,
      1790363804,
      1790363845,
      1790363864,
      1790363905,
      1790363924,
      1790363965,
      1790363984,
      1790364025,
      1790364044,
      1790364086,
      1790364104,
      1790364146,
      1790364165,
      1790364206,
      1790364225,
      1790364285,
      1790364345,
      1790364405,
      1790364465,
      1790364525,
      1790364585,
      1790364645,
      1790364705,
      1790364765,
      1790364825,
      1790364885,
      1790364946,
      1790365006,
      1790365066,
      1790365126,
      1790365186,
      1790365246,
      1790365306,
      1790365366,
      1790365426,
      1790365486,
      1790365546,
      1790365606,
      1790365666,
      1790365727,
      1790365787,
      1790365847,
      1790365907,
      1790365967,
      1790366027,
      1790366035,
      1790366087,
      1790366096,
      1790366156,
      1790366207,
      1790366216,
      1790366267,
      1790366276,
      1790366336,
      1790366387,
      1790366396,
      1790366448,
      1790366456,
      1790366516,
      1790366568,
      1790366576,
      1790366636,
      1790366696,
      1790366748,
      1790366757,
      1790366808,
      1790366817,
      1790366868,
      1790366877,
      1790366928,
      1790366937,
      1790366988,
      1790366997,
      1790367048,
      1790367057,
      1790367108,
      1790367117,
      1790367177,
      1790367229,
      1790367237,
      1790367289,
      1790367349,
      1790367357,
      1790367409,
      1790367418,
      1790367478,
      1790367538,
      1790367598,
      1790367658,
      1790367718,
      1790367778,
      1790367838,
      1790367898,
      1790367958,
      1790368018,
      1790368079,
      1790368139,
      1790368199,
      1790368209,
      1790368259,
      1790368276,
      1790368319,
      1790368336,
      1790368379,
      1790368396,
      1790368439,
      1790368455,
      1790368499,
      1790368559,
      1790368576,
      1790368619,
      1790368636,
      1790368679,
      1790368696,
      1790368750,
      1790368800,
      1790368816,
      1790368860,
      1790368876,
      1790368920,
      1790368937,
      1790368980,
      1790368996,
      1790369040,
      1790369062,
      1790369100,
      1790369122,
      1790369160,
      1790369176,
      1790369220,
      1790369236,
      1790369280,
      1790369302,
      1790369341,
      1790369362,
      1790369401,
      1790369423,
      1790369461,
      1790369477,
      1790369521,
      1790369581
    ],
    "wof:geomhash": "a401b04a157f5dd65bef05442a1448b1",
    "wof:id": 2048431339,
    "wof:repo": "sfomuseum-data-flights-2026-09"
  },
  "bbox": [
    -122.37777777777777,
    37.483333333333334,
    -74.13972222222223,
    40.80638888888888
  ],
  "geometry": {"type":"LineString","coordinates":[[-74.13972222222223,40.72694444444445],[-74.16666666666667,40.75],[-74.20722222222223,40.7625],[-74.26666666666667,40.766666666666666],[-74.3086111111111,40.78388888888889],[-74.36666666666666,40.8],[-74.41638888888889,40.80305555555555],[-74.53305555555555,40.80583333333333],[-74.66555555555556,40.80638888888888],[-74.80499999999999,40.80638888888888],[-74.95472222222223,40.805],[-75.10166666666666,40.779444444444444],[-75.25194444444445,40.73388888888889],[-75.39833333333334,40.68861111111111],[-75.5436111111111,40.64388888888889],[-75.69527777777778,40.59638888888889],[-75.84583333333333,40.549166666666665],[-76.00277777777778,40.499722222222225],[-76.15805555555556,40.450833333333335],[-76.30388888888889,40.40416666666667],[-76.455,40.35583333333334],[-76.62888888888888,40.322500000000005],[-76.78999999999999,40.29861111111111],[-76.95138888888889,40.274166666666666],[-77.10249999999999,40.25111111111111],[-77.26055555555556,40.22666666666667],[-77.39777777777779,40.205000000000005],[-77.56055555555555,40.17916666666667],[-77.72500000000001,40.15277777777778],[-77.89277777777778,40.13583333333333],[-78.0625,40.14138888888889],[-78.23472222222222,40.14972222222222],[-78.4075,40.156666666666666],[-78.58333333333333,40.163333333333334],[-78.75444444444445,40.169444444444444],[-78.92777777777778,40.175555555555555],[-79.09861111111111,40.18138888888889],[-79.26833333333333,40.18722222222222],[-79.4325,40.19277777777778],[-79.6,40.19833333333333],[-79.76694444444445,40.203611111111115],[-79.93416666666667,40.208333333333336],[-80.10083333333333,40.213055555555556],[-80.26555555555555,40.2175],[-80.42916666666667,40.22166666666667],[-80.5925,40.22555555555556],[-80.75444444444445,40.22916666666667],[-80.91611111111112,40.2325],[-81.07666666666667,40.23583333333333],[-81.2375,40.23861111111111],[-81.4,40.24138888888889],[-81.55944444444444,40.24388888888889],[-81.72166666666666,40.24611111111111],[-81.89583333333334,40.248333333333335],[-82.05611111111111,40.250277777777775],[-82.21527777777779,40.251666666666665],[-82.35444444444444,40.253055555555555],[-82.37277777777777,40.253055555555555],[-82.51333333333334,40.25416666666667],[-82.52944444444444,40.25416666666667],[-82.68583333333333,40.255],[-82.84305555555555,40.255833333333335],[-82.99833333333333,40.256388888888885],[-83.30694444444444,40.25666666666667],[-83.4575,40.256388888888885],[-83.48083333333334,40.256388888888885],[-83.61694444444444,40.25611111111111],[-83.63722222222223,40.25611111111111],[-83.76777777777778,40.25555555555555],[-83.7925,40.25555555555555],[-83.92611111111111,40.25472222222222],[-83.94888888888889,40.25472222222222],[-84.08111111111111,40.25388888888889],[-84.10499999999999,40.25361111111111],[-84.23611111111111,40.2525],[-84.26027777777777,40.2525],[-84.39250000000001,40.25111111111111],[-84.41250000000001,40.25111111111111],[-84.54861111111111,40.24944444444444],[-84.5675,40.24944444444444],[-84.70583333333333,40.24777777777778],[-84.72638888888889,40.2475],[-84.86416666666666,40.245555555555555],[-84.91277777777778,40.245],[-85.00888888888889,40.243611111111115],[-85.07083333333333,40.24277777777778],[-85.16361111111112,40.24111111111111],[-85.22305555555556,40.24027777777778],[-85.31944444444444,40.23861111111111],[-85.37722222222222,40.23777777777778],[-85.41416666666667,40.237500000000004],[-85.47194444444445,40.23972222222222],[-85.53361111111111,40.24194444444444],[-85.57111111111111,40.24277777777778],[-85.6363888888889,40.245555555555555],[-85.68611111111112,40.24722222222222],[-85.72444444444444,40.24916666666667],[-85.79027777777777,40.25055555555556],[-85.84277777777777,40.25222222222222],[-85.8786111111111,40.25361111111111],[-85.9413888888889,40.25527777777778],[-85.9961111111111,40.25694444444444],[-86.035,40.25805555555556],[-86.11,40.26027777777778],[-86.14888888888889,40.26166666666666],[-86.1888888888889,40.263333333333335],[-86.26222222222222,40.264722222222225],[-86.30444444444444,40.26583333333333],[-86.34305555555555,40.26694444444444],[-86.41805555555555,40.26888888888889],[-86.45722222222223,40.269999999999996],[-86.49972222222222,40.27222222222222],[-86.57333333333332,40.27305555555555],[-86.6111111111111,40.27388888888889],[-86.65444444444445,40.275],[-86.7275,40.276944444444446],[-86.80972222222222,40.278055555555554],[-86.88111111111111,40.280277777777776],[-86.91833333333334,40.28138888888889],[-86.96472222222222,40.282222222222224],[-87.03472222222221,40.28388888888889],[-87.07111111111111,40.28444444444444],[-87.11916666666666,40.285555555555554],[-87.19361111111111,40.28722222222222],[-87.22583333333334,40.28777777777778],[-87.2713888888889,40.28861111111111],[-87.3475,40.29],[-87.37888888888888,40.29055555555556],[-87.42555555555556,40.29138888888889],[-87.4786111111111,40.2925],[-87.53916666666666,40.29333333333333],[-87.55888888888889,40.29388888888889],[-87.6325,40.29361111111111],[-87.69388888888889,40.2925],[-87.71277777777777,40.29222222222222],[-87.78527777777778,40.29111111111111],[-87.84722222222221,40.290277777777774],[-87.86694444444444,40.29],[-87.93944444444445,40.28916666666667],[-88.00277777777778,40.288333333333334],[-88.01888888888888,40.28805555555555],[-88.15694444444445,40.28638888888889],[-88.17277777777778,40.28611111111111],[-88.31,40.28388888888889],[-88.32888888888888,40.28361111111111],[-88.46611111111112,40.28138888888889],[-88.48166666666667,40.28111111111111],[-88.60472222222222,40.278888888888886],[-88.63444444444445,40.27833333333333],[-88.75833333333334,40.27583333333333],[-88.79083333333332,40.275277777777774],[-88.91388888888889,40.2725],[-88.94611111111111,40.27194444444444],[-89.06916666666666,40.26916666666666],[-89.10083333333333,40.26833333333333],[-89.22333333333333,40.26555555555556],[-89.25583333333333,40.264722222222225],[-89.38,40.26166666666666],[-89.41055555555556,40.26083333333333],[-89.53416666666666,40.2575],[-89.56555555555555,40.25666666666667],[-89.69027777777778,40.25333333333333],[-89.72194444444445,40.2525],[-89.84694444444445,40.24888888888889],[-89.87694444444443,40.24777777777778],[-90,40.244166666666665],[-90.03388888888888,40.24305555555556],[-90.1563888888889,40.23916666666667],[-90.1875,40.23833333333334],[-90.30944444444444,40.23416666666667],[-90.34277777777777,40.23305555555556],[-90.46416666666667,40.22888888888889],[-90.49666666666667,40.22777777777778],[-90.61833333333333,40.223333333333336],[-90.68166666666667,40.221111111111114],[-90.7725,40.217777777777776],[-90.83388888888888,40.21527777777778],[-90.9238888888889,40.21194444444445],[-90.98555555555555,40.20944444444445],[-91.0736111111111,40.20611111111111],[-91.13222222222221,40.203611111111115],[-91.22083333333333,40.2],[-91.27888888888889,40.1975],[-91.3625,40.19416666666666],[-91.42694444444444,40.19138888888889],[-91.5111111111111,40.1875],[-91.57555555555555,40.18472222222222],[-91.65972222222223,40.18111111111111],[-91.7213888888889,40.17805555555555],[-91.80777777777777,40.174166666666665],[-91.87055555555555,40.17111111111111],[-91.95777777777778,40.16694444444444],[-92.02083333333333,40.16416666666667],[-92.10805555555555,40.15972222222222],[-92.17055555555557,40.156666666666666],[-92.25722222222223,40.15222222222222],[-92.31916666666666,40.149166666666666],[-92.40861111111111,40.14472222222222],[-92.48416666666667,40.14083333333333],[-92.56027777777777,40.136944444444445],[-92.63305555555554,40.13638888888889],[-92.71277777777777,40.138888888888886],[-92.78055555555555,40.14111111111111],[-92.86222222222221,40.14388888888889],[-92.96083333333334,40.14694444444444],[-93.01194444444444,40.14833333333333],[-93.10472222222222,40.151111111111106],[-93.16222222222223,40.15277777777778],[-93.25416666666666,40.155277777777776],[-93.31305555555555,40.15694444444444],[-93.4025,40.159444444444446],[-93.46305555555556,40.16111111111111],[-93.55527777777777,40.163333333333334],[-93.70361111111112,40.16722222222222],[-93.85388888888889,40.17055555555555],[-94.005,40.17388888888889],[-94.155,40.176944444444445],[-94.27833333333334,40.17944444444444],[-94.46000000000001,40.18277777777777],[-94.6086111111111,40.18527777777778],[-94.61138888888888,40.18527777777778],[-94.76222222222222,40.187777777777775],[-94.91555555555556,40.19],[-95.06611111111111,40.19194444444444],[-95.22,40.19361111111111],[-95.37416666666665,40.195277777777775],[-95.53222222222222,40.196666666666665],[-95.68916666666667,40.19777777777777],[-95.84666666666666,40.19888888888889],[-96.0025,40.19944444444444],[-96.15861111111111,40.2],[-96.32,40.202222222222225],[-96.47166666666666,40.20527777777778],[-96.5961111111111,40.2075],[-96.77305555555556,40.21],[-96.90972222222223,40.21194444444445],[-97.06527777777778,40.21416666666667],[-97.24027777777778,40.21611111111111],[-97.39694444444446,40.217777777777776],[-97.58527777777778,40.219166666666666],[-97.71277777777777,40.22027777777778],[-97.74055555555556,40.22],[-97.865,40.221111111111114],[-98.02111111111111,40.221944444444446],[-98.01972222222223,40.221944444444446],[-98.17361111111111,40.222500000000004],[-98.17083333333333,40.222500000000004],[-98.32444444444444,40.22277777777778],[-98.47777777777777,40.22277777777778],[-98.47777777777777,40.22277777777778],[-98.62972222222221,40.22277777777778],[-98.62972222222221,40.22277777777778],[-98.75222222222222,40.222500000000004],[-98.78111111111112,40.222500000000004],[-98.9063888888889,40.22222222222222],[-98.93361111111112,40.221944444444446],[-99.05555555555556,40.22138888888889],[-99.08555555555554,40.22138888888889],[-99.23805555555556,40.220555555555556],[-99.35666666666665,40.219722222222224],[-99.38944444444445,40.21944444444445],[-99.51194444444444,40.218333333333334],[-99.54222222222222,40.21805555555556],[-99.6613888888889,40.216944444444444],[-99.69388888888889,40.21666666666667],[-99.81666666666666,40.21527777777778],[-99.84666666666666,40.215],[-99.97055555555556,40.21333333333334],[-99.99527777777777,40.213055555555556],[-100.11749999999999,40.21138888888889],[-100.14555555555556,40.211111111111116],[-100.26944444444445,40.20916666666667],[-100.29805555555555,40.20888888888889],[-100.42194444444445,40.20638888888889],[-100.45027777777779,40.20638888888889],[-100.60166666666666,40.203611111111115],[-100.75305555555556,40.196666666666665],[-100.90333333333334,40.18944444444444],[-101.05611111111111,40.1825],[-101.20472222222223,40.17527777777777],[-101.35638888888889,40.16777777777777],[-101.50833333333334,40.16],[-101.6588888888889,40.151944444444446],[-101.81222222222222,40.14194444444444],[-101.96083333333334,40.13527777777778],[-102.115,40.125277777777775],[-102.26722222222222,40.11694444444444],[-102.42166666666667,40.10722222222223],[-102.57555555555555,40.09805555555556],[-102.7275,40.089444444444446],[-102.88166666666666,40.07916666666667],[-103.03666666666666,40.06944444444445],[-103.1913888888889,40.05833333333333],[-103.34527777777777,40.04861111111111],[-103.49944444444445,40.03777777777778],[-103.65333333333334,40.026666666666664],[-103.8086111111111,40.01611111111111],[-103.9625,40.00555555555555],[-104.11805555555554,39.993611111111115],[-104.27166666666666,39.981944444444444],[-104.42861111111111,39.97],[-104.58333333333333,39.95861111111111],[-104.59888888888888,39.95777777777778],[-104.73916666666666,39.94499999999999],[-104.8963888888889,39.93222222222222],[-105.05499999999999,39.91916666666666],[-105.21527777777779,39.905833333333334],[-105.37138888888889,39.891666666666666],[-105.53444444444445,39.87777777777778],[-105.69472222222223,39.86277777777778],[-105.85249999999999,39.84805555555556],[-106.01083333333334,39.83416666666667],[-106.16888888888889,39.82055555555556],[-106.32638888888889,39.805277777777775],[-106.48444444444445,39.79083333333333],[-106.48388888888888,39.793055555555554],[-106.6413888888889,39.774166666666666],[-106.63444444444445,39.777499999999996],[-106.79805555555555,39.757222222222225],[-106.95416666666667,39.73972222222222],[-107.11277777777777,39.72222222222222],[-107.26916666666666,39.70527777777778],[-107.42694444444444,39.68805555555555],[-107.58749999999999,39.66861111111111],[-107.7775,39.645833333333336],[-107.935,39.62888888888889],[-108.09083333333332,39.61],[-108.245,39.59111111111111],[-108.40472222222223,39.57138888888889],[-108.56138888888889,39.55166666666666],[-108.71611111111112,39.53194444444444],[-108.8711111111111,39.51222222222222],[-109.02638888888889,39.492222222222225],[-109.16888888888889,39.47361111111111],[-109.17888888888889,39.47222222222222],[-109.29833333333333,39.45638888888889],[-109.3625,39.448055555555555],[-109.45277777777778,39.43583333333333],[-109.51527777777778,39.427499999999995],[-109.60583333333332,39.415277777777774],[-109.66861111111112,39.406666666666666],[-109.75916666666667,39.394444444444446],[-109.82305555555556,39.385555555555555],[-109.91361111111112,39.373333333333335],[-109.97888888888889,39.36416666666667],[-110.06833333333333,39.352222222222224],[-110.13305555555554,39.343611111111116],[-110.22194444444445,39.33166666666667],[-110.28527777777778,39.323055555555555],[-110.3761111111111,39.31083333333333],[-110.44194444444445,39.30166666666666],[-110.53222222222222,39.28944444444444],[-110.59638888888888,39.280277777777776],[-110.6863888888889,39.26777777777777],[-110.75138888888888,39.25888888888889],[-110.89083333333333,39.23916666666667],[-111.04527777777777,39.217222222222226],[-111.19805555555556,39.195277777777775],[-111.35138888888888,39.17305555555555],[-111.50694444444444,39.150555555555556],[-111.6588888888889,39.128055555555555],[-111.81194444444444,39.10527777777778],[-111.96527777777779,39.08222222222223],[-112.11916666666666,39.05888888888889],[-112.27277777777778,39.03527777777778],[-112.42527777777778,39.01166666666666],[-112.57694444444444,38.988055555555555],[-112.73111111111112,38.96388888888889],[-112.88333333333334,38.939722222222215],[-113.03555555555555,38.915277777777774],[-113.18694444444445,38.89083333333333],[-113.33805555555556,38.86611111111111],[-113.51805555555555,38.83638888888889],[-113.67027777777778,38.81111111111111],[-113.82,38.78611111111111],[-113.96861111111112,38.76111111111111],[-114.11611111111111,38.73583333333333],[-114.26555555555555,38.71027777777778],[-114.41361111111112,38.68444444444444],[-114.5611111111111,38.65888888888889],[-114.70861111111111,38.632777777777775],[-114.85499999999999,38.606944444444444],[-115.00111111111111,38.58083333333334],[-115.14666666666668,38.55444444444444],[-115.28999999999999,38.52861111111111],[-115.30083333333333,38.52638888888889],[-115.41611111111112,38.50555555555555],[-115.44583333333334,38.499722222222225],[-115.59166666666667,38.47277777777778],[-115.70611111111111,38.45194444444445],[-115.73666666666666,38.446666666666665],[-115.85277777777777,38.42444444444444],[-115.87527777777777,38.42027777777778],[-116.02666666666667,38.391666666666666],[-116.14277777777778,38.36972222222222],[-116.17416666666666,38.36388888888889],[-116.28861111111111,38.341944444444444],[-116.31694444444445,38.33638888888889],[-116.46194444444444,38.30472222222222],[-116.5761111111111,38.27833333333333],[-116.60499999999999,38.27194444444444],[-116.75083333333333,38.23888888888889],[-116.89166666666668,38.206944444444446],[-117.00666666666666,38.18055555555555],[-117.03694444444444,38.17361111111111],[-117.14444444444445,38.14888888888889],[-117.1825,38.14],[-117.29555555555555,38.11361111111111],[-117.31861111111111,38.108333333333334],[-117.43194444444445,38.08222222222223],[-117.46027777777778,38.07555555555556],[-117.56805555555555,38.050555555555555],[-117.59805555555555,38.04361111111111],[-117.705,38.01833333333333],[-117.73361111111112,38.011944444444445],[-117.83888888888889,37.98388888888889],[-117.86333333333333,37.969166666666666],[-117.94305555555556,37.875],[-117.99944444444445,37.79611111111111],[-118.01611111111112,37.775],[-118.11222222222221,37.72833333333333],[-118.25944444444444,37.72555555555556],[-118.28888888888889,37.72555555555556],[-118.40416666666667,37.72555555555556],[-118.435,37.72527777777778],[-118.58027777777778,37.724444444444444],[-118.69444444444444,37.72361111111111],[-118.85083333333333,37.722500000000004],[-118.99222222222222,37.721111111111114],[-119.13194444444444,37.719722222222224],[-119.27333333333333,37.71805555555556],[-119.41444444444446,37.71638888888889],[-119.55749999999999,37.714444444444446],[-119.70138888888889,37.71222222222222],[-119.84527777777777,37.71],[-119.99055555555556,37.7075],[-120.13583333333334,37.70472222222222],[-120.28333333333333,37.70166666666667],[-120.31666666666666,37.7],[-120.42972222222222,37.69583333333333],[-120.48333333333333,37.68333333333333],[-120.57194444444444,37.67972222222222],[-120.61666666666666,37.68333333333333],[-120.7088888888889,37.663333333333334],[-120.75,37.65],[-120.83777777777777,37.64805555555556],[-120.88333333333334,37.65],[-120.96194444444444,37.63305555555556],[-121.08472222222221,37.61666666666667],[-121.13333333333334,37.61666666666667],[-121.2075,37.60027777777778],[-121.25,37.6],[-121.32472222222222,37.58527777777778],[-121.36666666666666,37.583333333333336],[-121.46666666666667,37.56666666666667],[-121.53388888888888,37.561388888888885],[-121.56666666666666,37.55],[-121.61333333333333,37.551944444444445],[-121.63333333333334,37.55],[-121.69250000000001,37.53472222222222],[-121.71666666666667,37.53333333333333],[-121.77166666666666,37.51555555555556],[-121.8,37.516666666666666],[-121.84833333333333,37.4975],[-121.88333333333334,37.483333333333334],[-121.92722222222223,37.49194444444444],[-121.96666666666667,37.5],[-122.005,37.5],[-122.03333333333333,37.5],[-122.075,37.522777777777776],[-122.1,37.53333333333333],[-122.1413888888889,37.544444444444444],[-122.16666666666667,37.55],[-122.20138888888889,37.56388888888888],[-122.23333333333333,37.56666666666667],[-122.25833333333334,37.5825],[-122.28333333333333,37.583333333333336],[-122.30277777777778,37.59527777777778],[-122.31666666666666,37.6],[-122.34305555555555,37.60777777777778],[-122.37777777777777,37.621944444444445]]}
}
