{
  "id": 2048390257,
  "type": "Feature",
  "properties": {
    "geom:area": 0,
    "geom:bbox": "-122.567670,37.133620,-121.269070,37.673970",
    "geom:latitude": 37.357032539886376,
    "geom:longitude": -122.02435991736938,
    "src:alt_label": "swim-takeoff",
    "src:geom": "swim",
    "swim:elevations": [
      122,
      268,
      477,
      637,
      821,
      1262,
      1381,
      2087,
      2517,
      3254,
      3313,
      3699,
      3937,
      4399,
      4657,
      5038,
      5275,
      5899,
      6288,
      6560,
      6818,
      7158,
      7420,
      7737,
      8056,
      8175,
      8330,
      8449,
      8699,
      8711,
      8841,
      8839
    ],
    "swim:geom": "takeoff",
    "swim:timestamps": [
      1789908177,
      1789908187,
      1789908212,
      1789908233,
      1789908256,
      1789908288,
      1789908300,
      1789908347,
      1789908369,
      1789908417,
      1789908424,
      1789908475,
      1789908490,
      1789908520,
      1789908540,
      1789908568,
      1789908586,
      1789908626,
      1789908645,
      1789908669,
      1789908692,
      1789908723,
      1789908755,
      1789908800,
      1789908833,
      1789908849,
      1789908887,
      1789908909,
      1789908957,
      1789908960,
      1789908993,
      1789909025
    ],
    "wof:geomhash": "9b1291144f149149459ce4b5db45b0c9",
    "wof:id": 2048390257,
    "wof:repo": "sfomuseum-data-flights-2026-09"
  },
  "bbox": [
    -122.56767,
    37.13362,
    -121.26907,
    37.67397
  ],
  "geometry": {"type":"LineString","coordinates":[[-122.38281,37.622],[-122.38997,37.62518],[-122.40963,37.63358],[-122.42954,37.64226],[-122.45493,37.65333],[-122.49611,37.67067],[-122.51339,37.67397],[-122.56767,37.63887],[-122.56084,37.61129],[-122.52185,37.55709],[-122.51596,37.54865],[-122.46109,37.48104],[-122.4368,37.46701],[-122.37544,37.45061],[-122.33306,37.44144],[-122.27371,37.42849],[-122.23819,37.41477],[-122.1633,37.37626],[-122.12911,37.35889],[-122.08539,37.33694],[-122.04354,37.3164],[-121.98511,37.28958],[-121.92351,37.26114],[-121.82897,37.22377],[-121.74872,37.2111],[-121.7105,37.20499],[-121.61879,37.19053],[-121.56666,37.18179],[-121.44553,37.16203],[-121.43708,37.16063],[-121.35261,37.14698],[-121.26907,37.13362]]}
}
