{
  "id": 2048339433,
  "type": "Feature",
  "properties": {
    "geom:area": 0,
    "geom:bbox": "-122.546440,36.744710,-121.285620,37.668820",
    "geom:latitude": 37.2382131527537,
    "geom:longitude": -121.94185575923407,
    "src:alt_label": "swim-takeoff",
    "src:geom": "swim",
    "swim:elevations": [
      152,
      473,
      549,
      1131,
      1281,
      2022,
      2645,
      2884,
      3363,
      3745,
      3956,
      4511,
      4765,
      5285,
      5516,
      6250,
      6451,
      6882,
      6972,
      7443,
      7660,
      8183,
      8239,
      8697,
      8929,
      9183,
      9417,
      9764,
      9861,
      213,
      521,
      678,
      1112,
      1543,
      2066,
      2130,
      2502,
      2988,
      3323,
      3527,
      3796,
      4304,
      4923,
      5129,
      5501,
      6010,
      6527,
      6780,
      7178,
      7349,
      7582,
      7919,
      8118,
      8587,
      8660,
      8828,
      9000,
      9113,
      9341,
      9594,
      9667
    ],
    "swim:geom": "takeoff",
    "swim:timestamps": [
      1789391985,
      1789392019,
      1789392031,
      1789392078,
      1789392091,
      1789392145,
      1789392178,
      1789392191,
      1789392229,
      1789392260,
      1789392275,
      1789392315,
      1789392332,
      1789392375,
      1789392392,
      1789392445,
      1789392461,
      1789392506,
      1789392513,
      1789392553,
      1789392572,
      1789392626,
      1789392632,
      1789392687,
      1789392713,
      1789392741,
      1789392772,
      1789392804,
      1789392813,
      1789451659,
      1789451689,
      1789451710,
      1789451740,
      1789451770,
      1789451816,
      1789451825,
      1789451863,
      1789451898,
      1789451937,
      1789451952,
      1789451973,
      1789452013,
      1789452057,
      1789452074,
      1789452106,
      1789452145,
      1789452178,
      1789452197,
      1789452231,
      1789452249,
      1789452273,
      1789452310,
      1789452332,
      1789452384,
      1789452393,
      1789452415,
      1789452443,
      1789452470,
      1789452502,
      1789452538,
      1789452547
    ],
    "wof:geomhash": "9dff193ca853dd74d305d4f0ab5b8a9a",
    "wof:id": 2048339433,
    "wof:repo": "sfomuseum-data-flights-2026-09"
  },
  "bbox": [
    -122.54644,
    36.74471,
    -121.28562,
    37.66882
  ],
  "geometry": {"type":"LineString","coordinates":[[-122.38556,37.62319],[-122.41407,37.63529],[-122.42577,37.64039],[-122.47668,37.6629],[-122.49407,37.66866],[-122.54644,37.62889],[-122.51704,37.59129],[-122.50103,37.58033],[-122.44978,37.54411],[-122.40349,37.51206],[-122.3798,37.49576],[-122.31593,37.4517],[-122.28654,37.43148],[-122.2125,37.38046],[-122.1827,37.35985],[-122.08717,37.2934],[-122.05666,37.27218],[-121.97185,37.21311],[-121.95754,37.20312],[-121.87955,37.1486],[-121.84266,37.12288],[-121.73418,37.04645],[-121.72343,37.03871],[-121.58872,36.97969],[-121.5234,36.9525],[-121.45152,36.92238],[-121.37377,36.88625],[-121.30388,36.83877],[-121.28562,36.82498],[-122.38678,37.62344],[-122.41297,37.6346],[-122.43444,37.64445],[-122.46823,37.65908],[-122.50436,37.66882],[-122.54175,37.637],[-122.53828,37.62696],[-122.49523,37.59394],[-122.45033,37.56251],[-122.39722,37.52538],[-122.37524,37.51001],[-122.34388,37.48809],[-122.28237,37.44486],[-122.21329,37.39618],[-122.18563,37.37673],[-122.13171,37.33869],[-122.06445,37.29116],[-122.00633,37.25009],[-121.97414,37.22718],[-121.91499,37.18511],[-121.88274,37.16221],[-121.83944,37.13138],[-121.77124,37.08283],[-121.7304,37.05362],[-121.63066,36.98262],[-121.6134,36.97014],[-121.57113,36.93949],[-121.51408,36.89905],[-121.46005,36.8598],[-121.39288,36.81229],[-121.31807,36.75813],[-121.29916,36.74471]]}
}
