{
  "id": 2048262441,
  "type": "Feature",
  "properties": {
    "geom:area": 0,
    "geom:bbox": "-122.394940,37.626010,-121.288780,37.957750",
    "geom:latitude": 37.82883200080207,
    "geom:longitude": -121.86233033194584,
    "src:alt_label": "swim-takeoff",
    "src:geom": "swim",
    "swim:elevations": [
      237,
      553,
      687,
      1051,
      1468,
      1892,
      2296,
      2874,
      3326,
      3388,
      3685,
      4043,
      4204,
      4465,
      4908,
      5327,
      5664,
      5939,
      6299,
      6439,
      6718
    ],
    "swim:geom": "takeoff",
    "swim:timestamps": [
      1788605505,
      1788605540,
      1788605564,
      1788605586,
      1788605635,
      1788605666,
      1788605688,
      1788605722,
      1788605758,
      1788605769,
      1788605815,
      1788605849,
      1788605868,
      1788605885,
      1788605919,
      1788605957,
      1788605992,
      1788606018,
      1788606053,
      1788606067,
      1788606103
    ],
    "wof:geomhash": "37dd6e7d49d63f8c031d78ce86eeb5d0",
    "wof:id": 2048262441,
    "wof:repo": "sfomuseum-data-flights-2026-09"
  },
  "bbox": [
    -122.39494,
    37.62601,
    -121.28878,
    37.95775
  ],
  "geometry": {"type":"LineString","coordinates":[[-122.39241,37.62601],[-122.39494,37.65147],[-122.36833,37.66358],[-122.34094,37.67316],[-122.2748,37.69578],[-122.22638,37.71323],[-122.19394,37.72828],[-122.14442,37.75382],[-122.09291,37.78035],[-122.0744,37.79002],[-121.99067,37.82734],[-121.9171,37.84233],[-121.87327,37.85053],[-121.83164,37.8583],[-121.75147,37.87309],[-121.66079,37.88982],[-121.57306,37.9059],[-121.50966,37.91751],[-121.41842,37.9342],[-121.38185,37.94087],[-121.28878,37.95775]]}
}
