{
  "id": 2048427403,
  "type": "Feature",
  "properties": {
    "geom:area": 0,
    "geom:bbox": "-122.361820,37.491870,-121.243370,37.616550",
    "geom:latitude": 37.54738490014677,
    "geom:longitude": -121.80784554787813,
    "src:alt_label": "swim-approach",
    "src:geom": "swim",
    "swim:elevations": [
      5103,
      4836,
      4492,
      4124,
      4057,
      3834,
      3713,
      3594,
      3425,
      3307,
      3111,
      2805,
      2569,
      2531,
      2501,
      2375,
      2180,
      2134,
      2082,
      1690,
      1431,
      1389,
      1243,
      1025,
      914,
      914,
      914,
      858,
      824,
      640,
      574,
      517,
      422,
      222,
      121,
      96,
      233
    ],
    "swim:geom": "approach",
    "swim:timestamps": [
      1790378084,
      1790378108,
      1790378146,
      1790378186,
      1790378195,
      1790378217,
      1790378247,
      1790378276,
      1790378306,
      1790378326,
      1790378354,
      1790378390,
      1790378428,
      1790378442,
      1790378451,
      1790378471,
      1790378507,
      1790378540,
      1790378557,
      1790378608,
      1790378636,
      1790378642,
      1790378663,
      1790378692,
      1790378728,
      1790378748,
      1790378772,
      1790378784,
      1790378790,
      1790378821,
      1790378833,
      1790378857,
      1790378880,
      1790378936,
      1790378966,
      1790378972,
      1790379002
    ],
    "wof:geomhash": "60bee1b5db3a0a3f1427a242596452b0",
    "wof:id": 2048427403,
    "wof:repo": "sfomuseum-data-flights-2026-09"
  },
  "bbox": [
    -122.36182,
    37.49187,
    -121.24337,
    37.61655
  ],
  "geometry": {"type":"LineString","coordinates":[[-121.24337,37.59523],[-121.28449,37.58966],[-121.35188,37.58249],[-121.42102,37.57466],[-121.43633,37.57294],[-121.47364,37.56861],[-121.52353,37.56269],[-121.56768,37.55783],[-121.6114,37.55251],[-121.63892,37.54756],[-121.67455,37.53889],[-121.72022,37.52799],[-121.76876,37.51646],[-121.7863,37.51231],[-121.79744,37.50966],[-121.82271,37.50357],[-121.86626,37.49305],[-121.9083,37.49187],[-121.92977,37.49234],[-121.99231,37.49642],[-122.02532,37.50692],[-122.03236,37.50923],[-122.05668,37.51716],[-122.08919,37.52769],[-122.12976,37.54077],[-122.1509,37.54766],[-122.17523,37.55563],[-122.18705,37.55948],[-122.19292,37.56135],[-122.2229,37.57091],[-122.23411,37.57452],[-122.25648,37.58183],[-122.27694,37.58788],[-122.31661,37.59934],[-122.33754,37.60547],[-122.34167,37.6069],[-122.36182,37.61655]]}
}
