{
  "id": 2048478647,
  "type": "Feature",
  "properties": {
    "geom:area": 0,
    "geom:bbox": "-122.366667,37.633333,-70.933333,43.585278",
    "geom:latitude": 42.25208972359792,
    "geom:longitude": -96.9651540107478,
    "src:alt_label": "swim-path",
    "src:geom": "swim",
    "swim:altitudes": [
      "004",
      "025",
      "027",
      "041",
      "053",
      "075",
      "091",
      "107",
      "117",
      "130",
      "145",
      "158",
      "175",
      "188",
      "203",
      "211",
      "225",
      "235",
      "242",
      "248",
      "248",
      "255",
      "255",
      "262",
      "262",
      "269",
      "269",
      "276",
      "276",
      "282",
      "282",
      "288",
      "288",
      "298",
      "298",
      "307",
      "307",
      "316",
      "323",
      "323",
      "330C",
      "330C",
      "330C",
      "330C",
      "330C",
      "330C",
      "330C",
      "330C",
      "330C",
      "330C",
      "330C",
      "330C",
      "330C",
      "330C",
      "330C",
      "330C",
      "330C",
      "330C",
      "330C",
      "330C",
      "330C",
      "330C",
      "330C",
      "330C",
      "330C",
      "330C",
      "330C",
      "330C",
      "330C",
      "330C",
      "330C",
      "330C",
      "330C",
      "330C",
      "330C",
      "330C",
      "330C",
      "330C",
      "330C",
      "330C",
      "330C",
      "330C",
      "330C",
      "330C",
      "330C",
      "330C",
      "330C",
      "330C",
      "330C",
      "330C",
      "330C",
      "330C",
      "330C",
      "330C",
      "330C",
      "330C",
      "330C",
      "330C",
      "330C",
      "330C",
      "330C",
      "330C",
      "330C",
      "330C",
      "330C",
      "330C",
      "330C",
      "330C",
      "330C",
      "330C",
      "330C",
      "330C",
      "330C",
      "330C",
      "330C",
      "330C",
      "330C",
      "330C",
      "330C",
      "330C",
      "330C",
      "329",
      "326",
      "320",
      "316",
      "310C",
      "310C",
      "310C",
      "310C",
      "310C",
      "310C",
      "310C",
      "310C",
      "310C",
      "310C",
      "310C",
      "310C",
      "310C",
      "310C",
      "310C",
      "310C",
      "310C",
      "310C",
      "310C",
      "310C",
      "310C",
      "310C",
      "310C",
      "311C",
      "310C",
      "310C",
      "310C",
      "310C",
      "310C",
      "310C",
      "310C",
      "310C",
      "310C",
      "310C",
      "310C",
      "310C",
      "310C",
      "310C",
      "310C",
      "310C",
      "310C",
      "310C",
      "310C",
      "310C",
      "310C",
      "310C",
      "314",
      "321",
      "329C",
      "330C",
      "330C",
      "330C",
      "330C",
      "330C",
      "330C",
      "330C",
      "330C",
      "331C",
      "330C",
      "330C",
      "330C",
      "330C",
      "330C",
      "330C",
      "330C",
      "330C",
      "330C",
      "330C",
      "330C",
      "330C",
      "330C",
      "330C",
      "331C",
      "331C",
      "331C",
      "330C",
      "330C",
      "330C",
      "330C",
      "330C",
      "330C",
      "330C",
      "330C",
      "330C",
      "330C",
      "330C",
      "330C",
      "330C",
      "330C",
      "330C",
      "330C",
      "330C",
      "330C",
      "330C",
      "330C",
      "330C",
      "330C",
      "330C",
      "330C",
      "330C",
      "330C",
      "330C",
      "330C",
      "330C",
      "330C",
      "330C",
      "330C",
      "330C",
      "330C",
      "330C",
      "330C",
      "326",
      "317",
      "314",
      "307",
      "305",
      "298",
      "295",
      "290C",
      "290C",
      "290C",
      "290C",
      "290C",
      "290C",
      "290C",
      "290C",
      "290C",
      "290C",
      "290C",
      "290C",
      "290C",
      "290C",
      "290C",
      "290C",
      "290C",
      "290C",
      "290C",
      "290C",
      "290C",
      "290C",
      "290C",
      "290C",
      "290C",
      "290C",
      "290C",
      "290C",
      "290C",
      "290C",
      "290C",
      "290C",
      "290C",
      "290C",
      "290C",
      "290C",
      "290C",
      "290C",
      "290C",
      "290C",
      "290C",
      "290C",
      "290C",
      "290C",
      "290C",
      "290C",
      "290C",
      "290C",
      "290C",
      "290C",
      "290C",
      "290C",
      "290C",
      "290C",
      "290C",
      "290C",
      "290C",
      "290C",
      "290C",
      "290C",
      "290C",
      "290C",
      "290C",
      "290C",
      "290C",
      "290C",
      "290C",
      "290C",
      "290C",
      "290C",
      "290C",
      "290C",
      "290C",
      "290C",
      "290C",
      "290C",
      "290C",
      "290C",
      "289C",
      "290C",
      "290C",
      "290C",
      "290C",
      "290C",
      "290C",
      "290C",
      "290C",
      "290C",
      "290C",
      "290C",
      "290C",
      "290C",
      "290C",
      "290C",
      "290C",
      "290C",
      "290C",
      "290C",
      "290C",
      "290C",
      "290C",
      "290C",
      "290C",
      "291C",
      "290C",
      "290C",
      "290C",
      "290C",
      "290C",
      "291C",
      "290C",
      "290C",
      "291C",
      "291C",
      "290C",
      "290C",
      "290C",
      "290C",
      "290C",
      "290C",
      "290C",
      "290C",
      "290C",
      "290C",
      "290C",
      "290C",
      "290C",
      "290C",
      "290C",
      "290C",
      "290C",
      "290C",
      "290C",
      "290C",
      "290C",
      "290C",
      "290C",
      "290C",
      "290C",
      "290C",
      "290C",
      "290C",
      "290C",
      "290C",
      "290C",
      "290C",
      "290C",
      "290C",
      "290C",
      "290C",
      "290C",
      "290C",
      "290C",
      "290C",
      "290C",
      "290C",
      "290C",
      "290C",
      "290C",
      "290C",
      "290C",
      "290C",
      "290",
      "290",
      "290",
      "290",
      "286",
      "261",
      "238",
      "217",
      "202",
      "183",
      "168",
      "165",
      "147",
      "143",
      "130",
      "125",
      "117",
      "113",
      "105",
      "102",
      "092",
      "089",
      "077",
      "073",
      "060",
      "054",
      "039",
      "031",
      "030",
      "027",
      "024",
      "016",
      "008",
      "001"
    ],
    "swim:geom": "path",
    "swim:speeds": [
      180,
      193,
      192,
      213,
      266,
      269,
      286,
      298,
      334,
      359,
      367,
      376,
      382,
      392,
      400,
      403,
      410,
      413,
      419,
      429,
      418,
      437,
      431,
      442,
      442,
      449,
      447,
      453,
      451,
      461,
      459,
      465,
      464,
      468,
      468,
      467,
      469,
      465,
      463,
      462,
      462,
      462,
      461,
      466,
      460,
      462,
      459,
      461,
      459,
      460,
      458,
      459,
      457,
      458,
      457,
      458,
      457,
      458,
      458,
      458,
      462,
      462,
      464,
      465,
      466,
      466,
      467,
      468,
      468,
      469,
      469,
      469,
      470,
      470,
      470,
      469,
      469,
      468,
      468,
      468,
      467,
      467,
      465,
      463,
      463,
      463,
      463,
      463,
      463,
      463,
      463,
      462,
      462,
      463,
      463,
      463,
      464,
      464,
      463,
      464,
      464,
      464,
      463,
      463,
      461,
      459,
      458,
      458,
      457,
      457,
      456,
      454,
      452,
      450,
      449,
      447,
      446,
      446,
      444,
      445,
      444,
      444,
      443,
      443,
      443,
      445,
      445,
      446,
      446,
      446,
      446,
      445,
      445,
      445,
      445,
      444,
      444,
      445,
      445,
      446,
      446,
      447,
      448,
      449,
      450,
      452,
      453,
      456,
      457,
      459,
      460,
      461,
      462,
      463,
      463,
      463,
      463,
      463,
      463,
      462,
      463,
      464,
      466,
      468,
      469,
      470,
      472,
      473,
      474,
      477,
      478,
      475,
      478,
      479,
      479,
      479,
      480,
      479,
      480,
      482,
      486,
      487,
      487,
      481,
      487,
      483,
      486,
      484,
      486,
      484,
      485,
      484,
      485,
      484,
      486,
      487,
      488,
      489,
      491,
      491,
      492,
      492,
      494,
      494,
      496,
      502,
      503,
      504,
      505,
      505,
      506,
      507,
      507,
      508,
      507,
      508,
      508,
      510,
      511,
      512,
      513,
      514,
      514,
      515,
      515,
      516,
      517,
      518,
      519,
      521,
      522,
      522,
      523,
      524,
      524,
      524,
      525,
      524,
      512,
      505,
      510,
      504,
      506,
      503,
      505,
      502,
      505,
      502,
      504,
      503,
      504,
      504,
      505,
      505,
      506,
      506,
      506,
      506,
      506,
      506,
      507,
      507,
      507,
      508,
      508,
      508,
      508,
      509,
      509,
      509,
      510,
      510,
      511,
      511,
      512,
      512,
      513,
      513,
      513,
      514,
      514,
      514,
      514,
      514,
      514,
      514,
      514,
      515,
      515,
      516,
      516,
      516,
      517,
      517,
      517,
      518,
      518,
      518,
      519,
      519,
      519,
      519,
      520,
      520,
      520,
      521,
      522,
      523,
      524,
      525,
      525,
      526,
      527,
      528,
      529,
      529,
      529,
      529,
      529,
      529,
      528,
      528,
      529,
      528,
      531,
      536,
      533,
      536,
      536,
      535,
      536,
      536,
      536,
      537,
      536,
      536,
      536,
      536,
      536,
      536,
      536,
      536,
      536,
      536,
      536,
      536,
      536,
      530,
      511,
      511,
      510,
      506,
      512,
      504,
      503,
      503,
      504,
      503,
      502,
      499,
      498,
      497,
      497,
      496,
      496,
      494,
      491,
      489,
      488,
      488,
      487,
      486,
      487,
      487,
      488,
      487,
      488,
      488,
      489,
      488,
      489,
      489,
      489,
      488,
      488,
      488,
      487,
      487,
      486,
      485,
      485,
      484,
      484,
      483,
      484,
      482,
      483,
      482,
      481,
      481,
      481,
      482,
      482,
      482,
      482,
      481,
      480,
      480,
      479,
      479,
      480,
      479,
      458,
      412,
      400,
      385,
      388,
      375,
      366,
      360,
      351,
      340,
      336,
      325,
      311,
      307,
      297,
      297,
      293,
      274,
      240,
      233,
      218,
      204,
      201,
      194,
      169,
      141,
      143
    ],
    "swim:timestamps": [
      1790778621,
      1790778681,
      1790778691,
      1790778741,
      1790778811,
      1790778871,
      1790778931,
      1790778991,
      1790779051,
      1790779111,
      1790779171,
      1790779231,
      1790779291,
      1790779351,
      1790779411,
      1790779471,
      1790779531,
      1790779592,
      1790779652,
      1790779712,
      1790779722,
      1790779772,
      1790779783,
      1790779832,
      1790779843,
      1790779892,
      1790779903,
      1790779952,
      1790779963,
      1790780012,
      1790780023,
      1790780072,
      1790780083,
      1790780132,
      1790780143,
      1790780192,
      1790780203,
      1790780252,
      1790780312,
      1790780323,
      1790780373,
      1790780383,
      1790780433,
      1790780443,
      1790780493,
      1790780504,
      1790780553,
      1790780564,
      1790780613,
      1790780624,
      1790780673,
      1790780684,
      1790780733,
      1790780744,
      1790780793,
      1790780804,
      1790780853,
      1790780864,
      1790780913,
      1790780924,
      1790780973,
      1790780984,
      1790781033,
      1790781044,
      1790781093,
      1790781104,
      1790781164,
      1790781214,
      1790781224,
      1790781274,
      1790781285,
      1790781334,
      1790781345,
      1790781394,
      1790781405,
      1790781454,
      1790781465,
      1790781514,
      1790781525,
      1790781585,
      1790781645,
      1790781705,
      1790781825,
      1790781885,
      1790781945,
      1790782006,
      1790782066,
      1790782126,
      1790782246,
      1790782306,
      1790782366,
      1790782426,
      1790782486,
      1790782546,
      1790782606,
      1790782666,
      1790782727,
      1790782787,
      1790782847,
      1790782907,
      1790782967,
      1790783027,
      1790783087,
      1790783147,
      1790783207,
      1790783267,
      1790783327,
      1790783387,
      1790783448,
      1790783508,
      1790783568,
      1790783628,
      1790783688,
      1790783748,
      1790783808,
      1790783868,
      1790783928,
      1790783988,
      1790784019,
      1790784048,
      1790784079,
      1790784108,
      1790784139,
      1790784169,
      1790784199,
      1790784229,
      1790784259,
      1790784289,
      1790784319,
      1790784349,
      1790784379,
      1790784409,
      1790784439,
      1790784469,
      1790784499,
      1790784529,
      1790784560,
      1790784589,
      1790784620,
      1790784649,
      1790784680,
      1790784709,
      1790784740,
      1790784769,
      1790784800,
      1790784829,
      1790784860,
      1790784889,
      1790784920,
      1790784950,
      1790784980,
      1790785010,
      1790785040,
      1790785070,
      1790785100,
      1790785130,
      1790785160,
      1790785190,
      1790785221,
      1790785250,
      1790785341,
      1790785401,
      1790785461,
      1790785521,
      1790785581,
      1790785641,
      1790785701,
      1790785761,
      1790785821,
      1790785881,
      1790785942,
      1790786002,
      1790786062,
      1790786122,
      1790786182,
      1790786242,
      1790786302,
      1790786362,
      1790786422,
      1790786482,
      1790786542,
      1790786602,
      1790786663,
      1790786707,
      1790786723,
      1790786767,
      1790786783,
      1790786827,
      1790786843,
      1790786887,
      1790786903,
      1790786947,
      1790786963,
      1790787007,
      1790787023,
      1790787067,
      1790787083,
      1790787127,
      1790787143,
      1790787187,
      1790787203,
      1790787247,
      1790787263,
      1790787307,
      1790787323,
      1790787368,
      1790787383,
      1790787428,
      1790787444,
      1790787488,
      1790787504,
      1790787548,
      1790787564,
      1790787608,
      1790787624,
      1790787668,
      1790787684,
      1790787728,
      1790787788,
      1790787848,
      1790787908,
      1790787968,
      1790788028,
      1790788089,
      1790788149,
      1790788209,
      1790788269,
      1790788329,
      1790788389,
      1790788449,
      1790788509,
      1790788569,
      1790788629,
      1790788689,
      1790788749,
      1790788809,
      1790788870,
      1790788930,
      1790788958,
      1790788990,
      1790789018,
      1790789050,
      1790789078,
      1790789110,
      1790789138,
      1790789170,
      1790789198,
      1790789230,
      1790789258,
      1790789290,
      1790789318,
      1790789350,
      1790789378,
      1790789410,
      1790789438,
      1790789470,
      1790789499,
      1790789530,
      1790789559,
      1790789591,
      1790789619,
      1790789651,
      1790789679,
      1790789711,
      1790789739,
      1790789771,
      1790789799,
      1790789831,
      1790789859,
      1790789891,
      1790789919,
      1790789951,
      1790789979,
      1790790011,
      1790790039,
      1790790071,
      1790790100,
      1790790131,
      1790790160,
      1790790191,
      1790790220,
      1790790251,
      1790790280,
      1790790312,
      1790790340,
      1790790372,
      1790790400,
      1790790432,
      1790790460,
      1790790492,
      1790790520,
      1790790552,
      1790790580,
      1790790612,
      1790790640,
      1790790672,
      1790790700,
      1790790732,
      1790790761,
      1790790792,
      1790790821,
      1790790852,
      1790790881,
      1790790912,
      1790790941,
      1790790972,
      1790791001,
      1790791033,
      1790791061,
      1790791093,
      1790791121,
      1790791153,
      1790791181,
      1790791213,
      1790791241,
      1790791273,
      1790791301,
      1790791333,
      1790791362,
      1790791375,
      1790791422,
      1790791435,
      1790791482,
      1790791495,
      1790791542,
      1790791555,
      1790791602,
      1790791615,
      1790791675,
      1790791722,
      1790791735,
      1790791782,
      1790791795,
      1790791855,
      1790791902,
      1790791915,
      1790791963,
      1790791976,
      1790792023,
      1790792036,
      1790792083,
      1790792096,
      1790792143,
      1790792156,
      1790792203,
      1790792216,
      1790792276,
      1790792336,
      1790792396,
      1790792456,
      1790792516,
      1790792577,
      1790793069,
      1790793129,
      1790793190,
      1790793250,
      1790793307,
      1790793367,
      1790793427,
      1790793487,
      1790793547,
      1790793607,
      1790793667,
      1790793727,
      1790793788,
      1790793848,
      1790793908,
      1790793968,
      1790794028,
      1790794088,
      1790794148,
      1790794188,
      1790794208,
      1790794248,
      1790794268,
      1790794308,
      1790794328,
      1790794369,
      1790794388,
      1790794429,
      1790794449,
      1790794489,
      1790794509,
      1790794569,
      1790794609,
      1790794629,
      1790794689,
      1790794749,
      1790794809,
      1790794849,
      1790794869,
      1790794909,
      1790794929,
      1790794970,
      1790794989,
      1790795030,
      1790795050,
      1790795110,
      1790795150,
      1790795210,
      1790795270,
      1790795330,
      1790795390,
      1790795450,
      1790795510,
      1790795570,
      1790795631,
      1790795691,
      1790795751,
      1790795811,
      1790795871,
      1790795931,
      1790795991,
      1790796052,
      1790796112,
      1790796158,
      1790796172,
      1790796232,
      1790796242,
      1790796292,
      1790796308,
      1790796353,
      1790796362,
      1790796413,
      1790796422,
      1790796473,
      1790796482,
      1790796533,
      1790796542,
      1790796602,
      1790796653,
      1790796722,
      1790796773,
      1790796788,
      1790796833,
      1790796848,
      1790796902,
      1790796962,
      1790797014
    ],
    "wof:geomhash": "cd9e27ed02b0ba6cb8e6ccb9fae55f15",
    "wof:id": 2048478647,
    "wof:repo": "sfomuseum-data-flights-2026-09"
  },
  "bbox": [
    -122.36666666666666,
    37.63333333333333,
    -70.93333333333334,
    43.58527777777778
  ],
  "geometry": {"type":"LineString","coordinates":[[-122.36666666666666,37.63333333333333],[-122.31666666666666,37.666666666666664],[-122.31027777777777,37.66611111111111],[-122.26666666666667,37.7],[-122.18805555555556,37.746944444444445],[-122.13333333333334,37.808055555555555],[-122.075,37.87222222222222],[-122.01416666666667,37.939166666666665],[-121.94777777777779,38.01222222222222],[-121.87333333333332,38.09388888888889],[-121.80111111111111,38.1725],[-121.72333333333333,38.257222222222225],[-121.62444444444444,38.330555555555556],[-121.51444444444445,38.396388888888886],[-121.40111111111112,38.46388888888889],[-121.28805555555556,38.53138888888889],[-121.1588888888889,38.60805555555556],[-121.0411111111111,38.676944444444445],[-120.9213888888889,38.74722222222222],[-120.79805555555555,38.81916666666667],[-120.8,38.81444444444444],[-120.67361111111111,38.89194444444444],[-120.67500000000001,38.888333333333335],[-120.545,38.96666666666667],[-120.54666666666667,38.96388888888889],[-120.41638888888889,39.04083333333333],[-120.41805555555555,39.03916666666667],[-120.28472222222221,39.11694444444444],[-120.28694444444444,39.11361111111111],[-120.15166666666667,39.19333333333333],[-120.15416666666667,39.19083333333333],[-120.01777777777778,39.26972222222222],[-120.01861111111111,39.26694444444444],[-119.8825,39.346944444444446],[-119.8825,39.34583333333334],[-119.7461111111111,39.42388888888889],[-119.74694444444445,39.42305555555555],[-119.61277777777777,39.49944444444444],[-119.4775,39.57527777777778],[-119.47944444444444,39.57333333333334],[-119.34416666666667,39.65],[-119.34416666666667,39.64833333333333],[-119.23583333333333,39.71027777777778],[-119.21000000000001,39.725],[-119.09833333333333,39.786944444444444],[-119.07472222222222,39.79972222222222],[-118.96472222222222,39.86055555555556],[-118.93861111111111,39.875],[-118.8286111111111,39.93555555555555],[-118.80222222222221,39.95],[-118.69277777777778,40.01],[-118.66638888888889,40.02444444444444],[-118.55666666666666,40.08416666666667],[-118.535,40.096111111111114],[-118.42194444444445,40.1575],[-118.39833333333334,40.17027777777778],[-118.2875,40.23027777777778],[-118.2625,40.243611111111115],[-118.14611111111111,40.300555555555555],[-118.11861111111111,40.31083333333333],[-117.99,40.347500000000004],[-117.96027777777778,40.353611111111114],[-117.82722222222222,40.38194444444444],[-117.7975,40.38805555555555],[-117.66472222222222,40.41638888888889],[-117.63222222222221,40.42305555555555],[-117.46777777777778,40.45722222222223],[-117.33361111111111,40.485],[-117.30138888888888,40.49166666666667],[-117.16583333333334,40.519444444444446],[-117.13666666666667,40.525555555555556],[-116.99666666666667,40.553888888888885],[-116.96611111111112,40.559999999999995],[-116.8275,40.585],[-116.79555555555555,40.59027777777778],[-116.65805555555556,40.61361111111111],[-116.62833333333333,40.618611111111115],[-116.48972222222223,40.64138888888889],[-116.45944444444444,40.646388888888886],[-116.2925,40.67388888888889],[-116.12583333333333,40.70111111111111],[-115.95944444444444,40.72805555555556],[-115.63472222222222,40.801111111111105],[-115.47777777777777,40.85138888888889],[-115.32222222222222,40.90138888888889],[-115.16666666666667,40.950833333333335],[-115.00861111111111,41.00111111111111],[-114.85222222222221,41.05027777777777],[-114.53194444444445,41.15083333333333],[-114.37194444444444,41.20027777777778],[-114.215,41.248333333333335],[-114.05611111111111,41.29722222222222],[-113.89916666666667,41.345],[-113.73388888888888,41.376666666666665],[-113.56555555555555,41.39833333333333],[-113.39500000000001,41.42027777777778],[-113.22777777777777,41.441111111111105],[-113.05666666666666,41.46222222222222],[-112.88833333333334,41.48305555555556],[-112.71805555555555,41.50361111111111],[-112.54833333333333,41.52361111111111],[-112.37694444444443,41.54277777777778],[-112.20555555555556,41.56055555555555],[-112.03722222222223,41.57805555555556],[-111.86666666666666,41.595555555555556],[-111.6975,41.612500000000004],[-111.52777777777777,41.629444444444445],[-111.36,41.64555555555555],[-111.19222222222223,41.66166666666666],[-111.02361111111111,41.677499999999995],[-110.85666666666665,41.69333333333333],[-110.6875,41.70861111111111],[-110.52361111111111,41.723333333333336],[-110.35694444444444,41.738055555555555],[-110.19305555555556,41.75222222222222],[-110.03,41.76638888888889],[-109.86361111111111,41.780277777777776],[-109.70027777777779,41.79388888888889],[-109.64083333333333,41.79861111111111],[-109.53611111111111,41.80722222222222],[-109.47805555555556,41.81166666666666],[-109.37305555555555,41.82],[-109.31361111111111,41.82472222222223],[-109.20805555555556,41.83305555555556],[-109.15083333333334,41.837500000000006],[-109.04444444444444,41.84583333333334],[-108.98388888888888,41.85027777777778],[-108.87666666666667,41.858333333333334],[-108.81972222222223,41.862500000000004],[-108.71277777777777,41.87027777777778],[-108.65305555555557,41.874722222222225],[-108.54638888888888,41.8825],[-108.48805555555556,41.88666666666666],[-108.38361111111112,41.89388888888889],[-108.35722222222222,41.895833333333336],[-108.21805555555555,41.90555555555555],[-108.15944444444445,41.909444444444446],[-108.05388888888889,41.916666666666664],[-107.99361111111111,41.920833333333334],[-107.89416666666668,41.92722222222222],[-107.82777777777777,41.931666666666665],[-107.72694444444444,41.93833333333333],[-107.66000000000001,41.942499999999995],[-107.54944444444445,41.94972222222222],[-107.48277777777778,41.953611111111115],[-107.38222222222221,41.959722222222226],[-107.31361111111111,41.96416666666667],[-107.21194444444444,41.97027777777778],[-107.14277777777778,41.974444444444444],[-107.03888888888889,41.980555555555554],[-106.97166666666666,41.98416666666667],[-106.86694444444444,41.99027777777778],[-106.79805555555555,41.994166666666665],[-106.69527777777778,42],[-106.6261111111111,42.00361111111111],[-106.52194444444444,42.00944444444445],[-106.45305555555557,42.01305555555555],[-106.35138888888888,42.01861111111111],[-106.28305555555555,42.02222222222222],[-106.17861111111111,42.027499999999996],[-105.93833333333333,42.03944444444444],[-105.76555555555555,42.047777777777775],[-105.59138888888889,42.05583333333333],[-105.41694444444445,42.06361111111111],[-105.24305555555556,42.071111111111115],[-105.06888888888888,42.084722222222226],[-104.89500000000001,42.1025],[-104.71944444444445,42.120555555555555],[-104.54666666666667,42.13777777777778],[-104.33638888888889,42.15833333333333],[-104.15833333333335,42.17583333333333],[-103.98444444444445,42.192499999999995],[-103.80749999999999,42.20916666666667],[-103.63083333333333,42.22555555555556],[-103.45277777777778,42.24194444444444],[-103.27361111111111,42.2575],[-103.09527777777777,42.27361111111111],[-102.95444444444445,42.285555555555554],[-102.74111111111111,42.30361111111111],[-102.55833333333334,42.31888888888889],[-102.38,42.333333333333336],[-102.19638888888889,42.34805555555556],[-102.01583333333333,42.36194444444445],[-101.88694444444445,42.3725],[-101.83222222222221,42.376111111111115],[-101.7075,42.38666666666666],[-101.6725,42.38805555555555],[-101.52472222222222,42.39861111111111],[-101.49222222222222,42.401111111111106],[-101.3436111111111,42.41166666666666],[-101.30972222222222,42.41444444444444],[-101.16222222222223,42.42444444444444],[-101.13027777777778,42.426944444444445],[-100.98305555555555,42.43722222222222],[-100.94666666666667,42.43944444444444],[-100.79583333333333,42.44972222222222],[-100.76388888888889,42.45166666666667],[-100.61388888888888,42.461666666666666],[-100.57694444444444,42.46416666666667],[-100.42944444444444,42.47361111111111],[-100.39305555555556,42.475833333333334],[-100.24083333333333,42.48527777777778],[-100.20555555555556,42.487500000000004],[-100.06027777777777,42.496944444444445],[-100.02,42.501666666666665],[-99.87388888888889,42.52916666666667],[-99.83555555555554,42.53805555555555],[-99.69250000000001,42.57083333333334],[-99.6538888888889,42.57944444444445],[-99.50805555555556,42.612500000000004],[-99.47305555555556,42.620555555555555],[-99.32694444444444,42.65361111111111],[-99.29027777777777,42.66166666666666],[-99.14472222222223,42.69416666666666],[-99.1061111111111,42.70277777777778],[-98.95861111111111,42.73527777777778],[-98.9225,42.74333333333333],[-98.79055555555556,42.77222222222222],[-98.56944444444444,42.82055555555556],[-98.38444444444445,42.86055555555556],[-98.19611111111111,42.900555555555556],[-98.00944444444444,42.94027777777777],[-97.82388888888889,42.97916666666667],[-97.63666666666667,43.01833333333333],[-97.44944444444445,43.05694444444444],[-97.25805555555556,43.096111111111114],[-97.07,43.13444444444444],[-96.88083333333333,43.17222222222222],[-96.69083333333333,43.21],[-96.49944444444445,43.2475],[-96.30749999999999,43.285],[-96.1125,43.30777777777777],[-95.9175,43.3275],[-95.72,43.34666666666667],[-95.51972222222223,43.365833333333335],[-95.32249999999999,43.38444444444444],[-95.12166666666666,43.40277777777778],[-94.9263888888889,43.42055555555555],[-94.85805555555555,43.425],[-94.7225,43.43888888888888],[-94.66694444444445,43.44138888888889],[-94.54222222222222,43.45444444444445],[-94.4775,43.45777777777778],[-94.3536111111111,43.470555555555556],[-94.2875,43.473888888888894],[-94.17361111111111,43.48555555555556],[-94.09833333333333,43.49194444444444],[-93.98,43.5],[-93.90472222222223,43.50055555555556],[-93.78999999999999,43.50138888888889],[-93.71305555555556,43.50194444444445],[-93.5975,43.5025],[-93.52111111111111,43.503055555555555],[-93.40416666666667,43.50361111111111],[-93.32583333333334,43.50388888888889],[-93.2088888888889,43.50388888888889],[-93.13305555555554,43.50416666666667],[-93.01416666666667,43.50416666666667],[-92.94027777777778,43.50416666666667],[-92.82138888888889,43.50416666666667],[-92.74361111111111,43.50388888888889],[-92.62527777777777,43.50361111111111],[-92.54861111111111,43.50333333333333],[-92.4325,43.50277777777778],[-92.35499999999999,43.50222222222222],[-92.23944444444444,43.501666666666665],[-92.16083333333334,43.50111111111111],[-92.04027777777777,43.5],[-91.96444444444445,43.50111111111111],[-91.8461111111111,43.50611111111111],[-91.76833333333333,43.509166666666665],[-91.65166666666667,43.513333333333335],[-91.5736111111111,43.51611111111111],[-91.4538888888889,43.52027777777778],[-91.37583333333333,43.52333333333333],[-91.25611111111111,43.52722222222222],[-91.17833333333334,43.53],[-91.05833333333334,43.53388888888889],[-90.9825,43.53638888888889],[-90.86194444444443,43.54],[-90.78472222222221,43.54222222222222],[-90.66611111111112,43.545833333333334],[-90.58916666666666,43.54805555555556],[-90.46944444444445,43.551111111111105],[-90.39027777777778,43.55333333333333],[-90.27222222222223,43.55638888888888],[-90.20777777777778,43.558055555555555],[-90.08638888888889,43.56083333333333],[-90.01083333333334,43.562777777777775],[-89.88694444444445,43.56527777777777],[-89.81388888888888,43.566944444444445],[-89.69,43.569722222222225],[-89.61527777777778,43.57083333333334],[-89.49083333333333,43.57333333333334],[-89.4175,43.57472222222223],[-89.2925,43.57694444444445],[-89.21916666666667,43.57805555555556],[-89.09638888888888,43.580000000000005],[-89.01888888888888,43.58111111111111],[-88.89472222222223,43.58277777777778],[-88.81888888888888,43.58388888888889],[-88.69416666666667,43.58527777777778],[-88.61777777777777,43.58416666666667],[-88.48916666666666,43.581388888888895],[-88.41305555555556,43.57972222222222],[-88.28472222222221,43.57666666666667],[-88.21111111111111,43.575],[-88.08444444444444,43.57194444444445],[-88.00722222222223,43.569722222222225],[-87.88027777777778,43.56638888888889],[-87.80361111111111,43.564166666666665],[-87.67888888888889,43.56083333333333],[-87.60277777777777,43.558611111111105],[-87.47527777777778,43.55472222222222],[-87.39777777777779,43.552499999999995],[-87.27305555555556,43.54833333333333],[-87.17972222222222,43.54527777777778],[-87.09555555555555,43.5425],[-86.97611111111111,43.538333333333334],[-86.93611111111112,43.53722222222222],[-86.77555555555556,43.53111111111111],[-86.73555555555555,43.52972222222222],[-86.57166666666666,43.52333333333333],[-86.53333333333333,43.521388888888886],[-86.36638888888888,43.515277777777776],[-86.32972222222222,43.51361111111111],[-86.16222222222223,43.50694444444444],[-86.12388888888889,43.50527777777778],[-85.91861111111112,43.49638888888889],[-85.78888888888889,43.490833333333335],[-85.71138888888889,43.48722222222222],[-85.58222222222221,43.481388888888894],[-85.50305555555556,43.47777777777778],[-85.29638888888888,43.467777777777776],[-85.17333333333333,43.461666666666666],[-85.13305555555554,43.459722222222226],[-84.97111111111111,43.45166666666667],[-84.92777777777778,43.44944444444444],[-84.76777777777778,43.43722222222222],[-84.72527777777778,43.43388888888889],[-84.56222222222222,43.421388888888885],[-84.51972222222223,43.418055555555554],[-84.36166666666666,43.405277777777776],[-84.31805555555555,43.401666666666664],[-84.15805555555556,43.388888888888886],[-84.11611111111111,43.385555555555555],[-83.9113888888889,43.36888888888889],[-83.71111111111111,43.35166666666667],[-83.51944444444445,43.33527777777778],[-83.3236111111111,43.31805555555556],[-83.13166666666666,43.30083333333333],[-82.90527777777778,43.28],[-81.38555555555556,43.10305555555556],[-81.19388888888889,43.07888888888889],[-81.00138888888888,43.06194444444444],[-80.81166666666667,43.05277777777778],[-80.61694444444444,43.04333333333333],[-80.43,43.03361111111111],[-80.24361111111111,43.02388888888889],[-80.05694444444444,43.01361111111111],[-79.86833333333333,43.003055555555555],[-79.68055555555556,42.9925],[-79.49527777777777,42.981388888888894],[-79.30944444444444,42.97027777777778],[-79.1236111111111,42.95861111111111],[-78.93555555555555,42.946666666666665],[-78.75166666666667,42.93444444444444],[-78.56583333333333,42.93055555555555],[-78.38361111111112,42.92666666666666],[-78.1975,42.922777777777775],[-78.0111111111111,42.91833333333333],[-77.86388888888888,42.914722222222224],[-77.82555555555555,42.913888888888884],[-77.67972222222222,42.91],[-77.63833333333334,42.90888888888889],[-77.52777777777777,42.905833333333334],[-77.45138888888889,42.90361111111111],[-77.3411111111111,42.900555555555556],[-77.26444444444445,42.89805555555556],[-77.15583333333333,42.89472222222222],[-77.07777777777777,42.8925],[-76.96805555555555,42.88916666666667],[-76.8938888888889,42.88666666666666],[-76.70833333333334,42.880833333333335],[-76.59833333333333,42.87694444444445],[-76.51222222222222,42.87388888888889],[-76.32972222222222,42.8675],[-76.14916666666667,42.861111111111114],[-75.96555555555555,42.853611111111114],[-75.85916666666667,42.849444444444444],[-75.78722222222223,42.84638888888889],[-75.67722222222223,42.84166666666667],[-75.60555555555555,42.83861111111111],[-75.4975,42.83388888888889],[-75.42694444444444,42.83083333333334],[-75.31666666666666,42.825833333333335],[-75.2461111111111,42.822500000000005],[-75.06888888888888,42.814166666666665],[-74.95916666666668,42.80888888888889],[-74.77916666666667,42.79972222222222],[-74.59888888888888,42.79055555555556],[-74.41861111111112,42.78111111111111],[-74.23722222222223,42.77111111111111],[-74.05638888888889,42.76083333333333],[-73.86805555555554,42.75],[-73.6875,42.74611111111111],[-73.505,42.74444444444445],[-73.32305555555556,42.74305555555556],[-73.14083333333333,42.74055555555556],[-72.9588888888889,42.722500000000004],[-72.76638888888888,42.70027777777778],[-72.59777777777778,42.680277777777775],[-72.42166666666667,42.65861111111111],[-72.25555555555556,42.63861111111111],[-72.10805555555555,42.62166666666667],[-71.98333333333333,42.6],[-71.96472222222222,42.60416666666667],[-71.82638888888889,42.58694444444445],[-71.8,42.583333333333336],[-71.69444444444444,42.56638888888889],[-71.65,42.56666666666667],[-71.56805555555555,42.54527777777778],[-71.53333333333333,42.53333333333333],[-71.44916666666667,42.52027777777778],[-71.41666666666667,42.516666666666666],[-71.33833333333332,42.4975],[-71.31666666666666,42.5],[-71.23305555555555,42.47666666666667],[-71.2,42.46666666666667],[-71.1,42.483333333333334],[-71.05055555555555,42.516666666666666],[-71,42.583333333333336],[-70.93444444444445,42.55555555555555],[-70.93333333333334,42.53333333333333],[-70.93916666666667,42.501666666666665],[-70.95,42.483333333333334],[-70.96666666666667,42.45],[-70.98333333333333,42.4],[-70.99888888888889,42.3775]]}
}
