{
  "id": 2048309287,
  "type": "Feature",
  "properties": {
    "geom:area": 0,
    "geom:bbox": "-122.359690,36.755710,-121.897020,37.614900",
    "geom:latitude": 37.238816395372474,
    "geom:longitude": -122.07541187152192,
    "src:alt_label": "swim-approach",
    "src:geom": "swim",
    "swim:elevations": [
      5485,
      5147,
      4848,
      4647,
      4451,
      3913,
      3718,
      3334,
      3109,
      3027,
      2975,
      2710,
      2431,
      2251,
      2017,
      1792,
      1731,
      1583,
      1428,
      1413,
      1234,
      1121,
      950,
      769,
      639,
      549,
      453,
      326,
      234,
      90,
      0
    ],
    "swim:geom": "approach",
    "swim:timestamps": [
      1789149863,
      1789149895,
      1789149923,
      1789149944,
      1789149964,
      1789150012,
      1789150027,
      1789150064,
      1789150104,
      1789150136,
      1789150146,
      1789150183,
      1789150225,
      1789150246,
      1789150282,
      1789150314,
      1789150327,
      1789150367,
      1789150408,
      1789150411,
      1789150444,
      1789150472,
      1789150512,
      1789150555,
      1789150588,
      1789150609,
      1789150637,
      1789150675,
      1789150697,
      1789150737,
      1789150759
    ],
    "wof:geomhash": "b2865cc91573b6dc7c8560cc93a46fb5",
    "wof:id": 2048309287,
    "wof:repo": "sfomuseum-data-flights-2026-09"
  },
  "bbox": [
    -122.35969,
    36.75571,
    -121.89702,
    37.6149
  ],
  "geometry": {"type":"LineString","coordinates":[[-121.89702,36.75571],[-121.91236,36.80744],[-121.92494,36.85201],[-121.93441,36.88607],[-121.94329,36.91784],[-121.96875,36.99088],[-121.97744,37.01314],[-121.99779,37.0669],[-122.01979,37.12395],[-122.03649,37.16609],[-122.04157,37.17859],[-122.05963,37.22414],[-122.07933,37.27482],[-122.09027,37.3006],[-122.10702,37.34311],[-122.12053,37.37929],[-122.12074,37.39442],[-122.11523,37.43978],[-122.1114,37.48004],[-122.11206,37.48275],[-122.12215,37.51101],[-122.1444,37.52398],[-122.17733,37.53789],[-122.21204,37.55255],[-122.23798,37.56346],[-122.25391,37.57013],[-122.27459,37.57875],[-122.30068,37.58975],[-122.3166,37.5965],[-122.34464,37.60821],[-122.35969,37.6149]]}
}
