{
  "id": 2048395577,
  "type": "Feature",
  "properties": {
    "geom:area": 0,
    "geom:bbox": "-123.497530,36.906840,-122.051080,37.611820",
    "geom:latitude": 37.236709630094936,
    "geom:longitude": -122.57831387690521,
    "src:alt_label": "swim-approach",
    "src:geom": "swim",
    "swim:elevations": [
      5678,
      5572,
      5487,
      5248,
      4747,
      4482,
      4406,
      4080,
      3756,
      3517,
      3320,
      3168,
      3102,
      3048,
      3048,
      3048,
      3048,
      3048,
      3048,
      3048,
      3048,
      3053,
      3048,
      3048,
      3047,
      3048,
      3069,
      3059,
      3048,
      3048,
      3048,
      3048,
      3048,
      3048,
      3068,
      3049,
      3048,
      3048,
      3048,
      2842,
      2575,
      2326,
      2219,
      2118,
      1855,
      1639,
      1454,
      1355,
      1162,
      910,
      829,
      735,
      450,
      328,
      211,
      163,
      68
    ],
    "swim:geom": "approach",
    "swim:timestamps": [
      1790019945,
      1790019957,
      1790019966,
      1790019991,
      1790020048,
      1790020078,
      1790020088,
      1790020122,
      1790020163,
      1790020189,
      1790020214,
      1790020237,
      1790020263,
      1790020317,
      1790020330,
      1790020375,
      1790020403,
      1790020417,
      1790020455,
      1790020495,
      1790020521,
      1790020550,
      1790020586,
      1790020610,
      1790020645,
      1790020678,
      1790020701,
      1790020721,
      1790020745,
      1790020795,
      1790020804,
      1790020849,
      1790020861,
      1790020885,
      1790020916,
      1790020937,
      1790020967,
      1790020983,
      1790021010,
      1790021053,
      1790021091,
      1790021117,
      1790021136,
      1790021160,
      1790021196,
      1790021231,
      1790021264,
      1790021282,
      1790021314,
      1790021364,
      1790021393,
      1790021405,
      1790021456,
      1790021486,
      1790021516,
      1790021531,
      1790021573
    ],
    "wof:geomhash": "b0a8fbd10afc882f3b97f8ec9beea1e4",
    "wof:id": 2048395577,
    "wof:repo": "sfomuseum-data-flights-2026-09"
  },
  "bbox": [
    -123.49753,
    36.90684,
    -122.05108,
    37.61182
  ],
  "geometry": {"type":"LineString","coordinates":[[-123.49753,37.45445],[-123.47252,37.44681],[-123.45394,37.44111],[-123.40127,37.42492],[-123.28733,37.38975],[-123.22903,37.37165],[-123.21119,37.36608],[-123.14475,37.34552],[-123.06848,37.32181],[-123.02107,37.30702],[-122.97623,37.29294],[-122.93364,37.27966],[-122.89086,37.26622],[-122.80246,37.24622],[-122.7865,37.2343],[-122.73131,37.19118],[-122.69775,37.16509],[-122.67942,37.15077],[-122.6336,37.11501],[-122.5898,37.08065],[-122.56144,37.05844],[-122.53019,37.03406],[-122.49169,37.00393],[-122.46567,36.98357],[-122.42804,36.95421],[-122.3926,36.92677],[-122.36563,36.90915],[-122.33742,36.90684],[-122.30565,36.92097],[-122.24635,36.9559],[-122.23559,36.96218],[-122.18196,36.99356],[-122.16756,37.002],[-122.13896,37.01874],[-122.10092,37.04096],[-122.07566,37.05569],[-122.05108,37.08495],[-122.05424,37.10644],[-122.06409,37.14179],[-122.07742,37.19863],[-122.08913,37.24876],[-122.09692,37.28204],[-122.10244,37.30556],[-122.10886,37.33288],[-122.11795,37.37148],[-122.13005,37.40777],[-122.14183,37.44221],[-122.14794,37.46016],[-122.15929,37.49288],[-122.18522,37.53736],[-122.21238,37.5502],[-122.22405,37.55524],[-122.27298,37.57593],[-122.29785,37.58632],[-122.31923,37.59529],[-122.32943,37.59955],[-122.35871,37.61182]]}
}
