{
  "id": 2048420229,
  "type": "Feature",
  "properties": {
    "geom:area": 0,
    "geom:bbox": "-122.757500,37.423130,-122.091420,38.454250",
    "geom:latitude": 37.823335108473955,
    "geom:longitude": -122.46608273813634,
    "src:alt_label": "swim-approach",
    "src:geom": "swim",
    "swim:elevations": [
      7620,
      7498,
      7282,
      6705,
      6478,
      6438,
      6056,
      5717,
      5354,
      5097,
      4979,
      4881,
      4733,
      4479,
      4297,
      3809,
      3663,
      3620,
      3375,
      3353,
      3275,
      3183,
      3113,
      2946,
      2832,
      2729,
      2561,
      2473,
      2294,
      2226,
      2185,
      1786,
      1650,
      1308,
      1256,
      980,
      956,
      735,
      646,
      568,
      397,
      314,
      214,
      186,
      0
    ],
    "swim:geom": "approach",
    "swim:timestamps": [
      1790276666,
      1790276683,
      1790276734,
      1790276801,
      1790276830,
      1790276836,
      1790276881,
      1790276921,
      1790276959,
      1790276994,
      1790277003,
      1790277013,
      1790277028,
      1790277054,
      1790277065,
      1790277104,
      1790277130,
      1790277144,
      1790277202,
      1790277240,
      1790277328,
      1790277354,
      1790277369,
      1790277401,
      1790277427,
      1790277444,
      1790277469,
      1790277485,
      1790277520,
      1790277535,
      1790277545,
      1790277593,
      1790277611,
      1790277656,
      1790277666,
      1790277718,
      1790277726,
      1790277774,
      1790277795,
      1790277819,
      1790277863,
      1790277893,
      1790277926,
      1790277934,
      1790277985
    ],
    "wof:geomhash": "d311e54d36e260b65ef4f5d0cd6a3430",
    "wof:id": 2048420229,
    "wof:repo": "sfomuseum-data-flights-2026-09"
  },
  "bbox": [
    -122.7575,
    37.42313,
    -122.09142,
    38.45425
  ],
  "geometry": {"type":"LineString","coordinates":[[-122.53078,38.45425],[-122.55469,38.43133],[-122.62697,38.36154],[-122.71975,38.2712],[-122.75408,38.23021],[-122.7575,38.22035],[-122.74384,38.14541],[-122.72511,38.07966],[-122.70793,38.01906],[-122.69148,37.96242],[-122.68737,37.94848],[-122.68283,37.93268],[-122.67574,37.90935],[-122.64782,37.87459],[-122.63387,37.86228],[-122.58323,37.81469],[-122.55083,37.78387],[-122.53428,37.76814],[-122.46783,37.70547],[-122.42601,37.6663],[-122.34827,37.58395],[-122.33514,37.55688],[-122.32739,37.54219],[-122.30864,37.5101],[-122.29343,37.48547],[-122.28354,37.46947],[-122.25837,37.45069],[-122.23722,37.44458],[-122.18965,37.43197],[-122.16951,37.42659],[-122.15674,37.42313],[-122.0977,37.43863],[-122.09142,37.45833],[-122.11069,37.50264],[-122.11924,37.50963],[-122.17201,37.53531],[-122.17984,37.53855],[-122.221,37.55626],[-122.23741,37.56312],[-122.25501,37.57052],[-122.28346,37.58255],[-122.30108,37.58998],[-122.32085,37.59827],[-122.3262,37.6005],[-122.35874,37.61431]]}
}
