{
  "id": 2048456417,
  "type": "Feature",
  "properties": {
    "geom:area": 0,
    "geom:bbox": "-122.337222,37.433333,-73.655833,40.663056",
    "geom:latitude": 39.29947711460611,
    "geom:longitude": -98.01421930813189,
    "src:alt_label": "swim-path",
    "src:geom": "swim",
    "swim:altitudes": [
      "006",
      "028",
      "052",
      "078",
      "103",
      "110",
      "110",
      "110",
      "112",
      "118",
      "130",
      "175",
      "195",
      "214",
      "229",
      "243",
      "257",
      "269",
      "282",
      "298",
      "308",
      "316",
      "327",
      "339",
      "348",
      "357",
      "360C",
      "360C",
      "360C",
      "360C",
      "360C",
      "360C",
      "360C",
      "360C",
      "360C",
      "360C",
      "360C",
      "360C",
      "360C",
      "360C",
      "360C",
      "360C",
      "360C",
      "360C",
      "360C",
      "360C",
      "360C",
      "360C",
      "360C",
      "360C",
      "360C",
      "360C",
      "360C",
      "360C",
      "360C",
      "360C",
      "360C",
      "360C",
      "360C",
      "360C",
      "360C",
      "360C",
      "360C",
      "360C",
      "360C",
      "360C",
      "360C",
      "360C",
      "360C",
      "360C",
      "360C",
      "360C",
      "360C",
      "360C",
      "360C",
      "360C",
      "360C",
      "360C",
      "360C",
      "360C",
      "360",
      "360C",
      "360C",
      "360C",
      "360C",
      "360C",
      "360C",
      "360C",
      "360C",
      "360C",
      "360C",
      "360C",
      "360C",
      "360C",
      "360C",
      "360C",
      "360C",
      "360C",
      "360C",
      "360C",
      "360C",
      "360C",
      "360C",
      "360C",
      "360C",
      "360C",
      "360C",
      "360C",
      "360C",
      "360C",
      "360C",
      "360C",
      "360C",
      "360C",
      "360C",
      "360C",
      "360",
      "360",
      "360",
      "360",
      "360",
      "366",
      "368",
      "371",
      "371",
      "374",
      "377",
      "379C",
      "380C",
      "380C",
      "380C",
      "380C",
      "380C",
      "380C",
      "380C",
      "380C",
      "380C",
      "380C",
      "380C",
      "380C",
      "380C",
      "380C",
      "380C",
      "380C",
      "380C",
      "380C",
      "380C",
      "380C",
      "380C",
      "380C",
      "380C",
      "380C",
      "380C",
      "380C",
      "380C",
      "380C",
      "380C",
      "380C",
      "380C",
      "380C",
      "380C",
      "380C",
      "380C",
      "380C",
      "380C",
      "380C",
      "380C",
      "380C",
      "380C",
      "380C",
      "380C",
      "380C",
      "380C",
      "380C",
      "380C",
      "380C",
      "380C",
      "380C",
      "380C",
      "380C",
      "380C",
      "380C",
      "380C",
      "380C",
      "380C",
      "380C",
      "380C",
      "380C",
      "380C",
      "380C",
      "380C",
      "380C",
      "380C",
      "380C",
      "380C",
      "380C",
      "380C",
      "380C",
      "380C",
      "380C",
      "380C",
      "380C",
      "380C",
      "380C",
      "380C",
      "380C",
      "380C",
      "380C",
      "380C",
      "380C",
      "380C",
      "380C",
      "380C",
      "380C",
      "380C",
      "380C",
      "380C",
      "380C",
      "380C",
      "380C",
      "380C",
      "380C",
      "380C",
      "380C",
      "380C",
      "380C",
      "380C",
      "380C",
      "380C",
      "380C",
      "380C",
      "380C",
      "380C",
      "380C",
      "380C",
      "380C",
      "380C",
      "380C",
      "380C",
      "380C",
      "380C",
      "380C",
      "380C",
      "380C",
      "380C",
      "380C",
      "380C",
      "380C",
      "380C",
      "380C",
      "380C",
      "380C",
      "380C",
      "380C",
      "380C",
      "380C",
      "380C",
      "380C",
      "380C",
      "380C",
      "380C",
      "380C",
      "380C",
      "380C",
      "380C",
      "380C",
      "380C",
      "380C",
      "380C",
      "380C",
      "380C",
      "380C",
      "380C",
      "380C",
      "380C",
      "380C",
      "380C",
      "380C",
      "380C",
      "380C",
      "380C",
      "380C",
      "380C",
      "380C",
      "380C",
      "380C",
      "380C",
      "380C",
      "380C",
      "380C",
      "380C",
      "380C",
      "380C",
      "380C",
      "380C",
      "380C",
      "380C",
      "380C",
      "380C",
      "380C",
      "380C",
      "380C",
      "380C",
      "380C",
      "380C",
      "380C",
      "380C",
      "380C",
      "380C",
      "380C",
      "380C",
      "380C",
      "380C",
      "380C",
      "380C",
      "380C",
      "380C",
      "380",
      "380",
      "380",
      "380",
      "380",
      "380",
      "380",
      "386",
      "389C",
      "390C",
      "390C",
      "390C",
      "390C",
      "390C",
      "390C",
      "390C",
      "390C",
      "390C",
      "390C",
      "390C",
      "390C",
      "390C",
      "390C",
      "390C",
      "390C",
      "390C",
      "390C",
      "390C",
      "390C",
      "390C",
      "390C",
      "390C",
      "390C",
      "390C",
      "390C",
      "390C",
      "390C",
      "390C",
      "390C",
      "390C",
      "390C",
      "390C",
      "390C",
      "390C",
      "390C",
      "390C",
      "390C",
      "390C",
      "390C",
      "390C",
      "390C",
      "390C",
      "390C",
      "390C",
      "390C",
      "390C",
      "390C",
      "390C",
      "390C",
      "390C",
      "390C",
      "390C",
      "390C",
      "390C",
      "390C",
      "390C",
      "390C",
      "390C",
      "390C",
      "390C",
      "390C",
      "390C",
      "390C",
      "390C",
      "390C",
      "390C",
      "390C",
      "390C",
      "390C",
      "390C",
      "390C",
      "390C",
      "390C",
      "390C",
      "390C",
      "390C",
      "390C",
      "390C",
      "390C",
      "390C",
      "390C",
      "390C",
      "390C",
      "390C",
      "390C",
      "390C",
      "390C",
      "390C",
      "390C",
      "390C",
      "390C",
      "390C",
      "390C",
      "390C",
      "390C",
      "390C",
      "390C",
      "390C",
      "390C",
      "390C",
      "390C",
      "390C",
      "394",
      "400C",
      "400C",
      "388",
      "380C",
      "380C",
      "380C",
      "380C",
      "380C",
      "380C",
      "380C",
      "380C",
      "380C",
      "380C",
      "380C",
      "380C",
      "380C",
      "380C",
      "380C",
      "380C",
      "380C",
      "380C",
      "380C",
      "380C",
      "380C",
      "380C",
      "380",
      "379",
      "362",
      "345",
      "332",
      "321",
      "305",
      "290",
      "280",
      "261",
      "257",
      "234",
      "217",
      "213",
      "195",
      "192",
      "173",
      "170",
      "154",
      "150",
      "133",
      "119",
      "109",
      "100",
      "100",
      "100",
      "098",
      "096",
      "084",
      "076",
      "075",
      "069",
      "068",
      "062",
      "061",
      "048",
      "046",
      "038",
      "037",
      "031",
      "029",
      "020",
      "012",
      "005"
    ],
    "swim:geom": "path",
    "swim:speeds": [
      173,
      231,
      267,
      286,
      292,
      344,
      354,
      351,
      358,
      354,
      365,
      373,
      380,
      387,
      397,
      407,
      414,
      424,
      431,
      430,
      429,
      437,
      440,
      439,
      436,
      433,
      431,
      430,
      429,
      430,
      433,
      436,
      438,
      440,
      442,
      443,
      445,
      446,
      445,
      446,
      446,
      445,
      445,
      445,
      445,
      446,
      447,
      448,
      449,
      450,
      451,
      451,
      449,
      448,
      448,
      448,
      449,
      451,
      450,
      452,
      452,
      452,
      451,
      451,
      450,
      448,
      448,
      448,
      447,
      447,
      447,
      447,
      447,
      447,
      447,
      447,
      446,
      446,
      446,
      446,
      447,
      445,
      445,
      446,
      445,
      445,
      446,
      445,
      445,
      444,
      445,
      443,
      443,
      440,
      439,
      437,
      438,
      436,
      437,
      435,
      436,
      434,
      435,
      433,
      433,
      434,
      433,
      431,
      431,
      435,
      430,
      433,
      431,
      429,
      428,
      429,
      428,
      429,
      429,
      428,
      428,
      427,
      427,
      428,
      427,
      428,
      430,
      431,
      431,
      431,
      432,
      432,
      433,
      434,
      434,
      436,
      435,
      435,
      437,
      436,
      436,
      437,
      436,
      437,
      436,
      436,
      435,
      435,
      433,
      434,
      431,
      433,
      430,
      431,
      430,
      431,
      430,
      431,
      432,
      431,
      433,
      435,
      436,
      436,
      437,
      437,
      437,
      437,
      435,
      435,
      435,
      435,
      437,
      438,
      438,
      439,
      439,
      438,
      437,
      435,
      433,
      430,
      430,
      428,
      427,
      426,
      425,
      424,
      424,
      424,
      424,
      424,
      424,
      424,
      424,
      423,
      423,
      423,
      423,
      422,
      422,
      422,
      421,
      421,
      421,
      420,
      420,
      420,
      420,
      420,
      420,
      420,
      420,
      421,
      421,
      421,
      421,
      422,
      423,
      424,
      424,
      425,
      425,
      425,
      425,
      421,
      418,
      413,
      412,
      411,
      410,
      409,
      409,
      409,
      410,
      411,
      412,
      413,
      414,
      415,
      416,
      417,
      417,
      418,
      418,
      418,
      418,
      417,
      416,
      415,
      413,
      410,
      408,
      406,
      405,
      404,
      403,
      402,
      402,
      402,
      402,
      402,
      402,
      402,
      403,
      404,
      405,
      405,
      406,
      405,
      407,
      406,
      407,
      406,
      406,
      402,
      400,
      393,
      390,
      386,
      384,
      379,
      378,
      380,
      385,
      389,
      391,
      393,
      394,
      395,
      396,
      396,
      394,
      390,
      387,
      384,
      381,
      378,
      377,
      377,
      378,
      379,
      380,
      379,
      379,
      377,
      376,
      375,
      375,
      374,
      372,
      370,
      369,
      368,
      368,
      368,
      375,
      375,
      375,
      375,
      376,
      384,
      381,
      384,
      386,
      384,
      371,
      384,
      368,
      376,
      373,
      373,
      382,
      377,
      385,
      384,
      388,
      386,
      387,
      388,
      384,
      387,
      380,
      381,
      377,
      375,
      377,
      372,
      370,
      370,
      370,
      370,
      370,
      373,
      374,
      379,
      378,
      381,
      379,
      385,
      383,
      387,
      386,
      387,
      386,
      386,
      386,
      385,
      384,
      385,
      384,
      385,
      385,
      385,
      385,
      384,
      384,
      383,
      382,
      382,
      380,
      380,
      379,
      379,
      379,
      379,
      379,
      379,
      379,
      379,
      379,
      379,
      380,
      381,
      382,
      384,
      386,
      388,
      391,
      392,
      390,
      390,
      389,
      389,
      389,
      389,
      389,
      389,
      388,
      388,
      388,
      390,
      392,
      394,
      398,
      401,
      402,
      402,
      402,
      403,
      403,
      416,
      441,
      444,
      445,
      449,
      447,
      449,
      443,
      424,
      419,
      402,
      408,
      424,
      420,
      420,
      421,
      421,
      422,
      423,
      424,
      425,
      426,
      428,
      429,
      430,
      431,
      432,
      433,
      433,
      434,
      436,
      437,
      439,
      440,
      440,
      439,
      437,
      444,
      453,
      453,
      463,
      476,
      474,
      462,
      460,
      430,
      407,
      410,
      399,
      402,
      388,
      388,
      368,
      372,
      350,
      328,
      275,
      248,
      251,
      245,
      260,
      259,
      259,
      244,
      248,
      227,
      230,
      227,
      229,
      228,
      225,
      214,
      218,
      187,
      190,
      183,
      142,
      134
    ],
    "swim:timestamps": [
      1790610901,
      1790610970,
      1790611030,
      1790611090,
      1790611150,
      1790611210,
      1790611256,
      1790611271,
      1790611316,
      1790611331,
      1790611391,
      1790611511,
      1790611571,
      1790611631,
      1790611691,
      1790611751,
      1790611811,
      1790611871,
      1790611932,
      1790611992,
      1790612052,
      1790612112,
      1790612172,
      1790612232,
      1790612292,
      1790612352,
      1790612412,
      1790612472,
      1790612532,
      1790612593,
      1790612713,
      1790612773,
      1790612833,
      1790612893,
      1790612953,
      1790613013,
      1790613076,
      1790613136,
      1790613185,
      1790613196,
      1790613256,
      1790613316,
      1790613376,
      1790613436,
      1790613496,
      1790613556,
      1790613606,
      1790613666,
      1790613737,
      1790613797,
      1790613846,
      1790613857,
      1790613906,
      1790613977,
      1790614027,
      1790614037,
      1790614097,
      1790614147,
      1790614157,
      1790614207,
      1790614267,
      1790614278,
      1790614327,
      1790614338,
      1790614398,
      1790614458,
      1790614507,
      1790614518,
      1790614567,
      1790614578,
      1790614627,
      1790614687,
      1790614698,
      1790614748,
      1790614759,
      1790614819,
      1790614868,
      1790614879,
      1790614928,
      1790614939,
      1790614959,
      1790614988,
      1790614999,
      1790615019,
      1790615048,
      1790615059,
      1790615080,
      1790615108,
      1790615140,
      1790615168,
      1790615200,
      1790615228,
      1790615260,
      1790615288,
      1790615320,
      1790615348,
      1790615380,
      1790615409,
      1790615440,
      1790615469,
      1790615500,
      1790615529,
      1790615560,
      1790615589,
      1790615613,
      1790615621,
      1790615681,
      1790615733,
      1790615793,
      1790615830,
      1790615853,
      1790615890,
      1790615897,
      1790615913,
      1790615950,
      1790615973,
      1790616010,
      1790616017,
      1790616033,
      1790616077,
      1790616094,
      1790616138,
      1790616154,
      1790616191,
      1790616198,
      1790616214,
      1790616258,
      1790616274,
      1790616311,
      1790616330,
      1790616371,
      1790616390,
      1790616431,
      1790616454,
      1790616491,
      1790616514,
      1790616551,
      1790616558,
      1790616574,
      1790616611,
      1790616618,
      1790616634,
      1790616678,
      1790616695,
      1790616739,
      1790616755,
      1790616804,
      1790616815,
      1790616859,
      1790616875,
      1790616924,
      1790616935,
      1790616984,
      1790616995,
      1790617044,
      1790617055,
      1790617104,
      1790617115,
      1790617164,
      1790617175,
      1790617224,
      1790617284,
      1790617344,
      1790617404,
      1790617465,
      1790617525,
      1790617585,
      1790617645,
      1790617705,
      1790617765,
      1790617825,
      1790617885,
      1790617945,
      1790618005,
      1790618065,
      1790618125,
      1790618186,
      1790618246,
      1790618306,
      1790618366,
      1790618426,
      1790618450,
      1790618486,
      1790618510,
      1790618546,
      1790618570,
      1790618630,
      1790618666,
      1790618690,
      1790618726,
      1790618750,
      1790618787,
      1790618810,
      1790618847,
      1790618870,
      1790618907,
      1790618930,
      1790618967,
      1790618991,
      1790619027,
      1790619051,
      1790619087,
      1790619111,
      1790619147,
      1790619171,
      1790619207,
      1790619231,
      1790619267,
      1790619291,
      1790619327,
      1790619351,
      1790619387,
      1790619411,
      1790619447,
      1790619471,
      1790619508,
      1790619531,
      1790619565,
      1790619591,
      1790619625,
      1790619651,
      1790619685,
      1790619712,
      1790619745,
      1790619772,
      1790619805,
      1790619832,
      1790619865,
      1790619892,
      1790619925,
      1790619952,
      1790619985,
      1790620012,
      1790620045,
      1790620072,
      1790620105,
      1790620132,
      1790620165,
      1790620192,
      1790620226,
      1790620252,
      1790620286,
      1790620312,
      1790620346,
      1790620372,
      1790620406,
      1790620433,
      1790620466,
      1790620493,
      1790620526,
      1790620553,
      1790620586,
      1790620613,
      1790620646,
      1790620673,
      1790620706,
      1790620733,
      1790620766,
      1790620781,
      1790620793,
      1790620827,
      1790620841,
      1790620853,
      1790620887,
      1790620901,
      1790620947,
      1790620961,
      1790621007,
      1790621021,
      1790621067,
      1790621081,
      1790621127,
      1790621141,
      1790621187,
      1790621201,
      1790621247,
      1790621261,
      1790621307,
      1790621322,
      1790621367,
      1790621382,
      1790621442,
      1790621502,
      1790621562,
      1790621622,
      1790621682,
      1790621742,
      1790621802,
      1790621862,
      1790621922,
      1790621982,
      1790622043,
      1790622103,
      1790622163,
      1790622223,
      1790622283,
      1790622343,
      1790622403,
      1790622463,
      1790622523,
      1790622583,
      1790622643,
      1790622703,
      1790622764,
      1790622824,
      1790622884,
      1790622944,
      1790623004,
      1790623064,
      1790623124,
      1790623184,
      1790623244,
      1790623304,
      1790623364,
      1790623424,
      1790623485,
      1790623555,
      1790623615,
      1790623665,
      1790623675,
      1790623735,
      1790623785,
      1790623795,
      1790623855,
      1790623905,
      1790623916,
      1790623965,
      1790623976,
      1790624025,
      1790624036,
      1790624085,
      1790624096,
      1790624145,
      1790624156,
      1790624206,
      1790624216,
      1790624266,
      1790624276,
      1790624326,
      1790624336,
      1790624386,
      1790624396,
      1790624446,
      1790624456,
      1790624506,
      1790624566,
      1790624576,
      1790624626,
      1790624637,
      1790624686,
      1790624697,
      1790624746,
      1790624757,
      1790624806,
      1790624877,
      1790624927,
      1790624937,
      1790624987,
      1790624997,
      1790625047,
      1790625057,
      1790625107,
      1790625117,
      1790625167,
      1790625177,
      1790625227,
      1790625237,
      1790625287,
      1790625297,
      1790625347,
      1790625357,
      1790625407,
      1790625418,
      1790625467,
      1790625478,
      1790625527,
      1790625538,
      1790625598,
      1790625648,
      1790625658,
      1790625708,
      1790625718,
      1790625768,
      1790625778,
      1790625828,
      1790625838,
      1790625888,
      1790625898,
      1790625948,
      1790625958,
      1790626008,
      1790626018,
      1790626068,
      1790626078,
      1790626139,
      1790626199,
      1790626259,
      1790626319,
      1790626379,
      1790626439,
      1790626499,
      1790626559,
      1790626619,
      1790626679,
      1790626739,
      1790626799,
      1790626859,
      1790626920,
      1790626980,
      1790627040,
      1790627100,
      1790627160,
      1790627220,
      1790627280,
      1790627340,
      1790627460,
      1790627520,
      1790627580,
      1790627641,
      1790627701,
      1790627761,
      1790627821,
      1790627881,
      1790627941,
      1790628001,
      1790628049,
      1790628061,
      1790628121,
      1790628181,
      1790628241,
      1790628301,
      1790628361,
      1790628422,
      1790628493,
      1790628553,
      1790628613,
      1790628674,
      1790628722,
      1790628734,
      1790628794,
      1790628854,
      1790628914,
      1790628974,
      1790629034,
      1790629094,
      1790629154,
      1790629214,
      1790629274,
      1790629334,
      1790629395,
      1790629455,
      1790629515,
      1790629575,
      1790629635,
      1790629695,
      1790629755,
      1790629815,
      1790629875,
      1790629935,
      1790629995,
      1790630055,
      1790630116,
      1790630176,
      1790630236,
      1790630278,
      1790630296,
      1790630356,
      1790630399,
      1790630416,
      1790630458,
      1790630476,
      1790630519,
      1790630536,
      1790630579,
      1790630596,
      1790630656,
      1790630716,
      1790630765,
      1790630825,
      1790630837,
      1790630897,
      1790630945,
      1790630957,
      1790631017,
      1790631065,
      1790631077,
      1790631125,
      1790631137,
      1790631185,
      1790631197,
      1790631245,
      1790631257,
      1790631306,
      1790631317,
      1790631365,
      1790631377,
      1790631437,
      1790631498,
      1790631558
    ],
    "wof:geomhash": "5f8326458c1493357623a8cd5c516c2e",
    "wof:id": 2048456417,
    "wof:repo": "sfomuseum-data-flights-2026-09"
  },
  "bbox": [
    -122.33722222222222,
    37.43333333333333,
    -73.65583333333333,
    40.66305555555555
  ],
  "geometry": {"type":"LineString","coordinates":[[-73.76666666666667,40.65],[-73.705,40.66305555555555],[-73.67500000000001,40.593333333333334],[-73.65583333333333,40.51722222222222],[-73.72833333333334,40.462500000000006],[-73.84166666666667,40.42583333333333],[-73.93333333333334,40.4],[-73.96027777777778,40.385555555555555],[-74.05,40.35],[-74.08,40.344722222222224],[-74.20027777777779,40.30361111111111],[-74.44916666666667,40.21805555555556],[-74.585,40.19444444444444],[-74.72500000000001,40.18444444444444],[-74.86722222222221,40.17305555555555],[-75.00861111111111,40.16138888888889],[-75.15833333333335,40.149166666666666],[-75.30888888888889,40.13638888888889],[-75.46555555555555,40.12305555555555],[-75.61777777777777,40.109722222222224],[-75.7713888888889,40.09638888888889],[-75.93,40.08222222222223],[-76.08833333333332,40.06777777777778],[-76.24472222222222,40.06638888888889],[-76.39305555555556,40.066944444444445],[-76.5475,40.06583333333333],[-76.70444444444445,40.066944444444445],[-76.85888888888888,40.0675],[-77.01333333333334,40.06805555555556],[-77.16916666666667,40.068333333333335],[-77.48166666666667,40.06861111111112],[-77.64,40.068333333333335],[-77.825,40.0675],[-77.98666666666666,40.066944444444445],[-78.15333333333334,40.06583333333333],[-78.30527777777777,40.06472222222222],[-78.47083333333333,40.06333333333333],[-78.63166666666666,40.06166666666666],[-78.75444444444445,40.06027777777778],[-78.795,40.05972222222222],[-78.95722222222223,40.0575],[-79.11805555555554,40.055277777777775],[-79.27722222222222,40.05277777777778],[-79.44055555555556,40.05],[-79.60111111111111,40.047777777777775],[-79.76444444444445,40.05027777777777],[-79.88472222222222,40.05305555555555],[-80.04972222222221,40.056666666666665],[-80.25805555555556,40.06055555555555],[-80.38833333333334,40.062777777777775],[-80.55388888888889,40.06527777777777],[-80.55388888888889,40.06527777777777],[-80.71666666666667,40.0675],[-80.8786111111111,40.069722222222225],[-81.04222222222222,40.07138888888889],[-81.04222222222222,40.07138888888889],[-81.20444444444445,40.073055555555555],[-81.36777777777777,40.074444444444445],[-81.36777777777777,40.074444444444445],[-81.53388888888888,40.07555555555556],[-81.69944444444445,40.07638888888889],[-81.69666666666667,40.07638888888889],[-81.8536111111111,40.077222222222225],[-81.87222222222222,40.077222222222225],[-82.03388888888888,40.0775],[-82.19500000000001,40.07777777777778],[-82.33694444444444,40.07777777777778],[-82.35833333333333,40.07777777777778],[-82.50083333333333,40.0775],[-82.51888888888888,40.0775],[-82.66027777777778,40.077222222222225],[-82.83333333333333,40.07638888888889],[-82.84138888888889,40.07638888888889],[-82.99277777777777,40.07555555555556],[-83.00361111111111,40.07555555555556],[-83.16388888888889,40.074444444444445],[-83.31555555555555,40.073055555555555],[-83.32333333333332,40.073055555555555],[-83.47555555555556,40.07138888888889],[-83.48138888888889,40.07138888888889],[-83.56611111111111,40.07027777777778],[-83.63611111111112,40.069722222222225],[-83.63861111111112,40.06944444444445],[-83.72805555555556,40.068333333333335],[-83.79861111111111,40.0675],[-83.83027777777778,40.06722222222223],[-83.88583333333334,40.06638888888889],[-83.95972222222223,40.06527777777777],[-84.0425,40.064166666666665],[-84.11861111111111,40.062777777777775],[-84.20194444444445,40.061388888888885],[-84.27805555555555,40.06027777777778],[-84.36166666666666,40.058611111111105],[-84.4375,40.05722222222222],[-84.52166666666666,40.05555555555555],[-84.59444444444443,40.05416666666667],[-84.67666666666668,40.052499999999995],[-84.75138888888888,40.05083333333333],[-84.8325,40.049166666666665],[-84.90805555555556,40.0475],[-84.99,40.04555555555555],[-85.05361111111111,40.04416666666666],[-85.14416666666668,40.04194444444444],[-85.21055555555556,40.040277777777774],[-85.29027777777777,40.03805555555555],[-85.30305555555556,40.03777777777778],[-85.45694444444445,40.03361111111111],[-85.60027777777778,40.02972222222222],[-85.75527777777778,40.025],[-85.82722222222222,40.02305555555555],[-85.91000000000001,40.02027777777778],[-85.98222222222222,40.01833333333333],[-86.01333333333334,40.01694444444444],[-86.06444444444445,40.015277777777776],[-86.13527777777779,40.01166666666666],[-86.21888888888888,40.01],[-86.29166666666667,40.00805555555556],[-86.32222222222222,40.006388888888885],[-86.37027777777777,40.00472222222222],[-86.4725,40.00111111111111],[-86.52555555555556,39.99916666666667],[-86.62583333333333,39.99527777777778],[-86.67972222222222,39.99333333333333],[-86.755,39.99055555555556],[-86.74638888888889,39.99055555555556],[-86.83416666666666,39.98722222222222],[-86.93527777777778,39.983333333333334],[-86.98972222222223,39.98111111111111],[-87.06694444444445,39.97777777777778],[-87.12194444444444,39.97555555555556],[-87.22277777777778,39.97138888888889],[-87.27555555555556,39.96888888888889],[-87.38277777777778,39.964444444444446],[-87.46694444444445,39.96055555555556],[-87.53611111111111,39.9575],[-87.62583333333333,39.95333333333333],[-87.69444444444444,39.95],[-87.71638888888889,39.94888888888889],[-87.78305555555555,39.94583333333333],[-87.87916666666666,39.941111111111105],[-87.87416666666665,39.94138888888889],[-87.94027777777778,39.93833333333333],[-88.03361111111111,39.933611111111105],[-88.09805555555555,39.930277777777775],[-88.19194444444445,39.925555555555555],[-88.25361111111111,39.92222222222222],[-88.38166666666666,39.91583333333333],[-88.39111111111112,39.915277777777774],[-88.505,39.909166666666664],[-88.54944444444445,39.906666666666666],[-88.69250000000001,39.89888888888889],[-88.70083333333334,39.89833333333333],[-88.84638888888888,39.890277777777776],[-88.85527777777777,39.88972222222222],[-89,39.88138888888889],[-89.01277777777777,39.88055555555555],[-89.15666666666667,39.871944444444445],[-89.16666666666667,39.87138888888889],[-89.31166666666667,39.86277777777778],[-89.32472222222222,39.86194444444445],[-89.46944444444445,39.85277777777778],[-89.6286111111111,39.84277777777778],[-89.78555555555555,39.83888888888889],[-89.91194444444444,39.83833333333334],[-90.07055555555556,39.83722222222222],[-90.23083333333334,39.83583333333333],[-90.38833333333334,39.83416666666667],[-90.54416666666667,39.83222222222223],[-90.70194444444445,39.83027777777778],[-90.86027777777777,39.82805555555556],[-91.01361111111112,39.82555555555556],[-91.1725,39.82277777777778],[-91.32944444444443,39.82],[-91.48916666666666,39.816944444444445],[-91.64666666666668,39.81361111111111],[-91.80749999999999,39.80972222222222],[-91.96472222222222,39.80611111111111],[-92.12388888888889,39.80222222222222],[-92.28166666666667,39.797777777777775],[-92.43777777777778,39.79361111111111],[-92.59472222222222,39.788888888888884],[-92.68611111111112,39.78611111111111],[-92.74916666666667,39.784166666666664],[-92.8411111111111,39.78138888888889],[-92.90194444444445,39.77916666666667],[-92.995,39.77611111111111],[-93.11611111111111,39.77222222222222],[-93.2075,39.76888888888889],[-93.27,39.766666666666666],[-93.36166666666666,39.763333333333335],[-93.42277777777778,39.76111111111111],[-93.4825,39.75888888888889],[-93.57472222222222,39.75527777777778],[-93.6675,39.751666666666665],[-93.72722222222222,39.74944444444444],[-93.82638888888889,39.74527777777778],[-93.87972222222221,39.74333333333333],[-93.97722222222222,39.73916666666667],[-94.03111111111112,39.73694444444445],[-94.13027777777778,39.7325],[-94.18361111111112,39.73027777777778],[-94.28111111111112,39.726111111111116],[-94.33638888888889,39.72361111111111],[-94.43166666666667,39.719166666666666],[-94.4863888888889,39.71666666666667],[-94.58166666666666,39.71222222222222],[-94.63666666666667,39.709722222222226],[-94.73194444444445,39.705000000000005],[-94.78694444444444,39.702222222222225],[-94.88222222222221,39.69777777777777],[-94.93916666666667,39.69472222222222],[-95.03166666666667,39.69],[-95.08944444444444,39.68722222222222],[-95.18277777777779,39.68222222222222],[-95.24277777777777,39.67916666666667],[-95.33166666666666,39.67444444444444],[-95.39555555555556,39.670833333333334],[-95.48222222222222,39.66611111111111],[-95.55,39.6625],[-95.63388888888889,39.657777777777774],[-95.7025,39.653888888888886],[-95.78583333333333,39.649166666666666],[-95.85722222222222,39.644999999999996],[-95.93805555555556,39.640277777777776],[-96.00833333333334,39.63611111111111],[-96.08805555555556,39.63138888888889],[-96.15722222222223,39.62694444444445],[-96.23694444444445,39.62222222222222],[-96.30361111111111,39.61805555555556],[-96.38194444444444,39.613055555555555],[-96.45111111111112,39.60861111111111],[-96.52777777777777,39.60388888888889],[-96.59805555555555,39.599444444444444],[-96.70222222222222,39.5925],[-96.74472222222222,39.58972222222222],[-96.84972222222221,39.58277777777778],[-96.89222222222223,39.580000000000005],[-96.98555555555555,39.57361111111111],[-97.04277777777777,39.569722222222225],[-97.13416666666667,39.56333333333333],[-97.19222222222223,39.55916666666666],[-97.28416666666666,39.55277777777778],[-97.34305555555555,39.54861111111111],[-97.43388888888889,39.54222222222222],[-97.4925,39.53777777777778],[-97.58361111111111,39.53138888888889],[-97.64111111111112,39.526944444444446],[-97.7325,39.52027777777778],[-97.79583333333333,39.51555555555556],[-97.87944444444443,39.509166666666665],[-97.94111111111111,39.504444444444445],[-98.02388888888889,39.49944444444444],[-98.08805555555556,39.49722222222222],[-98.1675,39.495],[-98.23194444444445,39.49333333333333],[-98.31027777777777,39.490833333333335],[-98.37527777777777,39.48888888888889],[-98.45583333333333,39.48638888888889],[-98.49055555555556,39.48527777777778],[-98.51972222222223,39.48444444444444],[-98.6061111111111,39.481388888888894],[-98.635,39.480555555555554],[-98.66611111111112,39.47944444444445],[-98.75,39.47666666666667],[-98.78166666666667,39.47555555555556],[-98.89472222222223,39.47166666666667],[-98.92611111111111,39.470555555555556],[-99.04277777777777,39.46638888888889],[-99.0736111111111,39.46527777777778],[-99.18861111111111,39.46083333333333],[-99.21916666666667,39.459722222222226],[-99.33666666666666,39.455000000000005],[-99.35944444444443,39.45416666666667],[-99.47916666666667,39.44944444444444],[-99.5038888888889,39.44833333333333],[-99.62194444444444,39.44361111111111],[-99.64833333333334,39.442499999999995],[-99.765,39.4375],[-99.78666666666666,39.43666666666666],[-99.90305555555557,39.43138888888889],[-99.92472222222223,39.43055555555555],[-100.05888888888889,39.42444444444444],[-100.19333333333334,39.41833333333333],[-100.33055555555555,39.41166666666666],[-100.47027777777778,39.405],[-100.6111111111111,39.39805555555556],[-100.75333333333333,39.39083333333333],[-100.89361111111111,39.38333333333333],[-101.0363888888889,39.37583333333333],[-101.17777777777778,39.36805555555556],[-101.32111111111111,39.36],[-101.46138888888889,39.35194444444445],[-101.60083333333333,39.34388888888889],[-101.74055555555556,39.33555555555556],[-101.87638888888888,39.327222222222225],[-102.02777777777777,39.31777777777778],[-102.16166666666668,39.309444444444445],[-102.29666666666667,39.30083333333333],[-102.42861111111111,39.29222222222222],[-102.56277777777777,39.283055555555556],[-102.69861111111112,39.27388888888889],[-102.8436111111111,39.263888888888886],[-102.97888888888889,39.254444444444445],[-103.11305555555555,39.24472222222222],[-103.24833333333333,39.235],[-103.38138888888888,39.22527777777778],[-103.51388888888889,39.215],[-103.64861111111112,39.205000000000005],[-103.78111111111112,39.19472222222222],[-103.91444444444446,39.18416666666666],[-104.04555555555555,39.17361111111111],[-104.17777777777778,39.16305555555555],[-104.28166666666667,39.154444444444444],[-104.41277777777778,39.14361111111111],[-104.54277777777777,39.132777777777775],[-104.67611111111111,39.12138888888889],[-104.84305555555555,39.10444444444445],[-104.97527777777778,39.09277777777778],[-105.07555555555555,39.08638888888889],[-105.10972222222222,39.08166666666667],[-105.24555555555555,39.07055555555556],[-105.34861111111111,39.06166666666666],[-105.38277777777778,39.05777777777777],[-105.52055555555556,39.04472222222222],[-105.62277777777777,39.03611111111111],[-105.65694444444445,39.030277777777776],[-105.75638888888889,39.02361111111111],[-105.78972222222222,39.01722222222222],[-105.88611111111112,39.01111111111111],[-105.91888888888889,39.00527777777778],[-106.01833333333333,38.99916666666667],[-106.05055555555555,38.99472222222222],[-106.15611111111112,38.99166666666667],[-106.18777777777778,38.98972222222222],[-106.29722222222222,38.98388888888889],[-106.32583333333334,38.98222222222223],[-106.43833333333333,38.976111111111116],[-106.46583333333334,38.973333333333336],[-106.57583333333334,38.968333333333334],[-106.60333333333332,38.96555555555556],[-106.70916666666668,38.96055555555556],[-106.73833333333333,38.95777777777778],[-106.84555555555555,38.952222222222225],[-106.87222222222222,38.94916666666666],[-106.97611111111111,38.94444444444444],[-107.10888888888888,38.936388888888885],[-107.1375,38.93277777777777],[-107.24138888888889,38.92805555555555],[-107.26694444444445,38.92583333333333],[-107.37083333333332,38.91972222222222],[-107.39944444444446,38.91611111111111],[-107.50166666666667,38.91111111111111],[-107.53027777777778,38.907777777777774],[-107.6363888888889,38.90222222222222],[-107.79888888888888,38.88944444444444],[-107.90666666666667,38.88388888888889],[-107.935,38.88111111111111],[-108.0436111111111,38.87416666666667],[-108.07222222222222,38.87083333333334],[-108.18138888888889,38.864444444444445],[-108.21027777777778,38.861666666666665],[-108.31861111111111,38.85444444444445],[-108.34916666666666,38.85194444444445],[-108.45805555555556,38.84444444444445],[-108.48722222222223,38.841944444444444],[-108.59416666666667,38.83416666666667],[-108.62333333333332,38.83111111111111],[-108.73083333333334,38.823888888888895],[-108.75777777777778,38.82166666666667],[-108.86638888888888,38.81333333333333],[-108.89472222222223,38.81111111111111],[-109.005,38.802499999999995],[-109.03194444444445,38.80027777777777],[-109.14111111111112,38.791666666666664],[-109.16666666666667,38.78972222222222],[-109.27527777777777,38.780833333333334],[-109.30361111111111,38.77861111111111],[-109.4388888888889,38.7675],[-109.54555555555555,38.75861111111111],[-109.57249999999999,38.756388888888885],[-109.68,38.74722222222222],[-109.70722222222223,38.745],[-109.81333333333333,38.736111111111114],[-109.83999999999999,38.73361111111111],[-109.94777777777779,38.724444444444444],[-109.97472222222223,38.721944444444446],[-110.08083333333333,38.71277777777778],[-110.10777777777777,38.71027777777778],[-110.21638888888889,38.70055555555556],[-110.24305555555556,38.69833333333333],[-110.34972222222221,38.68861111111111],[-110.3761111111111,38.686388888888885],[-110.48361111111112,38.67638888888889],[-110.51222222222222,38.67388888888889],[-110.64611111111111,38.66138888888889],[-110.78333333333333,38.64861111111111],[-110.91972222222223,38.635555555555555],[-111.06805555555555,38.62138888888889],[-111.20555555555556,38.60805555555556],[-111.34388888888888,38.594166666666666],[-111.48,38.58083333333334],[-111.61694444444444,38.566944444444445],[-111.75222222222222,38.55305555555555],[-111.88777777777779,38.538888888888884],[-112.0261111111111,38.52444444444444],[-112.16194444444444,38.51],[-112.29666666666667,38.495555555555555],[-112.43277777777779,38.48083333333334],[-112.56972222222223,38.465833333333336],[-112.7038888888889,38.45111111111111],[-112.83972222222222,38.43583333333333],[-112.97638888888889,38.42027777777778],[-113.11333333333333,38.40472222222222],[-113.25138888888888,38.388888888888886],[-113.39083333333333,38.3725],[-113.6713888888889,38.33916666666667],[-113.81138888888889,38.32222222222222],[-113.9525,38.305277777777775],[-114.09222222222222,38.28805555555555],[-114.23222222222222,38.27055555555555],[-114.37194444444444,38.25361111111111],[-114.51666666666667,38.26416666666667],[-114.64805555555556,38.328611111111115],[-114.76916666666666,38.407222222222224],[-114.89416666666668,38.48638888888889],[-114.99305555555556,38.55027777777777],[-115.01638888888888,38.565555555555555],[-115.13944444444445,38.644444444444446],[-115.28722222222223,38.683055555555555],[-115.42944444444444,38.64861111111111],[-115.5675,38.608333333333334],[-115.69944444444445,38.56944444444445],[-115.83111111111111,38.530833333333334],[-116.00305555555556,38.480000000000004],[-116.14083333333333,38.43833333333333],[-116.28027777777778,38.39888888888889],[-116.42361111111111,38.363055555555555],[-116.53527777777778,38.33388888888889],[-116.56444444444445,38.32638888888889],[-116.70833333333334,38.288333333333334],[-116.84944444444444,38.25111111111111],[-116.99388888888889,38.21277777777778],[-117.12638888888888,38.177499999999995],[-117.26916666666666,38.13944444444444],[-117.41444444444446,38.1],[-117.55499999999999,38.06194444444444],[-117.6975,38.02305555555555],[-117.84527777777777,37.995],[-117.99833333333333,37.97916666666667],[-118.15,37.96333333333334],[-118.30166666666666,37.94694444444444],[-118.4538888888889,37.930277777777775],[-118.60777777777777,37.91305555555555],[-118.76027777777777,37.89611111111111],[-118.915,37.87861111111111],[-119.06972222222223,37.86083333333333],[-119.22305555555556,37.843333333333334],[-119.37333333333332,37.82555555555556],[-119.52916666666667,37.80694444444444],[-119.68666666666667,37.788333333333334],[-119.84527777777777,37.76888888888889],[-120.00777777777778,37.74888888888889],[-120.1725,37.72833333333333],[-120.33777777777777,37.7075],[-120.46666666666667,37.68333333333333],[-120.49638888888889,37.68805555555555],[-120.64944444444446,37.67055555555555],[-120.76666666666667,37.65],[-120.79027777777777,37.653888888888886],[-120.9,37.63333333333333],[-120.92944444444444,37.63722222222222],[-121.05,37.61666666666667],[-121.06583333333333,37.619166666666665],[-121.16666666666667,37.6],[-121.19861111111112,37.60138888888889],[-121.32333333333332,37.58527777777778],[-121.43944444444445,37.572500000000005],[-121.53333333333333,37.56666666666667],[-121.61666666666666,37.55],[-121.6261111111111,37.561388888888885],[-121.7,37.593333333333334],[-121.75,37.56666666666667],[-121.75861111111111,37.54972222222222],[-121.78083333333333,37.47888888888889],[-121.81666666666666,37.43333333333333],[-121.83694444444444,37.43472222222222],[-121.9,37.45],[-121.90916666666668,37.46055555555556],[-121.96666666666667,37.483333333333334],[-121.9786111111111,37.49111111111111],[-122.05,37.516666666666666],[-122.05166666666666,37.51555555555556],[-122.11666666666666,37.53333333333333],[-122.1211111111111,37.53777777777778],[-122.18333333333334,37.55],[-122.185,37.55833333333333],[-122.245,37.57777777777778],[-122.29305555555555,37.592222222222226],[-122.33722222222222,37.605555555555554]]}
}
