{
  "id": 2048297341,
  "type": "Feature",
  "properties": {
    "geom:area": 0,
    "geom:bbox": "-122.526330,37.625390,-122.001020,38.518000",
    "geom:latitude": 38.05159448774769,
    "geom:longitude": -122.30811909900937,
    "src:alt_label": "swim-takeoff",
    "src:geom": "swim",
    "swim:elevations": [
      122,
      554,
      638,
      1046,
      1125,
      1416,
      1656,
      2052,
      2357,
      2508,
      3098,
      3265,
      3344,
      3671,
      3880,
      4101,
      4309,
      5001,
      5421,
      5711,
      6232,
      6431,
      6671,
      6867,
      7212,
      7275
    ],
    "swim:geom": "takeoff",
    "swim:timestamps": [
      1789020580,
      1789020621,
      1789020639,
      1789020687,
      1789020699,
      1789020736,
      1789020760,
      1789020801,
      1789020829,
      1789020842,
      1789020898,
      1789020924,
      1789020939,
      1789020970,
      1789020987,
      1789021005,
      1789021020,
      1789021068,
      1789021098,
      1789021117,
      1789021164,
      1789021195,
      1789021227,
      1789021251,
      1789021287,
      1789021293
    ],
    "wof:geomhash": "57268fc498f593dda79930efcc7b8373",
    "wof:id": 2048297341,
    "wof:repo": "sfomuseum-data-flights-2026-09"
  },
  "bbox": [
    -122.52633,
    37.62539,
    -122.00102,
    38.518
  ],
  "geometry": {"type":"LineString","coordinates":[[-122.39094,37.62539],[-122.42789,37.64173],[-122.44567,37.64969],[-122.49936,37.67203],[-122.51252,37.67991],[-122.52491,37.72077],[-122.52633,37.75104],[-122.51632,37.80146],[-122.47806,37.82209],[-122.45765,37.82926],[-122.39974,37.89163],[-122.37729,37.92631],[-122.3636,37.9476],[-122.34009,37.99428],[-122.32704,38.02249],[-122.31364,38.05126],[-122.30228,38.07552],[-122.2652,38.15439],[-122.24196,38.20362],[-122.22725,38.23483],[-122.18552,38.31042],[-122.14365,38.35757],[-122.09902,38.40845],[-122.06394,38.44812],[-122.01004,38.50786],[-122.00102,38.518]]}
}
