{
  "id": 2048426159,
  "type": "Feature",
  "properties": {
    "geom:area": 0,
    "geom:bbox": "-122.584600,37.111390,-121.252070,37.670100",
    "geom:latitude": 37.36053494451293,
    "geom:longitude": -122.02557740379723,
    "src:alt_label": "swim-takeoff",
    "src:geom": "swim",
    "swim:elevations": [
      122,
      1020,
      1119,
      1218,
      1621,
      2210,
      2597,
      3090,
      3187,
      3465,
      3795,
      4067,
      4346,
      4982,
      5044,
      5297,
      5794,
      6269,
      7111,
      7177,
      7398,
      7636,
      8012,
      8209,
      8392,
      8706,
      8827,
      8958,
      9349
    ],
    "swim:geom": "takeoff",
    "swim:timestamps": [
      1790240109,
      1790240174,
      1790240185,
      1790240203,
      1790240242,
      1790240271,
      1790240301,
      1790240334,
      1790240342,
      1790240361,
      1790240391,
      1790240411,
      1790240439,
      1790240503,
      1790240507,
      1790240524,
      1790240566,
      1790240611,
      1790240694,
      1790240700,
      1790240722,
      1790240746,
      1790240785,
      1790240812,
      1790240836,
      1790240878,
      1790240896,
      1790240917,
      1790240957
    ],
    "wof:geomhash": "d7af3c21c522762f4872e634a59f5133",
    "wof:id": 2048426159,
    "wof:repo": "sfomuseum-data-flights-2026-09"
  },
  "bbox": [
    -122.5846,
    37.11139,
    -121.25207,
    37.6701
  ],
  "geometry": {"type":"LineString","coordinates":[[-122.38689,37.62375],[-122.44724,37.64992],[-122.45921,37.65522],[-122.48089,37.66366],[-122.53656,37.6701],[-122.5735,37.64973],[-122.5846,37.61496],[-122.56909,37.57402],[-122.56505,37.56391],[-122.55506,37.53842],[-122.52097,37.50393],[-122.48381,37.49602],[-122.42841,37.48562],[-122.29063,37.4548],[-122.28276,37.45306],[-122.24554,37.4449],[-122.15444,37.41809],[-122.0677,37.36914],[-121.90241,37.27405],[-121.88993,37.26692],[-121.8457,37.24195],[-121.7963,37.21446],[-121.70699,37.17895],[-121.63785,37.16751],[-121.57404,37.15886],[-121.46285,37.14288],[-121.41665,37.13595],[-121.35861,37.12722],[-121.25207,37.11139]]}
}
