{
  "id": 2048469007,
  "type": "Feature",
  "properties": {
    "geom:area": 0,
    "geom:bbox": "-122.550000,33.950000,-118.215278,37.733333",
    "geom:latitude": 35.78924030334128,
    "geom:longitude": -120.41112714150053,
    "src:alt_label": "swim-path",
    "src:geom": "swim",
    "swim:altitudes": [
      "014",
      "020",
      "031",
      "035",
      "058",
      "064",
      "077",
      "089",
      "101",
      "107",
      "122",
      "148",
      "171",
      "201",
      "222",
      "245",
      "262",
      "270C",
      "270C",
      "270C",
      "270C",
      "270C",
      "270C",
      "270C",
      "270C",
      "270C",
      "270C",
      "270C",
      "270C",
      "270C",
      "270C",
      "270C",
      "270C",
      "270C",
      "270C",
      "270",
      "270",
      "270",
      "270",
      "270",
      "270",
      "270",
      "258",
      "233",
      "211",
      "208",
      "189",
      "188",
      "169",
      "167",
      "149",
      "147",
      "132",
      "130",
      "124",
      "122",
      "109",
      "099",
      "098",
      "090",
      "079",
      "074",
      "064",
      "053",
      "045",
      "043",
      "035",
      "034",
      "027",
      "026",
      "021",
      "020",
      "014",
      "013",
      "007",
      "006"
    ],
    "swim:geom": "path",
    "swim:speeds": [
      167,
      186,
      229,
      251,
      270,
      283,
      297,
      307,
      312,
      335,
      340,
      345,
      366,
      380,
      391,
      394,
      410,
      421,
      422,
      422,
      421,
      421,
      421,
      422,
      423,
      423,
      423,
      423,
      424,
      426,
      427,
      426,
      427,
      429,
      431,
      432,
      433,
      434,
      434,
      434,
      435,
      435,
      438,
      445,
      434,
      437,
      423,
      426,
      410,
      413,
      399,
      401,
      377,
      379,
      333,
      334,
      321,
      277,
      279,
      215,
      204,
      199,
      197,
      201,
      201,
      201,
      174,
      176,
      141,
      144,
      128,
      133,
      127,
      130,
      134,
      131
    ],
    "swim:timestamps": [
      1790722827,
      1790722845,
      1790722887,
      1790722899,
      1790722947,
      1790722959,
      1790723007,
      1790723020,
      1790723067,
      1790723080,
      1790723127,
      1790723187,
      1790723248,
      1790723308,
      1790723368,
      1790723428,
      1790723488,
      1790723548,
      1790723608,
      1790723668,
      1790723728,
      1790723788,
      1790723848,
      1790723908,
      1790723968,
      1790724029,
      1790724089,
      1790724149,
      1790724209,
      1790724269,
      1790724329,
      1790724389,
      1790724449,
      1790724514,
      1790724569,
      1790724629,
      1790724689,
      1790724749,
      1790724810,
      1790724870,
      1790724930,
      1790724990,
      1790725050,
      1790725110,
      1790725165,
      1790725174,
      1790725226,
      1790725234,
      1790725285,
      1790725294,
      1790725346,
      1790725355,
      1790725406,
      1790725415,
      1790725466,
      1790725475,
      1790725535,
      1790725586,
      1790725595,
      1790725646,
      1790725715,
      1790725775,
      1790725835,
      1790725895,
      1790725946,
      1790725955,
      1790726007,
      1790726016,
      1790726066,
      1790726076,
      1790726122,
      1790726136,
      1790726187,
      1790726196,
      1790726247,
      1790726256
    ],
    "wof:geomhash": "90bd92e03546ae812a9d3ab003483188",
    "wof:id": 2048469007,
    "wof:repo": "sfomuseum-data-flights-2026-09"
  },
  "bbox": [
    -122.55,
    33.95,
    -118.21527777777779,
    37.733333333333334
  ],
  "geometry": {"type":"LineString","coordinates":[[-122.36194444444443,37.65222222222222],[-122.36666666666666,37.666666666666664],[-122.37416666666665,37.70638888888889],[-122.38333333333334,37.71666666666667],[-122.4588888888889,37.73111111111111],[-122.48333333333333,37.733333333333334],[-122.51444444444445,37.689722222222215],[-122.51666666666667,37.65],[-122.54027777777777,37.60416666666667],[-122.55,37.56666666666667],[-122.53444444444445,37.51638888888889],[-122.44,37.456944444444446],[-122.3475,37.388888888888886],[-122.23138888888889,37.30305555555555],[-122.13138888888888,37.22972222222222],[-122.0286111111111,37.15416666666667],[-121.92527777777778,37.07805555555556],[-121.8175,36.998333333333335],[-121.71027777777778,36.91888888888889],[-121.60222222222221,36.838055555555556],[-121.51388888888889,36.77222222222222],[-121.40833333333335,36.69305555555555],[-121.30194444444444,36.61277777777778],[-121.19555555555556,36.532777777777774],[-121.08888888888889,36.45194444444445],[-120.97916666666667,36.37388888888889],[-120.86722222222221,36.29611111111111],[-120.75833333333334,36.219722222222224],[-120.64833333333334,36.1425],[-120.53611111111111,36.06388888888888],[-120.42444444444445,35.984722222222224],[-120.315,35.907222222222224],[-120.22083333333333,35.815555555555555],[-120.12972222222221,35.695277777777775],[-120.06527777777778,35.609722222222224],[-119.98611111111111,35.504444444444445],[-119.9088888888889,35.401944444444446],[-119.83027777777778,35.29694444444444],[-119.74138888888889,35.19944444444444],[-119.65194444444445,35.10416666666667],[-119.5611111111111,35.00666666666667],[-119.4713888888889,34.90972222222222],[-119.38388888888889,34.81194444444444],[-119.29388888888889,34.71055555555556],[-119.2,34.6],[-119.19527777777778,34.59666666666667],[-119.11666666666666,34.516666666666666],[-119.11166666666666,34.50138888888889],[-119.03333333333333,34.416666666666664],[-119.02916666666667,34.407777777777774],[-118.95,34.31666666666667],[-118.95111111111112,34.31722222222223],[-118.88333333333334,34.233333333333334],[-118.87249999999999,34.231944444444444],[-118.8,34.166666666666664],[-118.80055555555555,34.155277777777776],[-118.72944444444444,34.09027777777778],[-118.66666666666667,34.03333333333333],[-118.65916666666668,34.03194444444444],[-118.58333333333333,34.016666666666666],[-118.51388888888889,34.01555555555556],[-118.44805555555556,34.01166666666666],[-118.38444444444445,34.022777777777776],[-118.31583333333333,34.03138888888889],[-118.25,34.03333333333333],[-118.24916666666667,34.036944444444444],[-118.21666666666667,34],[-118.21527777777779,33.99805555555556],[-118.23333333333333,33.96666666666667],[-118.2461111111111,33.968333333333334],[-118.28333333333333,33.96666666666667],[-118.28944444444444,33.96361111111111],[-118.33333333333333,33.96666666666667],[-118.33083333333333,33.95944444444445],[-118.36666666666666,33.95],[-118.375,33.955000000000005]]}
}
