{
  "id": 2048370071,
  "type": "Feature",
  "properties": {
    "geom:area": 0,
    "geom:bbox": "-122.360050,37.491860,-121.304860,37.615100",
    "geom:latitude": 37.5446283053149,
    "geom:longitude": -121.83723642657482,
    "src:alt_label": "swim-approach",
    "src:geom": "swim",
    "swim:elevations": [
      4189,
      4149,
      3493,
      3330,
      3100,
      3036,
      2855,
      2773,
      2586,
      2311,
      2144,
      1904,
      1829,
      1829,
      1730,
      1624,
      1434,
      1285,
      1191,
      1070,
      913,
      734,
      610,
      547,
      346,
      190,
      80,
      0
    ],
    "swim:geom": "approach",
    "swim:timestamps": [
      1789738915,
      1789738921,
      1789738996,
      1789739014,
      1789739059,
      1789739090,
      1789739119,
      1789739139,
      1789739176,
      1789739215,
      1789739242,
      1789739279,
      1789739295,
      1789739319,
      1789739351,
      1789739361,
      1789739387,
      1789739413,
      1789739438,
      1789739469,
      1789739510,
      1789739542,
      1789739565,
      1789739589,
      1789739634,
      1789739666,
      1789739693,
      1789739714
    ],
    "wof:geomhash": "d80ca3e8bc9b84a9e2d6f67b1a657edd",
    "wof:id": 2048370071,
    "wof:repo": "sfomuseum-data-flights-2026-09"
  },
  "bbox": [
    -122.36005,
    37.49186,
    -121.30486,
    37.6151
  ],
  "geometry": {"type":"LineString","coordinates":[[-121.30486,37.58742],[-121.31623,37.5862],[-121.4616,37.56998],[-121.49574,37.56601],[-121.58016,37.55597],[-121.63135,37.54859],[-121.68001,37.53775],[-121.71177,37.53016],[-121.76998,37.51613],[-121.82803,37.50212],[-121.86819,37.49317],[-121.91786,37.49186],[-121.93976,37.4924],[-121.97258,37.49347],[-122.01166,37.50222],[-122.02393,37.50615],[-122.05491,37.51638],[-122.08494,37.52619],[-122.11125,37.53468],[-122.14248,37.54486],[-122.18466,37.55854],[-122.21785,37.56927],[-122.24058,37.57658],[-122.26126,37.58321],[-122.30006,37.59474],[-122.32573,37.60243],[-122.34561,37.60894],[-122.36005,37.6151]]}
}
