{
  "id": 2048460331,
  "type": "Feature",
  "properties": {
    "geom:area": 0,
    "geom:bbox": "-122.749722,37.629167,-122.233889,45.580556",
    "geom:latitude": 41.63178344274948,
    "geom:longitude": -122.5269534180473,
    "src:alt_label": "swim-path",
    "src:geom": "swim",
    "swim:altitudes": [
      "009",
      "018",
      "020",
      "035",
      "044",
      "073",
      "099",
      "112",
      "141",
      "168",
      "198",
      "219",
      "236",
      "253",
      "270",
      "286",
      "300",
      "310",
      "319C",
      "320C",
      "320C",
      "320C",
      "320C",
      "320C",
      "320C",
      "320C",
      "320C",
      "320C",
      "320C",
      "320C",
      "320C",
      "320C",
      "320C",
      "320C",
      "320C",
      "320C",
      "320C",
      "320C",
      "320C",
      "320C",
      "320C",
      "320C",
      "320C",
      "320C",
      "320C",
      "320C",
      "320C",
      "320C",
      "320C",
      "320C",
      "320C",
      "320C",
      "320C",
      "320C",
      "320C",
      "320C",
      "320C",
      "320C",
      "320C",
      "320C",
      "320C",
      "320C",
      "320C",
      "320",
      "320",
      "320",
      "320",
      "320",
      "320",
      "320",
      "320",
      "320",
      "301",
      "270",
      "251",
      "227",
      "210",
      "192",
      "179",
      "175",
      "154",
      "141",
      "123",
      "106",
      "096",
      "093",
      "078",
      "058",
      "055",
      "045",
      "035",
      "027",
      "018",
      "010",
      "001"
    ],
    "swim:geom": "path",
    "swim:speeds": [
      170,
      195,
      212,
      264,
      262,
      260,
      280,
      317,
      320,
      322,
      319,
      315,
      327,
      361,
      345,
      346,
      346,
      353,
      365,
      376,
      380,
      381,
      381,
      381,
      381,
      380,
      377,
      379,
      377,
      376,
      376,
      375,
      375,
      376,
      377,
      378,
      378,
      378,
      379,
      379,
      379,
      380,
      380,
      381,
      382,
      382,
      383,
      384,
      384,
      385,
      385,
      385,
      387,
      387,
      387,
      388,
      388,
      388,
      387,
      386,
      361,
      360,
      360,
      360,
      359,
      358,
      358,
      358,
      358,
      359,
      359,
      359,
      359,
      368,
      367,
      363,
      349,
      345,
      339,
      342,
      340,
      322,
      306,
      305,
      289,
      283,
      279,
      275,
      275,
      259,
      226,
      186,
      163,
      151,
      154
    ],
    "swim:timestamps": [
      1790609494,
      1790609526,
      1790609554,
      1790609587,
      1790609614,
      1790609674,
      1790609734,
      1790609794,
      1790609855,
      1790609915,
      1790609975,
      1790610035,
      1790610090,
      1790610150,
      1790610210,
      1790610270,
      1790610330,
      1790610390,
      1790610450,
      1790610510,
      1790610576,
      1790610630,
      1790610636,
      1790610690,
      1790610750,
      1790610756,
      1790610810,
      1790610816,
      1790610876,
      1790610931,
      1790610991,
      1790611051,
      1790611111,
      1790611171,
      1790611231,
      1790611291,
      1790611297,
      1790611357,
      1790611477,
      1790611537,
      1790611597,
      1790611657,
      1790611712,
      1790611772,
      1790611832,
      1790611892,
      1790611952,
      1790612012,
      1790612072,
      1790612078,
      1790612132,
      1790612138,
      1790612192,
      1790612252,
      1790612258,
      1790612312,
      1790612318,
      1790612372,
      1790612432,
      1790612492,
      1790612673,
      1790612793,
      1790612913,
      1790612973,
      1790613033,
      1790613093,
      1790613153,
      1790613213,
      1790613273,
      1790613334,
      1790613394,
      1790613454,
      1790613514,
      1790613574,
      1790613634,
      1790613694,
      1790613754,
      1790613814,
      1790613845,
      1790613874,
      1790613934,
      1790613994,
      1790614050,
      1790614115,
      1790614175,
      1790614182,
      1790614230,
      1790614295,
      1790614302,
      1790614350,
      1790614415,
      1790614475,
      1790614535,
      1790614590,
      1790614650
    ],
    "wof:geomhash": "7e1ec0bb1cd92a08275a26fe9eb7ff02",
    "wof:id": 2048460331,
    "wof:repo": "sfomuseum-data-flights-2026-09"
  },
  "bbox": [
    -122.74972222222222,
    37.62916666666667,
    -122.23388888888888,
    45.580555555555556
  ],
  "geometry": {"type":"LineString","coordinates":[[-122.39944444444446,37.62916666666667],[-122.43333333333334,37.65],[-122.44972222222222,37.65083333333333],[-122.5,37.68333333333333],[-122.52055555555556,37.69277777777778],[-122.52722222222222,37.763333333333335],[-122.48,37.822500000000005],[-122.41611111111112,37.88361111111111],[-122.3825,37.969166666666666],[-122.34916666666666,38.055],[-122.315,38.14138888888889],[-122.28222222222222,38.22416666666667],[-122.245,38.31361111111111],[-122.23388888888888,38.40833333333333],[-122.24527777777777,38.50333333333333],[-122.25416666666666,38.60027777777778],[-122.26472222222222,38.696666666666665],[-122.27555555555556,38.79611111111111],[-122.28722222222223,38.89861111111111],[-122.29916666666666,39.00361111111111],[-122.31166666666667,39.117777777777775],[-122.32111111111111,39.21472222222223],[-122.32249999999999,39.22277777777778],[-122.33027777777778,39.32166666666667],[-122.34305555555555,39.426944444444445],[-122.34527777777777,39.43555555555555],[-122.35499999999999,39.530277777777776],[-122.35527777777777,39.53055555555555],[-122.36694444444444,39.63361111111111],[-122.37777777777777,39.73777777777778],[-122.38916666666667,39.841944444444444],[-122.40027777777779,39.94499999999999],[-122.41166666666668,40.050555555555555],[-122.42333333333333,40.159166666666664],[-122.43277777777779,40.24472222222222],[-122.44416666666667,40.35],[-122.44666666666667,40.37277777777778],[-122.45805555555556,40.47777777777778],[-122.48138888888889,40.687777777777775],[-122.49305555555556,40.793055555555554],[-122.50472222222223,40.8975],[-122.51666666666667,41.00361111111111],[-122.5261111111111,41.088055555555556],[-122.53805555555556,41.19333333333333],[-122.54972222222221,41.29888888888889],[-122.56277777777777,41.413333333333334],[-122.57472222222222,41.51888888888889],[-122.58194444444445,41.62694444444445],[-122.58888888888889,41.73388888888889],[-122.59027777777777,41.75555555555555],[-122.5961111111111,41.842222222222226],[-122.5961111111111,41.84305555555556],[-122.60305555555556,41.95111111111111],[-122.61027777777777,42.058611111111105],[-122.61027777777777,42.05972222222222],[-122.61749999999999,42.16861111111111],[-122.61749999999999,42.169444444444444],[-122.62472222222222,42.27638888888889],[-122.63194444444444,42.38333333333333],[-122.63916666666667,42.49138888888889],[-122.65944444444445,42.79277777777778],[-122.67305555555556,42.9925],[-122.68666666666667,43.19138888888889],[-122.69361111111111,43.29083333333333],[-122.70055555555555,43.39138888888889],[-122.70722222222223,43.49],[-122.71416666666667,43.58916666666667],[-122.72111111111111,43.69],[-122.72805555555556,43.788888888888884],[-122.73472222222222,43.8875],[-122.74194444444444,43.986666666666665],[-122.74861111111112,44.08555555555556],[-122.74972222222222,44.18472222222222],[-122.73777777777778,44.3075],[-122.72888888888889,44.39611111111111],[-122.71777777777778,44.50694444444444],[-122.70805555555556,44.60388888888889],[-122.69972222222222,44.6875],[-122.69500000000001,44.74916666666667],[-122.69055555555556,44.78055555555555],[-122.68111111111112,44.87388888888889],[-122.67194444444445,44.965],[-122.66250000000001,45.056666666666665],[-122.65333333333334,45.14694444444444],[-122.61388888888888,45.221111111111114],[-122.60777777777777,45.230000000000004],[-122.5586111111111,45.282777777777774],[-122.48916666666666,45.34583333333334],[-122.48055555555555,45.353611111111114],[-122.43,45.401944444444446],[-122.39472222222223,45.465833333333336],[-122.42527777777778,45.515],[-122.47916666666667,45.53944444444444],[-122.53194444444445,45.55916666666666],[-122.58472222222221,45.580555555555556]]}
}
