{
  "id": 2048271171,
  "type": "Feature",
  "properties": {
    "geom:area": 0,
    "geom:bbox": "-122.403550,37.636890,-121.260140,37.962870",
    "geom:latitude": 37.833389458168284,
    "geom:longitude": -121.84561046099857,
    "src:alt_label": "swim-takeoff",
    "src:geom": "swim",
    "swim:elevations": [
      453,
      718,
      1165,
      1403,
      1691,
      1961,
      2270,
      2844,
      3195,
      3435,
      3824,
      3966,
      4324,
      4830,
      5172,
      5229,
      5493,
      5963,
      6176,
      6495,
      6853,
      6929
    ],
    "swim:geom": "takeoff",
    "swim:timestamps": [
      1788719965,
      1788719992,
      1788720026,
      1788720056,
      1788720085,
      1788720105,
      1788720124,
      1788720164,
      1788720202,
      1788720236,
      1788720265,
      1788720276,
      1788720313,
      1788720356,
      1788720387,
      1788720393,
      1788720422,
      1788720467,
      1788720490,
      1788720523,
      1788720565,
      1788720573
    ],
    "wof:geomhash": "99e5006258ccb0332eb00fedd26440f3",
    "wof:id": 2048271171,
    "wof:repo": "sfomuseum-data-flights-2026-09"
  },
  "bbox": [
    -122.40355,
    37.63689,
    -121.26014,
    37.96287
  ],
  "geometry": {"type":"LineString","coordinates":[[-122.40355,37.63689],[-122.39305,37.65776],[-122.35531,37.66968],[-122.31839,37.68221],[-122.27507,37.69692],[-122.24562,37.70705],[-122.21696,37.71701],[-122.1585,37.74661],[-122.10188,37.77593],[-122.04339,37.80608],[-121.98754,37.82812],[-121.9634,37.8336],[-121.88466,37.84841],[-121.78791,37.86633],[-121.71624,37.87956],[-121.70232,37.88215],[-121.63354,37.8948],[-121.52514,37.91474],[-121.46778,37.92517],[-121.38579,37.9401],[-121.28225,37.95881],[-121.26014,37.96287]]}
}
