{
  "id": 2048252745,
  "type": "Feature",
  "properties": {
    "geom:area": 0,
    "geom:bbox": "-122.558290,36.727270,-122.210590,37.666070",
    "geom:latitude": 37.21873143114143,
    "geom:longitude": -122.47154936606711,
    "src:alt_label": "swim-takeoff",
    "src:geom": "swim",
    "swim:elevations": [
      183,
      459,
      562,
      1154,
      1509,
      1592,
      2008,
      2696,
      2906,
      3271,
      3297,
      3634,
      4214,
      4444,
      4777,
      4984,
      5181,
      5182,
      5552,
      5889,
      6159,
      6222,
      6431,
      6684,
      6883,
      7074,
      7357,
      7769,
      7839
    ],
    "swim:geom": "takeoff",
    "swim:timestamps": [
      1788506846,
      1788506868,
      1788506887,
      1788506937,
      1788506968,
      1788506974,
      1788507007,
      1788507056,
      1788507071,
      1788507113,
      1788507120,
      1788507152,
      1788507193,
      1788507214,
      1788507248,
      1788507267,
      1788507297,
      1788507301,
      1788507353,
      1788507382,
      1788507410,
      1788507418,
      1788507444,
      1788507471,
      1788507495,
      1788507516,
      1788507546,
      1788507596,
      1788507604
    ],
    "wof:geomhash": "34bbf9951d539a7056b46aa7363bbeaf",
    "wof:id": 2048252745,
    "wof:repo": "sfomuseum-data-flights-2026-09"
  },
  "bbox": [
    -122.55829,
    36.72727,
    -122.21059,
    37.66607
  ],
  "geometry": {"type":"LineString","coordinates":[[-122.39058,37.62772],[-122.40963,37.63572],[-122.42784,37.64284],[-122.48487,37.66607],[-122.52502,37.66384],[-122.53196,37.65965],[-122.54715,37.62272],[-122.54496,37.55938],[-122.54639,37.53962],[-122.5487,37.48215],[-122.54895,37.47266],[-122.55038,37.42248],[-122.55245,37.35835],[-122.55359,37.3261],[-122.55549,37.27206],[-122.55639,37.2413],[-122.55805,37.19265],[-122.55829,37.18525],[-122.55674,37.10058],[-122.52859,37.05704],[-122.48984,37.01767],[-122.47935,37.00676],[-122.44372,36.9699],[-122.40506,36.92991],[-122.37095,36.89468],[-122.33996,36.86263],[-122.29578,36.81687],[-122.222,36.73945],[-122.21059,36.72727]]}
}
