{
  "id": 2048333433,
  "type": "Feature",
  "properties": {
    "geom:area": 0,
    "geom:bbox": "-122.356140,37.492120,-121.268470,37.613120",
    "geom:latitude": 37.54585036394262,
    "geom:longitude": -121.81712676646357,
    "src:alt_label": "swim-approach",
    "src:geom": "swim",
    "swim:elevations": [
      4647,
      4525,
      4045,
      3924,
      3391,
      3224,
      3094,
      2924,
      2713,
      2576,
      2388,
      2308,
      2138,
      2013,
      1877,
      1728,
      1575,
      1430,
      1189,
      1097,
      1026,
      886,
      708,
      548,
      521,
      290,
      273,
      119,
      14
    ],
    "swim:geom": "approach",
    "swim:timestamps": [
      1789417130,
      1789417141,
      1789417187,
      1789417200,
      1789417251,
      1789417272,
      1789417316,
      1789417340,
      1789417369,
      1789417388,
      1789417435,
      1789417448,
      1789417472,
      1789417503,
      1789417544,
      1789417564,
      1789417595,
      1789417635,
      1789417672,
      1789417687,
      1789417701,
      1789417727,
      1789417763,
      1789417792,
      1789417801,
      1789417852,
      1789417860,
      1789417897,
      1789417921
    ],
    "wof:geomhash": "69118257ac332cb0c3a4b18e05874420",
    "wof:id": 2048333433,
    "wof:repo": "sfomuseum-data-flights-2026-09"
  },
  "bbox": [
    -122.35614,
    37.49212,
    -121.26847,
    37.61312
  ],
  "geometry": {"type":"LineString","coordinates":[[-121.26847,37.59189],[-121.29014,37.58912],[-121.38011,37.57951],[-121.40503,37.57665],[-121.50566,37.56473],[-121.54513,37.56001],[-121.62583,37.55019],[-121.66621,37.54094],[-121.71427,37.52937],[-121.74615,37.52179],[-121.82035,37.50418],[-121.83902,37.49965],[-121.87564,37.49212],[-121.92254,37.49227],[-121.97989,37.4944],[-122.00658,37.50074],[-122.04417,37.51278],[-122.09084,37.52771],[-122.12902,37.54049],[-122.14455,37.54567],[-122.15882,37.5503],[-122.1849,37.55855],[-122.22254,37.57057],[-122.25147,37.58015],[-122.25942,37.58275],[-122.30169,37.59493],[-122.30839,37.59691],[-122.33862,37.606],[-122.35614,37.61312]]}
}
