{
  "id": 2048395897,
  "type": "Feature",
  "properties": {
    "geom:area": 0,
    "geom:bbox": "-122.759680,37.400030,-122.095750,38.501240",
    "geom:latitude": 37.810580040014486,
    "geom:longitude": -122.46997067455277,
    "src:alt_label": "swim-approach",
    "src:geom": "swim",
    "swim:elevations": [
      7622,
      7392,
      7059,
      6600,
      6302,
      6116,
      5982,
      5550,
      5394,
      5064,
      4680,
      4237,
      4133,
      3896,
      3858,
      3535,
      3353,
      3353,
      3347,
      3357,
      3322,
      3038,
      2852,
      2807,
      2546,
      2315,
      2049,
      1967,
      1828,
      1523,
      1539,
      1524,
      1217,
      1219,
      1211,
      1112,
      977,
      766,
      609,
      455,
      349,
      308,
      76,
      50
    ],
    "swim:geom": "approach",
    "swim:timestamps": [
      1789988236,
      1789988258,
      1789988287,
      1789988330,
      1789988364,
      1789988396,
      1789988412,
      1789988458,
      1789988476,
      1789988510,
      1789988548,
      1789988600,
      1789988617,
      1789988664,
      1789988673,
      1789988714,
      1789988750,
      1789988783,
      1789988798,
      1789988821,
      1789988860,
      1789988908,
      1789988936,
      1789988945,
      1789988978,
      1789989008,
      1789989052,
      1789989063,
      1789989091,
      1789989145,
      1789989162,
      1789989180,
      1789989236,
      1789989265,
      1789989282,
      1789989301,
      1789989348,
      1789989386,
      1789989415,
      1789989446,
      1789989470,
      1789989480,
      1789989537,
      1789989543
    ],
    "wof:geomhash": "6a4448bebf57ae42c3ff84ac20067683",
    "wof:id": 2048395897,
    "wof:repo": "sfomuseum-data-flights-2026-09"
  },
  "bbox": [
    -122.75968,
    37.40003,
    -122.09575,
    38.50124
  ],
  "geometry": {"type":"LineString","coordinates":[[-122.66805,38.50124],[-122.68281,38.45976],[-122.70363,38.40261],[-122.73243,38.32241],[-122.75516,38.25877],[-122.75968,38.20126],[-122.75247,38.17379],[-122.73076,38.09772],[-122.7218,38.06686],[-122.70552,38.01064],[-122.68812,37.95068],[-122.64749,37.87539],[-122.62645,37.85536],[-122.57411,37.80563],[-122.56453,37.79663],[-122.52312,37.75794],[-122.48913,37.72564],[-122.45825,37.69662],[-122.44415,37.68343],[-122.42331,37.66381],[-122.38696,37.62936],[-122.34851,37.58545],[-122.33508,37.55691],[-122.33083,37.54768],[-122.31146,37.51504],[-122.29401,37.48611],[-122.26618,37.4434],[-122.25488,37.43659],[-122.22005,37.42569],[-122.15327,37.40499],[-122.13193,37.40003],[-122.10885,37.40582],[-122.09575,37.45943],[-122.1068,37.48853],[-122.11587,37.50369],[-122.13291,37.5175],[-122.17901,37.53849],[-122.21607,37.55427],[-122.24538,37.56653],[-122.27444,37.57883],[-122.2938,37.58697],[-122.30216,37.59054],[-122.34805,37.60973],[-122.35281,37.61174]]}
}
