{
  "id": 2048335685,
  "type": "Feature",
  "properties": {
    "geom:area": 0,
    "geom:bbox": "-122.360820,37.491460,-121.251800,37.616580",
    "geom:latitude": 37.54692636084833,
    "geom:longitude": -121.81156807612334,
    "src:alt_label": "swim-approach",
    "src:geom": "swim",
    "swim:elevations": [
      4679,
      4357,
      4063,
      3816,
      3649,
      3364,
      3107,
      3018,
      2930,
      2732,
      2704,
      2620,
      2309,
      2110,
      2069,
      1917,
      1861,
      1643,
      1521,
      1393,
      1220,
      1114,
      1034,
      841,
      818,
      706,
      673,
      454,
      333,
      294,
      103,
      0
    ],
    "swim:geom": "approach",
    "swim:timestamps": [
      1789412005,
      1789412038,
      1789412067,
      1789412093,
      1789412109,
      1789412139,
      1789412188,
      1789412211,
      1789412233,
      1789412272,
      1789412287,
      1789412312,
      1789412359,
      1789412395,
      1789412411,
      1789412453,
      1789412468,
      1789412518,
      1789412540,
      1789412565,
      1789412607,
      1789412635,
      1789412653,
      1789412697,
      1789412701,
      1789412726,
      1789412736,
      1789412785,
      1789412815,
      1789412826,
      1789412868,
      1789412893
    ],
    "wof:geomhash": "eaa39e2257570d31e80bb05b7cbdbfc3",
    "wof:id": 2048335685,
    "wof:repo": "sfomuseum-data-flights-2026-09"
  },
  "bbox": [
    -122.36082,
    37.49146,
    -121.2518,
    37.61658
  ],
  "geometry": {"type":"LineString","coordinates":[[-121.2518,37.59434],[-121.31631,37.58658],[-121.37335,37.58013],[-121.42371,37.57431],[-121.4548,37.57057],[-121.51372,37.56368],[-121.60682,37.55286],[-121.6465,37.54545],[-121.68065,37.53739],[-121.73847,37.52357],[-121.75932,37.51862],[-121.79042,37.51122],[-121.84537,37.49796],[-121.88636,37.49146],[-121.90391,37.49163],[-121.95349,37.49298],[-121.97133,37.49355],[-122.02763,37.50754],[-122.0519,37.51539],[-122.0791,37.52419],[-122.11893,37.53733],[-122.14523,37.54585],[-122.16132,37.55078],[-122.2017,37.56395],[-122.20541,37.56506],[-122.22743,37.57199],[-122.23572,37.57474],[-122.27764,37.58792],[-122.30222,37.59521],[-122.31063,37.59757],[-122.34283,37.60743],[-122.36082,37.61658]]}
}
