{
  "id": 2048474983,
  "type": "Feature",
  "properties": {
    "geom:area": 0,
    "geom:bbox": "-122.660830,37.399720,-122.107480,38.456580",
    "geom:latitude": 37.801035053430745,
    "geom:longitude": -122.413453323221,
    "src:alt_label": "swim-approach",
    "src:geom": "swim",
    "swim:elevations": [
      7346,
      7003,
      6631,
      6186,
      5938,
      5502,
      5188,
      4821,
      4534,
      4472,
      4235,
      4027,
      3889,
      3578,
      3474,
      3353,
      3353,
      3353,
      3353,
      3312,
      3012,
      2854,
      2518,
      2485,
      2374,
      2184,
      1793,
      1709,
      1437,
      1405,
      1219,
      1219,
      1033,
      945,
      934,
      579,
      491,
      304,
      261,
      94,
      89,
      60
    ],
    "swim:geom": "approach",
    "swim:timestamps": [
      1790761879,
      1790761907,
      1790761939,
      1790761977,
      1790761998,
      1790762032,
      1790762061,
      1790762092,
      1790762121,
      1790762135,
      1790762179,
      1790762212,
      1790762227,
      1790762261,
      1790762287,
      1790762333,
      1790762366,
      1790762381,
      1790762424,
      1790762437,
      1790762484,
      1790762500,
      1790762548,
      1790762556,
      1790762571,
      1790762592,
      1790762633,
      1790762643,
      1790762674,
      1790762679,
      1790762747,
      1790762770,
      1790762814,
      1790762848,
      1790762872,
      1790762927,
      1790762942,
      1790762992,
      1790763003,
      1790763048,
      1790763051,
      1790763074
    ],
    "wof:geomhash": "59fd903c596629caf1a43de5d7257cc2",
    "wof:id": 2048474983,
    "wof:repo": "sfomuseum-data-flights-2026-09"
  },
  "bbox": [
    -122.66083,
    37.39972,
    -122.10748,
    38.45658
  ],
  "geometry": {"type":"LineString","coordinates":[[-122.43075,38.45658],[-122.4558,38.40012],[-122.48341,38.33694],[-122.51568,38.26319],[-122.53268,38.22428],[-122.56003,38.16036],[-122.58369,38.10566],[-122.60781,38.04994],[-122.62988,37.99872],[-122.6398,37.9751],[-122.66083,37.90141],[-122.62562,37.85327],[-122.6041,37.83467],[-122.55776,37.79183],[-122.52462,37.76005],[-122.46924,37.70752],[-122.4302,37.67099],[-122.41183,37.65372],[-122.3655,37.60955],[-122.35428,37.59551],[-122.32713,37.54357],[-122.31759,37.52576],[-122.28692,37.47461],[-122.28141,37.4658],[-122.27138,37.44955],[-122.25606,37.42877],[-122.20377,37.41055],[-122.19094,37.4074],[-122.14953,37.39972],[-122.143,37.40072],[-122.10748,37.45905],[-122.11052,37.4805],[-122.14083,37.51147],[-122.16741,37.53083],[-122.19147,37.54154],[-122.24428,37.56378],[-122.25872,37.56985],[-122.29855,37.58658],[-122.3071,37.59017],[-122.34019,37.60405],[-122.34274,37.60511],[-122.35976,37.61223]]}
}
