{
  "id": 2048344143,
  "type": "Feature",
  "properties": {
    "geom:area": 0,
    "geom:bbox": "-122.351180,37.492300,-121.274430,37.611020",
    "geom:latitude": 37.54531916409308,
    "geom:longitude": -121.81743560663303,
    "src:alt_label": "swim-approach",
    "src:geom": "swim",
    "swim:elevations": [
      4641,
      4559,
      4286,
      3778,
      3491,
      3201,
      3108,
      3032,
      2782,
      2637,
      2498,
      2300,
      2157,
      1968,
      1917,
      1708,
      1512,
      1243,
      1056,
      937,
      840,
      675,
      484,
      367,
      278,
      97,
      61
    ],
    "swim:geom": "approach",
    "swim:timestamps": [
      1789463126,
      1789463135,
      1789463161,
      1789463209,
      1789463239,
      1789463277,
      1789463307,
      1789463333,
      1789463365,
      1789463384,
      1789463408,
      1789463445,
      1789463468,
      1789463513,
      1789463525,
      1789463559,
      1789463583,
      1789463620,
      1789463655,
      1789463678,
      1789463715,
      1789463740,
      1789463781,
      1789463810,
      1789463833,
      1789463876,
      1789463888
    ],
    "wof:geomhash": "7cbb283a8ccb229086aad230b9c873d3",
    "wof:id": 2048344143,
    "wof:repo": "sfomuseum-data-flights-2026-09"
  },
  "bbox": [
    -122.35118,
    37.4923,
    -121.27443,
    37.61102
  ],
  "geometry": {"type":"LineString","coordinates":[[-121.27443,37.59116],[-121.29152,37.58883],[-121.34129,37.58356],[-121.4347,37.5729],[-121.49148,37.5666],[-121.56457,37.55796],[-121.61841,37.55102],[-121.66103,37.54212],[-121.71169,37.53016],[-121.74345,37.52252],[-121.78198,37.51321],[-121.83722,37.49995],[-121.87149,37.49259],[-121.9375,37.4923],[-121.95548,37.49283],[-122.00693,37.50069],[-122.04034,37.5114],[-122.0909,37.52823],[-122.13499,37.54259],[-122.16139,37.55106],[-122.20089,37.56387],[-122.22628,37.57207],[-122.26646,37.58473],[-122.29156,37.59208],[-122.30975,37.59734],[-122.34271,37.60751],[-122.35118,37.61102]]}
}
