{
  "id": 2048460431,
  "type": "Feature",
  "properties": {
    "geom:area": 0,
    "geom:bbox": "-122.735556,37.633333,-121.651667,47.776111",
    "geom:latitude": 42.97140164930461,
    "geom:longitude": -122.18242091912258,
    "src:alt_label": "swim-path",
    "src:geom": "swim",
    "swim:altitudes": [
      "005",
      "019",
      "023",
      "046",
      "070",
      "093",
      "105",
      "120",
      "148",
      "169",
      "191",
      "211",
      "227",
      "242",
      "258",
      "277",
      "294",
      "312",
      "320C",
      "320C",
      "320C",
      "320C",
      "320C",
      "320C",
      "320C",
      "320C",
      "320C",
      "320C",
      "320C",
      "320C",
      "320C",
      "320C",
      "320C",
      "320C",
      "320C",
      "320C",
      "320C",
      "320C",
      "320C",
      "320C",
      "320C",
      "320C",
      "320C",
      "320C",
      "320C",
      "320C",
      "320C",
      "320C",
      "320C",
      "320C",
      "320C",
      "320C",
      "320C",
      "320C",
      "320C",
      "320C",
      "320C",
      "320C",
      "320C",
      "320C",
      "320C",
      "320C",
      "320C",
      "320C",
      "320C",
      "320C",
      "320C",
      "320C",
      "320C",
      "320C",
      "320C",
      "320C",
      "320C",
      "320C",
      "320C",
      "320C",
      "320C",
      "320C",
      "320",
      "320",
      "320",
      "320",
      "320",
      "320",
      "320",
      "314",
      "299",
      "277",
      "256",
      "235",
      "214",
      "194",
      "177",
      "160",
      "151",
      "149",
      "142",
      "137",
      "127",
      "123",
      "100",
      "097",
      "089",
      "085",
      "077",
      "074",
      "064",
      "062",
      "060",
      "060",
      "060",
      "060",
      "060",
      "060",
      "060",
      "060",
      "060",
      "060",
      "059",
      "055",
      "050",
      "046",
      "039",
      "037",
      "031",
      "028",
      "022",
      "019",
      "013",
      "012",
      "006",
      "004",
      "004"
    ],
    "swim:geom": "path",
    "swim:speeds": [
      164,
      228,
      234,
      261,
      260,
      266,
      315,
      358,
      359,
      359,
      368,
      399,
      392,
      398,
      403,
      405,
      404,
      390,
      378,
      383,
      382,
      380,
      382,
      382,
      383,
      387,
      386,
      384,
      384,
      384,
      384,
      384,
      384,
      384,
      384,
      385,
      386,
      387,
      387,
      388,
      388,
      388,
      388,
      388,
      390,
      391,
      387,
      375,
      372,
      369,
      367,
      366,
      365,
      365,
      366,
      368,
      369,
      371,
      372,
      372,
      372,
      372,
      372,
      379,
      405,
      407,
      409,
      393,
      383,
      396,
      398,
      386,
      382,
      381,
      380,
      380,
      379,
      379,
      379,
      379,
      380,
      380,
      380,
      379,
      379,
      382,
      387,
      386,
      380,
      373,
      366,
      357,
      350,
      354,
      347,
      324,
      301,
      304,
      305,
      304,
      295,
      289,
      280,
      282,
      267,
      269,
      266,
      268,
      250,
      254,
      249,
      252,
      247,
      250,
      253,
      250,
      209,
      195,
      184,
      181,
      171,
      171,
      170,
      170,
      162,
      166,
      163,
      165,
      135,
      138,
      144,
      145,
      133
    ],
    "swim:timestamps": [
      1790633358,
      1790633413,
      1790633432,
      1790633492,
      1790633552,
      1790633613,
      1790633673,
      1790633733,
      1790633793,
      1790633853,
      1790633913,
      1790633976,
      1790634033,
      1790634096,
      1790634156,
      1790634213,
      1790634276,
      1790634336,
      1790634394,
      1790634456,
      1790634516,
      1790634574,
      1790634637,
      1790634697,
      1790634754,
      1790634817,
      1790634877,
      1790634934,
      1790634997,
      1790635057,
      1790635115,
      1790635177,
      1790635237,
      1790635295,
      1790635355,
      1790635417,
      1790635478,
      1790635535,
      1790635598,
      1790635658,
      1790635716,
      1790635778,
      1790635838,
      1790635896,
      1790635958,
      1790636018,
      1790636076,
      1790636138,
      1790636198,
      1790636259,
      1790636319,
      1790636379,
      1790636439,
      1790636499,
      1790636559,
      1790636619,
      1790636679,
      1790636739,
      1790636799,
      1790636859,
      1790636919,
      1790636979,
      1790637039,
      1790637100,
      1790637160,
      1790637220,
      1790637280,
      1790637340,
      1790637400,
      1790637460,
      1790637520,
      1790637580,
      1790637640,
      1790637700,
      1790637760,
      1790637820,
      1790637880,
      1790638001,
      1790638061,
      1790638121,
      1790638181,
      1790638241,
      1790638301,
      1790638361,
      1790638421,
      1790638541,
      1790638601,
      1790638661,
      1790638721,
      1790638781,
      1790638842,
      1790638902,
      1790638962,
      1790639022,
      1790639060,
      1790639082,
      1790639120,
      1790639142,
      1790639180,
      1790639202,
      1790639295,
      1790639322,
      1790639355,
      1790639382,
      1790639421,
      1790639442,
      1790639481,
      1790639502,
      1790639542,
      1790639562,
      1790639596,
      1790639622,
      1790639656,
      1790639682,
      1790639722,
      1790639743,
      1790639782,
      1790639803,
      1790639837,
      1790639863,
      1790639897,
      1790639923,
      1790639963,
      1790639983,
      1790640023,
      1790640043,
      1790640083,
      1790640103,
      1790640149,
      1790640163,
      1790640204,
      1790640223,
      1790640283
    ],
    "wof:geomhash": "62475bf2d5875e80122a5a53883ae303",
    "wof:id": 2048460431,
    "wof:repo": "sfomuseum-data-flights-2026-09"
  },
  "bbox": [
    -122.73555555555555,
    37.63333333333333,
    -121.65166666666667,
    47.77611111111111
  ],
  "geometry": {"type":"LineString","coordinates":[[-122.4,37.63333333333333],[-122.38333333333334,37.666666666666664],[-122.36638888888888,37.66916666666666],[-122.29166666666667,37.70333333333333],[-122.27194444444444,37.77444444444444],[-122.25194444444445,37.84638888888889],[-122.22916666666667,37.92638888888889],[-122.2025,38.02222222222222],[-122.17444444444445,38.11944444444445],[-122.14722222222223,38.21555555555556],[-122.11861111111111,38.31777777777778],[-122.115,38.42305555555555],[-122.12694444444443,38.53666666666666],[-122.1325,38.64194444444444],[-122.13833333333334,38.755],[-122.15027777777779,38.876111111111115],[-122.1563888888889,38.97777777777778],[-122.16250000000001,39.084722222222226],[-122.1725,39.19888888888889],[-122.1763888888889,39.29555555555555],[-122.18583333333333,39.400555555555556],[-122.19416666666667,39.50555555555555],[-122.20111111111112,39.613055555555555],[-122.20777777777778,39.719166666666666],[-122.21666666666667,39.82555555555556],[-122.22444444444444,39.933611111111105],[-122.23222222222222,40.03861111111111],[-122.22611111111111,40.14111111111111],[-122.19666666666667,40.26416666666667],[-122.17166666666667,40.367777777777775],[-122.14611111111111,40.473333333333336],[-122.12055555555555,40.57833333333333],[-122.095,40.683055555555555],[-122.06916666666666,40.788333333333334],[-122.0436111111111,40.89277777777778],[-122.0175,40.99888888888889],[-121.99138888888889,41.10416666666667],[-121.965,41.21027777777778],[-121.93777777777778,41.32027777777778],[-121.9113888888889,41.42611111111111],[-121.88472222222222,41.5325],[-121.85833333333333,41.63805555555555],[-121.83166666666666,41.744166666666665],[-121.80444444444444,41.85111111111111],[-121.77833333333334,41.95444444444445],[-121.75166666666667,42.059444444444445],[-121.7325,42.17166666666667],[-121.75305555555556,42.26638888888889],[-121.77583333333334,42.36666666666667],[-121.79888888888888,42.46638888888889],[-121.82138888888889,42.56583333333333],[-121.84416666666667,42.66555555555556],[-121.86777777777777,42.76611111111111],[-121.89055555555557,42.865833333333335],[-121.91416666666667,42.96638888888889],[-121.9375,43.0675],[-121.96111111111111,43.169444444444444],[-121.98527777777778,43.27166666666667],[-122.01027777777777,43.37888888888889],[-122.03472222222221,43.481944444444444],[-122.0586111111111,43.58305555555556],[-122.08277777777778,43.68444444444444],[-122.10722222222222,43.7875],[-122.1086111111111,43.88916666666667],[-121.99916666666667,43.965833333333336],[-121.87527777777777,44.035],[-121.75027777777778,44.105000000000004],[-121.65166666666667,44.18666666666666],[-121.6875,44.28444444444444],[-121.82777777777777,44.330555555555556],[-121.97361111111111,44.3675],[-122.10472222222222,44.419444444444444],[-122.15222222222222,44.51888888888889],[-122.19055555555556,44.620555555555555],[-122.22583333333334,44.72222222222222],[-122.26194444444444,44.825],[-122.30055555555555,44.93527777777778],[-122.37249999999999,45.13805555555555],[-122.4088888888889,45.23972222222222],[-122.44500000000001,45.34138888888889],[-122.48138888888889,45.44305555555555],[-122.51833333333333,45.544999999999995],[-122.55583333333333,45.64861111111111],[-122.59194444444444,45.749722222222225],[-122.61749999999999,45.85277777777778],[-122.66944444444445,46.06194444444444],[-122.69222222222223,46.16916666666666],[-122.71361111111112,46.27722222222222],[-122.72444444444444,46.38194444444444],[-122.72805555555556,46.48583333333333],[-122.73166666666667,46.58583333333333],[-122.73555555555555,46.68527777777778],[-122.7275,46.788888888888884],[-122.64027777777778,46.868611111111115],[-122.58666666666666,46.916666666666664],[-122.56055555555555,46.94555555555555],[-122.53666666666666,46.99722222222222],[-122.52361111111111,47.026666666666664],[-122.50305555555556,47.0775],[-122.49666666666667,47.10138888888889],[-122.47277777777778,47.23416666666667],[-122.46888888888888,47.265],[-122.46222222222222,47.31361111111111],[-122.45666666666666,47.343333333333334],[-122.45611111111111,47.396388888888886],[-122.45527777777778,47.41722222222222],[-122.45527777777778,47.469722222222224],[-122.45527777777778,47.49166666666667],[-122.45444444444445,47.54277777777778],[-122.45527777777778,47.56305555555555],[-122.45611111111111,47.60527777777778],[-122.45527777777778,47.6325],[-122.45472222222223,47.67388888888889],[-122.45555555555556,47.70138888888889],[-122.45555555555556,47.749722222222225],[-122.43805555555556,47.768055555555556],[-122.37527777777777,47.77611111111111],[-122.3561111111111,47.769999999999996],[-122.33111111111111,47.74277777777778],[-122.32138888888889,47.724722222222226],[-122.31694444444445,47.69694444444444],[-122.31416666666667,47.677499999999995],[-122.31666666666666,47.64361111111111],[-122.31694444444445,47.63055555555555],[-122.31805555555555,47.599444444444444],[-122.31722222222221,47.58555555555556],[-122.31777777777778,47.55277777777778],[-122.31722222222221,47.54],[-122.31916666666666,47.50861111111111],[-122.31777777777778,47.50111111111111],[-122.31916666666666,47.473055555555554],[-122.31805555555555,47.46027777777778],[-122.31833333333333,47.42944444444444]]}
}
