{
  "id": 2048318227,
  "type": "Feature",
  "properties": {
    "geom:area": 0,
    "geom:bbox": "-123.473750,36.962820,-122.121600,37.608530",
    "geom:latitude": 37.28782343195512,
    "geom:longitude": -122.70652965726467,
    "src:alt_label": "swim-approach",
    "src:geom": "swim",
    "swim:elevations": [
      5337,
      5121,
      4877,
      4336,
      3716,
      3333,
      3323,
      3211,
      3154,
      3049,
      3047,
      3048,
      3048,
      3048,
      3051,
      3048,
      2907,
      2521,
      2301,
      2027,
      1579,
      1432,
      1354,
      1184,
      1134,
      953,
      944,
      656,
      554,
      295,
      271,
      79,
      61
    ],
    "swim:geom": "approach",
    "swim:timestamps": [
      1789212473,
      1789212493,
      1789212512,
      1789212560,
      1789212611,
      1789212658,
      1789212662,
      1789212698,
      1789212720,
      1789212756,
      1789212796,
      1789212833,
      1789212849,
      1789212897,
      1789212919,
      1789212940,
      1789212963,
      1789213018,
      1789213038,
      1789213063,
      1789213103,
      1789213137,
      1789213153,
      1789213196,
      1789213203,
      1789213234,
      1789213267,
      1789213305,
      1789213323,
      1789213374,
      1789213380,
      1789213434,
      1789213442
    ],
    "wof:geomhash": "c1e5cab9920c76b32c3282930008a2b5",
    "wof:id": 2048318227,
    "wof:repo": "sfomuseum-data-flights-2026-09"
  },
  "bbox": [
    -123.47375,
    36.96282,
    -122.1216,
    37.60853
  ],
  "geometry": {"type":"LineString","coordinates":[[-123.47375,36.96282],[-123.42636,36.98544],[-123.38108,37.0075],[-123.27174,37.06011],[-123.15675,37.11624],[-123.05593,37.16514],[-123.04751,37.16918],[-122.97171,37.20566],[-122.92758,37.22683],[-122.85024,37.26029],[-122.75799,37.28213],[-122.6734,37.30187],[-122.63687,37.31044],[-122.5282,37.33573],[-122.48205,37.34638],[-122.44331,37.35528],[-122.40367,37.3646],[-122.31076,37.38557],[-122.27778,37.39313],[-122.23837,37.40223],[-122.17657,37.4162],[-122.13278,37.43297],[-122.1216,37.44838],[-122.12961,37.4905],[-122.13473,37.49649],[-122.15747,37.52222],[-122.18993,37.54111],[-122.23192,37.55861],[-122.25148,37.56689],[-122.30016,37.58731],[-122.30555,37.58959],[-122.34515,37.60618],[-122.35081,37.60853]]}
}
