{
  "id": 2048288249,
  "type": "Feature",
  "properties": {
    "geom:area": 0,
    "geom:bbox": "-123.483840,37.253560,-122.390940,37.661560",
    "geom:latitude": 37.45478999157908,
    "geom:longitude": -122.92820713222402,
    "src:alt_label": "swim-takeoff",
    "src:geom": "swim",
    "swim:elevations": [
      122,
      284,
      740,
      912,
      928,
      980,
      1676,
      1818,
      2443,
      2721,
      3164,
      3234,
      3357,
      3562,
      3978,
      4237,
      4380,
      4596,
      4827,
      5127,
      5385,
      5579,
      5848,
      5904,
      6199
    ],
    "swim:geom": "takeoff",
    "swim:timestamps": [
      1788888114,
      1788888131,
      1788888176,
      1788888197,
      1788888237,
      1788888244,
      1788888295,
      1788888307,
      1788888357,
      1788888379,
      1788888418,
      1788888431,
      1788888452,
      1788888481,
      1788888518,
      1788888547,
      1788888569,
      1788888595,
      1788888615,
      1788888651,
      1788888686,
      1788888710,
      1788888746,
      1788888756,
      1788888795
    ],
    "wof:geomhash": "60be0288d65fadbdb8fd6dd685e3cae9",
    "wof:id": 2048288249,
    "wof:repo": "sfomuseum-data-flights-2026-09"
  },
  "bbox": [
    -123.48384,
    37.25356,
    -122.39094,
    37.66156
  ],
  "geometry": {"type":"LineString","coordinates":[[-122.39094,37.62544],[-122.40629,37.63201],[-122.45033,37.6518],[-122.47268,37.66156],[-122.52623,37.66087],[-122.53458,37.65576],[-122.59602,37.6151],[-122.60981,37.60625],[-122.67244,37.56639],[-122.69975,37.54904],[-122.75625,37.52124],[-122.77447,37.51283],[-122.80926,37.49689],[-122.8568,37.47501],[-122.92163,37.44521],[-122.97257,37.42179],[-123.01139,37.40389],[-123.06111,37.38097],[-123.09856,37.36362],[-123.16934,37.33775],[-123.24397,37.31848],[-123.29613,37.30523],[-123.3766,37.28439],[-123.39894,37.27874],[-123.48384,37.25356]]}
}
