{
  "id": 2048313803,
  "type": "Feature",
  "properties": {
    "geom:area": 0,
    "geom:bbox": "-122.407160,37.626140,-121.293580,37.967830",
    "geom:latitude": 37.82958667306164,
    "geom:longitude": -121.87019911111646,
    "src:alt_label": "swim-takeoff",
    "src:geom": "swim",
    "swim:elevations": [
      152,
      537,
      850,
      1259,
      1519,
      1841,
      2349,
      2815,
      3198,
      3616,
      4065,
      4466,
      4734,
      5055,
      5577,
      5911,
      6119,
      6327,
      6682,
      7177,
      7452,
      7568
    ],
    "swim:geom": "takeoff",
    "swim:timestamps": [
      1789163577,
      1789163598,
      1789163624,
      1789163653,
      1789163685,
      1789163711,
      1789163743,
      1789163769,
      1789163793,
      1789163838,
      1789163873,
      1789163908,
      1789163930,
      1789163955,
      1789163996,
      1789164029,
      1789164046,
      1789164065,
      1789164099,
      1789164147,
      1789164177,
      1789164189
    ],
    "wof:geomhash": "f6399e5e4bad0f3a0ebee59d238ef1ea",
    "wof:id": 2048313803,
    "wof:repo": "sfomuseum-data-flights-2026-09"
  },
  "bbox": [
    -122.40716,
    37.62614,
    -121.29358,
    37.96783
  ],
  "geometry": {"type":"LineString","coordinates":[[-122.39283,37.62614],[-122.40716,37.63679],[-122.39687,37.6542],[-122.36529,37.66455],[-122.32679,37.67921],[-122.29116,37.69453],[-122.24457,37.71395],[-122.20506,37.73056],[-122.16856,37.74573],[-122.09308,37.77648],[-122.03009,37.80251],[-121.96292,37.83003],[-121.91604,37.84344],[-121.86042,37.85445],[-121.76765,37.87326],[-121.69336,37.88836],[-121.65163,37.89677],[-121.60585,37.90593],[-121.52316,37.92239],[-121.40182,37.9464],[-121.32494,37.96163],[-121.29358,37.96783]]}
}
