{
  "id": 2048453087,
  "type": "Feature",
  "properties": {
    "geom:area": 0,
    "geom:bbox": "-122.548240,36.778670,-121.382960,37.668070",
    "geom:latitude": 37.234087855441764,
    "geom:longitude": -122.04501928150935,
    "src:alt_label": "swim-takeoff",
    "src:geom": "swim",
    "swim:elevations": [
      152,
      660,
      787,
      1250,
      1413,
      1594,
      1950,
      2300,
      2623,
      3069,
      3914,
      4464,
      4748,
      5002,
      5495,
      5838,
      5920,
      6768,
      6867,
      7248,
      7365,
      7568,
      7657,
      8045,
      8447,
      8626,
      8751,
      8886,
      8959,
      9127
    ],
    "swim:geom": "takeoff",
    "swim:timestamps": [
      1790522768,
      1790522806,
      1790522820,
      1790522877,
      1790522892,
      1790522907,
      1790522935,
      1790522959,
      1790522979,
      1790523011,
      1790523076,
      1790523124,
      1790523171,
      1790523196,
      1790523236,
      1790523267,
      1790523279,
      1790523358,
      1790523364,
      1790523415,
      1790523430,
      1790523458,
      1790523471,
      1790523528,
      1790523579,
      1790523610,
      1790523653,
      1790523679,
      1790523691,
      1790523720
    ],
    "wof:geomhash": "a9cfff14e31a05878156c517bb0bc93f",
    "wof:id": 2048453087,
    "wof:repo": "sfomuseum-data-flights-2026-09"
  },
  "bbox": [
    -122.54824,
    36.77867,
    -121.38296,
    37.66807
  ],
  "geometry": {"type":"LineString","coordinates":[[-122.39069,37.62511],[-122.42321,37.63905],[-122.4357,37.64459],[-122.49685,37.66807],[-122.51832,37.66611],[-122.53664,37.65663],[-122.54824,37.62263],[-122.53355,37.59227],[-122.51931,37.56898],[-122.49666,37.53065],[-122.42786,37.46102],[-122.36134,37.41748],[-122.291,37.3715],[-122.2518,37.34625],[-122.18698,37.30463],[-122.13825,37.27293],[-122.11906,37.26042],[-121.98824,37.1758],[-121.97905,37.16976],[-121.89809,37.11671],[-121.87377,37.10086],[-121.82768,37.07074],[-121.80662,37.05701],[-121.71092,36.9945],[-121.62603,36.93836],[-121.57461,36.90436],[-121.50134,36.85702],[-121.45541,36.82583],[-121.43485,36.81242],[-121.38296,36.77867]]}
}
