{
  "id": 2048432051,
  "type": "Feature",
  "properties": {
    "geom:area": 0,
    "geom:bbox": "-122.541389,31.756944,-97.025278,37.666667",
    "geom:latitude": 33.39153135592921,
    "geom:longitude": -109.93757385129062,
    "src:alt_label": "swim-path",
    "src:geom": "swim",
    "swim:altitudes": [
      "007",
      "016",
      "023",
      "027",
      "038",
      "050",
      "062",
      "076",
      "090",
      "101",
      "112",
      "112",
      "122",
      "122",
      "137",
      "139",
      "153",
      "156",
      "170",
      "171",
      "183",
      "185",
      "197",
      "198",
      "207",
      "209",
      "219",
      "222",
      "232",
      "233",
      "243",
      "245",
      "253",
      "254",
      "261",
      "263",
      "271",
      "272",
      "282",
      "290",
      "291",
      "300",
      "301",
      "308",
      "310",
      "317",
      "318",
      "323",
      "325",
      "331",
      "332",
      "337",
      "338",
      "342",
      "343",
      "347",
      "348C",
      "350C",
      "350C",
      "350C",
      "350C",
      "350C",
      "350C",
      "350C",
      "350C",
      "350C",
      "350C",
      "350C",
      "350C",
      "350C",
      "350C",
      "350C",
      "350C",
      "350C",
      "350C",
      "350C",
      "350C",
      "350C",
      "350C",
      "350C",
      "350C",
      "350C",
      "350C",
      "350C",
      "350C",
      "350C",
      "350C",
      "350C",
      "350C",
      "350C",
      "350C",
      "350C",
      "349C",
      "350C",
      "350C",
      "350C",
      "350C",
      "350C",
      "350C",
      "350C",
      "350C",
      "350C",
      "350C",
      "350C",
      "350C",
      "350C",
      "350C",
      "350C",
      "350C",
      "350C",
      "350C",
      "350C",
      "350C",
      "350C",
      "350C",
      "350C",
      "350C",
      "350C",
      "350C",
      "350C",
      "350C",
      "350C",
      "350C",
      "350C",
      "350C",
      "350C",
      "350C",
      "350C",
      "350C",
      "350C",
      "350C",
      "350C",
      "350C",
      "350C",
      "350C",
      "350C",
      "350C",
      "350C",
      "350C",
      "350C",
      "351C",
      "350C",
      "350C",
      "350C",
      "350C",
      "350C",
      "350C",
      "350C",
      "350C",
      "350C",
      "350C",
      "350C",
      "350C",
      "350C",
      "350C",
      "350C",
      "350C",
      "350C",
      "350C",
      "350C",
      "350C",
      "350C",
      "350C",
      "350C",
      "350C",
      "350C",
      "350C",
      "350C",
      "350C",
      "350C",
      "350C",
      "349C",
      "350C",
      "350C",
      "350C",
      "350C",
      "350C",
      "350C",
      "350C",
      "350C",
      "350C",
      "350C",
      "350C",
      "350C",
      "350C",
      "350C",
      "350C",
      "350C",
      "350C",
      "350C",
      "350C",
      "350C",
      "350C",
      "350C",
      "350C",
      "350C",
      "350C",
      "350C",
      "350C",
      "350C",
      "350C",
      "350C",
      "350C",
      "350C",
      "350C",
      "350C",
      "350C",
      "350C",
      "350C",
      "350C",
      "350C",
      "350C",
      "350C",
      "350C",
      "350C",
      "350C",
      "350C",
      "350C",
      "345",
      "335",
      "326",
      "317",
      "307",
      "297",
      "287",
      "278",
      "268",
      "258",
      "248",
      "243",
      "232",
      "222",
      "209",
      "202",
      "190",
      "183",
      "175",
      "168",
      "160",
      "156",
      "148",
      "145",
      "138",
      "133",
      "128",
      "124",
      "119",
      "115",
      "106",
      "102",
      "094",
      "088",
      "081",
      "076",
      "068",
      "063",
      "054",
      "047",
      "038",
      "033",
      "030",
      "030",
      "031",
      "030",
      "031",
      "028",
      "022",
      "018",
      "013",
      "010",
      "006"
    ],
    "swim:geom": "path",
    "swim:speeds": [
      168,
      162,
      162,
      194,
      230,
      239,
      254,
      256,
      267,
      264,
      309,
      285,
      366,
      328,
      401,
      362,
      415,
      391,
      426,
      421,
      438,
      435,
      448,
      445,
      460,
      452,
      469,
      469,
      474,
      475,
      477,
      476,
      483,
      481,
      489,
      500,
      492,
      497,
      496,
      493,
      494,
      492,
      493,
      490,
      490,
      487,
      487,
      485,
      485,
      484,
      483,
      482,
      482,
      481,
      481,
      480,
      480,
      480,
      480,
      480,
      480,
      480,
      480,
      481,
      481,
      481,
      482,
      482,
      482,
      482,
      482,
      482,
      481,
      481,
      480,
      481,
      483,
      484,
      485,
      485,
      486,
      486,
      485,
      485,
      485,
      485,
      486,
      486,
      486,
      486,
      485,
      482,
      483,
      487,
      488,
      486,
      489,
      487,
      489,
      488,
      486,
      486,
      485,
      486,
      485,
      485,
      486,
      487,
      488,
      489,
      489,
      489,
      490,
      490,
      490,
      489,
      488,
      487,
      486,
      485,
      484,
      484,
      484,
      485,
      485,
      485,
      485,
      485,
      485,
      485,
      486,
      487,
      488,
      489,
      490,
      492,
      493,
      495,
      499,
      501,
      502,
      501,
      500,
      499,
      498,
      497,
      497,
      496,
      496,
      496,
      496,
      496,
      496,
      495,
      494,
      492,
      492,
      493,
      495,
      504,
      506,
      510,
      506,
      509,
      507,
      507,
      505,
      505,
      503,
      503,
      502,
      502,
      502,
      504,
      505,
      506,
      506,
      507,
      508,
      509,
      509,
      510,
      510,
      511,
      511,
      511,
      511,
      510,
      510,
      510,
      510,
      510,
      510,
      510,
      511,
      511,
      511,
      511,
      510,
      510,
      509,
      509,
      508,
      508,
      508,
      508,
      507,
      506,
      506,
      504,
      503,
      503,
      503,
      504,
      504,
      503,
      502,
      502,
      502,
      503,
      497,
      497,
      504,
      503,
      493,
      489,
      487,
      469,
      458,
      452,
      454,
      442,
      436,
      427,
      418,
      409,
      398,
      391,
      374,
      358,
      359,
      345,
      318,
      311,
      307,
      298,
      284,
      266,
      262,
      263,
      261,
      258,
      257,
      248,
      249,
      238,
      235,
      233,
      235,
      236,
      220,
      208,
      211,
      197,
      198,
      195,
      191,
      176,
      160,
      154,
      157
    ],
    "swim:timestamps": [
      1790348766,
      1790348789,
      1790348809,
      1790348850,
      1790348874,
      1790348910,
      1790348929,
      1790348970,
      1790348995,
      1790349030,
      1790349090,
      1790349099,
      1790349150,
      1790349159,
      1790349210,
      1790349219,
      1790349270,
      1790349279,
      1790349330,
      1790349339,
      1790349390,
      1790349399,
      1790349450,
      1790349460,
      1790349510,
      1790349520,
      1790349571,
      1790349580,
      1790349631,
      1790349640,
      1790349691,
      1790349700,
      1790349751,
      1790349760,
      1790349811,
      1790349820,
      1790349871,
      1790349880,
      1790349937,
      1790349991,
      1790349997,
      1790350051,
      1790350058,
      1790350111,
      1790350118,
      1790350171,
      1790350178,
      1790350231,
      1790350238,
      1790350292,
      1790350298,
      1790350352,
      1790350358,
      1790350412,
      1790350418,
      1790350472,
      1790350478,
      1790350532,
      1790350538,
      1790350592,
      1790350598,
      1790350652,
      1790350658,
      1790350712,
      1790350719,
      1790350772,
      1790350779,
      1790350832,
      1790350839,
      1790350892,
      1790350899,
      1790350959,
      1790351019,
      1790351079,
      1790351139,
      1790351199,
      1790351260,
      1790351320,
      1790351380,
      1790351440,
      1790351500,
      1790351560,
      1790351620,
      1790351680,
      1790351740,
      1790351800,
      1790351921,
      1790351981,
      1790352041,
      1790352101,
      1790352161,
      1790352173,
      1790352233,
      1790352281,
      1790352341,
      1790352353,
      1790352401,
      1790352414,
      1790352461,
      1790352522,
      1790352582,
      1790352594,
      1790352642,
      1790352654,
      1790352702,
      1790352714,
      1790352774,
      1790352822,
      1790352834,
      1790352882,
      1790352894,
      1790352942,
      1790352954,
      1790353002,
      1790353014,
      1790353075,
      1790353135,
      1790353195,
      1790353255,
      1790353315,
      1790353435,
      1790353495,
      1790353555,
      1790353615,
      1790353675,
      1790353736,
      1790353796,
      1790353856,
      1790353916,
      1790353976,
      1790354036,
      1790354096,
      1790354156,
      1790354216,
      1790354276,
      1790354336,
      1790354396,
      1790354457,
      1790354517,
      1790354577,
      1790354637,
      1790354697,
      1790354757,
      1790354817,
      1790354877,
      1790354937,
      1790354997,
      1790355057,
      1790355118,
      1790355178,
      1790355238,
      1790355298,
      1790355358,
      1790355418,
      1790355478,
      1790355538,
      1790355598,
      1790355658,
      1790355718,
      1790355779,
      1790355839,
      1790355878,
      1790355899,
      1790355939,
      1790355959,
      1790355999,
      1790356019,
      1790356059,
      1790356079,
      1790356119,
      1790356139,
      1790356179,
      1790356199,
      1790356239,
      1790356259,
      1790356299,
      1790356319,
      1790356359,
      1790356379,
      1790356419,
      1790356440,
      1790356479,
      1790356500,
      1790356539,
      1790356560,
      1790356600,
      1790356620,
      1790356660,
      1790356680,
      1790356720,
      1790356740,
      1790356780,
      1790356800,
      1790356840,
      1790356860,
      1790356900,
      1790356920,
      1790356960,
      1790356980,
      1790357020,
      1790357040,
      1790357080,
      1790357140,
      1790357200,
      1790357260,
      1790357321,
      1790357381,
      1790357441,
      1790357501,
      1790357561,
      1790357621,
      1790357681,
      1790357741,
      1790357801,
      1790357861,
      1790357921,
      1790357981,
      1790358042,
      1790358102,
      1790358162,
      1790358222,
      1790358282,
      1790358342,
      1790358402,
      1790358462,
      1790358522,
      1790358582,
      1790358642,
      1790358703,
      1790358722,
      1790358763,
      1790358782,
      1790358823,
      1790358842,
      1790358883,
      1790358902,
      1790358943,
      1790358962,
      1790359003,
      1790359022,
      1790359063,
      1790359082,
      1790359123,
      1790359142,
      1790359183,
      1790359202,
      1790359243,
      1790359262,
      1790359303,
      1790359322,
      1790359363,
      1790359382,
      1790359424,
      1790359442,
      1790359484,
      1790359503,
      1790359544,
      1790359563,
      1790359604,
      1790359623,
      1790359664,
      1790359683,
      1790359724,
      1790359743,
      1790359784,
      1790359803,
      1790359844,
      1790359863,
      1790359904,
      1790359923,
      1790359964
    ],
    "wof:geomhash": "717ac56db5a6e9624304dbdc50002f98",
    "wof:id": 2048432051,
    "wof:repo": "sfomuseum-data-flights-2026-09"
  },
  "bbox": [
    -122.54138888888889,
    31.756944444444443,
    -97.02527777777777,
    37.666666666666664
  ],
  "geometry": {"type":"LineString","coordinates":[[-122.4,37.63333333333333],[-122.40555555555557,37.63194444444444],[-122.43333333333334,37.63333333333333],[-122.45861111111111,37.65416666666667],[-122.5,37.666666666666664],[-122.52972222222222,37.650555555555556],[-122.53333333333333,37.61666666666667],[-122.54138888888889,37.58166666666667],[-122.51666666666667,37.55],[-122.49472222222222,37.51694444444444],[-122.44416666666667,37.4475],[-122.4325,37.43277777777777],[-122.38361111111112,37.36138888888889],[-122.37194444444444,37.347500000000004],[-122.28,37.29],[-122.27166666666666,37.27361111111111],[-122.16444444444446,37.22166666666667],[-122.15222222222222,37.20611111111111],[-122.04444444444444,37.150277777777774],[-122.03083333333333,37.135555555555555],[-121.92222222222223,37.0775],[-121.90666666666667,37.06305555555555],[-121.79805555555555,37.00333333333333],[-121.78138888888888,36.98833333333334],[-121.67111111111112,36.926944444444445],[-121.6525,36.9125],[-121.53999999999999,36.84805555555556],[-121.52027777777778,36.83305555555556],[-121.4063888888889,36.76722222222222],[-121.3888888888889,36.75361111111111],[-121.27472222222222,36.68722222222222],[-121.25638888888889,36.6725],[-121.13944444444445,36.605000000000004],[-121.12083333333332,36.591944444444444],[-121.005,36.522777777777776],[-120.98083333333334,36.50805555555556],[-120.87194444444444,36.43694444444444],[-120.84888888888888,36.421388888888885],[-120.71777777777778,36.33388888888889],[-120.61,36.26166666666666],[-120.58805555555556,36.24666666666667],[-120.48,36.17388888888889],[-120.45777777777778,36.15888888888889],[-120.35083333333333,36.08638888888889],[-120.32972222222222,36.07222222222222],[-120.2225,35.99916666666667],[-120.20055555555555,35.98444444444444],[-120.09666666666666,35.91361111111111],[-120.07277777777777,35.89694444444444],[-119.96916666666667,35.82611111111112],[-119.94833333333334,35.81166666666666],[-119.84388888888888,35.737500000000004],[-119.82305555555556,35.723055555555554],[-119.72055555555556,35.650555555555556],[-119.69777777777779,35.63444444444444],[-119.59277777777777,35.566111111111105],[-119.56861111111111,35.55166666666666],[-119.45916666666668,35.486111111111114],[-119.43722222222223,35.47277777777778],[-119.32833333333333,35.4075],[-119.30444444444444,35.393055555555556],[-119.19722222222222,35.32833333333333],[-119.17361111111111,35.31388888888888],[-119.06444444444445,35.24777777777778],[-119.04055555555556,35.233333333333334],[-118.93166666666667,35.16694444444444],[-118.90944444444445,35.15361111111111],[-118.80055555555555,35.08722222222222],[-118.77722222222222,35.073055555555555],[-118.67027777777778,35.0075],[-118.64722222222223,34.99333333333333],[-118.51694444444445,34.91277777777778],[-118.39166666666668,34.83555555555556],[-118.26194444444444,34.75527777777778],[-118.13388888888889,34.67583333333333],[-117.99305555555556,34.61194444444445],[-117.84277777777777,34.56583333333333],[-117.69,34.519999999999996],[-117.53777777777778,34.47416666666667],[-117.385,34.42777777777778],[-117.21444444444445,34.37583333333333],[-117.07972222222222,34.334722222222226],[-116.92611111111111,34.2875],[-116.77555555555556,34.24111111111111],[-116.6236111111111,34.193888888888885],[-116.4713888888889,34.146388888888886],[-116.14777777777779,34.044444444444444],[-115.99555555555555,33.99611111111111],[-115.84388888888888,33.948055555555555],[-115.69277777777778,33.89972222222222],[-115.54055555555556,33.85055555555556],[-115.53416666666666,33.84861111111111],[-115.37944444444443,33.79861111111111],[-115.23555555555555,33.751666666666665],[-115.08444444444444,33.7025],[-115.07805555555555,33.70027777777778],[-114.93222222222222,33.652499999999996],[-114.92361111111111,33.64972222222222],[-114.78083333333333,33.60388888888889],[-114.62249999999999,33.57222222222222],[-114.46527777777779,33.544999999999995],[-114.45611111111111,33.54333333333333],[-114.3086111111111,33.5175],[-114.30333333333333,33.51638888888889],[-114.14888888888889,33.48916666666667],[-114.14361111111111,33.488055555555555],[-113.98416666666667,33.459722222222226],[-113.83222222222221,33.43222222222222],[-113.82333333333332,33.43083333333333],[-113.67222222222223,33.40333333333333],[-113.66444444444446,33.401944444444446],[-113.51388888888889,33.37444444444444],[-113.50555555555556,33.37305555555555],[-113.3561111111111,33.345555555555556],[-113.3461111111111,33.343611111111116],[-113.18777777777778,33.314166666666665],[-113.02916666666667,33.28444444444444],[-112.87083333333332,33.25472222222222],[-112.71305555555556,33.224722222222226],[-112.55638888888889,33.19499999999999],[-112.2225,33.13055555555555],[-112.06722222222221,33.1],[-111.91166666666668,33.06944444444445],[-111.75638888888889,33.03861111111111],[-111.60111111111111,33.007777777777775],[-111.44555555555556,32.97638888888889],[-111.2911111111111,32.945277777777775],[-111.1363888888889,32.91361111111111],[-110.98111111111112,32.88194444444444],[-110.82555555555555,32.849722222222226],[-110.66888888888889,32.81722222222223],[-110.51305555555555,32.78472222222222],[-110.3561111111111,32.751666666666665],[-110.20083333333334,32.718611111111116],[-110.04222222222222,32.684999999999995],[-109.88583333333334,32.65138888888889],[-109.72833333333334,32.617222222222225],[-109.57055555555556,32.58305555555556],[-109.41166666666668,32.54805555555556],[-109.25472222222223,32.51361111111111],[-109.09527777777777,32.47833333333333],[-108.93777777777778,32.44305555555555],[-108.78083333333333,32.407777777777774],[-108.62305555555555,32.371944444444445],[-108.46583333333334,32.33638888888889],[-108.3025,32.29888888888889],[-108.14583333333334,32.26277777777778],[-107.99027777777778,32.22666666666667],[-107.83527777777778,32.190555555555555],[-107.67861111111111,32.15361111111111],[-107.52333333333333,32.11694444444444],[-107.36972222222222,32.080555555555556],[-107.215,32.04361111111111],[-107.06055555555555,32.006388888888885],[-106.90777777777778,31.96944444444444],[-106.75416666666666,31.932222222222222],[-106.60055555555554,31.89472222222222],[-106.44416666666667,31.85611111111111],[-106.28861111111111,31.821666666666665],[-106.09583333333333,31.80777777777778],[-105.92916666666667,31.799722222222226],[-105.84888888888888,31.796111111111113],[-105.76444444444445,31.791944444444447],[-105.67722222222223,31.7875],[-105.62472222222222,31.785],[-105.51472222222222,31.779444444444444],[-105.45944444444444,31.776666666666667],[-105.35027777777778,31.770833333333332],[-105.29638888888888,31.768055555555556],[-105.18861111111111,31.7625],[-105.13194444444444,31.759444444444444],[-105.02583333333334,31.756944444444443],[-104.96611111111112,31.760277777777777],[-104.85972222222222,31.76833333333333],[-104.80222222222221,31.772499999999997],[-104.69583333333334,31.779999999999998],[-104.635,31.784166666666668],[-104.53027777777778,31.791666666666668],[-104.47055555555556,31.795833333333334],[-104.36472222222221,31.803055555555556],[-104.30166666666666,31.807222222222222],[-104.19777777777779,31.81416666666667],[-104.13694444444445,31.81833333333333],[-104.03111111111112,31.825555555555557],[-103.97111111111111,31.829444444444444],[-103.86555555555555,31.836388888888887],[-103.8025,31.840277777777775],[-103.69805555555556,31.846944444444443],[-103.63027777777778,31.851111111111113],[-103.53333333333333,31.8575],[-103.46444444444445,31.861666666666668],[-103.36611111111111,31.8675],[-103.29916666666666,31.871666666666666],[-103.20027777777779,31.880833333333335],[-103.13305555555554,31.89],[-103.03361111111111,31.903055555555554],[-102.9675,31.911944444444444],[-102.86999999999999,31.924722222222222],[-102.80083333333333,31.933611111111112],[-102.7038888888889,31.94638888888889],[-102.63805555555557,31.955],[-102.54055555555556,31.96722222222222],[-102.375,31.988611111111112],[-102.2088888888889,32.00944444444445],[-102.04472222222222,32.03],[-101.87805555555555,32.050555555555555],[-101.71638888888889,32.07055555555556],[-101.55,32.09055555555556],[-101.3863888888889,32.11],[-101.22194444444445,32.129444444444445],[-101.06055555555555,32.14833333333333],[-100.87916666666666,32.169444444444444],[-100.71666666666667,32.187777777777775],[-100.55388888888889,32.20611111111111],[-100.39055555555557,32.224444444444444],[-100.22611111111111,32.2425],[-100.06416666666667,32.26027777777778],[-99.90416666666667,32.27722222222222],[-99.74111111111111,32.28722222222222],[-99.57472222222222,32.295833333333334],[-99.41361111111112,32.30444444444444],[-99.25111111111111,32.3125],[-99.08583333333333,32.32055555555556],[-98.92,32.32833333333333],[-98.75972222222222,32.33583333333333],[-98.61583333333333,32.3425],[-98.45527777777778,32.349722222222226],[-98.30111111111111,32.35638888888889],[-98.15166666666667,32.362500000000004],[-98.08333333333333,32.36666666666667],[-98.0038888888889,32.36833333333333],[-97.93333333333334,32.36666666666667],[-97.8411111111111,32.374722222222225],[-97.78333333333333,32.38333333333333],[-97.70416666666667,32.38],[-97.65,32.38333333333333],[-97.58583333333333,32.4175],[-97.55,32.45],[-97.49833333333333,32.49444444444445],[-97.46666666666667,32.516666666666666],[-97.41638888888889,32.56583333333333],[-97.38333333333334,32.583333333333336],[-97.3425,32.63],[-97.31666666666666,32.65],[-97.27222222222223,32.69138888888889],[-97.25,32.71666666666667],[-97.20611111111111,32.74888888888889],[-97.18333333333334,32.766666666666666],[-97.16694444444445,32.81166666666666],[-97.16666666666667,32.833333333333336],[-97.16638888888889,32.882777777777775],[-97.16666666666667,32.916666666666664],[-97.16555555555556,32.95416666666667],[-97.16666666666667,32.983333333333334],[-97.16472222222222,33.02305555555555],[-97.16666666666667,33.05],[-97.15555555555557,33.08694444444445],[-97.15,33.11666666666667],[-97.12249999999999,33.14555555555555],[-97.1,33.166666666666664],[-97.05972222222222,33.16],[-97.05,33.15],[-97.02638888888889,33.10861111111111],[-97.03333333333333,33.083333333333336],[-97.02527777777777,33.05416666666667],[-97.03333333333333,33.03333333333333],[-97.02555555555556,33.00083333333333],[-97.03333333333333,32.983333333333334],[-97.02583333333334,32.95527777777778],[-97.03333333333333,32.93333333333333],[-97.0261111111111,32.9125]]}
}
