{
  "id": 2048457811,
  "type": "Feature",
  "properties": {
    "geom:area": 0,
    "geom:bbox": "-122.353140,37.491100,-121.251860,37.611850",
    "geom:latitude": 37.54618697203553,
    "geom:longitude": -121.80736634639698,
    "src:alt_label": "swim-approach",
    "src:geom": "swim",
    "swim:elevations": [
      4492,
      4166,
      4076,
      3931,
      3618,
      3400,
      3229,
      3158,
      3143,
      3107,
      2912,
      2760,
      2671,
      2374,
      2254,
      2102,
      2017,
      1892,
      1826,
      1828,
      1724,
      1552,
      1276,
      1219,
      1186,
      1039,
      943,
      843,
      643,
      496,
      439,
      366,
      271,
      148,
      99,
      40
    ],
    "swim:geom": "approach",
    "swim:timestamps": [
      1790631256,
      1790631289,
      1790631298,
      1790631313,
      1790631346,
      1790631372,
      1790631391,
      1790631400,
      1790631403,
      1790631420,
      1790631466,
      1790631501,
      1790631521,
      1790631563,
      1790631583,
      1790631613,
      1790631632,
      1790631666,
      1790631680,
      1790631692,
      1790631731,
      1790631756,
      1790631800,
      1790631817,
      1790631832,
      1790631851,
      1790631864,
      1790631884,
      1790631929,
      1790631957,
      1790631971,
      1790631985,
      1790632008,
      1790632038,
      1790632051,
      1790632063
    ],
    "wof:geomhash": "c37bd1f6deeacbef317ed810d28041f6",
    "wof:id": 2048457811,
    "wof:repo": "sfomuseum-data-flights-2026-09"
  },
  "bbox": [
    -122.35314,
    37.4911,
    -121.25186,
    37.61185
  ],
  "geometry": {"type":"LineString","coordinates":[[-121.25186,37.59421],[-121.32194,37.58542],[-121.33938,37.58357],[-121.37115,37.58033],[-121.43903,37.57303],[-121.49106,37.56667],[-121.52898,37.56191],[-121.54685,37.55976],[-121.55274,37.55906],[-121.58587,37.55507],[-121.66781,37.54053],[-121.7242,37.52711],[-121.75515,37.5196],[-121.81844,37.50424],[-121.84734,37.49733],[-121.88917,37.4911],[-121.91704,37.49193],[-121.96397,37.49311],[-121.98216,37.49446],[-121.99649,37.49752],[-122.03851,37.51094],[-122.06544,37.51966],[-122.11125,37.53476],[-122.12935,37.54078],[-122.14437,37.54559],[-122.16212,37.55117],[-122.17561,37.5554],[-122.19477,37.56155],[-122.23711,37.57542],[-122.26314,37.5838],[-122.27476,37.5869],[-122.28756,37.5904],[-122.30795,37.59548],[-122.33296,37.60366],[-122.3433,37.60777],[-122.35314,37.61185]]}
}
