{
  "id": 2048271011,
  "type": "Feature",
  "properties": {
    "geom:area": 0,
    "geom:bbox": "-122.526270,37.623560,-121.249870,38.422660",
    "geom:latitude": 38.04110539034595,
    "geom:longitude": -121.97386337030028,
    "src:alt_label": "swim-takeoff",
    "src:geom": "swim",
    "swim:elevations": [
      152,
      213,
      452,
      622,
      1089,
      1134,
      1597,
      1680,
      2109,
      2461,
      2935,
      3234,
      3255,
      3596,
      3938,
      4430,
      4646,
      5018,
      5261,
      5304,
      5750,
      5885,
      6252,
      6486,
      6507,
      6830,
      7030,
      7186,
      7403,
      7561,
      7671,
      7926
    ],
    "swim:geom": "takeoff",
    "swim:timestamps": [
      1788757915,
      1788757920,
      1788757938,
      1788757953,
      1788758007,
      1788758016,
      1788758067,
      1788758073,
      1788758112,
      1788758142,
      1788758178,
      1788758217,
      1788758223,
      1788758263,
      1788758294,
      1788758332,
      1788758356,
      1788758395,
      1788758425,
      1788758431,
      1788758485,
      1788758503,
      1788758548,
      1788758578,
      1788758581,
      1788758632,
      1788758662,
      1788758686,
      1788758722,
      1788758750,
      1788758768,
      1788758807
    ],
    "wof:geomhash": "217877e78f19d130638f84ec6e4065f8",
    "wof:id": 2048271011,
    "wof:repo": "sfomuseum-data-flights-2026-09"
  },
  "bbox": [
    -122.52627,
    37.62356,
    -121.24987,
    38.42266
  ],
  "geometry": {"type":"LineString","coordinates":[[-122.38664,37.62356],[-122.39103,37.62544],[-122.40605,37.63184],[-122.41886,37.63748],[-122.4666,37.65871],[-122.47588,37.66267],[-122.52358,37.69979],[-122.52409,37.7068],[-122.52627,37.75529],[-122.52208,37.79417],[-122.47448,37.82355],[-122.41113,37.84881],[-122.40132,37.85378],[-122.33198,37.88764],[-122.27699,37.91407],[-122.20845,37.94714],[-122.16589,37.96768],[-122.09381,38.00227],[-122.03732,38.02943],[-122.02585,38.03487],[-121.92098,38.08509],[-121.88522,38.1021],[-121.79542,38.1448],[-121.73428,38.17391],[-121.72811,38.17682],[-121.62194,38.22708],[-121.55795,38.25724],[-121.50632,38.28161],[-121.42787,38.31837],[-121.36728,38.35039],[-121.33059,38.37297],[-121.24987,38.42266]]}
}
