{
  "id": 2048230963,
  "type": "Feature",
  "properties": {
    "geom:area": 0,
    "geom:bbox": "-122.893690,37.313590,-122.085790,38.388360",
    "geom:latitude": 37.81926140796172,
    "geom:longitude": -122.53408754506131,
    "src:alt_label": "swim-approach",
    "src:geom": "swim",
    "swim:elevations": [
      7590,
      7468,
      7302,
      7112,
      6541,
      6483,
      6009,
      5821,
      5746,
      5640,
      5531,
      5325,
      5182,
      5182,
      5153,
      4972,
      4799,
      4627,
      4457,
      4339,
      4267,
      4161,
      4107,
      4033,
      3932,
      3842,
      3799,
      3718,
      3658,
      3658,
      3658,
      3660,
      3658,
      3658,
      3658,
      3600,
      3597,
      3597,
      3378,
      3354,
      3353,
      3353,
      3353,
      3353,
      3353,
      3353,
      3301,
      3213,
      3109,
      3055,
      2994,
      2826,
      2730,
      2573,
      2385,
      2310,
      2089,
      1835,
      1829,
      1829,
      1829,
      1788,
      1710,
      1457,
      1223,
      1190,
      1134,
      888,
      806,
      621,
      607,
      580,
      517,
      393,
      310,
      208,
      152,
      486
    ],
    "swim:geom": "approach",
    "swim:timestamps": [
      1788340825,
      1788340834,
      1788340850,
      1788340866,
      1788340915,
      1788340921,
      1788340966,
      1788341005,
      1788341027,
      1788341063,
      1788341083,
      1788341120,
      1788341158,
      1788341167,
      1788341186,
      1788341215,
      1788341243,
      1788341267,
      1788341295,
      1788341312,
      1788341351,
      1788341389,
      1788341404,
      1788341443,
      1788341481,
      1788341517,
      1788341534,
      1788341572,
      1788341606,
      1788341617,
      1788341667,
      1788341696,
      1788341722,
      1788341749,
      1788341762,
      1788341812,
      1788341845,
      1788341850,
      1788341906,
      1788341910,
      1788341960,
      1788341985,
      1788342026,
      1788342047,
      1788342069,
      1788342078,
      1788342096,
      1788342129,
      1788342170,
      1788342193,
      1788342220,
      1788342241,
      1788342256,
      1788342285,
      1788342323,
      1788342334,
      1788342367,
      1788342414,
      1788342445,
      1788342471,
      1788342493,
      1788342536,
      1788342546,
      1788342587,
      1788342618,
      1788342650,
      1788342666,
      1788342717,
      1788342735,
      1788342774,
      1788342777,
      1788342787,
      1788342801,
      1788342832,
      1788342853,
      1788342888,
      1788342903,
      1788342949
    ],
    "wof:geomhash": "b899ea731d086fe9492570f228fea08d",
    "wof:id": 2048230963,
    "wof:repo": "sfomuseum-data-flights-2026-09"
  },
  "bbox": [
    -122.89369,
    37.31359,
    -122.08579,
    38.38836
  ],
  "geometry": {"type":"LineString","coordinates":[[-122.89369,38.38836],[-122.88094,38.37169],[-122.86045,38.34506],[-122.83811,38.31623],[-122.77743,38.23282],[-122.77138,38.22098],[-122.74529,38.14316],[-122.72553,38.08123],[-122.71554,38.04772],[-122.7006,37.99557],[-122.69328,37.96903],[-122.68018,37.92055],[-122.67477,37.87365],[-122.68055,37.864],[-122.69991,37.84876],[-122.73953,37.84275],[-122.77367,37.85744],[-122.78938,37.88376],[-122.79917,37.91723],[-122.80518,37.93737],[-122.81808,37.98249],[-122.83089,38.02657],[-122.83622,38.04453],[-122.81475,38.0876],[-122.75688,38.1056],[-122.70424,38.1254],[-122.67937,38.135],[-122.62226,38.14918],[-122.58174,38.12539],[-122.57672,38.11309],[-122.59689,38.05525],[-122.61565,38.01721],[-122.63299,37.98185],[-122.65174,37.94331],[-122.65902,37.92617],[-122.62862,37.85763],[-122.59136,37.82238],[-122.58604,37.81732],[-122.5315,37.76534],[-122.52752,37.76153],[-122.47932,37.71655],[-122.45448,37.69306],[-122.41485,37.65585],[-122.39429,37.63648],[-122.37335,37.61671],[-122.36447,37.60767],[-122.35042,37.58949],[-122.3328,37.55426],[-122.30915,37.51111],[-122.29444,37.48696],[-122.28299,37.45782],[-122.28798,37.43551],[-122.29214,37.41954],[-122.30042,37.38861],[-122.3111,37.34844],[-122.3106,37.33681],[-122.27748,37.31359],[-122.21678,37.33211],[-122.18688,37.35719],[-122.16789,37.38069],[-122.15133,37.40074],[-122.11991,37.4399],[-122.11324,37.44812],[-122.08579,37.48065],[-122.09499,37.50455],[-122.12698,37.51431],[-122.14153,37.52041],[-122.18552,37.53905],[-122.20126,37.54559],[-122.23533,37.55997],[-122.23789,37.56106],[-122.24629,37.5646],[-122.25748,37.56935],[-122.28028,37.57902],[-122.29533,37.58532],[-122.32048,37.59583],[-122.33138,37.60042],[-122.36369,37.61573]]}
}
