{
  "id": 2048435239,
  "type": "Feature",
  "properties": {
    "geom:area": 0,
    "geom:bbox": "-122.404010,37.637180,-121.252870,37.991200",
    "geom:latitude": 37.938113168265346,
    "geom:longitude": -121.93879438986897,
    "src:alt_label": "swim-takeoff",
    "src:geom": "swim",
    "swim:elevations": [
      360,
      1137,
      1345,
      2036,
      2089,
      2551,
      2641,
      2789,
      3278,
      3404,
      3579,
      3904,
      3917,
      4149,
      4392,
      4450,
      5157,
      5392,
      5503,
      5664,
      5700,
      6086,
      6390
    ],
    "swim:geom": "takeoff",
    "swim:timestamps": [
      1790374473,
      1790374556,
      1790374596,
      1790374664,
      1790374669,
      1790374708,
      1790374716,
      1790374732,
      1790374797,
      1790374814,
      1790374838,
      1790374907,
      1790374910,
      1790374940,
      1790374976,
      1790374982,
      1790375054,
      1790375096,
      1790375108,
      1790375126,
      1790375132,
      1790375181,
      1790375224
    ],
    "wof:geomhash": "de755854703c8f3d403d9b90ea0fd6eb",
    "wof:id": 2048435239,
    "wof:repo": "sfomuseum-data-flights-2026-09"
  },
  "bbox": [
    -122.40401,
    37.63718,
    -121.25287,
    37.9912
  ],
  "geometry": {"type":"LineString","coordinates":[[-122.40401,37.63718],[-122.35748,37.70192],[-122.33869,37.74386],[-122.37813,37.82586],[-122.38066,37.83147],[-122.38609,37.88359],[-122.38575,37.89411],[-122.38114,37.91568],[-122.28461,37.96164],[-122.25089,37.9684],[-122.20418,37.97772],[-122.05414,37.98929],[-122.04521,37.98938],[-121.97403,37.98966],[-121.88672,37.98964],[-121.87188,37.98962],[-121.69316,37.99037],[-121.58682,37.99078],[-121.55578,37.99086],[-121.51005,37.99098],[-121.49454,37.99101],[-121.36712,37.99116],[-121.25287,37.9912]]}
}
