{
  "id": 2048303283,
  "type": "Feature",
  "properties": {
    "geom:area": 0,
    "geom:bbox": "-123.307500,37.888710,-122.811330,38.480830",
    "geom:latitude": 38.185366100622566,
    "geom:longitude": -123.05870140741172,
    "src:alt_label": "swim-takeoff",
    "src:geom": "swim",
    "swim:elevations": [
      4780,
      5231,
      5826,
      6226,
      6774,
      7016,
      7362,
      7469,
      7919,
      8474,
      8558,
      8916,
      9057,
      9296
    ],
    "swim:geom": "takeoff",
    "swim:timestamps": [
      1789061394,
      1789061418,
      1789061451,
      1789061478,
      1789061512,
      1789061541,
      1789061574,
      1789061582,
      1789061622,
      1789061665,
      1789061677,
      1789061719,
      1789061736,
      1789061760
    ],
    "wof:geomhash": "97eb50e24977186f892ab086a745e8da",
    "wof:id": 2048303283,
    "wof:repo": "sfomuseum-data-flights-2026-09"
  },
  "bbox": [
    -123.3075,
    37.88871,
    -122.81133,
    38.48083
  ],
  "geometry": {"type":"LineString","coordinates":[[-122.81133,37.88871],[-122.84065,37.92421],[-122.88142,37.97376],[-122.9155,38.01509],[-122.95944,38.06781],[-122.99741,38.11314],[-123.04131,38.16544],[-123.05218,38.17852],[-123.10672,38.24305],[-123.16764,38.31513],[-123.1849,38.33562],[-123.24639,38.40857],[-123.2719,38.43864],[-123.3075,38.48083]]}
}
