{
  "id": 2048346617,
  "type": "Feature",
  "properties": {
    "geom:area": 0,
    "geom:bbox": "-122.411350,37.624140,-121.261570,38.397330",
    "geom:latitude": 38.07557823391343,
    "geom:longitude": -121.94687715164137,
    "src:alt_label": "swim-takeoff",
    "src:geom": "swim",
    "swim:elevations": [
      152,
      517,
      646,
      1130,
      1386,
      1748,
      2501,
      2811,
      3413,
      3643,
      3764,
      3977,
      4324,
      4475,
      5109,
      5311,
      5606,
      5850,
      6160,
      6491,
      6618,
      6916,
      7476,
      7494,
      7976,
      8163,
      8400,
      8764,
      8814
    ],
    "swim:geom": "takeoff",
    "swim:timestamps": [
      1789512626,
      1789512653,
      1789512661,
      1789512701,
      1789512727,
      1789512757,
      1789512799,
      1789512818,
      1789512865,
      1789512898,
      1789512913,
      1789512928,
      1789512955,
      1789512966,
      1789513012,
      1789513027,
      1789513050,
      1789513072,
      1789513102,
      1789513133,
      1789513145,
      1789513173,
      1789513228,
      1789513231,
      1789513284,
      1789513306,
      1789513339,
      1789513379,
      1789513383
    ],
    "wof:geomhash": "baedc974fd4f0d0b80361112f91f3b8e",
    "wof:id": 2048346617,
    "wof:repo": "sfomuseum-data-flights-2026-09"
  },
  "bbox": [
    -122.41135,
    37.62414,
    -121.26157,
    38.39733
  ],
  "geometry": {"type":"LineString","coordinates":[[-122.38794,37.62414],[-122.40914,37.63745],[-122.41135,37.64416],[-122.38832,37.67331],[-122.36587,37.6945],[-122.34003,37.72472],[-122.35084,37.77608],[-122.36307,37.79827],[-122.38705,37.85887],[-122.38417,37.91104],[-122.37277,37.93521],[-122.35109,37.95553],[-122.29699,37.98031],[-122.27442,37.98805],[-122.17312,38.0249],[-122.13877,38.03883],[-122.08722,38.05969],[-122.03758,38.07967],[-121.96784,38.10764],[-121.89401,38.13706],[-121.86497,38.1486],[-121.79729,38.17548],[-121.66,38.22972],[-121.65248,38.23269],[-121.51637,38.28646],[-121.4597,38.30997],[-121.37396,38.34618],[-121.27192,38.39267],[-121.26157,38.39733]]}
}
