{
  "id": 2048374415,
  "type": "Feature",
  "properties": {
    "geom:area": 0,
    "geom:bbox": "-123.313000,37.626860,-122.389000,38.487670",
    "geom:latitude": 38.0144536876176,
    "geom:longitude": -122.88498177317965,
    "src:alt_label": "swim-takeoff",
    "src:geom": "swim",
    "swim:elevations": [
      122,
      152,
      601,
      889,
      1057,
      1302,
      1759,
      2085,
      2520,
      2685,
      2977,
      3238,
      3333,
      3699,
      4121,
      4326,
      4685,
      4943,
      5436,
      5627,
      5861,
      6105,
      6364,
      6574,
      6767,
      6980,
      7132
    ],
    "swim:geom": "takeoff",
    "swim:timestamps": [
      1789729258,
      1789729261,
      1789729301,
      1789729334,
      1789729367,
      1789729394,
      1789729433,
      1789729463,
      1789729498,
      1789729513,
      1789729539,
      1789729575,
      1789729594,
      1789729632,
      1789729676,
      1789729701,
      1789729735,
      1789729759,
      1789729812,
      1789729852,
      1789729877,
      1789729906,
      1789729937,
      1789729966,
      1789729993,
      1789730022,
      1789730041
    ],
    "wof:geomhash": "18c4559720d1af1c872ec74c78d18230",
    "wof:id": 2048374415,
    "wof:repo": "sfomuseum-data-flights-2026-09"
  },
  "bbox": [
    -123.313,
    37.62686,
    -122.389,
    38.48767
  ],
  "geometry": {"type":"LineString","coordinates":[[-122.389,37.62686],[-122.39092,37.62758],[-122.42822,37.64286],[-122.46049,37.65667],[-122.49732,37.67217],[-122.52904,37.69021],[-122.57611,37.71761],[-122.61262,37.73889],[-122.65892,37.7663],[-122.67717,37.77704],[-122.71214,37.79759],[-122.75874,37.82856],[-122.77847,37.85026],[-122.81901,37.89882],[-122.86538,37.95458],[-122.89227,37.98698],[-122.93146,38.03393],[-122.95871,38.06668],[-123.01974,38.13968],[-123.06864,38.19815],[-123.10015,38.23555],[-123.13596,38.27827],[-123.17618,38.32617],[-123.2132,38.37001],[-123.24964,38.41164],[-123.28797,38.45683],[-123.313,38.48767]]}
}
