{
  "id": 2048476079,
  "type": "Feature",
  "properties": {
    "geom:area": 0,
    "geom:bbox": "-122.350320,36.740900,-121.890120,37.610640",
    "geom:latitude": 37.21932421450935,
    "geom:longitude": -122.07159222227611,
    "src:alt_label": "swim-approach",
    "src:geom": "swim",
    "swim:elevations": [
      5713,
      5563,
      5237,
      4791,
      4640,
      4367,
      4151,
      4060,
      3788,
      3688,
      3501,
      3277,
      3062,
      2885,
      2725,
      2483,
      2429,
      2155,
      2069,
      1938,
      1794,
      1712,
      1554,
      1339,
      1189,
      1033,
      963,
      718,
      601,
      507,
      362,
      304,
      245,
      61,
      47
    ],
    "swim:geom": "approach",
    "swim:timestamps": [
      1790754563,
      1790754575,
      1790754604,
      1790754650,
      1790754667,
      1790754698,
      1790754734,
      1790754757,
      1790754801,
      1790754817,
      1790754840,
      1790754868,
      1790754894,
      1790754919,
      1790754946,
      1790754986,
      1790754994,
      1790755034,
      1790755046,
      1790755064,
      1790755098,
      1790755113,
      1790755146,
      1790755191,
      1790755228,
      1790755258,
      1790755277,
      1790755317,
      1790755341,
      1790755359,
      1790755397,
      1790755410,
      1790755428,
      1790755467,
      1790755472
    ],
    "wof:geomhash": "7a1e798bac77f459478b5151cc2a3447",
    "wof:id": 2048476079,
    "wof:repo": "sfomuseum-data-flights-2026-09"
  },
  "bbox": [
    -122.35032,
    36.7409,
    -121.89012,
    37.61064
  ],
  "geometry": {"type":"LineString","coordinates":[[-121.89012,36.7409],[-121.89828,36.7592],[-121.9113,36.80439],[-121.93068,36.87575],[-121.9375,36.9006],[-121.95,36.94298],[-121.9677,36.98929],[-121.97838,37.01701],[-121.9977,37.06629],[-122.00437,37.08378],[-122.01404,37.1081],[-122.02561,37.13779],[-122.03761,37.16648],[-122.04838,37.19351],[-122.05972,37.22366],[-122.07575,37.2663],[-122.07906,37.27481],[-122.09626,37.31708],[-122.10063,37.32997],[-122.10754,37.34907],[-122.12145,37.38218],[-122.12648,37.39613],[-122.13637,37.4255],[-122.1497,37.46406],[-122.15935,37.49584],[-122.1678,37.52184],[-122.1771,37.53644],[-122.21768,37.55478],[-122.24266,37.56532],[-122.26008,37.57271],[-122.29193,37.58611],[-122.30231,37.59045],[-122.31578,37.59591],[-122.34665,37.60911],[-122.35032,37.61064]]}
}
