{
  "id": 2048434915,
  "type": "Feature",
  "properties": {
    "geom:area": 0,
    "geom:bbox": "-122.429167,32.683333,-116.950000,37.025833",
    "geom:latitude": 34.723933742691116,
    "geom:longitude": -119.67885962449364,
    "src:alt_label": "swim-path",
    "src:geom": "swim",
    "swim:altitudes": [
      "249",
      "292",
      "304",
      "309",
      "325",
      "343",
      "344",
      "362",
      "365",
      "370C",
      "370C",
      "370C",
      "370C",
      "370C",
      "370C",
      "370C",
      "370C",
      "370C",
      "370C",
      "370C",
      "370C",
      "370C",
      "370C",
      "370C",
      "370C",
      "370C",
      "370C",
      "370C",
      "370C",
      "370C",
      "370C",
      "370C",
      "370C",
      "370C",
      "370C",
      "370C",
      "370C",
      "370C",
      "370C",
      "370C",
      "370C",
      "370C",
      "370C",
      "370C",
      "370C",
      "370C",
      "370C",
      "370C",
      "370C",
      "370C",
      "370C",
      "370C",
      "369",
      "359",
      "350",
      "340",
      "319",
      "293",
      "282",
      "259",
      "237",
      "208",
      "186",
      "171",
      "163",
      "141",
      "125",
      "117",
      "105",
      "102",
      "099",
      "093",
      "087",
      "082",
      "075",
      "069",
      "063",
      "061",
      "058",
      "054",
      "051",
      "046",
      "039",
      "033",
      "028",
      "023",
      "018",
      "013",
      "009",
      "004"
    ],
    "swim:geom": "path",
    "swim:speeds": [
      438,
      461,
      474,
      475,
      476,
      475,
      475,
      472,
      469,
      466,
      466,
      466,
      466,
      466,
      466,
      465,
      465,
      464,
      464,
      463,
      463,
      461,
      461,
      459,
      460,
      461,
      462,
      463,
      464,
      464,
      465,
      465,
      469,
      469,
      471,
      471,
      474,
      475,
      477,
      477,
      478,
      478,
      478,
      478,
      477,
      477,
      475,
      475,
      475,
      475,
      475,
      475,
      476,
      477,
      479,
      480,
      478,
      462,
      457,
      443,
      421,
      401,
      387,
      383,
      373,
      367,
      359,
      351,
      332,
      301,
      281,
      266,
      266,
      258,
      259,
      255,
      257,
      243,
      243,
      238,
      236,
      232,
      224,
      200,
      186,
      176,
      178,
      158,
      141,
      132
    ],
    "swim:timestamps": [
      1790382753,
      1790382879,
      1790382933,
      1790382939,
      1790382993,
      1790383053,
      1790383059,
      1790383113,
      1790383120,
      1790383173,
      1790383180,
      1790383233,
      1790383240,
      1790383293,
      1790383300,
      1790383354,
      1790383360,
      1790383414,
      1790383420,
      1790383474,
      1790383480,
      1790383534,
      1790383540,
      1790383600,
      1790383654,
      1790383660,
      1790383714,
      1790383721,
      1790383774,
      1790383781,
      1790383834,
      1790383841,
      1790383894,
      1790383901,
      1790383954,
      1790383961,
      1790384015,
      1790384021,
      1790384075,
      1790384081,
      1790384135,
      1790384141,
      1790384195,
      1790384201,
      1790384255,
      1790384262,
      1790384322,
      1790384382,
      1790384442,
      1790384502,
      1790384562,
      1790384622,
      1790384682,
      1790384742,
      1790384802,
      1790384863,
      1790384923,
      1790384983,
      1790385043,
      1790385103,
      1790385158,
      1790385237,
      1790385297,
      1790385343,
      1790385362,
      1790385417,
      1790385463,
      1790385477,
      1790385524,
      1790385542,
      1790385584,
      1790385602,
      1790385644,
      1790385658,
      1790385704,
      1790385722,
      1790385764,
      1790385778,
      1790385824,
      1790385838,
      1790385884,
      1790385898,
      1790385944,
      1790385963,
      1790386004,
      1790386023,
      1790386064,
      1790386083,
      1790386124,
      1790386144
    ],
    "wof:geomhash": "de40cc124119dc0198a797ed17b8f28e",
    "wof:id": 2048434915,
    "wof:repo": "sfomuseum-data-flights-2026-09"
  },
  "bbox": [
    -122.42916666666667,
    32.68333333333333,
    -116.95,
    37.02583333333333
  ],
  "geometry": {"type":"LineString","coordinates":[[-122.42916666666667,37.02583333333333],[-122.22555555555556,36.80555555555555],[-122.14611111111111,36.718611111111116],[-122.12833333333333,36.69916666666666],[-122.04888888888888,36.61222222222222],[-121.95166666666667,36.505],[-121.93555555555555,36.487500000000004],[-121.85527777777777,36.399166666666666],[-121.83972222222222,36.38166666666667],[-121.74361111111111,36.27444444444444],[-121.74638888888889,36.277499999999996],[-121.64972222222222,36.17027777777778],[-121.65138888888889,36.17222222222222],[-121.55583333333333,36.06527777777777],[-121.55722222222222,36.066944444444445],[-121.46194444444444,35.96055555555556],[-121.465,35.96416666666667],[-121.36999999999999,35.8575],[-121.37166666666666,35.85916666666667],[-121.27805555555555,35.75361111111111],[-121.27972222222222,35.75527777777778],[-121.1863888888889,35.64972222222222],[-121.18805555555556,35.651666666666664],[-121.09916666666666,35.55083333333333],[-120.97694444444444,35.46333333333334],[-120.98333333333333,35.466944444444444],[-120.84944444444444,35.38916666666667],[-120.85333333333332,35.39138888888889],[-120.72194444444445,35.31527777777777],[-120.72416666666666,35.31638888888889],[-120.5936111111111,35.24027777777778],[-120.5936111111111,35.24027777777778],[-120.465,35.164722222222224],[-120.46277777777777,35.163333333333334],[-120.33666666666666,35.08861111111111],[-120.33222222222221,35.08583333333333],[-120.20777777777778,35.0125],[-120.19916666666667,35.0075],[-120.075,34.933611111111105],[-120.0525,34.92027777777778],[-119.94444444444444,34.85611111111111],[-119.92277777777778,34.84305555555556],[-119.815,34.77861111111111],[-119.79138888888889,34.76444444444444],[-119.68472222222222,34.70027777777778],[-119.66222222222223,34.68666666666666],[-119.53305555555555,34.60888888888889],[-119.41333333333334,34.53638888888889],[-119.28527777777778,34.45888888888889],[-119.15666666666667,34.38027777777778],[-119.02777777777777,34.30138888888889],[-118.90138888888889,34.223888888888894],[-118.77222222222223,34.14472222222222],[-118.64333333333335,34.06472222222222],[-118.51444444444445,33.98527777777778],[-118.38805555555557,33.89972222222222],[-118.26833333333333,33.80722222222222],[-118.14972222222222,33.71555555555556],[-118.03777777777778,33.63055555555555],[-117.92777777777778,33.545833333333334],[-117.83333333333333,33.46666666666667],[-117.71666666666667,33.35],[-117.61666666666666,33.266666666666666],[-117.56472222222222,33.21416666666667],[-117.53333333333333,33.18333333333333],[-117.46666666666667,33.11666666666667],[-117.415,33.05472222222222],[-117.4,33.03333333333333],[-117.35499999999999,32.983333333333334],[-117.33333333333333,32.95],[-117.30027777777778,32.9175],[-117.28333333333333,32.88333333333333],[-117.24972222222222,32.85722222222223],[-117.23333333333333,32.833333333333336],[-117.19166666666668,32.80722222222222],[-117.15,32.8],[-117.11083333333333,32.788888888888884],[-117.08333333333333,32.78333333333333],[-117.03416666666666,32.77166666666667],[-117,32.766666666666666],[-116.96388888888889,32.7475],[-116.95,32.71666666666667],[-116.9775,32.69277777777778],[-117,32.68333333333333],[-117.03944444444444,32.69694444444444],[-117.06666666666666,32.7],[-117.095,32.71055555555556],[-117.11666666666666,32.71666666666667],[-117.14333333333335,32.72222222222222],[-117.16666666666667,32.733333333333334]]}
}
