{
  "id": 2048370339,
  "type": "Feature",
  "properties": {
    "geom:area": 0,
    "geom:bbox": "-122.350580,37.395430,-121.243070,37.610130",
    "geom:latitude": 37.52998776215478,
    "geom:longitude": -121.80366239170688,
    "src:alt_label": "swim-approach",
    "src:geom": "swim",
    "swim:elevations": [
      4669,
      4500,
      4312,
      3856,
      3636,
      3431,
      3323,
      3354,
      3353,
      3353,
      3267,
      3107,
      2814,
      2779,
      2541,
      2436,
      2438,
      2438,
      2438,
      2379,
      2158,
      2134,
      2002,
      1870,
      1830,
      1578,
      1457,
      1274,
      994,
      941,
      883,
      791,
      766,
      662,
      425,
      413,
      226,
      110,
      62
    ],
    "swim:geom": "approach",
    "swim:timestamps": [
      1789759858,
      1789759875,
      1789759891,
      1789759939,
      1789759961,
      1789759990,
      1789760017,
      1789760050,
      1789760074,
      1789760105,
      1789760120,
      1789760145,
      1789760187,
      1789760193,
      1789760243,
      1789760267,
      1789760285,
      1789760303,
      1789760333,
      1789760351,
      1789760389,
      1789760421,
      1789760446,
      1789760468,
      1789760495,
      1789760543,
      1789760561,
      1789760589,
      1789760634,
      1789760642,
      1789760651,
      1789760681,
      1789760702,
      1789760732,
      1789760786,
      1789760790,
      1789760840,
      1789760872,
      1789760888
    ],
    "wof:geomhash": "41545cd118b50d4907031e0294437b6b",
    "wof:id": 2048370339,
    "wof:repo": "sfomuseum-data-flights-2026-09"
  },
  "bbox": [
    -122.35058,
    37.39543,
    -121.24307,
    37.61013
  ],
  "geometry": {"type":"LineString","coordinates":[[-121.24307,37.59544],[-121.27821,37.59064],[-121.31247,37.58666],[-121.40837,37.57623],[-121.45299,37.57117],[-121.50818,37.56453],[-121.55548,37.55948],[-121.6054,37.57095],[-121.6383,37.58102],[-121.67962,37.59355],[-121.70042,37.59975],[-121.73538,37.61013],[-121.78988,37.59131],[-121.793,37.58491],[-121.79068,37.52565],[-121.78758,37.49714],[-121.78522,37.47594],[-121.78302,37.45514],[-121.78131,37.42002],[-121.79325,37.40233],[-121.84475,37.39543],[-121.88321,37.41025],[-121.91227,37.42333],[-121.93804,37.43462],[-121.96992,37.44787],[-122.02591,37.4716],[-122.04681,37.48038],[-122.07885,37.49399],[-122.12825,37.51494],[-122.13681,37.51845],[-122.14644,37.5225],[-122.17816,37.53597],[-122.19964,37.54502],[-122.22777,37.55688],[-122.27456,37.57675],[-122.27804,37.57819],[-122.31513,37.5938],[-122.3388,37.60354],[-122.35058,37.6084]]}
}
