{
  "id": 2048360153,
  "type": "Feature",
  "properties": {
    "geom:area": 0,
    "geom:bbox": "-122.355560,37.460570,-121.254690,37.613100",
    "geom:latitude": 37.54300614754026,
    "geom:longitude": -121.81452119381574,
    "src:alt_label": "swim-approach",
    "src:geom": "swim",
    "swim:elevations": [
      5018,
      4817,
      4283,
      3956,
      3701,
      3381,
      3271,
      3201,
      3045,
      3048,
      3048,
      2865,
      2706,
      2511,
      2438,
      2438,
      2279,
      2018,
      1888,
      1719,
      1600,
      1498,
      1098,
      936,
      872,
      635,
      517,
      363,
      272,
      0
    ],
    "swim:geom": "approach",
    "swim:timestamps": [
      1789639006,
      1789639021,
      1789639063,
      1789639100,
      1789639127,
      1789639156,
      1789639180,
      1789639202,
      1789639241,
      1789639262,
      1789639308,
      1789639336,
      1789639363,
      1789639395,
      1789639435,
      1789639442,
      1789639481,
      1789639516,
      1789639537,
      1789639571,
      1789639592,
      1789639629,
      1789639697,
      1789639730,
      1789639744,
      1789639794,
      1789639817,
      1789639851,
      1789639877,
      1789639940
    ],
    "wof:geomhash": "d5dc962cdbf613b8b10b167312f172dd",
    "wof:id": 2048360153,
    "wof:repo": "sfomuseum-data-flights-2026-09"
  },
  "bbox": [
    -122.35556,
    37.46057,
    -121.25469,
    37.6131
  ],
  "geometry": {"type":"LineString","coordinates":[[-121.25469,37.59336],[-121.28265,37.58972],[-121.36265,37.58096],[-121.43221,37.57298],[-121.48126,37.56719],[-121.53479,37.56092],[-121.57779,37.55596],[-121.61515,37.55162],[-121.67621,37.5515],[-121.70449,37.56273],[-121.76225,37.58519],[-121.79693,37.57835],[-121.81502,37.55317],[-121.83087,37.52164],[-121.85298,37.48201],[-121.85834,37.47581],[-121.90631,37.46388],[-121.95368,37.46159],[-121.9811,37.46057],[-122.02442,37.4734],[-122.04917,37.4836],[-122.08866,37.50036],[-122.15422,37.52806],[-122.18296,37.54022],[-122.1953,37.5454],[-122.23967,37.56415],[-122.26048,37.57289],[-122.28947,37.58508],[-122.30917,37.59335],[-122.35556,37.6131]]}
}
