{
  "id": 2048309317,
  "type": "Feature",
  "properties": {
    "geom:area": 0,
    "geom:bbox": "-122.303770,36.724950,-121.880820,37.588790",
    "geom:latitude": 37.191339381095375,
    "geom:longitude": -122.07799755918435,
    "src:alt_label": "swim-approach",
    "src:geom": "swim",
    "swim:elevations": [
      5742,
      5675,
      5091,
      4752,
      4643,
      4359,
      3813,
      3746,
      3234,
      3208,
      3046,
      3048,
      2828,
      2773,
      2547,
      2358,
      2060,
      1901,
      1845,
      1827,
      1475,
      1407,
      1256,
      1184,
      1052,
      977,
      763,
      735,
      580,
      444,
      321,
      273
    ],
    "swim:geom": "approach",
    "swim:timestamps": [
      1789140388,
      1789140393,
      1789140445,
      1789140478,
      1789140487,
      1789140514,
      1789140565,
      1789140573,
      1789140623,
      1789140627,
      1789140652,
      1789140668,
      1789140711,
      1789140726,
      1789140764,
      1789140793,
      1789140836,
      1789140868,
      1789140889,
      1789140900,
      1789140956,
      1789140984,
      1789141018,
      1789141031,
      1789141063,
      1789141082,
      1789141135,
      1789141143,
      1789141179,
      1789141219,
      1789141258,
      1789141271
    ],
    "wof:geomhash": "ec8b0ceaa836ea65c77bfe44c9ad6769",
    "wof:id": 2048309317,
    "wof:repo": "sfomuseum-data-flights-2026-09"
  },
  "bbox": [
    -122.30377,
    36.72495,
    -121.88082,
    37.58879
  ],
  "geometry": {"type":"LineString","coordinates":[[-121.88082,36.72495],[-121.88526,36.73189],[-121.91468,36.81522],[-121.92915,36.86721],[-121.93318,36.88146],[-121.94559,36.9242],[-121.97237,37.00135],[-121.9767,37.0123],[-122.00581,37.08708],[-122.00791,37.0926],[-122.02143,37.1276],[-122.03226,37.14776],[-122.07995,37.18844],[-122.09631,37.20176],[-122.13449,37.23298],[-122.16226,37.25605],[-122.20219,37.29024],[-122.20467,37.32342],[-122.18773,37.34239],[-122.17886,37.35189],[-122.16478,37.41008],[-122.15993,37.43745],[-122.15425,37.46825],[-122.15209,37.48031],[-122.15972,37.50603],[-122.17028,37.5191],[-122.20374,37.54685],[-122.21031,37.54964],[-122.23993,37.5619],[-122.26899,37.57425],[-122.29501,37.58498],[-122.30377,37.58879]]}
}
