{
  "id": 2048435249,
  "type": "Feature",
  "properties": {
    "geom:area": 0,
    "geom:bbox": "-122.531920,36.730690,-121.326170,37.664370",
    "geom:latitude": 37.194973145963196,
    "geom:longitude": -122.01794966173048,
    "src:alt_label": "swim-takeoff",
    "src:geom": "swim",
    "swim:elevations": [
      183,
      353,
      1156,
      1327,
      1561,
      2323,
      2454,
      3253,
      3368,
      3801,
      4077,
      4206,
      4306,
      4416,
      5034,
      5116,
      5203,
      5544,
      5611,
      6232,
      6612,
      6732,
      6953,
      7032,
      7220,
      7280,
      7377,
      7710
    ],
    "swim:geom": "takeoff",
    "swim:timestamps": [
      1790343465,
      1790343482,
      1790343567,
      1790343590,
      1790343606,
      1790343654,
      1790343663,
      1790343718,
      1790343728,
      1790343766,
      1790343803,
      1790343834,
      1790343858,
      1790343878,
      1790343953,
      1790343961,
      1790343972,
      1790344017,
      1790344024,
      1790344111,
      1790344168,
      1790344189,
      1790344220,
      1790344236,
      1790344263,
      1790344272,
      1790344287,
      1790344336
    ],
    "wof:geomhash": "2f7d67fe1f51237317262ccf7bf841ff",
    "wof:id": 2048435249,
    "wof:repo": "sfomuseum-data-flights-2026-09"
  },
  "bbox": [
    -122.53192,
    36.73069,
    -121.32617,
    37.66437
  ],
  "geometry": {"type":"LineString","coordinates":[[-122.39,37.62736],[-122.40475,37.63347],[-122.48888,37.66437],[-122.5186,37.65509],[-122.53192,37.63836],[-122.52571,37.57699],[-122.52147,37.56606],[-122.47595,37.50309],[-122.46725,37.49137],[-122.43303,37.44561],[-122.39233,37.40179],[-122.34288,37.36887],[-122.30144,37.34336],[-122.26286,37.31991],[-122.11904,37.23056],[-122.10303,37.22067],[-122.08186,37.20744],[-121.99488,37.15247],[-121.98023,37.14317],[-121.80325,37.03205],[-121.68621,36.95843],[-121.64109,36.9299],[-121.57501,36.88812],[-121.54089,36.86654],[-121.48248,36.82954],[-121.4633,36.81735],[-121.43153,36.79718],[-121.32617,36.73069]]}
}
