{
  "id": 2048435411,
  "type": "Feature",
  "properties": {
    "geom:area": 0,
    "geom:bbox": "-122.487778,34.183333,-118.345833,37.649167",
    "geom:latitude": 35.78108635690146,
    "geom:longitude": -120.50069895346667,
    "src:alt_label": "swim-path",
    "src:geom": "swim",
    "swim:altitudes": [
      "032",
      "050",
      "056",
      "083",
      "091",
      "109",
      "117",
      "128",
      "142",
      "155",
      "167",
      "183",
      "206",
      "232",
      "249",
      "270",
      "296",
      "307",
      "310C",
      "310C",
      "310C",
      "310C",
      "310C",
      "310C",
      "310C",
      "310C",
      "310C",
      "310C",
      "310C",
      "309",
      "298",
      "289",
      "272",
      "258",
      "235",
      "215",
      "189",
      "171",
      "158",
      "142",
      "141",
      "124",
      "113",
      "100",
      "090",
      "081",
      "070",
      "060",
      "049",
      "040",
      "031",
      "021",
      "013",
      "007"
    ],
    "swim:geom": "path",
    "swim:speeds": [
      165,
      222,
      241,
      262,
      266,
      309,
      328,
      360,
      370,
      386,
      392,
      385,
      406,
      438,
      435,
      444,
      448,
      449,
      451,
      465,
      474,
      476,
      476,
      475,
      474,
      474,
      476,
      476,
      476,
      476,
      462,
      465,
      467,
      455,
      453,
      432,
      419,
      413,
      409,
      393,
      395,
      369,
      328,
      298,
      267,
      245,
      245,
      246,
      238,
      239,
      235,
      188,
      154,
      150
    ],
    "swim:timestamps": [
      1790359185,
      1790359214,
      1790359245,
      1790359275,
      1790359305,
      1790359340,
      1790359365,
      1790359394,
      1790359425,
      1790359455,
      1790359485,
      1790359542,
      1790359602,
      1790359666,
      1790359722,
      1790359782,
      1790359846,
      1790359902,
      1790359962,
      1790360026,
      1790360086,
      1790360143,
      1790360203,
      1790360263,
      1790360323,
      1790360383,
      1790360443,
      1790360507,
      1790360567,
      1790360623,
      1790360684,
      1790360744,
      1790360808,
      1790360864,
      1790360924,
      1790360984,
      1790361044,
      1790361108,
      1790361168,
      1790361215,
      1790361225,
      1790361285,
      1790361345,
      1790361402,
      1790361467,
      1790361521,
      1790361581,
      1790361643,
      1790361702,
      1790361762,
      1790361826,
      1790361886,
      1790361946,
      1790362006
    ],
    "wof:geomhash": "785b03564c650177069eb103e472ec16",
    "wof:id": 2048435411,
    "wof:repo": "sfomuseum-data-flights-2026-09"
  },
  "bbox": [
    -122.48777777777778,
    34.18333333333333,
    -118.34583333333333,
    37.649166666666666
  ],
  "geometry": {"type":"LineString","coordinates":[[-122.44694444444445,37.649166666666666],[-122.48333333333333,37.63333333333333],[-122.48777777777778,37.62111111111111],[-122.45,37.583333333333336],[-122.4325,37.562777777777775],[-122.38333333333334,37.516666666666666],[-122.34916666666666,37.486666666666665],[-122.31666666666666,37.45],[-122.26472222222222,37.41],[-122.21666666666667,37.36666666666667],[-122.17472222222223,37.32805555555556],[-122.10777777777777,37.26361111111111],[-122.01305555555555,37.17388888888889],[-121.88611111111112,37.06166666666666],[-121.81166666666667,36.98916666666667],[-121.70944444444444,36.89361111111111],[-121.58027777777778,36.77638888888889],[-121.50527777777778,36.703611111111115],[-121.40166666666667,36.60805555555556],[-121.26972222222223,36.485],[-121.16388888888889,36.38472222222222],[-121.08305555555555,36.30638888888888],[-120.98111111111112,36.20638888888889],[-120.87583333333333,36.10305555555556],[-120.7725,36.001666666666665],[-120.66944444444445,35.9],[-120.565,35.79694444444444],[-120.43861111111111,35.67055555555555],[-120.33361111111111,35.56583333333333],[-120.25055555555555,35.486666666666665],[-120.14361111111111,35.385],[-120.0411111111111,35.28583333333333],[-119.93583333333333,35.18388888888889],[-119.83833333333332,35.08916666666667],[-119.73861111111111,34.992222222222225],[-119.64444444444445,34.900555555555556],[-119.54027777777777,34.822500000000005],[-119.42944444444444,34.74777777777778],[-119.32111111111111,34.67777777777778],[-119.21666666666667,34.61666666666667],[-119.21333333333334,34.61611111111111],[-119.11083333333333,34.5675],[-119.02166666666666,34.51361111111111],[-118.95,34.43333333333333],[-118.9,34.36666666666667],[-118.85,34.31666666666667],[-118.78333333333333,34.266666666666666],[-118.73333333333333,34.21666666666667],[-118.66666666666667,34.18333333333333],[-118.58333333333333,34.2],[-118.51916666666666,34.2],[-118.45111111111112,34.19916666666666],[-118.39861111111112,34.19833333333333],[-118.34583333333333,34.1975]]}
}
