{
  "id": 2048241067,
  "type": "Feature",
  "properties": {
    "geom:area": 0,
    "geom:bbox": "-122.761100,37.418200,-122.099960,38.408390",
    "geom:latitude": 37.77934573007858,
    "geom:longitude": -122.46201726417901,
    "src:alt_label": "swim-approach",
    "src:geom": "swim",
    "swim:elevations": [
      7620,
      7304,
      6926,
      6664,
      6454,
      5942,
      5908,
      5492,
      5159,
      4687,
      4408,
      4061,
      3964,
      3685,
      3604,
      3461,
      3350,
      3353,
      3353,
      3353,
      3353,
      3235,
      3024,
      2776,
      2565,
      2316,
      2128,
      1986,
      1616,
      1426,
      1366,
      1201,
      1113,
      914,
      914,
      838,
      634,
      558,
      399,
      367,
      222,
      82,
      30
    ],
    "swim:geom": "approach",
    "swim:timestamps": [
      1788460645,
      1788460674,
      1788460707,
      1788460731,
      1788460750,
      1788460796,
      1788460800,
      1788460835,
      1788460869,
      1788460917,
      1788460941,
      1788460977,
      1788460989,
      1788461037,
      1788461053,
      1788461084,
      1788461114,
      1788461148,
      1788461187,
      1788461212,
      1788461229,
      1788461264,
      1788461302,
      1788461337,
      1788461363,
      1788461395,
      1788461415,
      1788461432,
      1788461474,
      1788461506,
      1788461525,
      1788461575,
      1788461586,
      1788461635,
      1788461641,
      1788461683,
      1788461724,
      1788461741,
      1788461784,
      1788461792,
      1788461833,
      1788461870,
      1788461894
    ],
    "wof:geomhash": "00dadc3b78da2e41db73ffef58077b52",
    "wof:id": 2048241067,
    "wof:repo": "sfomuseum-data-flights-2026-09"
  },
  "bbox": [
    -122.7611,
    37.4182,
    -122.09996,
    38.40839
  ],
  "geometry": {"type":"LineString","coordinates":[[-122.69431,38.40839],[-122.71437,38.35837],[-122.73629,38.3033],[-122.7525,38.26276],[-122.7611,38.2308],[-122.7454,38.14879],[-122.74338,38.14175],[-122.72544,38.07917],[-122.70911,38.02286],[-122.68565,37.94193],[-122.67081,37.90456],[-122.62684,37.85592],[-122.61045,37.8403],[-122.55075,37.78373],[-122.53142,37.76563],[-122.49779,37.73383],[-122.46669,37.7044],[-122.43342,37.67349],[-122.39691,37.63899],[-122.3741,37.61726],[-122.35809,37.60198],[-122.3359,37.56626],[-122.31645,37.52659],[-122.29927,37.48963],[-122.28532,37.46448],[-122.24567,37.44768],[-122.22018,37.44038],[-122.19836,37.43381],[-122.14821,37.4182],[-122.11124,37.4216],[-122.09996,37.43751],[-122.1012,37.48059],[-122.1085,37.48882],[-122.14579,37.52213],[-122.15177,37.52476],[-122.19267,37.54209],[-122.23108,37.55822],[-122.24602,37.56449],[-122.28029,37.57891],[-122.28658,37.58155],[-122.31672,37.59428],[-122.34474,37.60604],[-122.3623,37.6133]]}
}
