{
  "id": 2048269107,
  "type": "Feature",
  "properties": {
    "geom:area": 0,
    "geom:bbox": "-122.521640,37.627390,-121.474150,38.491070",
    "geom:latitude": 38.06024479055516,
    "geom:longitude": -122.05562767869202,
    "src:alt_label": "swim-takeoff",
    "src:geom": "swim",
    "swim:elevations": [
      213,
      486,
      720,
      1061,
      1446,
      1940,
      2338,
      2647,
      2746,
      2743,
      2748,
      2822,
      3215,
      3429,
      3625,
      3982,
      4355,
      4626,
      4960,
      5293,
      5538,
      5847,
      6019,
      6295,
      6512,
      6531,
      6860,
      6894
    ],
    "swim:geom": "takeoff",
    "swim:timestamps": [
      1788681314,
      1788681335,
      1788681371,
      1788681403,
      1788681432,
      1788681470,
      1788681498,
      1788681526,
      1788681547,
      1788681584,
      1788681615,
      1788681634,
      1788681673,
      1788681714,
      1788681733,
      1788681766,
      1788681802,
      1788681827,
      1788681860,
      1788681895,
      1788681924,
      1788681956,
      1788681972,
      1788682010,
      1788682045,
      1788682052,
      1788682103,
      1788682110
    ],
    "wof:geomhash": "556e0c0bcbb527172886cf284b0c89f9",
    "wof:id": 2048269107,
    "wof:repo": "sfomuseum-data-flights-2026-09"
  },
  "bbox": [
    -122.52164,
    37.62739,
    -121.47415,
    38.49107
  ],
  "geometry": {"type":"LineString","coordinates":[[-122.39475,37.62739],[-122.41379,37.63613],[-122.45263,37.65238],[-122.49182,37.66917],[-122.52164,37.69322],[-122.5071,37.73741],[-122.47258,37.76291],[-122.43836,37.78829],[-122.41119,37.80865],[-122.36426,37.84395],[-122.32558,37.87301],[-122.30096,37.89142],[-122.25186,37.92827],[-122.19237,37.97253],[-122.16229,37.99475],[-122.10965,38.03365],[-122.04971,38.07817],[-122.00745,38.10944],[-121.94974,38.15201],[-121.88837,38.19711],[-121.83494,38.23643],[-121.77603,38.27964],[-121.74605,38.30166],[-121.67509,38.3536],[-121.60741,38.403],[-121.59406,38.41274],[-121.48905,38.48191],[-121.47415,38.49107]]}
}
