{
  "id": 2048454451,
  "type": "Feature",
  "properties": {
    "geom:area": 0,
    "geom:bbox": "-122.357980,37.491310,-121.793680,37.613900",
    "geom:latitude": 37.53496655243106,
    "geom:longitude": -122.07812626420379,
    "src:alt_label": "swim-approach",
    "src:geom": "swim",
    "swim:elevations": [
      2438,
      2352,
      2101,
      1964,
      1829,
      1829,
      1652,
      1497,
      1324,
      1223,
      1165,
      983,
      936,
      827,
      612,
      487,
      394,
      267,
      120,
      0
    ],
    "swim:geom": "approach",
    "swim:timestamps": [
      1790592601,
      1790592623,
      1790592658,
      1790592673,
      1790592710,
      1790592722,
      1790592772,
      1790592796,
      1790592823,
      1790592846,
      1790592873,
      1790592894,
      1790592905,
      1790592943,
      1790592976,
      1790593018,
      1790593040,
      1790593073,
      1790593106,
      1790593132
    ],
    "wof:geomhash": "7033a454a793a988f6f13521d4c29324",
    "wof:id": 2048454451,
    "wof:repo": "sfomuseum-data-flights-2026-09"
  },
  "bbox": [
    -122.35798,
    37.49131,
    -121.79368,
    37.6139
  ],
  "geometry": {"type":"LineString","coordinates":[[-121.79368,37.5104],[-121.82313,37.50331],[-121.86903,37.49235],[-121.88963,37.49131],[-121.93842,37.49251],[-121.95365,37.49293],[-122.01715,37.50415],[-122.04359,37.51267],[-122.07229,37.52197],[-122.09588,37.52956],[-122.12355,37.53862],[-122.14441,37.54538],[-122.15484,37.54874],[-122.19287,37.56109],[-122.22783,37.57246],[-122.26446,37.58416],[-122.28258,37.58918],[-122.30997,37.59695],[-122.33693,37.60532],[-122.35798,37.6139]]}
}
