{
  "id": 2048338393,
  "type": "Feature",
  "properties": {
    "geom:area": 0,
    "geom:bbox": "-122.407040,37.623690,-121.331920,38.012110",
    "geom:latitude": 37.85025525361857,
    "geom:longitude": -121.89154209372434,
    "src:alt_label": "swim-takeoff",
    "src:geom": "swim",
    "swim:elevations": [
      152,
      152,
      614,
      1166,
      1610,
      1662,
      1842,
      2489,
      2636,
      3392,
      3594,
      3737,
      4190,
      4628,
      5086,
      5381,
      5827,
      5981,
      6409,
      6721,
      6863,
      7132,
      7280,
      7364
    ],
    "swim:geom": "takeoff",
    "swim:timestamps": [
      1789395749,
      1789395750,
      1789395783,
      1789395824,
      1789395864,
      1789395870,
      1789395884,
      1789395925,
      1789395933,
      1789395987,
      1789396012,
      1789396026,
      1789396063,
      1789396094,
      1789396125,
      1789396154,
      1789396190,
      1789396208,
      1789396245,
      1789396273,
      1789396291,
      1789396318,
      1789396342,
      1789396350
    ],
    "wof:geomhash": "7f72b6ec816c1b46864298341902f617",
    "wof:id": 2048338393,
    "wof:repo": "sfomuseum-data-flights-2026-09"
  },
  "bbox": [
    -122.40704,
    37.62369,
    -121.33192,
    38.01211
  ],
  "geometry": {"type":"LineString","coordinates":[[-122.38694,37.62369],[-122.38786,37.62406],[-122.40704,37.64486],[-122.37296,37.66663],[-122.32406,37.68205],[-122.31459,37.6852],[-122.2944,37.69178],[-122.23281,37.71171],[-122.22097,37.71596],[-122.14168,37.75534],[-122.10096,37.77639],[-122.07641,37.78906],[-122.00965,37.82277],[-121.94708,37.84913],[-121.88379,37.87417],[-121.82216,37.89844],[-121.74169,37.92993],[-121.69989,37.94329],[-121.60869,37.95956],[-121.53585,37.97186],[-121.48912,37.98086],[-121.41907,37.99469],[-121.35361,38.00782],[-121.33192,38.01211]]}
}
