{
  "id": 2048326609,
  "type": "Feature",
  "properties": {
    "geom:area": 0,
    "geom:bbox": "-122.351250,37.491600,-121.262700,37.611080",
    "geom:latitude": 37.545696928788416,
    "geom:longitude": -121.81169870691404,
    "src:alt_label": "swim-approach",
    "src:geom": "swim",
    "swim:elevations": [
      4913,
      4871,
      4599,
      4511,
      4215,
      3864,
      3599,
      3387,
      3290,
      3048,
      2827,
      2612,
      2444,
      2180,
      2142,
      2072,
      1943,
      1847,
      1819,
      1694,
      1556,
      1381,
      1085,
      905,
      729,
      679,
      538,
      324,
      305,
      195,
      186,
      181,
      56
    ],
    "swim:geom": "approach",
    "swim:timestamps": [
      1789334299,
      1789334305,
      1789334336,
      1789334346,
      1789334380,
      1789334421,
      1789334454,
      1789334479,
      1789334493,
      1789334534,
      1789334566,
      1789334595,
      1789334628,
      1789334667,
      1789334673,
      1789334690,
      1789334720,
      1789334741,
      1789334748,
      1789334771,
      1789334792,
      1789334823,
      1789334873,
      1789334903,
      1789334938,
      1789334949,
      1789334977,
      1789335025,
      1789335031,
      1789335058,
      1789335061,
      1789335064,
      1789335095
    ],
    "wof:geomhash": "92b057d27bb4a3d2b0c370418861cba0",
    "wof:id": 2048326609,
    "wof:repo": "sfomuseum-data-flights-2026-09"
  },
  "bbox": [
    -122.35125,
    37.4916,
    -121.2627,
    37.61108
  ],
  "geometry": {"type":"LineString","coordinates":[[-121.2627,37.59283],[-121.27324,37.59141],[-121.32667,37.58551],[-121.34544,37.5834],[-121.40485,37.57647],[-121.47751,37.568],[-121.53356,37.56142],[-121.57535,37.55661],[-121.59896,37.55385],[-121.6657,37.54103],[-121.71503,37.5293],[-121.76063,37.51831],[-121.81025,37.50653],[-121.86706,37.49304],[-121.87619,37.49192],[-121.90294,37.4916],[-121.94547,37.49254],[-121.97571,37.49363],[-121.98556,37.49499],[-122.01479,37.50359],[-122.04181,37.51195],[-122.08208,37.52527],[-122.14483,37.5456],[-122.18031,37.55706],[-122.21551,37.5684],[-122.22584,37.57168],[-122.253,37.58057],[-122.2973,37.59353],[-122.30235,37.59499],[-122.32353,37.6015],[-122.32576,37.60214],[-122.32804,37.60281],[-122.35125,37.61108]]}
}
