{
  "id": 2048475765,
  "type": "Feature",
  "properties": {
    "geom:area": 0,
    "geom:bbox": "-122.350278,37.492778,-104.783333,39.859444",
    "geom:latitude": 38.756084205145754,
    "geom:longitude": -113.59094305642093,
    "src:alt_label": "swim-path",
    "src:geom": "swim",
    "swim:altitudes": [
      "077",
      "087",
      "093",
      "103",
      "107",
      "117",
      "125",
      "139",
      "145",
      "159",
      "166",
      "178",
      "194",
      "208",
      "226",
      "243",
      "257",
      "270",
      "281",
      "284",
      "293",
      "300",
      "301",
      "312",
      "324",
      "336",
      "340C",
      "340C",
      "340C",
      "340C",
      "340C",
      "340C",
      "339C",
      "339C",
      "339C",
      "339C",
      "340C",
      "340C",
      "340C",
      "340C",
      "340C",
      "340C",
      "340C",
      "340C",
      "340C",
      "340C",
      "340C",
      "340C",
      "340C",
      "340C",
      "340C",
      "340C",
      "340C",
      "340C",
      "339C",
      "339C",
      "340C",
      "340C",
      "340C",
      "340C",
      "339C",
      "339C",
      "339C",
      "340C",
      "339C",
      "340C",
      "340C",
      "340C",
      "340C",
      "340C",
      "340C",
      "340C",
      "340C",
      "340C",
      "340C",
      "340C",
      "340C",
      "339C",
      "340C",
      "340C",
      "340C",
      "340C",
      "340C",
      "340C",
      "340C",
      "340C",
      "340C",
      "339C",
      "340C",
      "340C",
      "340C",
      "339C",
      "340C",
      "339C",
      "340C",
      "339C",
      "340C",
      "340C",
      "340C",
      "340C",
      "340C",
      "340C",
      "340C",
      "340C",
      "340C",
      "340C",
      "339C",
      "340C",
      "340C",
      "340C",
      "340C",
      "340C",
      "340C",
      "340C",
      "340C",
      "340C",
      "339C",
      "339C",
      "340C",
      "340C",
      "340C",
      "340C",
      "340C",
      "340C",
      "340C",
      "340C",
      "340C",
      "340C",
      "340C",
      "340C",
      "340C",
      "340C",
      "340C",
      "340C",
      "340C",
      "340C",
      "340C",
      "340",
      "340",
      "340",
      "332",
      "322",
      "305",
      "283",
      "261",
      "245",
      "240",
      "225",
      "220",
      "203",
      "200",
      "186",
      "180",
      "166",
      "159",
      "147",
      "141",
      "127",
      "122",
      "109",
      "107",
      "102",
      "100",
      "092",
      "085",
      "079",
      "074",
      "067",
      "064",
      "060",
      "057",
      "049",
      "042",
      "032",
      "028",
      "020",
      "018",
      "012",
      "010",
      "005",
      "002"
    ],
    "swim:geom": "path",
    "swim:speeds": [
      194,
      209,
      225,
      245,
      268,
      297,
      305,
      314,
      323,
      333,
      338,
      344,
      357,
      393,
      406,
      417,
      425,
      428,
      438,
      448,
      452,
      452,
      458,
      460,
      465,
      462,
      461,
      460,
      461,
      462,
      461,
      461,
      461,
      461,
      461,
      461,
      462,
      463,
      466,
      466,
      467,
      467,
      467,
      466,
      467,
      468,
      468,
      469,
      469,
      469,
      468,
      467,
      467,
      466,
      465,
      465,
      465,
      466,
      466,
      463,
      460,
      457,
      456,
      455,
      454,
      455,
      457,
      459,
      461,
      461,
      461,
      461,
      461,
      461,
      461,
      460,
      458,
      456,
      455,
      453,
      453,
      452,
      452,
      455,
      452,
      455,
      451,
      453,
      450,
      453,
      449,
      446,
      447,
      446,
      446,
      446,
      445,
      445,
      444,
      444,
      443,
      443,
      442,
      442,
      441,
      441,
      440,
      440,
      439,
      440,
      440,
      441,
      441,
      441,
      440,
      440,
      439,
      439,
      438,
      438,
      437,
      437,
      436,
      435,
      435,
      435,
      435,
      435,
      435,
      435,
      435,
      435,
      434,
      434,
      434,
      434,
      433,
      433,
      433,
      434,
      435,
      436,
      440,
      436,
      423,
      411,
      413,
      401,
      402,
      390,
      393,
      381,
      383,
      371,
      372,
      362,
      362,
      352,
      354,
      342,
      338,
      302,
      297,
      270,
      273,
      271,
      271,
      252,
      254,
      261,
      262,
      253,
      255,
      227,
      220,
      196,
      195,
      161,
      151,
      140,
      136
    ],
    "swim:timestamps": [
      1790790025,
      1790790063,
      1790790085,
      1790790123,
      1790790143,
      1790790183,
      1790790205,
      1790790243,
      1790790265,
      1790790303,
      1790790325,
      1790790364,
      1790790424,
      1790790484,
      1790790544,
      1790790604,
      1790790664,
      1790790729,
      1790790789,
      1790790796,
      1790790856,
      1790790910,
      1790790916,
      1790790970,
      1790791037,
      1790791097,
      1790791157,
      1790791217,
      1790791277,
      1790791330,
      1790791337,
      1790791397,
      1790791450,
      1790791457,
      1790791510,
      1790791517,
      1790791570,
      1790791577,
      1790791631,
      1790791637,
      1790791691,
      1790791697,
      1790791758,
      1790791818,
      1790791878,
      1790791931,
      1790791938,
      1790791991,
      1790792051,
      1790792058,
      1790792118,
      1790792171,
      1790792178,
      1790792238,
      1790792298,
      1790792351,
      1790792358,
      1790792412,
      1790792472,
      1790792532,
      1790792592,
      1790792652,
      1790792712,
      1790792772,
      1790792832,
      1790792892,
      1790792952,
      1790793012,
      1790793072,
      1790793133,
      1790793193,
      1790793253,
      1790793313,
      1790793373,
      1790793433,
      1790793493,
      1790793553,
      1790793613,
      1790793673,
      1790793733,
      1790793793,
      1790793853,
      1790793914,
      1790793939,
      1790793974,
      1790793999,
      1790794034,
      1790794060,
      1790794094,
      1790794120,
      1790794154,
      1790794180,
      1790794214,
      1790794240,
      1790794274,
      1790794300,
      1790794334,
      1790794360,
      1790794394,
      1790794420,
      1790794454,
      1790794480,
      1790794514,
      1790794540,
      1790794574,
      1790794600,
      1790794635,
      1790794660,
      1790794695,
      1790794720,
      1790794755,
      1790794781,
      1790794815,
      1790794841,
      1790794875,
      1790794901,
      1790794935,
      1790794961,
      1790794995,
      1790795021,
      1790795055,
      1790795081,
      1790795115,
      1790795141,
      1790795175,
      1790795201,
      1790795235,
      1790795261,
      1790795295,
      1790795321,
      1790795355,
      1790795382,
      1790795442,
      1790795502,
      1790795562,
      1790795622,
      1790795682,
      1790795742,
      1790795802,
      1790795862,
      1790795922,
      1790795982,
      1790796042,
      1790796103,
      1790796163,
      1790796198,
      1790796223,
      1790796257,
      1790796283,
      1790796323,
      1790796343,
      1790796378,
      1790796403,
      1790796438,
      1790796463,
      1790796497,
      1790796523,
      1790796563,
      1790796583,
      1790796623,
      1790796643,
      1790796678,
      1790796703,
      1790796737,
      1790796764,
      1790796797,
      1790796824,
      1790796863,
      1790796884,
      1790796918,
      1790796944,
      1790796978,
      1790797004,
      1790797043,
      1790797064,
      1790797097,
      1790797124,
      1790797158,
      1790797184,
      1790797223,
      1790797244
    ],
    "wof:geomhash": "28a4a42a1bac9e75532d84241b3e9f0f",
    "wof:id": 2048475765,
    "wof:repo": "sfomuseum-data-flights-2026-09"
  },
  "bbox": [
    -122.35027777777778,
    37.49277777777778,
    -104.78333333333333,
    39.85944444444445
  ],
  "geometry": {"type":"LineString","coordinates":[[-104.78333333333333,39.833333333333336],[-104.84083333333332,39.841944444444444],[-104.86666666666666,39.85],[-104.92583333333334,39.84277777777778],[-104.95,39.85],[-105.02638888888889,39.84583333333334],[-105.06666666666666,39.85],[-105.13944444444445,39.84861111111111],[-105.18333333333334,39.85],[-105.25833333333334,39.85138888888889],[-105.3,39.85],[-105.38166666666666,39.85416666666667],[-105.51083333333334,39.85666666666667],[-105.65055555555556,39.85944444444445],[-105.7925,39.85416666666667],[-105.94222222222223,39.84138888888889],[-106.09472222222222,39.82805555555556],[-106.24833333333333,39.81472222222222],[-106.4088888888889,39.80027777777777],[-106.44583333333334,39.79666666666667],[-106.59527777777777,39.782222222222224],[-106.735,39.768055555555556],[-106.75638888888889,39.76444444444444],[-106.90138888888889,39.74805555555556],[-107.08333333333333,39.72805555555556],[-107.26222222222222,39.70777777777778],[-107.42611111111111,39.68888888888888],[-107.60277777777777,39.66833333333333],[-107.76833333333333,39.64888888888889],[-107.88666666666667,39.63444444444444],[-107.93444444444445,39.62888888888889],[-108.065,39.61333333333334],[-108.21305555555556,39.595],[-108.23,39.59305555555556],[-108.37805555555555,39.57472222222223],[-108.39722222222223,39.572500000000005],[-108.54666666666667,39.55361111111111],[-108.5625,39.55166666666666],[-108.715,39.5325],[-108.75083333333333,39.52777777777778],[-108.88666666666667,39.51027777777778],[-108.91944444444445,39.50611111111111],[-109.08666666666666,39.48444444444444],[-109.25027777777778,39.463055555555556],[-109.41805555555555,39.440555555555555],[-109.55083333333333,39.422777777777775],[-109.58444444444444,39.41833333333333],[-109.71722222222222,39.400277777777774],[-109.88277777777778,39.3775],[-109.91472222222222,39.37305555555555],[-110.0786111111111,39.35111111111111],[-110.21194444444444,39.333333333333336],[-110.24638888888889,39.328611111111115],[-110.40861111111111,39.30638888888888],[-110.57388888888889,39.28361111111111],[-110.70361111111112,39.26555555555556],[-110.73694444444445,39.26083333333333],[-110.87027777777777,39.242222222222225],[-111.03222222222222,39.219166666666666],[-111.19388888888889,39.19611111111111],[-111.36138888888888,39.17194444444444],[-111.52305555555556,39.14833333333333],[-111.68083333333334,39.125],[-111.84138888888889,39.100833333333334],[-111.99805555555555,39.0775],[-112.15694444444445,39.05305555555555],[-112.31805555555555,39.02833333333333],[-112.48027777777779,39.00333333333333],[-112.64111111111112,38.97805555555556],[-112.80111111111111,38.95277777777778],[-112.96111111111111,38.92722222222222],[-113.11999999999999,38.901666666666664],[-113.28055555555555,38.87555555555556],[-113.44,38.849444444444444],[-113.60249999999999,38.822500000000005],[-113.7611111111111,38.79611111111111],[-113.91888888888889,38.769444444444446],[-114.075,38.74305555555556],[-114.23138888888889,38.71611111111111],[-114.38722222222223,38.689166666666665],[-114.54333333333334,38.661944444444444],[-114.7,38.63444444444444],[-114.85499999999999,38.606944444444444],[-114.9213888888889,38.594166666666666],[-115.01194444444444,38.57888888888889],[-115.0761111111111,38.566111111111105],[-115.16611111111112,38.551111111111105],[-115.24805555555555,38.53666666666666],[-115.32055555555556,38.52305555555555],[-115.40305555555557,38.50833333333333],[-115.46083333333334,38.49722222222222],[-115.55527777777777,38.480000000000004],[-115.64666666666668,38.463055555555556],[-115.71027777777778,38.45166666666667],[-115.80138888888888,38.43416666666666],[-115.86305555555555,38.42333333333333],[-115.95361111111112,38.40555555555555],[-116.01388888888889,38.39416666666666],[-116.10416666666666,38.37722222222222],[-116.16722222222222,38.365],[-116.25805555555556,38.34777777777778],[-116.31972222222223,38.33583333333333],[-116.40805555555556,38.31638888888889],[-116.46777777777778,38.30305555555555],[-116.55638888888889,38.283055555555556],[-116.61777777777777,38.26916666666666],[-116.70666666666666,38.24916666666667],[-116.76833333333333,38.23527777777778],[-116.85472222222222,38.21555555555556],[-116.91527777777779,38.20166666666667],[-117.00361111111111,38.18138888888889],[-117.0675,38.166666666666664],[-117.1538888888889,38.14666666666667],[-117.21888888888888,38.13166666666667],[-117.28722222222223,38.115833333333335],[-117.36722222222221,38.09722222222222],[-117.43611111111112,38.081388888888895],[-117.49638888888889,38.06722222222223],[-117.58277777777778,38.04722222222222],[-117.64361111111111,38.033055555555556],[-117.73222222222222,38.01222222222222],[-117.79333333333334,38.00138888888889],[-117.88305555555554,37.99166666666667],[-117.94500000000001,37.985],[-118.03361111111111,37.975833333333334],[-118.0961111111111,37.969166666666666],[-118.18472222222222,37.95944444444445],[-118.2475,37.95277777777778],[-118.33527777777778,37.94333333333333],[-118.4,37.93611111111111],[-118.48722222222223,37.92666666666666],[-118.55,37.91972222222222],[-118.7025,37.90277777777778],[-118.85249999999999,37.885555555555555],[-119.005,37.86833333333333],[-119.14694444444446,37.85194444444445],[-119.2961111111111,37.83444444444444],[-119.44805555555556,37.81666666666667],[-119.59722222222221,37.79888888888889],[-119.75027777777778,37.78055555555555],[-119.90083333333334,37.76222222222222],[-120.05444444444444,37.74333333333333],[-120.20805555555556,37.72416666666667],[-120.35833333333333,37.70527777777778],[-120.50722222222223,37.68722222222222],[-120.61666666666666,37.68333333333333],[-120.64833333333334,37.670833333333334],[-120.75,37.666666666666664],[-120.78833333333333,37.65416666666667],[-120.9,37.63333333333333],[-120.92555555555556,37.6375],[-121.01666666666667,37.63333333333333],[-121.05666666666666,37.620555555555555],[-121.15,37.6],[-121.19638888888889,37.60166666666667],[-121.28333333333333,37.583333333333336],[-121.32055555555556,37.58555555555556],[-121.41666666666667,37.583333333333336],[-121.44388888888889,37.57194444444445],[-121.53333333333333,37.56666666666667],[-121.5611111111111,37.558055555555555],[-121.63333333333334,37.55],[-121.66555555555556,37.54055555555556],[-121.71666666666667,37.53333333333333],[-121.7575,37.51888888888889],[-121.81666666666666,37.5],[-121.84722222222221,37.4975],[-121.91666666666667,37.5],[-121.93666666666667,37.49277777777778],[-122,37.5],[-122.02555555555556,37.5075],[-122.08333333333333,37.516666666666666],[-122.10749999999999,37.53361111111111],[-122.16666666666667,37.55],[-122.185,37.558611111111105],[-122.21666666666667,37.56666666666667],[-122.24861111111112,37.57916666666667],[-122.28333333333333,37.583333333333336],[-122.30305555555556,37.59527777777778],[-122.33333333333333,37.6],[-122.35027777777778,37.61027777777778]]}
}
