{
  "id": 2048351937,
  "type": "Feature",
  "properties": {
    "geom:area": 0,
    "geom:bbox": "-122.361550,37.491710,-121.280010,37.614970",
    "geom:latitude": 37.541878980604224,
    "geom:longitude": -121.82765665537512,
    "src:alt_label": "swim-approach",
    "src:geom": "swim",
    "swim:elevations": [
      5109,
      4855,
      4637,
      4359,
      4113,
      3642,
      3327,
      3263,
      3140,
      2936,
      2592,
      2529,
      2461,
      2362,
      2117,
      1988,
      1862,
      1831,
      1606,
      1424,
      1371,
      1185,
      981,
      882,
      741,
      609,
      447,
      426,
      248,
      126,
      2,
      0
    ],
    "swim:geom": "approach",
    "swim:timestamps": [
      1789599116,
      1789599137,
      1789599156,
      1789599180,
      1789599198,
      1789599237,
      1789599261,
      1789599285,
      1789599309,
      1789599333,
      1789599381,
      1789599392,
      1789599413,
      1789599434,
      1789599476,
      1789599506,
      1789599533,
      1789599542,
      1789599591,
      1789599627,
      1789599637,
      1789599676,
      1789599716,
      1789599740,
      1789599776,
      1789599806,
      1789599838,
      1789599844,
      1789599888,
      1789599924,
      1789599951,
      1789599960
    ],
    "wof:geomhash": "82893e408c2acc5b21c3f02ed0430854",
    "wof:id": 2048351937,
    "wof:repo": "sfomuseum-data-flights-2026-09"
  },
  "bbox": [
    -122.36155,
    37.49171,
    -121.28001,
    37.61497
  ],
  "geometry": {"type":"LineString","coordinates":[[-121.28001,37.59052],[-121.32031,37.58589],[-121.35479,37.58206],[-121.39955,37.577],[-121.43324,37.57332],[-121.50634,37.56498],[-121.55156,37.55942],[-121.59588,37.55414],[-121.63681,37.54792],[-121.67573,37.53857],[-121.75218,37.52037],[-121.76808,37.51656],[-121.79671,37.50975],[-121.82455,37.50307],[-121.8789,37.49171],[-121.91626,37.49307],[-121.94891,37.49511],[-121.95969,37.49576],[-122.0171,37.49895],[-122.06114,37.50161],[-122.0736,37.50231],[-122.11917,37.51329],[-122.16178,37.53116],[-122.18654,37.54168],[-122.2205,37.55606],[-122.24789,37.56759],[-122.27593,37.57937],[-122.28076,37.58142],[-122.31259,37.59478],[-122.33733,37.60527],[-122.3559,37.61297],[-122.36155,37.61497]]}
}
