{
  "id": 2048308229,
  "type": "Feature",
  "properties": {
    "geom:area": 0,
    "geom:bbox": "-122.352520,37.491600,-121.261860,37.611540",
    "geom:latitude": 37.545930406326704,
    "geom:longitude": -121.81191208583064,
    "src:alt_label": "swim-approach",
    "src:geom": "swim",
    "swim:elevations": [
      4607,
      4316,
      4059,
      3755,
      3641,
      3660,
      3659,
      3658,
      3284,
      2986,
      2701,
      2578,
      2365,
      2272,
      1926,
      1692,
      1616,
      1415,
      1188,
      1069,
      1018,
      853,
      695,
      555,
      527,
      361,
      241,
      121,
      59
    ],
    "swim:geom": "approach",
    "swim:timestamps": [
      1789164476,
      1789164506,
      1789164530,
      1789164563,
      1789164589,
      1789164625,
      1789164643,
      1789164672,
      1789164710,
      1789164733,
      1789164767,
      1789164791,
      1789164828,
      1789164842,
      1789164885,
      1789164919,
      1789164930,
      1789164968,
      1789165015,
      1789165045,
      1789165061,
      1789165098,
      1789165136,
      1789165167,
      1789165173,
      1789165223,
      1789165253,
      1789165286,
      1789165304
    ],
    "wof:geomhash": "ad523891b07fcd02729c3da1b6ad6cdf",
    "wof:id": 2048308229,
    "wof:repo": "sfomuseum-data-flights-2026-09"
  },
  "bbox": [
    -122.35252,
    37.4916,
    -121.26186,
    37.61154
  ],
  "geometry": {"type":"LineString","coordinates":[[-121.26186,37.59286],[-121.31822,37.58609],[-121.36272,37.58123],[-121.4231,37.57447],[-121.47214,37.56871],[-121.53937,37.56082],[-121.57219,37.55698],[-121.62797,37.54929],[-121.69566,37.53398],[-121.73556,37.52438],[-121.79474,37.51013],[-121.83397,37.50072],[-121.88989,37.4916],[-121.90918,37.49164],[-121.96824,37.49321],[-122.01032,37.50182],[-122.02361,37.5061],[-122.06429,37.51949],[-122.11335,37.53549],[-122.14282,37.54506],[-122.15738,37.54969],[-122.19211,37.561],[-122.22512,37.57161],[-122.25174,37.5802],[-122.25686,37.58182],[-122.29547,37.59317],[-122.31702,37.59959],[-122.34029,37.60665],[-122.35252,37.61154]]}
}
