{
  "id": 2048288457,
  "type": "Feature",
  "properties": {
    "geom:area": 0,
    "geom:bbox": "-122.395500,37.621940,-121.603860,38.518660",
    "geom:latitude": 38.06954747254778,
    "geom:longitude": -122.00645317460821,
    "src:alt_label": "swim-takeoff",
    "src:geom": "swim",
    "swim:elevations": [
      183,
      658,
      987,
      1062,
      1168,
      1506,
      1820,
      1980,
      2310,
      2611,
      2842,
      3048,
      3048,
      3048,
      3048,
      3048,
      3048,
      3048,
      3004,
      2383,
      2198,
      1866,
      1704,
      1559,
      1523,
      1548,
      1524,
      1448,
      1261,
      1072,
      956
    ],
    "swim:geom": "takeoff",
    "swim:timestamps": [
      1788894532,
      1788894564,
      1788894598,
      1788894613,
      1788894636,
      1788894688,
      1788894710,
      1788894721,
      1788894743,
      1788894764,
      1788894780,
      1788894815,
      1788894865,
      1788894884,
      1788894926,
      1788894935,
      1788894983,
      1788895012,
      1788895026,
      1788895075,
      1788895091,
      1788895138,
      1788895162,
      1788895197,
      1788895229,
      1788895243,
      1788895285,
      1788895318,
      1788895342,
      1788895361,
      1788895391
    ],
    "wof:geomhash": "2e3d3ad77bc5c453f37c5edce6378057",
    "wof:id": 2048288457,
    "wof:repo": "sfomuseum-data-flights-2026-09"
  },
  "bbox": [
    -122.3955,
    37.62194,
    -121.60386,
    38.51866
  ],
  "geometry": {"type":"LineString","coordinates":[[-122.38247,37.62194],[-122.3955,37.64205],[-122.36999,37.65679],[-122.35705,37.66115],[-122.33346,37.67025],[-122.29076,37.72061],[-122.27212,37.74611],[-122.26284,37.7586],[-122.24392,37.78394],[-122.22526,37.80872],[-122.21045,37.82855],[-122.17903,37.87052],[-122.12966,37.9358],[-122.11022,37.96162],[-122.06629,38.02025],[-122.05723,38.03219],[-122.00657,38.09936],[-121.97451,38.13632],[-121.95935,38.15116],[-121.90422,38.20495],[-121.8867,38.22179],[-121.83479,38.27176],[-121.80881,38.29692],[-121.77264,38.3322],[-121.73898,38.36475],[-121.72321,38.37977],[-121.67802,38.42362],[-121.64478,38.45554],[-121.62394,38.47556],[-121.60921,38.49124],[-121.60386,38.51866]]}
}
