{
  "id": 2048368565,
  "type": "Feature",
  "properties": {
    "geom:area": 0,
    "geom:bbox": "-122.757750,37.429740,-122.130030,38.507170",
    "geom:latitude": 37.8643285518867,
    "geom:longitude": -122.48220567091903,
    "src:alt_label": "swim-approach",
    "src:geom": "swim",
    "swim:elevations": [
      8504,
      8210,
      8089,
      7765,
      7188,
      6959,
      6683,
      6217,
      5950,
      5735,
      5428,
      5272,
      5084,
      4652,
      4538,
      4382,
      4130,
      4050,
      3861,
      3782,
      3612,
      3474,
      3353,
      3217,
      3041,
      2869,
      2800,
      2614,
      2457,
      2156,
      1902,
      1807,
      1479,
      1220,
      1219,
      1131,
      984,
      914,
      914,
      847,
      770,
      676,
      563,
      392,
      297,
      267,
      136,
      0
    ],
    "swim:geom": "approach",
    "swim:timestamps": [
      1789773984,
      1789774012,
      1789774022,
      1789774051,
      1789774106,
      1789774128,
      1789774153,
      1789774196,
      1789774223,
      1789774244,
      1789774266,
      1789774283,
      1789774298,
      1789774341,
      1789774363,
      1789774393,
      1789774430,
      1789774449,
      1789774498,
      1789774513,
      1789774542,
      1789774564,
      1789774612,
      1789774643,
      1789774663,
      1789774691,
      1789774705,
      1789774730,
      1789774749,
      1789774786,
      1789774819,
      1789774831,
      1789774871,
      1789774913,
      1789774936,
      1789774977,
      1789775006,
      1789775036,
      1789775060,
      1789775079,
      1789775096,
      1789775116,
      1789775145,
      1789775184,
      1789775214,
      1789775222,
      1789775257,
      1789775291
    ],
    "wof:geomhash": "66d482f8a5a97b8ad3db2bf8ebb13bb1",
    "wof:id": 2048368565,
    "wof:repo": "sfomuseum-data-flights-2026-09"
  },
  "bbox": [
    -122.75775,
    37.42974,
    -122.13003,
    38.50717
  ],
  "geometry": {"type":"LineString","coordinates":[[-122.47772,38.50717],[-122.52026,38.46666],[-122.53505,38.4524],[-122.57678,38.41186],[-122.65626,38.33334],[-122.68817,38.3022],[-122.72326,38.26785],[-122.75775,38.19812],[-122.7455,38.15216],[-122.73572,38.11738],[-122.72553,38.08125],[-122.71813,38.05491],[-122.71131,38.03027],[-122.69116,37.9588],[-122.68133,37.92445],[-122.6563,37.88281],[-122.61086,37.84057],[-122.58848,37.81989],[-122.53551,37.7698],[-122.52047,37.75547],[-122.49213,37.72843],[-122.47069,37.7078],[-122.42447,37.66476],[-122.39468,37.63693],[-122.37534,37.61869],[-122.3527,37.5911],[-122.34507,37.57615],[-122.33261,37.54932],[-122.32119,37.531],[-122.29767,37.49223],[-122.27625,37.45899],[-122.26339,37.45082],[-122.21444,37.43074],[-122.16401,37.42974],[-122.15026,37.45043],[-122.13003,37.48296],[-122.13022,37.50523],[-122.15095,37.52354],[-122.1726,37.53375],[-122.19082,37.5413],[-122.20564,37.54747],[-122.22483,37.5556],[-122.2513,37.5668],[-122.28238,37.57979],[-122.30337,37.58863],[-122.30897,37.59093],[-122.33432,37.60164],[-122.3583,37.61168]]}
}
