{
  "id": 2048280125,
  "type": "Feature",
  "properties": {
    "geom:area": 0,
    "geom:bbox": "-122.526030,37.626560,-121.293320,38.139900",
    "geom:latitude": 37.93116525519487,
    "geom:longitude": -122.00598409684913,
    "src:alt_label": "swim-takeoff",
    "src:geom": "swim",
    "swim:elevations": [
      152,
      409,
      743,
      940,
      1230,
      1436,
      1532,
      1743,
      1994,
      2216,
      2375,
      2678,
      2789,
      3138,
      3374,
      3535,
      3708,
      4006,
      4171,
      4350,
      4595,
      5055,
      5327,
      5436,
      5779,
      6063,
      6251,
      6417,
      6662,
      6927,
      7077
    ],
    "swim:geom": "takeoff",
    "swim:timestamps": [
      1788827338,
      1788827358,
      1788827394,
      1788827417,
      1788827451,
      1788827485,
      1788827509,
      1788827545,
      1788827572,
      1788827590,
      1788827605,
      1788827635,
      1788827644,
      1788827692,
      1788827728,
      1788827755,
      1788827775,
      1788827802,
      1788827817,
      1788827835,
      1788827859,
      1788827904,
      1788827932,
      1788827945,
      1788827984,
      1788828020,
      1788828041,
      1788828065,
      1788828101,
      1788828135,
      1788828153
    ],
    "wof:geomhash": "97320c483fdda090155a2e7da29a76cf",
    "wof:id": 2048280125,
    "wof:repo": "sfomuseum-data-flights-2026-09"
  },
  "bbox": [
    -122.52603,
    37.62656,
    -121.29332,
    38.1399
  ],
  "geometry": {"type":"LineString","coordinates":[[-122.39408,37.62656],[-122.41288,37.63438],[-122.44719,37.64948],[-122.46998,37.65919],[-122.50392,37.67398],[-122.52528,37.70015],[-122.52577,37.72527],[-122.52603,37.76757],[-122.5175,37.80181],[-122.4976,37.81967],[-122.47555,37.8286],[-122.42784,37.84122],[-122.41337,37.84497],[-122.33366,37.86638],[-122.26784,37.88435],[-122.21467,37.89838],[-122.17393,37.90926],[-122.11716,37.92442],[-122.08527,37.93276],[-122.04661,37.94299],[-121.99232,37.95739],[-121.89182,37.98391],[-121.83049,38.0001],[-121.79865,38.00846],[-121.70781,38.03228],[-121.62215,38.05462],[-121.57141,38.06787],[-121.51278,38.0831],[-121.42532,38.10578],[-121.3394,38.12802],[-121.29332,38.1399]]}
}
