{
  "id": 2048439691,
  "type": "Feature",
  "properties": {
    "geom:area": 0,
    "geom:bbox": "-123.443580,37.263660,-122.057150,38.513280",
    "geom:latitude": 37.624231870433164,
    "geom:longitude": -122.69190270879028,
    "src:alt_label": "swim-approach",
    "src:geom": "swim",
    "swim:elevations": [
      7864,
      7658,
      7391,
      7004,
      6660,
      6270,
      5878,
      5725,
      5308,
      5039,
      4674,
      4390,
      4356,
      4226,
      3853,
      3575,
      3442,
      3379,
      3353,
      3353,
      3353,
      3353,
      3190,
      3124,
      2717,
      2442,
      2188,
      1779,
      1629,
      1276,
      974,
      836,
      733,
      695,
      701,
      582,
      454,
      345,
      223,
      0,
      5208,
      4920,
      4871,
      4598,
      4101,
      4006,
      3708,
      3551,
      3352,
      3288,
      3242,
      3172,
      3139,
      3048,
      3048,
      3048,
      2969,
      2733,
      2623,
      2477,
      2438,
      2438,
      2438,
      2438,
      2438,
      2369,
      2307,
      1927,
      1887,
      1644,
      1445,
      1308,
      1217,
      1196,
      1014,
      915,
      752,
      632,
      547,
      464,
      319,
      159,
      56,
      377
    ],
    "swim:geom": "approach",
    "swim:timestamps": [
      1790408094,
      1790408112,
      1790408135,
      1790408172,
      1790408205,
      1790408241,
      1790408278,
      1790408293,
      1790408333,
      1790408355,
      1790408391,
      1790408423,
      1790408435,
      1790408476,
      1790408512,
      1790408541,
      1790408577,
      1790408601,
      1790408624,
      1790408646,
      1790408684,
      1790408703,
      1790408754,
      1790408772,
      1790408817,
      1790408840,
      1790408866,
      1790408907,
      1790408921,
      1790408958,
      1790408997,
      1790409020,
      1790409054,
      1790409064,
      1790409117,
      1790409137,
      1790409163,
      1790409184,
      1790409216,
      1790409263,
      1790486727,
      1790486757,
      1790486763,
      1790486793,
      1790486847,
      1790486856,
      1790486890,
      1790486908,
      1790486932,
      1790486946,
      1790486963,
      1790486987,
      1790487003,
      1790487052,
      1790487073,
      1790487108,
      1790487137,
      1790487178,
      1790487196,
      1790487220,
      1790487267,
      1790487291,
      1790487327,
      1790487354,
      1790487387,
      1790487411,
      1790487420,
      1790487476,
      1790487482,
      1790487521,
      1790487566,
      1790487592,
      1790487613,
      1790487658,
      1790487688,
      1790487706,
      1790487734,
      1790487755,
      1790487774,
      1790487792,
      1790487825,
      1790487865,
      1790487889,
      1790487904
    ],
    "wof:geomhash": "78253a2b2b5d5ecf98fae15996df7f9f",
    "wof:id": 2048439691,
    "wof:repo": "sfomuseum-data-flights-2026-09"
  },
  "bbox": [
    -123.44358,
    37.26366,
    -122.05715,
    38.51328
  ],
  "geometry": {"type":"LineString","coordinates":[[-123.18864,38.51328],[-123.16166,38.48006],[-123.12737,38.43812],[-123.07338,38.37608],[-123.02605,38.32007],[-122.9753,38.2601],[-122.92484,38.20021],[-122.90434,38.17584],[-122.84991,38.11104],[-122.82088,38.07629],[-122.77343,38.01958],[-122.73181,37.96987],[-122.71661,37.95167],[-122.66574,37.89312],[-122.61765,37.84702],[-122.57883,37.81041],[-122.53386,37.76802],[-122.50526,37.74096],[-122.47933,37.7164],[-122.45583,37.69431],[-122.41249,37.65356],[-122.39092,37.63332],[-122.34926,37.58024],[-122.33965,37.56064],[-122.31379,37.51566],[-122.29337,37.49587],[-122.26154,37.48141],[-122.212,37.45914],[-122.19504,37.45128],[-122.14787,37.45264],[-122.12606,37.48899],[-122.13193,37.51364],[-122.16638,37.53295],[-122.17584,37.53733],[-122.23325,37.56177],[-122.2536,37.57002],[-122.27826,37.58034],[-122.29723,37.58837],[-122.32108,37.59846],[-122.35647,37.61338],[-123.44358,37.52238],[-123.38381,37.49525],[-123.37196,37.48986],[-123.3131,37.46319],[-123.20784,37.41531],[-123.19064,37.40751],[-123.1274,37.3787],[-123.09364,37.36323],[-123.04921,37.34286],[-123.02167,37.33027],[-122.99212,37.3168],[-122.95236,37.2986],[-122.92607,37.28658],[-122.84541,37.26366],[-122.81047,37.26978],[-122.75403,37.28288],[-122.70666,37.29421],[-122.64018,37.30994],[-122.6112,37.31666],[-122.57197,37.32565],[-122.49857,37.3426],[-122.4609,37.35119],[-122.40442,37.36421],[-122.36191,37.37395],[-122.31072,37.38575],[-122.27447,37.39405],[-122.26092,37.39719],[-122.17737,37.41638],[-122.16842,37.4185],[-122.11049,37.43157],[-122.05715,37.45776],[-122.06103,37.48503],[-122.08312,37.49782],[-122.13512,37.51995],[-122.16935,37.53447],[-122.19001,37.54318],[-122.22031,37.55595],[-122.2409,37.56464],[-122.25884,37.57219],[-122.27435,37.57866],[-122.30035,37.58955],[-122.33151,37.60272],[-122.35022,37.6106],[-122.3616,37.61546]]}
}
