{
  "id": 2048452859,
  "type": "Feature",
  "properties": {
    "geom:area": 0,
    "geom:bbox": "-122.525833,28.483333,-77.474167,39.481944",
    "geom:latitude": 37.44400455489621,
    "geom:longitude": -97.30915964665358,
    "src:alt_label": "swim-path",
    "src:geom": "swim",
    "swim:altitudes": [
      "029",
      "047",
      "075",
      "103",
      "117",
      "133",
      "153",
      "173",
      "195",
      "212",
      "227",
      "238",
      "252",
      "264",
      "279",
      "292",
      "307",
      "320",
      "331",
      "339",
      "350C",
      "350C",
      "350C",
      "350C",
      "350C",
      "350C",
      "350C",
      "350C",
      "350C",
      "350C",
      "350C",
      "350C",
      "350C",
      "350C",
      "350C",
      "350C",
      "350C",
      "350C",
      "350C",
      "350C",
      "350C",
      "350C",
      "350C",
      "350C",
      "350C",
      "350C",
      "350C",
      "350C",
      "350C",
      "350C",
      "350C",
      "350C",
      "350C",
      "350C",
      "350C",
      "350C",
      "350C",
      "350C",
      "350C",
      "350C",
      "350C",
      "350C",
      "350C",
      "350C",
      "350C",
      "350C",
      "350C",
      "350C",
      "350C",
      "350C",
      "350C",
      "350C",
      "350C",
      "350C",
      "350C",
      "350",
      "344",
      "340",
      "335",
      "331C",
      "330C",
      "330C",
      "330C",
      "327",
      "315",
      "305",
      "294",
      "290C",
      "290C",
      "290C",
      "290C",
      "290C",
      "290C",
      "290C",
      "290C",
      "290C",
      "290C",
      "290C",
      "290C",
      "290C",
      "290C",
      "286",
      "276",
      "266",
      "255",
      "245",
      "235",
      "222",
      "220",
      "201",
      "179",
      "162",
      "156",
      "144",
      "136",
      "129",
      "120",
      "115",
      "109",
      "104",
      "097",
      "093",
      "089",
      "087",
      "083",
      "082",
      "080",
      "076",
      "062",
      "055",
      "050",
      "050",
      "050",
      "050",
      "050",
      "050",
      "045",
      "042",
      "037",
      "032",
      "027",
      "024",
      "020",
      "017",
      "013",
      "009",
      "005",
      "002",
      "014",
      "021",
      "035",
      "063",
      "097",
      "124",
      "151",
      "176",
      "201",
      "225",
      "245",
      "266",
      "270C",
      "270C",
      "270C",
      "270C",
      "270C",
      "270C",
      "270",
      "270",
      "260",
      "236",
      "216",
      "195",
      "188",
      "176",
      "169",
      "155",
      "149",
      "141",
      "140",
      "132",
      "120",
      "116",
      "112",
      "111",
      "104",
      "101",
      "093",
      "080",
      "074",
      "071",
      "065",
      "062",
      "055",
      "052",
      "045"
    ],
    "swim:geom": "path",
    "swim:speeds": [
      185,
      243,
      275,
      281,
      334,
      381,
      404,
      419,
      426,
      439,
      450,
      461,
      470,
      476,
      479,
      479,
      480,
      480,
      480,
      482,
      483,
      484,
      485,
      486,
      495,
      499,
      499,
      498,
      497,
      497,
      495,
      493,
      491,
      491,
      491,
      490,
      491,
      488,
      490,
      485,
      486,
      484,
      484,
      483,
      484,
      483,
      484,
      483,
      484,
      483,
      484,
      483,
      484,
      482,
      482,
      480,
      480,
      479,
      480,
      480,
      480,
      481,
      481,
      482,
      481,
      482,
      482,
      483,
      483,
      485,
      485,
      486,
      488,
      488,
      480,
      479,
      478,
      478,
      477,
      477,
      475,
      474,
      472,
      472,
      443,
      430,
      429,
      427,
      411,
      405,
      404,
      393,
      399,
      407,
      408,
      399,
      390,
      387,
      385,
      383,
      384,
      385,
      384,
      378,
      372,
      365,
      362,
      356,
      352,
      369,
      358,
      347,
      346,
      345,
      337,
      335,
      324,
      309,
      293,
      289,
      272,
      270,
      240,
      218,
      201,
      200,
      192,
      193,
      190,
      189,
      189,
      182,
      185,
      183,
      184,
      182,
      184,
      174,
      175,
      173,
      157,
      137,
      137,
      136,
      138,
      144,
      142,
      147,
      160,
      157,
      204,
      260,
      274,
      325,
      339,
      361,
      377,
      385,
      400,
      410,
      411,
      413,
      414,
      414,
      415,
      417,
      418,
      419,
      423,
      431,
      421,
      404,
      384,
      376,
      372,
      373,
      360,
      359,
      345,
      334,
      331,
      319,
      297,
      274,
      273,
      275,
      268,
      224,
      196,
      173,
      174,
      158,
      160,
      153,
      157
    ],
    "swim:timestamps": [
      1790534159,
      1790534224,
      1790534284,
      1790534344,
      1790534404,
      1790534464,
      1790534524,
      1790534584,
      1790534644,
      1790534704,
      1790534765,
      1790534825,
      1790534885,
      1790534945,
      1790535005,
      1790535065,
      1790535125,
      1790535185,
      1790535245,
      1790535305,
      1790535365,
      1790535425,
      1790535485,
      1790535546,
      1790535606,
      1790535666,
      1790535726,
      1790535786,
      1790535846,
      1790535906,
      1790535966,
      1790536026,
      1790536056,
      1790536086,
      1790536116,
      1790536146,
      1790536176,
      1790536206,
      1790536236,
      1790536267,
      1790536297,
      1790536327,
      1790536357,
      1790536387,
      1790536417,
      1790536447,
      1790536477,
      1790536507,
      1790536537,
      1790536567,
      1790536597,
      1790536627,
      1790536657,
      1790536687,
      1790536717,
      1790536747,
      1790536777,
      1790536807,
      1790536837,
      1790536867,
      1790536898,
      1790536927,
      1790536958,
      1790536987,
      1790537018,
      1790537048,
      1790537078,
      1790537108,
      1790537138,
      1790537168,
      1790537198,
      1790537228,
      1790537258,
      1790537288,
      1790537318,
      1790537348,
      1790537378,
      1790537408,
      1790537439,
      1790537468,
      1790537499,
      1790537528,
      1790537559,
      1790537619,
      1790537679,
      1790537739,
      1790537799,
      1790537859,
      1790537919,
      1790537979,
      1790538040,
      1790538100,
      1790538160,
      1790538220,
      1790538280,
      1790538340,
      1790538400,
      1790538460,
      1790538520,
      1790538580,
      1790538641,
      1790538701,
      1790538761,
      1790538821,
      1790538881,
      1790538941,
      1790539001,
      1790539061,
      1790539121,
      1790539182,
      1790539242,
      1790539302,
      1790539317,
      1790539362,
      1790539383,
      1790539422,
      1790539444,
      1790539482,
      1790539504,
      1790539542,
      1790539563,
      1790539602,
      1790539624,
      1790539662,
      1790539684,
      1790539722,
      1790539744,
      1790539783,
      1790539843,
      1790539865,
      1790539903,
      1790539924,
      1790539963,
      1790539984,
      1790540023,
      1790540045,
      1790540083,
      1790540104,
      1790540143,
      1790540164,
      1790540203,
      1790540224,
      1790540263,
      1790540284,
      1790540323,
      1790540344,
      1790540384,
      1790540444,
      1790577569,
      1790577579,
      1790577629,
      1790577689,
      1790577749,
      1790577809,
      1790577869,
      1790577929,
      1790577989,
      1790578049,
      1790578109,
      1790578169,
      1790578229,
      1790578289,
      1790578349,
      1790578409,
      1790578469,
      1790578529,
      1790578590,
      1790578650,
      1790578710,
      1790578770,
      1790578830,
      1790578890,
      1790578900,
      1790578950,
      1790578960,
      1790579010,
      1790579020,
      1790579070,
      1790579080,
      1790579140,
      1790579190,
      1790579200,
      1790579250,
      1790579260,
      1790579310,
      1790579320,
      1790579370,
      1790579440,
      1790579490,
      1790579500,
      1790579550,
      1790579560,
      1790579610,
      1790579620,
      1790579670
    ],
    "wof:geomhash": "c743822d539f97bda17192c481f3edbd",
    "wof:id": 2048452859,
    "wof:repo": "sfomuseum-data-flights-2026-09"
  },
  "bbox": [
    -122.52583333333334,
    28.483333333333334,
    -77.47416666666666,
    39.481944444444444
  ],
  "geometry": {"type":"LineString","coordinates":[[-81.28333333333333,28.483333333333334],[-81.25138888888888,28.53388888888889],[-81.25638888888889,28.610277777777778],[-81.29638888888888,28.676944444444445],[-81.3536111111111,28.749444444444446],[-81.39444444444445,28.84611111111111],[-81.39750000000001,28.958333333333332],[-81.39944444444446,29.07472222222222],[-81.40222222222222,29.203333333333333],[-81.40416666666667,29.325555555555557],[-81.40611111111112,29.45],[-81.40805555555556,29.556944444444444],[-81.41027777777778,29.68888888888889],[-81.41222222222223,29.82],[-81.41416666666667,29.953611111111112],[-81.41638888888889,30.086666666666666],[-81.41944444444445,30.24527777777778],[-81.4213888888889,30.377222222222223],[-81.42361111111111,30.510833333333334],[-81.42583333333334,30.64472222222222],[-81.42777777777778,30.77777777777778],[-81.43027777777779,30.913888888888888],[-81.4325,31.04888888888889],[-81.43444444444445,31.18277777777778],[-81.40166666666667,31.315],[-81.33305555555555,31.441944444444445],[-81.26388888888889,31.56888888888889],[-81.19583333333334,31.69388888888889],[-81.12777777777777,31.817777777777778],[-81.05833333333334,31.943333333333335],[-80.98972222222223,32.06777777777778],[-80.92055555555557,32.19138888888889],[-80.89333333333335,32.23861111111111],[-80.85166666666666,32.31388888888888],[-80.82388888888889,32.361666666666665],[-80.7825,32.436388888888885],[-80.75833333333334,32.486111111111114],[-80.71416666666667,32.55777777777777],[-80.68833333333333,32.60638888888889],[-80.64555555555556,32.67861111111111],[-80.61749999999999,32.72638888888889],[-80.57472222222222,32.80027777777777],[-80.54638888888888,32.846111111111114],[-80.5025,32.92055555555555],[-80.47444444444444,32.96638888888889],[-80.43027777777779,33.04194444444444],[-80.40222222222222,33.08694444444445],[-80.35555555555555,33.16694444444444],[-80.33111111111111,33.20722222222223],[-80.28333333333333,33.2875],[-80.25916666666667,33.32777777777778],[-80.20916666666668,33.410555555555554],[-80.18611111111112,33.44833333333333],[-80.1375,33.52916666666667],[-80.11444444444444,33.56722222222223],[-80.06527777777778,33.64861111111111],[-80.04388888888889,33.68388888888889],[-79.99361111111111,33.766666666666666],[-79.9713888888889,33.802499999999995],[-79.91944444444445,33.88777777777778],[-79.89805555555556,33.92305555555555],[-79.84638888888888,34.00694444444444],[-79.82444444444444,34.04277777777778],[-79.77388888888889,34.125277777777775],[-79.75055555555555,34.163333333333334],[-79.69972222222222,34.24583333333334],[-79.6675,34.29833333333333],[-79.63805555555557,34.34583333333334],[-79.59444444444443,34.41638888888889],[-79.56333333333333,34.46611111111111],[-79.51944444444445,34.5375],[-79.48805555555556,34.586666666666666],[-79.43972222222223,34.657777777777774],[-79.41361111111112,34.706944444444446],[-79.39194444444445,34.78666666666666],[-79.38055555555555,34.83833333333334],[-79.36361111111111,34.9175],[-79.35277777777777,34.968333333333334],[-79.33583333333333,35.0475],[-79.325,35.098888888888894],[-79.30833333333334,35.17777777777778],[-79.2975,35.228611111111114],[-79.28055555555555,35.30722222222222],[-79.25305555555556,35.43722222222222],[-79.22527777777778,35.56222222222222],[-79.19916666666667,35.68],[-79.14111111111112,35.788333333333334],[-79.04777777777778,35.88027777777778],[-78.95722222222223,35.96944444444445],[-78.86777777777777,36.05638888888888],[-78.77805555555555,36.14333333333333],[-78.69194444444445,36.22666666666667],[-78.56916666666666,36.27361111111111],[-78.45944444444444,36.26222222222222],[-78.32,36.238055555555555],[-78.20583333333333,36.28722222222222],[-78.17444444444445,36.39138888888889],[-78.14833333333334,36.49666666666667],[-78.11916666666666,36.61805555555556],[-78.0936111111111,36.721944444444446],[-78.0675,36.8275],[-78.04194444444444,36.93388888888889],[-78.01638888888888,37.03777777777778],[-77.99083333333333,37.14138888888889],[-77.96527777777779,37.24333333333333],[-77.94111111111111,37.342222222222226],[-77.91638888888889,37.441111111111105],[-77.89055555555557,37.53388888888889],[-77.84083333333332,37.624722222222225],[-77.78999999999999,37.715833333333336],[-77.73777777777778,37.808611111111105],[-77.68944444444445,37.8975],[-77.66666666666667,37.93333333333333],[-77.63972222222223,37.986111111111114],[-77.61666666666666,38.016666666666666],[-77.59277777777777,38.068333333333335],[-77.56666666666666,38.1],[-77.54194444444444,38.14694444444444],[-77.51666666666667,38.18333333333333],[-77.49277777777777,38.218333333333334],[-77.48333333333333,38.25],[-77.48555555555555,38.293055555555554],[-77.48333333333333,38.31666666666667],[-77.48388888888888,38.35722222222223],[-77.48333333333333,38.38333333333333],[-77.48388888888888,38.41305555555555],[-77.48333333333333,38.43333333333333],[-77.48166666666667,38.46638888888889],[-77.48138888888889,38.51833333333333],[-77.48333333333333,38.55],[-77.48027777777779,38.57055555555556],[-77.48333333333333,38.6],[-77.47944444444444,38.62166666666667],[-77.48333333333333,38.65],[-77.47888888888889,38.6725],[-77.48333333333333,38.7],[-77.47805555555556,38.723888888888894],[-77.48333333333333,38.75],[-77.47722222222222,38.7725],[-77.48333333333333,38.8],[-77.47666666666667,38.81944444444445],[-77.48333333333333,38.833333333333336],[-77.47611111111111,38.85666666666667],[-77.48333333333333,38.86666666666667],[-77.47555555555556,38.89527777777778],[-77.48333333333333,38.916666666666664],[-77.47500000000001,38.93527777777778],[-77.47416666666666,38.97694444444445],[-122.40138888888889,37.62972222222222],[-122.41666666666667,37.63333333333333],[-122.45583333333333,37.65333333333333],[-122.52305555555556,37.695277777777775],[-122.52583333333334,37.770833333333336],[-122.45416666666667,37.830000000000005],[-122.3625,37.88611111111111],[-122.26805555555555,37.9525],[-122.16777777777779,38.02194444444444],[-122.06638888888888,38.09166666666667],[-121.96000000000001,38.165],[-121.84222222222222,38.23083333333334],[-121.70861111111111,38.27194444444444],[-121.57249999999999,38.31333333333333],[-121.43666666666667,38.35444444444445],[-121.30194444444444,38.394999999999996],[-121.16722222222222,38.43527777777778],[-121.03027777777778,38.47638888888889],[-120.89305555555556,38.51694444444444],[-120.75527777777778,38.55777777777777],[-120.61416666666666,38.59916666666667],[-120.47111111111111,38.64111111111111],[-120.33,38.68222222222222],[-120.19500000000001,38.721111111111114],[-120.15,38.733333333333334],[-120.06805555555555,38.75555555555555],[-120.01666666666667,38.766666666666666],[-119.93916666666667,38.781666666666666],[-119.9,38.78333333333333],[-119.8175,38.80694444444444],[-119.78333333333333,38.833333333333336],[-119.76666666666667,38.916666666666664],[-119.77055555555556,38.9825],[-119.76666666666667,39.016666666666666],[-119.77027777777778,39.068333333333335],[-119.76666666666667,39.1],[-119.77027777777778,39.14388888888889],[-119.76666666666667,39.166666666666664],[-119.77,39.219722222222224],[-119.76666666666667,39.31666666666667],[-119.76972222222223,39.347500000000004],[-119.76666666666667,39.36666666666667],[-119.76972222222223,39.39527777777778],[-119.76666666666667,39.416666666666664],[-119.76944444444445,39.43888888888888],[-119.76666666666667,39.45],[-119.76944444444445,39.481944444444444]]}
}
