{
  "id": 2048294615,
  "type": "Feature",
  "properties": {
    "geom:area": 0,
    "geom:bbox": "-123.476720,37.624580,-122.388780,37.730900",
    "geom:latitude": 37.697348934897356,
    "geom:longitude": -122.92838913389856,
    "src:alt_label": "swim-takeoff",
    "src:geom": "swim",
    "swim:elevations": [
      122,
      394,
      521,
      686,
      939,
      1320,
      1526,
      1550,
      1767,
      2132,
      2185,
      2520,
      3143,
      3229,
      3472,
      3764,
      3920,
      4211,
      4248,
      4811,
      4927,
      5376,
      5643
    ],
    "swim:geom": "takeoff",
    "swim:timestamps": [
      1788938156,
      1788938186,
      1788938208,
      1788938238,
      1788938273,
      1788938307,
      1788938337,
      1788938365,
      1788938395,
      1788938427,
      1788938432,
      1788938464,
      1788938518,
      1788938531,
      1788938574,
      1788938602,
      1788938613,
      1788938638,
      1788938641,
      1788938695,
      1788938705,
      1788938750,
      1788938777
    ],
    "wof:geomhash": "bb8572c27a09ece3b5e414b81d330dc0",
    "wof:id": 2048294615,
    "wof:repo": "sfomuseum-data-flights-2026-09"
  },
  "bbox": [
    -123.47672,
    37.62458,
    -122.38878,
    37.7309
  ],
  "geometry": {"type":"LineString","coordinates":[[-122.38878,37.62458],[-122.41636,37.63658],[-122.43861,37.64654],[-122.47328,37.66222],[-122.5225,37.67633],[-122.57738,37.67966],[-122.62599,37.68261],[-122.67121,37.68509],[-122.71972,37.68795],[-122.77161,37.69102],[-122.77849,37.69141],[-122.83179,37.69452],[-122.92592,37.70005],[-122.94906,37.70138],[-123.0329,37.70628],[-123.08966,37.70955],[-123.11319,37.71088],[-123.16666,37.71381],[-123.17302,37.71417],[-123.29053,37.72081],[-123.31169,37.72196],[-123.41286,37.72746],[-123.47672,37.7309]]}
}
