{
  "id": 2048419477,
  "type": "Feature",
  "properties": {
    "geom:area": 0,
    "geom:bbox": "-122.583333,33.918889,-118.451944,37.617222",
    "geom:latitude": 35.92765580972357,
    "geom:longitude": -120.98638176300874,
    "src:alt_label": "swim-path",
    "src:geom": "swim",
    "swim:altitudes": [
      "016",
      "031",
      "053",
      "078",
      "108",
      "135",
      "166",
      "193",
      "220",
      "243",
      "270",
      "290",
      "307",
      "324",
      "336",
      "345",
      "359",
      "373",
      "380C",
      "380C",
      "380C",
      "380C",
      "380C",
      "380C",
      "380C",
      "380",
      "380",
      "380",
      "380",
      "362",
      "332",
      "307",
      "284",
      "261",
      "239",
      "216",
      "198",
      "196",
      "181",
      "179",
      "161",
      "158",
      "143",
      "140",
      "128",
      "128",
      "118",
      "107",
      "094",
      "092",
      "077",
      "076",
      "060",
      "060",
      "060",
      "053",
      "050",
      "050",
      "043",
      "042",
      "032",
      "020",
      "020",
      "011",
      "011",
      "006",
      "018",
      "042",
      "057",
      "058",
      "060",
      "060",
      "060",
      "060",
      "060",
      "060",
      "060",
      "060",
      "060",
      "060",
      "060",
      "060",
      "060",
      "057",
      "057",
      "046",
      "039",
      "041",
      "033",
      "032",
      "022",
      "020",
      "011",
      "011",
      "003"
    ],
    "swim:geom": "path",
    "swim:speeds": [
      163,
      236,
      269,
      291,
      298,
      334,
      347,
      363,
      372,
      390,
      396,
      403,
      412,
      425,
      433,
      445,
      449,
      450,
      446,
      444,
      443,
      442,
      441,
      440,
      438,
      437,
      436,
      436,
      436,
      429,
      428,
      434,
      446,
      435,
      422,
      408,
      382,
      381,
      345,
      347,
      331,
      334,
      322,
      326,
      293,
      298,
      278,
      272,
      254,
      258,
      244,
      248,
      247,
      242,
      251,
      246,
      237,
      241,
      217,
      218,
      209,
      201,
      204,
      153,
      158,
      151,
      204,
      237,
      242,
      241,
      244,
      242,
      234,
      237,
      241,
      240,
      252,
      247,
      257,
      256,
      270,
      265,
      268,
      238,
      240,
      256,
      227,
      223,
      184,
      185,
      168,
      171,
      147,
      150,
      149
    ],
    "swim:timestamps": [
      1790265248,
      1790265308,
      1790265368,
      1790265428,
      1790265488,
      1790265549,
      1790265609,
      1790265669,
      1790265729,
      1790265789,
      1790265853,
      1790265913,
      1790265973,
      1790266034,
      1790266094,
      1790266150,
      1790266210,
      1790266270,
      1790266334,
      1790266394,
      1790266450,
      1790266510,
      1790266570,
      1790266634,
      1790266690,
      1790266755,
      1790266815,
      1790266871,
      1790266935,
      1790266995,
      1790267055,
      1790267115,
      1790267175,
      1790267235,
      1790267295,
      1790267356,
      1790267398,
      1790267416,
      1790267458,
      1790267476,
      1790267518,
      1790267536,
      1790267578,
      1790267596,
      1790267644,
      1790267656,
      1790267716,
      1790267776,
      1790267818,
      1790267836,
      1790267878,
      1790267896,
      1790267956,
      1790268017,
      1790268077,
      1790268137,
      1790268184,
      1790268197,
      1790268244,
      1790268257,
      1790268317,
      1790268364,
      1790268377,
      1790268424,
      1790268437,
      1790268497,
      1790268557,
      1790268617,
      1790268664,
      1790268678,
      1790268724,
      1790268738,
      1790268779,
      1790268798,
      1790268839,
      1790268858,
      1790268904,
      1790268918,
      1790268965,
      1790268978,
      1790269038,
      1790269085,
      1790269098,
      1790269145,
      1790269158,
      1790269218,
      1790269260,
      1790269278,
      1790269319,
      1790269339,
      1790269379,
      1790269399,
      1790269439,
      1790269459,
      1790269519
    ],
    "wof:geomhash": "789a767b700635fc37a44ba0db58f5a1",
    "wof:id": 2048419477,
    "wof:repo": "sfomuseum-data-flights-2026-09"
  },
  "bbox": [
    -122.58333333333333,
    33.91888888888889,
    -118.45194444444445,
    37.617222222222225
  ],
  "geometry": {"type":"LineString","coordinates":[[-118.45194444444445,33.94472222222222],[-118.52305555555556,33.94138888888889],[-118.60972222222222,33.93416666666666],[-118.70583333333333,33.92666666666666],[-118.80444444444444,33.91888888888889],[-118.91194444444444,33.92472222222222],[-118.99638888888889,33.99111111111111],[-119.08194444444445,34.06305555555555],[-119.17055555555557,34.13666666666666],[-119.26166666666667,34.213055555555556],[-119.3761111111111,34.30722222222222],[-119.47277777777778,34.38861111111111],[-119.57249999999999,34.47138888888889],[-119.67833333333334,34.55888888888889],[-119.78138888888888,34.64388888888889],[-119.86416666666666,34.711666666666666],[-119.9738888888889,34.80166666666666],[-120.08222222222221,34.88972222222222],[-120.19166666666668,34.97888888888889],[-120.29944444444445,35.06638888888889],[-120.39472222222223,35.14361111111111],[-120.52222222222223,35.24638888888889],[-120.6286111111111,35.331944444444446],[-120.73138888888889,35.41416666666667],[-120.83666666666666,35.50361111111111],[-120.92555555555556,35.599444444444444],[-121.01444444444445,35.695277777777775],[-121.10277777777777,35.78944444444444],[-121.19583333333334,35.88861111111111],[-121.28416666666666,35.98277777777778],[-121.37277777777777,36.07888888888889],[-121.45222222222222,36.18055555555555],[-121.53388888888888,36.28527777777778],[-121.61527777777778,36.388888888888886],[-121.69305555555556,36.487500000000004],[-121.76833333333333,36.58277777777778],[-121.83333333333333,36.666666666666664],[-121.84138888888889,36.67527777777777],[-121.9,36.75],[-121.89916666666667,36.76027777777778],[-121.91666666666667,36.833333333333336],[-121.92472222222223,36.850833333333334],[-121.95,36.916666666666664],[-121.94972222222222,36.939722222222215],[-121.98333333333333,37.016666666666666],[-121.97944444444444,37.019999999999996],[-122.00888888888889,37.094166666666666],[-122.03666666666666,37.16638888888889],[-122.08333333333333,37.21666666666667],[-122.09166666666667,37.21888888888889],[-122.15,37.25],[-122.16055555555556,37.26],[-122.22916666666667,37.30138888888889],[-122.29555555555555,37.34166666666667],[-122.2925,37.40083333333333],[-122.20972222222223,37.415277777777774],[-122.13333333333334,37.43333333333333],[-122.13444444444445,37.439722222222215],[-122.11666666666666,37.5],[-122.12527777777777,37.4975],[-122.17805555555556,37.53583333333333],[-122.23333333333333,37.56666666666667],[-122.24,37.56194444444444],[-122.28333333333333,37.583333333333336],[-122.2936111111111,37.58444444444444],[-122.3461111111111,37.60666666666667],[-122.40055555555556,37.61222222222222],[-122.48416666666667,37.617222222222225],[-122.55,37.583333333333336],[-122.5436111111111,37.58416666666667],[-122.56666666666666,37.516666666666666],[-122.56305555555555,37.51916666666666],[-122.58333333333333,37.46666666666667],[-122.58222222222221,37.45472222222222],[-122.58333333333333,37.4],[-122.57666666666667,37.393055555555556],[-122.51666666666667,37.35],[-122.50888888888889,37.35166666666667],[-122.43333333333334,37.333333333333336],[-122.42277777777778,37.32944444444445],[-122.33999999999999,37.33861111111111],[-122.31666666666666,37.4],[-122.31,37.40972222222222],[-122.23333333333333,37.416666666666664],[-122.23138888888889,37.41111111111111],[-122.16083333333334,37.447222222222216],[-122.13333333333334,37.5],[-122.14500000000001,37.51138888888889],[-122.18333333333334,37.53333333333333],[-122.19555555555556,37.54333333333333],[-122.25,37.56666666666667],[-122.24861111111112,37.565555555555555],[-122.28333333333333,37.583333333333336],[-122.29694444444445,37.58583333333333],[-122.34277777777777,37.60527777777778]]}
}
