{
  "id": 2048258573,
  "type": "Feature",
  "properties": {
    "geom:area": 0,
    "geom:bbox": "-122.347760,36.744550,-121.891360,37.609560",
    "geom:latitude": 37.223270762591476,
    "geom:longitude": -122.0718355085989,
    "src:alt_label": "swim-approach",
    "src:geom": "swim",
    "swim:elevations": [
      5156,
      5010,
      4759,
      4334,
      4136,
      3672,
      3360,
      3252,
      3081,
      3047,
      2913,
      2627,
      2363,
      2182,
      1981,
      1709,
      1577,
      1512,
      1378,
      1171,
      846,
      686,
      573,
      469,
      274,
      178,
      65
    ],
    "swim:geom": "approach",
    "swim:timestamps": [
      1788595818,
      1788595834,
      1788595871,
      1788595911,
      1788595927,
      1788595971,
      1788596004,
      1788596017,
      1788596066,
      1788596079,
      1788596103,
      1788596144,
      1788596184,
      1788596208,
      1788596235,
      1788596273,
      1788596308,
      1788596322,
      1788596340,
      1788596377,
      1788596428,
      1788596456,
      1788596477,
      1788596497,
      1788596539,
      1788596563,
      1788596592
    ],
    "wof:geomhash": "f44e7fa806bf0cde524f1769f578cfbf",
    "wof:id": 2048258573,
    "wof:repo": "sfomuseum-data-flights-2026-09"
  },
  "bbox": [
    -122.34776,
    36.74455,
    -121.89136,
    37.60956
  ],
  "geometry": {"type":"LineString","coordinates":[[-121.89136,36.74455],[-121.90173,36.77027],[-121.91932,36.83232],[-121.93789,36.89857],[-121.94509,36.9245],[-121.96957,36.99389],[-121.98991,37.04569],[-121.99773,37.06593],[-122.02563,37.13757],[-122.0324,37.15486],[-122.04472,37.18685],[-122.06512,37.23914],[-122.08546,37.29026],[-122.09702,37.31957],[-122.1106,37.3543],[-122.12798,37.40153],[-122.14155,37.44144],[-122.14664,37.45639],[-122.15347,37.47709],[-122.16633,37.51591],[-122.19304,37.56168],[-122.22493,37.57149],[-122.24712,37.57876],[-122.26685,37.58479],[-122.30284,37.59536],[-122.32417,37.60089],[-122.34776,37.60956]]}
}
