{
  "id": 2048409599,
  "type": "Feature",
  "properties": {
    "geom:area": 0,
    "geom:bbox": "-122.358840,37.465940,-121.295550,37.614260",
    "geom:latitude": 37.54348486486777,
    "geom:longitude": -121.83004375755382,
    "src:alt_label": "swim-approach",
    "src:geom": "swim",
    "swim:elevations": [
      4923,
      4756,
      4116,
      3858,
      3595,
      3526,
      3449,
      3245,
      3042,
      2959,
      2831,
      2790,
      2716,
      2674,
      2509,
      2330,
      2125,
      1952,
      1891,
      1851,
      1829,
      1829,
      1638,
      1343,
      949,
      914,
      764,
      605,
      487,
      317,
      266,
      156,
      0
    ],
    "swim:geom": "approach",
    "swim:timestamps": [
      1790192066,
      1790192083,
      1790192156,
      1790192182,
      1790192214,
      1790192234,
      1790192253,
      1790192294,
      1790192325,
      1790192337,
      1790192357,
      1790192365,
      1790192374,
      1790192380,
      1790192418,
      1790192449,
      1790192487,
      1790192516,
      1790192546,
      1790192556,
      1790192576,
      1790192591,
      1790192622,
      1790192649,
      1790192690,
      1790192708,
      1790192756,
      1790192784,
      1790192809,
      1790192847,
      1790192859,
      1790192889,
      1790192930
    ],
    "wof:geomhash": "b69aae92e15d937bf464582c58a77262",
    "wof:id": 2048409599,
    "wof:repo": "sfomuseum-data-flights-2026-09"
  },
  "bbox": [
    -122.35884,
    37.46594,
    -121.29555,
    37.61426
  ],
  "geometry": {"type":"LineString","coordinates":[[-121.29555,37.58859],[-121.327,37.58532],[-121.46021,37.57006],[-121.50674,37.56449],[-121.56137,37.55825],[-121.59508,37.55411],[-121.62552,37.55037],[-121.68369,37.56134],[-121.72806,37.56626],[-121.74279,37.55935],[-121.75736,37.54126],[-121.7622,37.53257],[-121.76891,37.52366],[-121.77372,37.51817],[-121.79499,37.48122],[-121.83014,37.46594],[-121.88072,37.47478],[-121.91935,37.48172],[-121.95982,37.48908],[-121.97328,37.49156],[-121.99924,37.4982],[-122.01829,37.50448],[-122.05829,37.51743],[-122.09265,37.52855],[-122.14259,37.54475],[-122.1624,37.55115],[-122.213,37.56748],[-122.2411,37.57664],[-122.26607,37.58456],[-122.2993,37.59417],[-122.30856,37.59699],[-122.33088,37.6036],[-122.35884,37.61426]]}
}
