{
  "id": 2048440067,
  "type": "Feature",
  "properties": {
    "geom:area": 0,
    "geom:bbox": "-122.361730,36.743670,-121.891270,37.612640",
    "geom:latitude": 37.223116447618864,
    "geom:longitude": -122.09818895503956,
    "src:alt_label": "swim-approach",
    "src:geom": "swim",
    "swim:elevations": [
      5366,
      4997,
      4761,
      4543,
      4365,
      4207,
      3989,
      3757,
      3531,
      3255,
      2910,
      2750,
      2492,
      2326,
      2159,
      2046,
      2011,
      1828,
      1829,
      1829,
      1829,
      1619,
      1547,
      1413,
      1219,
      1073,
      940,
      820,
      706,
      547,
      418,
      393,
      309,
      214,
      65,
      107
    ],
    "swim:geom": "approach",
    "swim:timestamps": [
      1790411563,
      1790411598,
      1790411622,
      1790411654,
      1790411689,
      1790411725,
      1790411755,
      1790411786,
      1790411809,
      1790411835,
      1790411877,
      1790411896,
      1790411931,
      1790411952,
      1790411972,
      1790411996,
      1790412000,
      1790412030,
      1790412057,
      1790412074,
      1790412092,
      1790412146,
      1790412160,
      1790412197,
      1790412236,
      1790412266,
      1790412293,
      1790412316,
      1790412338,
      1790412382,
      1790412415,
      1790412420,
      1790412442,
      1790412469,
      1790412506,
      1790412525
    ],
    "wof:geomhash": "e5abfedb54b55a9e25e2f24dff955da3",
    "wof:id": 2048440067,
    "wof:repo": "sfomuseum-data-flights-2026-09"
  },
  "bbox": [
    -122.36173,
    36.74367,
    -121.89127,
    37.61264
  ],
  "geometry": {"type":"LineString","coordinates":[[-121.89127,36.74367],[-121.9112,36.80262],[-121.92235,36.84238],[-121.93649,36.89315],[-121.95133,36.94594],[-121.97003,36.9954],[-121.98408,37.03137],[-122.00759,37.06236],[-122.03122,37.08215],[-122.05778,37.10436],[-122.09901,37.13919],[-122.11762,37.15523],[-122.15096,37.18449],[-122.17059,37.20141],[-122.18739,37.22006],[-122.18544,37.24705],[-122.18385,37.25171],[-122.1733,37.28373],[-122.16384,37.31357],[-122.15781,37.33248],[-122.15161,37.35197],[-122.13317,37.41104],[-122.12838,37.42683],[-122.11956,37.46377],[-122.13151,37.49918],[-122.14674,37.52215],[-122.17357,37.53391],[-122.19728,37.54404],[-122.21826,37.55287],[-122.25382,37.56778],[-122.27903,37.57841],[-122.28268,37.57989],[-122.29954,37.58707],[-122.31948,37.59535],[-122.34753,37.60713],[-122.36173,37.61264]]}
}
